{"type":"FeatureCollection","features":[
{"type":"Feature","geometry":{"type":"Point","coordinates":[6.8057413,46.3932793]},"properties":{"ele":"374","hiking":"yes","information":"guidepost","name":"St-Gingolph","tourism":"information"}},
{"type":"Feature","geometry":{"type":"Point","coordinates":[6.8053184,46.3941618]},"properties":{"source":"cadastre-dgi-fr source : Direction Générale des Impôts - Cadastre. Mise à jour : 2008"}},
{"type":"Feature","geometry":{"type":"Point","coordinates":[6.8046613,46.3942422]},"properties":{"hiking":"yes","information":"guidepost","tourism":"information"}},
{"type":"Feature","geometry":{"type":"Point","coordinates":[6.8045773,46.3941357]},"properties":{"addr:city":"Saint-Gingolph","addr:housenumber":"30","addr:postcode":"74500","addr:street":"Quai André Chevallay","information":"office","internet_access":"wlan","internet_access:fee":"no","name":"Office de tourisme de Saint-Gingolph","tourism":"information"}},
{"type":"Feature","geometry":{"type":"Point","coordinates":[6.8048538,46.3941241]},"properties":{"ele":"374","hiking":"yes","information":"guidepost","name":"Saint-Gingolph (Lac Léman)","tourism":"information"}},
{"type":"Feature","geometry":{"type":"Point","coordinates":[6.8043024,46.3926555]},"properties":{"addr:city":"St-Gingolph","addr:housenumber":"1","addr:place":"Place de la Croix-Blanche","addr:postcode":"1898","entrance":"yes","source":"Swiss Image 2024 + GWR from http://qa.poole.ch/addresses/GWR/6155_all.osm.zip"}},
{"type":"Feature","geometry":{"type":"Point","coordinates":[6.8042028,46.3927822]},"properties":{"addr:city":"St-Gingolph","addr:housenumber":"1A","addr:postcode":"1898","addr:street":"Rue de la Colombière","entrance":"yes","source":"Swiss Image 2024 + GWR from http://qa.poole.ch/addresses/GWR/6155_all.osm.zip"}},
{"type":"Feature","geometry":{"type":"Point","coordinates":[6.8042453,46.3927349]},"properties":{"contact:phone":"+41 79-353-64-58","contact:website":"https://www.museedestraditions.com","name":"Musée des traditions et des barques du Léman","start_date":"1982","tourism":"museum","wikidata":"Q2370449","wikimedia_commons":"Category:Musée des Traditions et des Barques du Léman","wikipedia":"fr:Musée des Traditions et des Barques du Léman"}},
{"type":"Feature","geometry":{"type":"Point","coordinates":[6.7938101,46.3924917]},"properties":{"covered":"yes","leisure":"picnic_table"}},
{"type":"Feature","geometry":{"type":"Point","coordinates":[6.7940182,46.3923395]},"properties":{"hiking":"yes","information":"route_marker","tourism":"information"}},
{"type":"Feature","geometry":{"type":"Point","coordinates":[6.7940167,46.3923396]},"properties":{"bicycle":"yes","information":"guidepost","tourism":"information"}},
{"type":"Feature","geometry":{"type":"Point","coordinates":[6.7940175,46.3924741]},"properties":{"bicycle":"yes","information":"guidepost","tourism":"information"}},
{"type":"Feature","geometry":{"type":"Point","coordinates":[6.7940921,46.3924505]},"properties":{"hiking":"yes","information":"route_marker","tourism":"information"}},
{"type":"Feature","geometry":{"type":"Point","coordinates":[6.7953159,46.3926968]},"properties":{"natural":"shrub"}},
{"type":"Feature","geometry":{"type":"Point","coordinates":[6.801417,46.3935287]},"properties":{"board_type":"nature","information":"board","name":"À Saute-Frontière","tourism":"information"}},
{"type":"Feature","geometry":{"type":"Point","coordinates":[6.8016814,46.393933]},"properties":{"leisure":"picnic_table"}},
{"type":"Feature","geometry":{"type":"Point","coordinates":[6.8012361,46.3939]},"properties":{"denotation":"avenue","leaf_cycle":"deciduous","leaf_type":"broadleaved","natural":"tree"}},
{"type":"Feature","geometry":{"type":"Point","coordinates":[6.8015721,46.3939627]},"properties":{"denotation":"avenue","leaf_cycle":"deciduous","leaf_type":"broadleaved","natural":"tree"}},
{"type":"Feature","geometry":{"type":"Point","coordinates":[6.8012536,46.3938544]},"properties":{"denotation":"avenue","leaf_cycle":"deciduous","leaf_type":"broadleaved","natural":"tree"}},
{"type":"Feature","geometry":{"type":"Point","coordinates":[6.8015912,46.3939151]},"properties":{"denotation":"avenue","leaf_cycle":"deciduous","leaf_type":"broadleaved","natural":"tree"}},
{"type":"Feature","geometry":{"type":"Point","coordinates":[6.7953856,46.3928445]},"properties":{"hiking":"yes","information":"route_marker","tourism":"information"}},
{"type":"Feature","geometry":{"type":"Point","coordinates":[6.8023513,46.3940599]},"properties":{"leisure":"picnic_table"}},
{"type":"Feature","geometry":{"type":"Point","coordinates":[6.8038263,46.3942895]},"properties":{"denotation":"avenue","leaf_cycle":"deciduous","leaf_type":"broadleaved","natural":"tree"}},
{"type":"Feature","geometry":{"type":"Point","coordinates":[6.8037022,46.3942814]},"properties":{"denotation":"avenue","leaf_cycle":"deciduous","leaf_type":"broadleaved","natural":"tree"}},
{"type":"Feature","geometry":{"type":"Point","coordinates":[6.8035674,46.3942688]},"properties":{"denotation":"avenue","leaf_cycle":"deciduous","leaf_type":"broadleaved","natural":"tree"}},
{"type":"Feature","geometry":{"type":"Point","coordinates":[6.8034481,46.3942546]},"properties":{"denotation":"avenue","leaf_cycle":"deciduous","leaf_type":"broadleaved","natural":"tree"}},
{"type":"Feature","geometry":{"type":"Point","coordinates":[6.803324,46.394239]},"properties":{"denotation":"avenue","leaf_cycle":"deciduous","leaf_type":"broadleaved","natural":"tree"}},
{"type":"Feature","geometry":{"type":"Point","coordinates":[6.8031958,46.3942189]},"properties":{"denotation":"avenue","leaf_cycle":"deciduous","leaf_type":"broadleaved","natural":"tree"}},
{"type":"Feature","geometry":{"type":"Point","coordinates":[6.803077,46.3941975]},"properties":{"denotation":"avenue","leaf_cycle":"deciduous","leaf_type":"broadleaved","natural":"tree"}},
{"type":"Feature","geometry":{"type":"Point","coordinates":[6.8029525,46.3941745]},"properties":{"denotation":"avenue","leaf_cycle":"deciduous","leaf_type":"broadleaved","natural":"tree"}},
{"type":"Feature","geometry":{"type":"Point","coordinates":[6.8028214,46.3941496]},"properties":{"denotation":"avenue","leaf_cycle":"deciduous","leaf_type":"broadleaved","natural":"tree"}},
{"type":"Feature","geometry":{"type":"Point","coordinates":[6.8027018,46.3941268]},"properties":{"denotation":"avenue","leaf_cycle":"deciduous","leaf_type":"broadleaved","natural":"tree"}},
{"type":"Feature","geometry":{"type":"Point","coordinates":[6.8025751,46.3941026]},"properties":{"denotation":"avenue","leaf_cycle":"deciduous","leaf_type":"broadleaved","natural":"tree"}},
{"type":"Feature","geometry":{"type":"Point","coordinates":[6.8024531,46.3940794]},"properties":{"denotation":"avenue","leaf_cycle":"deciduous","leaf_type":"broadleaved","natural":"tree"}},
{"type":"Feature","geometry":{"type":"Point","coordinates":[6.8023234,46.3940546]},"properties":{"denotation":"avenue","leaf_cycle":"deciduous","leaf_type":"broadleaved","natural":"tree"}},
{"type":"Feature","geometry":{"type":"Point","coordinates":[6.8022002,46.3940312]},"properties":{"denotation":"avenue","leaf_cycle":"deciduous","leaf_type":"broadleaved","natural":"tree"}},
{"type":"Feature","geometry":{"type":"Point","coordinates":[6.8020766,46.3940076]},"properties":{"denotation":"avenue","leaf_cycle":"deciduous","leaf_type":"broadleaved","natural":"tree"}},
{"type":"Feature","geometry":{"type":"Point","coordinates":[6.8019464,46.3939828]},"properties":{"denotation":"avenue","leaf_cycle":"deciduous","leaf_type":"broadleaved","natural":"tree"}},
{"type":"Feature","geometry":{"type":"Point","coordinates":[6.8018403,46.3939626]},"properties":{"denotation":"avenue","leaf_cycle":"deciduous","leaf_type":"broadleaved","natural":"tree"}},
{"type":"Feature","geometry":{"type":"Point","coordinates":[6.8017047,46.3939367]},"properties":{"denotation":"avenue","leaf_cycle":"deciduous","leaf_type":"broadleaved","natural":"tree"}},
{"type":"Feature","geometry":{"type":"Point","coordinates":[6.8039586,46.394296]},"properties":{"denotation":"avenue","leaf_cycle":"deciduous","leaf_type":"broadleaved","natural":"tree"}},
{"type":"Feature","geometry":{"type":"Point","coordinates":[6.8016856,46.3939844]},"properties":{"denotation":"avenue","leaf_cycle":"deciduous","leaf_type":"broadleaved","natural":"tree"}},
{"type":"Feature","geometry":{"type":"Point","coordinates":[6.8018213,46.3940102]},"properties":{"denotation":"avenue","leaf_cycle":"deciduous","leaf_type":"broadleaved","natural":"tree"}},
{"type":"Feature","geometry":{"type":"Point","coordinates":[6.8019273,46.3940304]},"properties":{"denotation":"avenue","leaf_cycle":"deciduous","leaf_type":"broadleaved","natural":"tree"}},
{"type":"Feature","geometry":{"type":"Point","coordinates":[6.8020575,46.3940552]},"properties":{"denotation":"avenue","leaf_cycle":"deciduous","leaf_type":"broadleaved","natural":"tree"}},
{"type":"Feature","geometry":{"type":"Point","coordinates":[6.8021811,46.3940788]},"properties":{"denotation":"avenue","leaf_cycle":"deciduous","leaf_type":"broadleaved","natural":"tree"}},
{"type":"Feature","geometry":{"type":"Point","coordinates":[6.8023043,46.3941023]},"properties":{"denotation":"avenue","leaf_cycle":"deciduous","leaf_type":"broadleaved","natural":"tree"}},
{"type":"Feature","geometry":{"type":"Point","coordinates":[6.802434,46.394127]},"properties":{"denotation":"avenue","leaf_cycle":"deciduous","leaf_type":"broadleaved","natural":"tree"}},
{"type":"Feature","geometry":{"type":"Point","coordinates":[6.802556,46.3941502]},"properties":{"denotation":"avenue","leaf_cycle":"deciduous","leaf_type":"broadleaved","natural":"tree"}},
{"type":"Feature","geometry":{"type":"Point","coordinates":[6.8026827,46.3941744]},"properties":{"denotation":"avenue","leaf_cycle":"deciduous","leaf_type":"broadleaved","natural":"tree"}},
{"type":"Feature","geometry":{"type":"Point","coordinates":[6.8028024,46.3941972]},"properties":{"denotation":"avenue","leaf_cycle":"deciduous","leaf_type":"broadleaved","natural":"tree"}},
{"type":"Feature","geometry":{"type":"Point","coordinates":[6.8029337,46.3942222]},"properties":{"denotation":"avenue","leaf_cycle":"deciduous","leaf_type":"broadleaved","natural":"tree"}},
{"type":"Feature","geometry":{"type":"Point","coordinates":[6.8030587,46.3942452]},"properties":{"denotation":"avenue","leaf_cycle":"deciduous","leaf_type":"broadleaved","natural":"tree"}},
{"type":"Feature","geometry":{"type":"Point","coordinates":[6.8034356,46.3943033]},"properties":{"denotation":"avenue","leaf_cycle":"deciduous","leaf_type":"broadleaved","natural":"tree"}},
{"type":"Feature","geometry":{"type":"Point","coordinates":[6.8038204,46.3943388]},"properties":{"denotation":"avenue","leaf_cycle":"deciduous","leaf_type":"broadleaved","natural":"tree"}},
{"type":"Feature","geometry":{"type":"Point","coordinates":[6.8039536,46.3943452]},"properties":{"denotation":"avenue","leaf_cycle":"deciduous","leaf_type":"broadleaved","natural":"tree"}},
{"type":"Feature","geometry":{"type":"Point","coordinates":[6.803694,46.3943305]},"properties":{"denotation":"avenue","leaf_cycle":"deciduous","leaf_type":"broadleaved","natural":"tree"}},
{"type":"Feature","geometry":{"type":"Point","coordinates":[6.8035565,46.3943176]},"properties":{"denotation":"avenue","leaf_cycle":"deciduous","leaf_type":"broadleaved","natural":"tree"}},
{"type":"Feature","geometry":{"type":"Point","coordinates":[6.8033097,46.3942874]},"properties":{"denotation":"avenue","leaf_cycle":"deciduous","leaf_type":"broadleaved","natural":"tree"}},
{"type":"Feature","geometry":{"type":"Point","coordinates":[6.8031895,46.3942689]},"properties":{"denotation":"avenue","leaf_cycle":"deciduous","leaf_type":"broadleaved","natural":"tree"}},
{"type":"Feature","geometry":{"type":"Point","coordinates":[6.804251,46.3942794]},"properties":{"denotation":"urban","leaf_cycle":"deciduous","leaf_type":"broadleaved","natural":"tree"}},
{"type":"Feature","geometry":{"type":"Point","coordinates":[6.8043955,46.3942706]},"properties":{"denotation":"urban","leaf_cycle":"deciduous","leaf_type":"broadleaved","natural":"tree"}},
{"type":"Feature","geometry":{"type":"Point","coordinates":[6.7999305,46.3937229]},"properties":{"denotation":"avenue","leaf_cycle":"deciduous","leaf_type":"broadleaved","natural":"tree"}},
{"type":"Feature","geometry":{"type":"Point","coordinates":[6.7981812,46.3934841]},"properties":{"denotation":"urban","leaf_cycle":"deciduous","leaf_type":"broadleaved","natural":"tree"}},
{"type":"Feature","geometry":{"type":"Point","coordinates":[6.7974093,46.393394]},"properties":{"denotation":"urban","leaf_cycle":"deciduous","leaf_type":"broadleaved","natural":"tree"}},
{"type":"Feature","geometry":{"type":"Point","coordinates":[6.7970091,46.393312]},"properties":{"denotation":"urban","leaf_cycle":"deciduous","leaf_type":"broadleaved","natural":"tree"}},
{"type":"Feature","geometry":{"type":"Point","coordinates":[6.7969729,46.3933063]},"properties":{"denotation":"urban","leaf_cycle":"deciduous","leaf_type":"broadleaved","natural":"tree"}},
{"type":"Feature","geometry":{"type":"Point","coordinates":[6.7969366,46.3933006]},"properties":{"denotation":"urban","leaf_cycle":"deciduous","leaf_type":"broadleaved","natural":"tree"}},
{"type":"Feature","geometry":{"type":"Point","coordinates":[6.7965513,46.3932053]},"properties":{"denotation":"urban","leaf_cycle":"deciduous","leaf_type":"broadleaved","natural":"tree"}},
{"type":"Feature","geometry":{"type":"Point","coordinates":[6.799566,46.393657]},"properties":{"board_type":"nature","information":"board","name":"À Saute-Frontière","tourism":"information"}},
{"type":"Feature","geometry":{"type":"Point","coordinates":[6.8007456,46.3937944]},"properties":{"denotation":"avenue","leaf_cycle":"deciduous","leaf_type":"broadleaved","natural":"tree"}},
{"type":"Feature","geometry":{"type":"Point","coordinates":[6.8006437,46.3937854]},"properties":{"denotation":"avenue","leaf_cycle":"deciduous","leaf_type":"broadleaved","natural":"tree"}},
{"type":"Feature","geometry":{"type":"Point","coordinates":[6.8005418,46.3937765]},"properties":{"denotation":"avenue","leaf_cycle":"deciduous","leaf_type":"broadleaved","natural":"tree"}},
{"type":"Feature","geometry":{"type":"Point","coordinates":[6.8004399,46.3937676]},"properties":{"denotation":"avenue","leaf_cycle":"deciduous","leaf_type":"broadleaved","natural":"tree"}},
{"type":"Feature","geometry":{"type":"Point","coordinates":[6.800338,46.3937586]},"properties":{"denotation":"avenue","leaf_cycle":"deciduous","leaf_type":"broadleaved","natural":"tree"}},
{"type":"Feature","geometry":{"type":"Point","coordinates":[6.8002361,46.3937497]},"properties":{"denotation":"avenue","leaf_cycle":"deciduous","leaf_type":"broadleaved","natural":"tree"}},
{"type":"Feature","geometry":{"type":"Point","coordinates":[6.8001343,46.3937407]},"properties":{"denotation":"avenue","leaf_cycle":"deciduous","leaf_type":"broadleaved","natural":"tree"}},
{"type":"Feature","geometry":{"type":"Point","coordinates":[6.8000324,46.3937318]},"properties":{"denotation":"avenue","leaf_cycle":"deciduous","leaf_type":"broadleaved","natural":"tree"}},
{"type":"Feature","geometry":{"type":"Point","coordinates":[6.7998286,46.3937139]},"properties":{"denotation":"avenue","leaf_cycle":"deciduous","leaf_type":"broadleaved","natural":"tree"}},
{"type":"Feature","geometry":{"type":"Point","coordinates":[6.8011476,46.3938409]},"properties":{"denotation":"avenue","leaf_cycle":"deciduous","leaf_type":"broadleaved","natural":"tree"}},
{"type":"Feature","geometry":{"type":"Point","coordinates":[6.8010476,46.3938284]},"properties":{"denotation":"avenue","leaf_cycle":"deciduous","leaf_type":"broadleaved","natural":"tree"}},
{"type":"Feature","geometry":{"type":"Point","coordinates":[6.8009475,46.3938159]},"properties":{"denotation":"avenue","leaf_cycle":"deciduous","leaf_type":"broadleaved","natural":"tree"}},
{"type":"Feature","geometry":{"type":"Point","coordinates":[6.8008474,46.3938033]},"properties":{"denotation":"avenue","leaf_cycle":"deciduous","leaf_type":"broadleaved","natural":"tree"}},
{"type":"Feature","geometry":{"type":"Point","coordinates":[6.8004317,46.3938108]},"properties":{"denotation":"avenue","leaf_cycle":"deciduous","leaf_type":"broadleaved","natural":"tree"}},
{"type":"Feature","geometry":{"type":"Point","coordinates":[6.8003298,46.3938036]},"properties":{"denotation":"avenue","leaf_cycle":"deciduous","leaf_type":"broadleaved","natural":"tree"}},
{"type":"Feature","geometry":{"type":"Point","coordinates":[6.800228,46.3937964]},"properties":{"denotation":"avenue","leaf_cycle":"deciduous","leaf_type":"broadleaved","natural":"tree"}},
{"type":"Feature","geometry":{"type":"Point","coordinates":[6.8001262,46.3937892]},"properties":{"denotation":"avenue","leaf_cycle":"deciduous","leaf_type":"broadleaved","natural":"tree"}},
{"type":"Feature","geometry":{"type":"Point","coordinates":[6.8000244,46.3937819]},"properties":{"denotation":"avenue","leaf_cycle":"deciduous","leaf_type":"broadleaved","natural":"tree"}},
{"type":"Feature","geometry":{"type":"Point","coordinates":[6.7999225,46.3937747]},"properties":{"denotation":"avenue","leaf_cycle":"deciduous","leaf_type":"broadleaved","natural":"tree"}},
{"type":"Feature","geometry":{"type":"Point","coordinates":[6.8011348,46.3938896]},"properties":{"denotation":"avenue","leaf_cycle":"deciduous","leaf_type":"broadleaved","natural":"tree"}},
{"type":"Feature","geometry":{"type":"Point","coordinates":[6.8010348,46.393877]},"properties":{"denotation":"avenue","leaf_cycle":"deciduous","leaf_type":"broadleaved","natural":"tree"}},
{"type":"Feature","geometry":{"type":"Point","coordinates":[6.8009347,46.3938645]},"properties":{"denotation":"avenue","leaf_cycle":"deciduous","leaf_type":"broadleaved","natural":"tree"}},
{"type":"Feature","geometry":{"type":"Point","coordinates":[6.8008346,46.3938519]},"properties":{"denotation":"avenue","leaf_cycle":"deciduous","leaf_type":"broadleaved","natural":"tree"}},
{"type":"Feature","geometry":{"type":"Point","coordinates":[6.8007346,46.3938394]},"properties":{"denotation":"avenue","leaf_cycle":"deciduous","leaf_type":"broadleaved","natural":"tree"}},
{"type":"Feature","geometry":{"type":"Point","coordinates":[6.8006345,46.3938269]},"properties":{"denotation":"avenue","leaf_cycle":"deciduous","leaf_type":"broadleaved","natural":"tree"}},
{"type":"Feature","geometry":{"type":"Point","coordinates":[6.8005335,46.3938181]},"properties":{"denotation":"avenue","leaf_cycle":"deciduous","leaf_type":"broadleaved","natural":"tree"}},
{"type":"Feature","geometry":{"type":"Point","coordinates":[6.7980205,46.3935961]},"properties":{"leaf_type":"broadleaved","natural":"tree"}},
{"type":"Feature","geometry":{"type":"Point","coordinates":[6.7980497,46.3936257]},"properties":{"leaf_type":"broadleaved","natural":"tree"}},
{"type":"Feature","geometry":{"type":"Point","coordinates":[6.7979709,46.393616]},"properties":{"leaf_type":"broadleaved","natural":"tree"}},
{"type":"Feature","geometry":{"type":"Point","coordinates":[6.7978777,46.3935942]},"properties":{"leaf_type":"broadleaved","natural":"tree"}},
{"type":"Feature","geometry":{"type":"Point","coordinates":[6.7977899,46.3935827]},"properties":{"leaf_type":"broadleaved","natural":"tree"}},
{"type":"Feature","geometry":{"type":"Point","coordinates":[6.7977154,46.3935808]},"properties":{"leisure":"picnic_table"}},
{"type":"Feature","geometry":{"type":"Point","coordinates":[6.797529,46.3935457]},"properties":{"leaf_type":"broadleaved","natural":"tree"}},
{"type":"Feature","geometry":{"type":"Point","coordinates":[6.7976234,46.3935652]},"properties":{"leaf_type":"broadleaved","natural":"tree"}},
{"type":"Feature","geometry":{"type":"Point","coordinates":[6.7974346,46.3935261]},"properties":{"leaf_type":"broadleaved","natural":"tree"}},
{"type":"Feature","geometry":{"type":"Point","coordinates":[6.7971659,46.3934539]},"properties":{"hiking":"yes","information":"route_marker","tourism":"information"}},
{"type":"Feature","geometry":{"type":"Point","coordinates":[6.7971331,46.3934701]},"properties":{"leaf_type":"broadleaved","natural":"tree"}},
{"type":"Feature","geometry":{"type":"Point","coordinates":[6.7969329,46.3934206]},"properties":{"natural":"shrub"}},
{"type":"Feature","geometry":{"type":"Point","coordinates":[6.7969523,46.3934208]},"properties":{"leaf_type":"broadleaved","natural":"tree"}},
{"type":"Feature","geometry":{"type":"Point","coordinates":[6.7969183,46.3934128]},"properties":{"natural":"shrub"}},
{"type":"Feature","geometry":{"type":"Point","coordinates":[6.7968823,46.3934132]},"properties":{"leisure":"picnic_table"}},
{"type":"Feature","geometry":{"type":"Point","coordinates":[6.7968303,46.3933921]},"properties":{"leaf_type":"broadleaved","natural":"tree"}},
{"type":"Feature","geometry":{"type":"Point","coordinates":[6.7966264,46.3933419]},"properties":{"leaf_type":"broadleaved","natural":"tree"}},
{"type":"Feature","geometry":{"type":"Point","coordinates":[6.7965483,46.3933038]},"properties":{"board_type":"nature","information":"board","name":"À Saute-Frontière","tourism":"information"}},
{"type":"Feature","geometry":{"type":"Point","coordinates":[6.7964286,46.3932774]},"properties":{"leaf_type":"broadleaved","natural":"tree"}},
{"type":"Feature","geometry":{"type":"Point","coordinates":[6.7963576,46.3932673]},"properties":{"leaf_type":"broadleaved","natural":"tree"}},
{"type":"Feature","geometry":{"type":"Point","coordinates":[6.7962764,46.3932307]},"properties":{"leaf_type":"broadleaved","natural":"tree"}},
{"type":"Feature","geometry":{"type":"Point","coordinates":[6.7962375,46.393234]},"properties":{"leaf_type":"broadleaved","natural":"tree"}},
{"type":"Feature","geometry":{"type":"Point","coordinates":[6.7961842,46.3932115]},"properties":{"leisure":"picnic_table"}},
{"type":"Feature","geometry":{"type":"Point","coordinates":[6.7961225,46.39319]},"properties":{"leaf_type":"broadleaved","natural":"tree"}},
{"type":"Feature","geometry":{"type":"Point","coordinates":[6.7960732,46.3931565]},"properties":{"natural":"shrub"}},
{"type":"Feature","geometry":{"type":"Point","coordinates":[6.796023,46.3931445]},"properties":{"natural":"shrub"}},
{"type":"Feature","geometry":{"type":"Point","coordinates":[6.7959576,46.3931317]},"properties":{"leaf_type":"needleleaved","natural":"tree"}},
{"type":"Feature","geometry":{"type":"Point","coordinates":[6.7957078,46.3930342]},"properties":{"leaf_type":"needleleaved","natural":"tree"}},
{"type":"Feature","geometry":{"type":"Point","coordinates":[6.7956364,46.3930279]},"properties":{"leaf_type":"needleleaved","natural":"tree"}},
{"type":"Feature","geometry":{"type":"Point","coordinates":[6.8040957,46.3942121]},"properties":{"highway":"street_lamp","hiking":"yes","information":"route_marker","tourism":"information"}},
{"type":"Feature","geometry":{"type":"Point","coordinates":[6.7958224,46.3930848]},"properties":{"leisure":"picnic_table"}},
{"type":"Feature","geometry":{"type":"LineString","coordinates":[[6.8017823,46.3927727],[6.8016835,46.392745],[6.8016983,46.392718],[6.8017303,46.3927262],[6.8017988,46.3927456],[6.8017823,46.3927727]]},"properties":{"historic":"monument","name":"Monument des Fusillés","source":"extraction vectorielle v1 cadastre-dgi-fr source : Direction Générale des Impôts - Cadas. Mise à jour : 2010"}},
{"type":"Feature","geometry":{"type":"LineString","coordinates":[[6.8009035,46.3894104],[6.8009652,46.3895623],[6.8005277,46.3896469],[6.8004659,46.389495],[6.8009035,46.3894104]]},"properties":{"leisure":"pitch","source":"data.gouv.fr:Le ministère des droits des femmes, de la ville, de la jeunesse et des sports - 2014","sport":"tennis","surface":"concrete"}},
{"type":"Feature","geometry":{"type":"LineString","coordinates":[[6.8004659,46.389495],[6.8000187,46.3895815],[6.8000639,46.3896926],[6.8000805,46.3897334],[6.8005277,46.3896469],[6.8004659,46.389495]]},"properties":{"leisure":"pitch","source":"data.gouv.fr:Le ministère des droits des femmes, de la ville, de la jeunesse et des sports - 2014","sport":"tennis","surface":"concrete"}},
{"type":"Feature","geometry":{"type":"LineString","coordinates":[[6.8000187,46.3895815],[6.7998395,46.3896137],[6.7998816,46.3897254],[6.8000639,46.3896926],[6.8000187,46.3895815]]},"properties":{"leisure":"pitch","name":"Mur","source":"data.gouv.fr:Le ministère des droits des femmes, de la ville, de la jeunesse et des sports - 2014","sport":"tennis","surface":"concrete"}},
{"type":"Feature","geometry":{"type":"LineString","coordinates":[[6.8034934,46.3888569],[6.8035095,46.3883496],[6.802201,46.3883299],[6.8021849,46.3888371],[6.8034934,46.3888569]]},"properties":{"leisure":"pitch","sport":"soccer"}},
{"type":"Feature","geometry":{"type":"LineString","coordinates":[[6.8033866,46.3915131],[6.8042902,46.3914983],[6.804278,46.3911439],[6.8033744,46.3911586],[6.8033866,46.3915131]]},"properties":{"leisure":"pitch","sport":"soccer"}},
{"type":"Feature","geometry":{"type":"LineString","coordinates":[[6.8042907,46.3928914],[6.8042028,46.3927822],[6.8041483,46.3927145],[6.8042953,46.3926582],[6.8043024,46.3926555],[6.804445,46.3926009],[6.8045431,46.3927228],[6.8043777,46.3927862],[6.8044219,46.3928411],[6.8042907,46.3928914]]},"properties":{"building":"office","building:levels":"3","castle_type":"stately","historic":"castle","name":"Château de Saint-Gingolph","roof:material":"tile","roof:orientation":"along/across","roof:shape":"half-hipped","start_date":"1585","wikidata":"Q2970518"}},
{"type":"Feature","geometry":{"type":"LineString","coordinates":[[6.7900962,46.3930255],[6.7900043,46.3930429],[6.7899338,46.3930605],[6.7897227000000008,46.3931343],[6.7896932,46.3931605],[6.7896628,46.3931732],[6.7895631,46.3932009],[6.7895243,46.3932238],[6.7895029,46.3932534],[6.7894459,46.3932949],[6.7891742,46.3934166],[6.7889163,46.3935496],[6.7884727,46.3937284],[6.7883706,46.3937589],[6.7883099,46.3937861],[6.7882306,46.3938816],[6.7881771,46.3939186],[6.7880054,46.3939783],[6.7878525,46.3940096],[6.7876078,46.3940691],[6.7874394,46.3941026],[6.7873137,46.3941131],[6.7870399,46.3941474],[6.7869696,46.3941489],[6.7868436,46.3941729],[6.786616,46.3941967],[6.7864973,46.3942141],[6.7860629,46.3943187],[6.7854311,46.3944145],[6.7853119,46.3944437],[6.7851629,46.3944739],[6.785012,46.3944969],[6.7849196,46.3945162],[6.7849236,46.3945558],[6.7849019,46.3945619],[6.7846563,46.3945718],[6.7845651,46.3945722],[6.7844809,46.3945786],[6.7843569,46.3946133],[6.7842247,46.3946042],[6.7841402,46.3946079],[6.784073,46.3946146],[6.7839919,46.3946291],[6.7839394,46.3946434],[6.7838471,46.3946465],[6.7836724,46.3946631],[6.7834943,46.3946879],[6.7834279,46.3947073],[6.783238,46.3947496],[6.782962,46.3948273],[6.782791,46.3948609],[6.7827145,46.3948662],[6.7826558,46.3948654],[6.7824541,46.3949153],[6.7824201,46.3949237],[6.7823524,46.3949431],[6.782281,46.3949842],[6.7821895,46.3950179],[6.7821281,46.3950353],[6.782045,46.3950389],[6.7819549,46.3950545],[6.7818674,46.3950709],[6.7817997,46.3950903],[6.7817265,46.3951063],[6.7816692,46.3951244],[6.7815954,46.3951323],[6.781524,46.3951545],[6.7814792,46.3952028],[6.7814434,46.3952139],[6.7812301,46.3952381],[6.7811342,46.3953017],[6.7809907,46.3953551],[6.7809404,46.3953631],[6.7808794,46.395366],[6.7808244,46.3953814],[6.78058,46.39554],[6.7805147,46.3955936],[6.7804249,46.3956326],[6.7803355,46.395659],[6.7802425,46.3956702],[6.780072,46.3956732],[6.7799558,46.3956887],[6.7798868,46.3957091],[6.7798145,46.3957367],[6.7795707,46.3958476],[6.7795473,46.3958673],[6.7795404,46.395918],[6.7794675,46.3959375],[6.7794427,46.3959564],[6.7794504,46.3959732],[6.7794353,46.3959819],[6.779381,46.3959305],[6.7793011,46.395962],[6.7792091,46.3960074],[6.7791454,46.3960284],[6.7791168,46.3960483],[6.7791375,46.3960837],[6.7791037,46.3961037],[6.7790276,46.3961342],[6.7790057,46.3961557],[6.7790155,46.3961851],[6.7790438,46.3961986],[6.7791364,46.3961802],[6.7791895,46.3961577],[6.7792173,46.3961631],[6.7792111,46.3961867],[6.7791254,46.3962094],[6.7789926,46.3962309],[6.778911,46.3962372],[6.778851,46.3962365],[6.7787954,46.396242],[6.7784814,46.3963741],[6.7784941,46.396389],[6.7783444,46.3964471],[6.7782647,46.3964633],[6.7782244,46.3964637],[6.7781466,46.3964939],[6.7780986,46.3965103],[6.7780902,46.3965213],[6.7780577,46.3965405],[6.7779864,46.3965654],[6.7779143,46.3966146],[6.7778891,46.3966272],[6.7778458,46.3966232],[6.7778126,46.3966324],[6.7777973,46.3966564],[6.7778227,46.3967033],[6.7778062,46.3967102],[6.7777754,46.3966977],[6.7777252,46.3966687],[6.7776924,46.3966661],[6.777665,46.3966842],[6.7776523,46.396708],[6.7776324,46.3967213],[6.7775725,46.3967224],[6.77753,46.3967103],[6.7774897,46.3967116],[6.7774554,46.3967236],[6.7773642,46.3967807],[6.7773021,46.3968062],[6.7772643,46.3968056],[6.7772269,46.3968114],[6.7770967,46.3968499],[6.7770523,46.3968676],[6.7770708,46.3968905],[6.7769985,46.396919],[6.7769029,46.3969114],[6.7768309,46.3969255],[6.7768192,46.3969457],[6.7768348,46.3969821],[6.77672,46.3970184],[6.7766534,46.3970341],[6.7766374,46.3970103],[6.7763643,46.3970563],[6.7762041,46.3970751],[6.7761669,46.3970836],[6.7761355,46.3971017],[6.7760558,46.3971359],[6.7759687,46.3971568],[6.7759036,46.397177],[6.7758419,46.397189],[6.775518,46.3972917],[6.7754538,46.3973046],[6.7751715,46.3973407],[6.7750152,46.3974285],[6.7750208,46.3974426],[6.7746623,46.3975149],[6.7746719,46.3975439],[6.7742924,46.3976012],[6.7742384,46.3976497],[6.7742072,46.3976616],[6.7741568,46.3976684],[6.7741013,46.3976653],[6.7739316,46.3976158],[6.7737848,46.3975756],[6.7734515,46.3974951],[6.7732523,46.3974683],[6.7732483,46.3974886],[6.7729647,46.3974572],[6.772966,46.3974509],[6.7728804,46.3974439],[6.7727779,46.3974355],[6.7727286,46.3974456],[6.7725573,46.3974493],[6.7724523,46.3974454],[6.771748,46.3974543],[6.7716226,46.3974692],[6.7713974,46.397529],[6.7713159,46.397556],[6.7712604,46.3975831],[6.7712431,46.3976152],[6.7712579,46.3976787],[6.7712393,46.3976979],[6.7710653,46.3977522],[6.7708863,46.3977906],[6.7708598,46.3977888],[6.7708253,46.3977693],[6.7707119,46.3977905],[6.7703741,46.397881],[6.7702712,46.3979187],[6.7701738,46.3979616],[6.7701218,46.3980012],[6.7700253,46.3980557],[6.769967,46.3980991],[6.7699433,46.3981333],[6.7698934,46.3981656],[6.7698335,46.3981847],[6.7697588,46.398198],[6.7696976,46.3981982],[6.7696362,46.3982146],[6.7693968,46.3983136],[6.7693125,46.3983389],[6.7692493,46.3983482],[6.7691659,46.3983483],[6.7691274,46.3983568],[6.76911,46.398388],[6.7691334,46.398462],[6.7690396,46.3984991],[6.7690064,46.3984894],[6.7689621,46.3985065],[6.7689387,46.3985206],[6.7689179,46.3985488],[6.7686134,46.3986518],[6.7685934,46.3986485],[6.7685665,46.3986126],[6.7685373,46.398623],[6.7685436,46.3986726],[6.7683878,46.3987254],[6.7683798,46.3987136],[6.7682996,46.3987407],[6.7683258,46.398789],[6.7683486,46.3988105],[6.7683556,46.3988334],[6.7683466,46.3988526],[6.7683342,46.3988534],[6.7683191,46.3988545],[6.768307,46.3988297],[6.7682822,46.3988219],[6.7679201,46.3988334],[6.7678651,46.3988478],[6.7678504,46.3989014],[6.7678239,46.3989164],[6.7674588,46.398974],[6.7669592,46.3990745],[6.7666487,46.399137],[6.7666407,46.3991155],[6.7665612,46.3991307],[6.7664782,46.3991466],[6.7664311,46.3991634],[6.7663638,46.3992261],[6.7663189,46.3992555],[6.7661196,46.3993693],[6.7661622,46.3994401],[6.7662924,46.3993997],[6.7663745,46.3993817],[6.7663925,46.3994153],[6.7662203,46.3994697],[6.7661691,46.3994822],[6.7661559,46.399461],[6.7659764,46.399466],[6.7656384,46.399497],[6.765574,46.3995073],[6.7655822,46.3995322],[6.7653805,46.3995551],[6.7651241,46.3995969],[6.7648963,46.3996378],[6.7647589,46.3996667],[6.7647326,46.3996829],[6.7646267,46.3996963],[6.7645915,46.3997155],[6.7645708,46.399736],[6.7643519,46.3997739],[6.7642017,46.3998068],[6.7639957,46.3998424],[6.7639523,46.3998556],[6.76392,46.3998783],[6.7638422,46.3999034],[6.7637173,46.3999255],[6.7636229,46.399935],[6.7633512,46.3999827],[6.7627313,46.4000626],[6.7624898,46.4001139],[6.762122,46.4001648],[6.7616305,46.4002189],[6.7614473,46.4002646],[6.761381,46.4002857],[6.7613011,46.4002982],[6.7611525,46.4003158],[6.7609292,46.4003285],[6.7607848,46.4003513],[6.7605996,46.4003863],[6.7604636,46.4004169],[6.76041,46.4004331],[6.7602433,46.4004728],[6.76027,46.4005387],[6.7601769,46.4005679],[6.7600291,46.400598],[6.7598843,46.4006334],[6.75974,46.4006751],[6.7596055,46.4007283],[6.7594799,46.4007964],[6.7592629,46.4009388],[6.759161,46.4010287],[6.7590873,46.4011131],[6.7590115,46.4012049],[6.7589402,46.4013037],[6.7588311,46.4014416],[6.7587369,46.4015313],[6.7586562,46.401589800000007],[6.7586073,46.4016176],[6.7586814,46.401671],[6.7586219,46.4016973],[6.7586045,46.4017285],[6.758494,46.4017691],[6.7584695,46.4017916],[6.7584768,46.4018031],[6.7584557,46.4018182],[6.7583245,46.4018631],[6.7582758,46.4018935],[6.7582426,46.4019226],[6.7581395,46.4019773],[6.7581606,46.4020001],[6.7580919,46.4020231],[6.7580214,46.4020597],[6.7579687,46.4021074],[6.7579563,46.4021357],[6.7578441,46.4022287],[6.7578574,46.4022517],[6.7577892,46.4023026],[6.7576465,46.4024813],[6.7576041,46.4025467],[6.7575651,46.4025867],[6.7575039,46.4026248],[6.7574356,46.402646],[6.7573789,46.4026641],[6.7573211,46.4026948],[6.7572578,46.4027066]]},"properties":{"source":"BD TOPO Hydrographie - avril 2017"}},
{"type":"Feature","geometry":{"type":"LineString","coordinates":[[6.8002032,46.3902393],[6.8005923,46.3904936],[6.8006497,46.3904823],[6.8003642,46.3902728],[6.8002608,46.3902078],[6.8002032,46.3902393]]},"properties":{"natural":"scrub"}},
{"type":"Feature","geometry":{"type":"LineString","coordinates":[[6.8028798,46.3911469],[6.8027831,46.3912469],[6.8028394,46.3913241],[6.8028469,46.3913571],[6.8030007,46.3912725],[6.8029658,46.3911865],[6.8028798,46.3911469]]},"properties":{"natural":"grassland"}},
{"type":"Feature","geometry":{"type":"LineString","coordinates":[[6.8028798,46.3911469],[6.8029658,46.3911865],[6.8030007,46.3912725],[6.8028469,46.3913571],[6.8028586,46.3914085],[6.8028505,46.3914548],[6.8028025,46.3915473],[6.8026945,46.3918861],[6.8027016,46.392105],[6.8026949,46.392192],[6.8026668,46.3923113],[6.8028298,46.3922907],[6.8029913,46.3922817],[6.8028934,46.3918488],[6.8028975,46.3917582],[6.8029095,46.391625],[6.8029377,46.3915186],[6.8030047,46.3914168],[6.8032046,46.3912096],[6.8031952,46.3911578],[6.8031603,46.391107],[6.8027955,46.3908794],[6.8027352,46.3907989],[6.8026869,46.3906722],[6.8027091,46.3906196],[6.8026725,46.3905927],[6.802531,46.3906297],[6.8025657,46.3908461],[6.8026024,46.3908396],[6.802762,46.3909636],[6.8029667,46.391057],[6.8028798,46.3911469]]},"properties":{"natural":"scrub"}},
{"type":"Feature","geometry":{"type":"LineString","coordinates":[[6.7975451,46.3922863],[6.7979743,46.3924214],[6.7978844,46.3925851],[6.7975666,46.3925092],[6.7975974,46.3924167],[6.7975451,46.3922863]]},"properties":{"natural":"scrub"}},
{"type":"Feature","geometry":{"type":"LineString","coordinates":[[6.8332438,46.3861974],[6.833223,46.3861944],[6.8332015,46.3861897],[6.8331824,46.3861852],[6.8331658,46.3861815],[6.8331443,46.3861799],[6.8331317,46.3861813],[6.8331129,46.3861855],[6.8331,46.3861945],[6.8330814,46.3861989],[6.8330644,46.3861994],[6.8330482,46.3861992],[6.8330044,46.3862011],[6.8329574,46.3861964],[6.8329302,46.3861905],[6.8329046,46.3861891],[6.8328929,46.3861927],[6.8328848,46.3861947],[6.8328629,46.386195],[6.8328475,46.3861938],[6.8328430000000008,46.3861972],[6.8328418,46.386207],[6.8328406,46.3862213],[6.8328386,46.3862324],[6.8328377,46.3862375],[6.8328414,46.386242],[6.8328592,46.386245],[6.8328783,46.3862445],[6.8329034,46.3862445],[6.8329391,46.3862436],[6.8329452,46.386245],[6.8329501,46.3862495],[6.8329545,46.3862618],[6.8329521,46.3862708],[6.8329456,46.3862733],[6.8329201,46.3862747],[6.8328925,46.3862719],[6.8328738,46.386271],[6.8328475,46.386275],[6.8328321,46.3862766],[6.8328106,46.3862736],[6.8328053,46.3862713],[6.8327968,46.3862632],[6.8327903,46.3862579],[6.8327794,46.3862512],[6.8327741,46.3862475],[6.8327708,46.3862445],[6.8327684,46.3862397],[6.8327672,46.386233],[6.8327644,46.3862274],[6.8327575,46.3862213],[6.832742,46.3862145],[6.8327319,46.3862089],[6.832727,46.3862045],[6.8327226,46.3862003],[6.8327137,46.3861964],[6.8327096,46.386195],[6.8326934,46.3861941],[6.8326841,46.3861961],[6.8326751,46.3862017],[6.8326699,46.3862112],[6.8326634,46.3862168],[6.8326488,46.3862173],[6.8326447,46.386214],[6.8326346,46.3862115],[6.8326212,46.3862109],[6.8326111,46.3862112],[6.8326042,46.3862112],[6.8325778,46.3862145],[6.8325649,46.3862171],[6.8325494,46.386221],[6.8325409,46.3862207],[6.8325361,46.3862182],[6.832534,46.386212],[6.8325369,46.3862087],[6.8325507,46.3862008],[6.8325584,46.3861972],[6.8325726,46.3861905],[6.8325827,46.3861874],[6.8325961,46.3861827],[6.8326001,46.3861793],[6.8325928,46.3861768],[6.8325722,46.3861762],[6.8325616,46.3861757],[6.8325393,46.3861759],[6.8325243,46.3861754],[6.8325125,46.386174],[6.8324992,46.3861726],[6.832489,46.3861695],[6.8324874,46.3861648],[6.8324846,46.3861566],[6.832485,46.3861499],[6.8324846,46.3861449],[6.8324874,46.3861298],[6.8324833,46.3861264],[6.8324631,46.3861239],[6.8324452,46.3861211],[6.8324116,46.3861166],[6.832326,46.3861052],[6.832236,46.3860957],[6.8322291,46.3861013],[6.8322291,46.3861083],[6.8322315,46.3861172],[6.8322364,46.3861315],[6.8322397,46.3861382],[6.832249,46.3861443],[6.8322611,46.3861497],[6.8322907,46.3861608],[6.8323155,46.3861636],[6.832341,46.386167],[6.8323633,46.3861701],[6.8323755,46.3861726],[6.8323921,46.3861773],[6.8323994,46.3861821],[6.8324043,46.3861849],[6.8324148,46.3861913],[6.8324201,46.3861955],[6.832442,46.3862112],[6.8324533,46.3862218],[6.8324619,46.3862288],[6.8324667,46.386233],[6.8324647,46.3862386],[6.8324598,46.3862414],[6.832457,46.3862442],[6.8324598,46.3862495],[6.8324679,46.3862587],[6.8324874,46.386275],[6.8324898,46.3862803],[6.8324793,46.3862839],[6.8324683,46.3862856],[6.8324566,46.3862861],[6.8324517,46.3862828],[6.8324477,46.3862766],[6.8324529,46.3862691],[6.832455,46.3862652],[6.8324509,46.3862604],[6.8324469,46.3862568],[6.8324396,46.3862515],[6.8324323,46.3862512],[6.8324258,46.3862503],[6.8324148,46.3862464],[6.8324059,46.3862428],[6.8323978,46.3862375],[6.832395,46.3862338],[6.8323913,46.3862294],[6.8323743,46.3862199],[6.8323706,46.3862173],[6.8323605,46.3862131],[6.8323552,46.3862098],[6.8323459,46.3862073],[6.832328,46.3862062],[6.8323175,46.3862053],[6.8323139,46.3862039],[6.8323009,46.3862022],[6.8322786,46.3861989],[6.832266,46.3861955],[6.8322506,46.3861933],[6.8322384,46.3861908],[6.8322206,46.3861852],[6.8322109,46.3861799],[6.8322048,46.3861745],[6.8321999,46.3861692],[6.8321975,46.3861636],[6.8321955,46.3861519],[6.8321922,46.3861421],[6.8321849,46.3861365],[6.832178,46.386132],[6.8321573,46.3861242],[6.8321431,46.3861197],[6.8321286,46.3861158],[6.8321204,46.3861108],[6.832118,46.3861071],[6.8321111,46.3861001],[6.8321014,46.3860912],[6.8320929,46.3860825],[6.8320844,46.3860764],[6.8320702,46.3860727],[6.8320576,46.3860688],[6.8320503,46.3860655],[6.8320381,46.3860624],[6.8320276,46.386059],[6.8320085,46.3860541],[6.8319834,46.3860473],[6.8319631,46.3860402],[6.8319475,46.3860331],[6.8319384,46.3860277],[6.8319277,46.3860214],[6.8319157,46.386018],[6.8318975,46.386018],[6.8318823,46.3860211],[6.8318682,46.3860254],[6.8318542,46.3860265],[6.8318369,46.3860257],[6.8318282,46.3860226],[6.8318224,46.3860169],[6.8318092,46.3860134],[6.8317956,46.3860106],[6.8317849,46.3860092],[6.83177,46.3860077],[6.8317572,46.3860069],[6.8317453,46.3860046],[6.8317304,46.3860018],[6.8317205,46.3859958],[6.8317077,46.3859878],[6.8316863,46.3859719],[6.8316681,46.3859611],[6.8316549,46.3859528],[6.8316363,46.3859505],[6.8316005,46.3859548],[6.8315811,46.3859557],[6.8315707,46.385954],[6.8315489,46.3859477],[6.8315373,46.3859411],[6.83152,46.3859335],[6.8315122,46.3859315],[6.8314936,46.3859323],[6.8314866,46.3859372],[6.831482,46.3859431],[6.8314746,46.3859571],[6.8314684,46.385971],[6.8314692,46.3859796],[6.8314742,46.3859855],[6.8314915,46.3859924],[6.83152,46.3859975],[6.8315452,46.3860018],[6.8315588,46.386006],[6.8315724,46.3860103],[6.8315786,46.386018],[6.8315757,46.3860265],[6.8315707,46.3860305],[6.8315472,46.3860388],[6.8315266,46.3860393],[6.8315183,46.3860368],[6.8315113,46.3860319],[6.8314911,46.3860251],[6.8314791,46.3860217],[6.8314692,46.3860171],[6.8314635,46.386014],[6.8314548,46.3860086],[6.831442,46.3860006],[6.8314371,46.3859952],[6.8314342,46.3859901],[6.831435,46.3859861],[6.8314399,46.3859793],[6.8314428,46.3859753],[6.8314482,46.3859705],[6.8314511,46.3859668],[6.8314556,46.3859594],[6.8314531,46.3859505],[6.8314478,46.3859448],[6.8314416,46.38594],[6.8314342,46.3859372],[6.8314272,46.3859343],[6.8314189,46.3859303],[6.8314144,46.3859261],[6.8314123,46.3859192],[6.8314152,46.3859133],[6.8314148,46.385909],[6.8314102,46.385905],[6.8314016,46.3859041],[6.8313917,46.3859056],[6.8313826,46.3859141],[6.8313743,46.3859295],[6.8313702,46.3859352],[6.8313632,46.3859466],[6.8313615,46.3859525],[6.8313599,46.3859591],[6.8313657,46.3859656],[6.8313723,46.3859688],[6.8313805,46.3859727],[6.8313818,46.3859756],[6.8313776,46.3859787],[6.8313694,46.3859793],[6.8313578,46.3859753],[6.8313475,46.3859653],[6.831343,46.3859594],[6.8313417,46.38595],[6.8313483,46.3859383],[6.8313582,46.3859255],[6.8313591,46.3859178],[6.8313599,46.3859127],[6.8313512,46.3859044],[6.831336,46.3858967],[6.831324,46.3858911],[6.8313112,46.3858868],[6.8312939,46.3858805],[6.831279,46.3858754],[6.831265,46.3858691],[6.8312481,46.3858646],[6.8312324,46.385856],[6.8312064,46.3858472],[6.8311928,46.3858418],[6.8311792,46.3858353],[6.8311577,46.385829],[6.8311379,46.3858259],[6.8311131,46.3858193],[6.8310971,46.3858142],[6.8310764,46.3858097],[6.8310455,46.3858023],[6.8310145,46.3857951],[6.8309844,46.3857912],[6.8309708,46.3857889],[6.8309588,46.3857889],[6.8309502,46.3857914],[6.8309448,46.3857974],[6.8309399,46.3858091],[6.8309419,46.3858202],[6.8309452,46.3858253],[6.8309588,46.3858304],[6.8309708,46.3858347],[6.8309815,46.3858373],[6.8309989,46.3858398],[6.8310129,46.3858435],[6.8310145,46.3858469],[6.8310154,46.3858515],[6.8310079,46.3858552],[6.8309902,46.3858546],[6.8309704,46.3858541],[6.8309432,46.3858489],[6.8309254,46.3858467],[6.8309081,46.3858435],[6.8309019,46.3858412],[6.8308829,46.3858373],[6.8308598,46.3858344],[6.8308445,46.3858313],[6.8308231,46.3858262],[6.8308,46.3858173],[6.8307905,46.3858122],[6.8307748,46.3858048],[6.8307657,46.3857963],[6.8307608,46.3857914],[6.8307579,46.3857846],[6.8307513,46.3857781],[6.8307331,46.3857735],[6.8307104,46.3857738],[6.8306902,46.3857781],[6.8306799,46.385782],[6.83067,46.3857832],[6.8306527,46.3857943],[6.8306358,46.385798],[6.8306155,46.3857988],[6.830606,46.3857954],[6.8305842,46.3857909],[6.8305656,46.3857886],[6.830547,46.3857875],[6.8305289,46.3857857],[6.8305058,46.3857846],[6.8304913,46.3857798],[6.8304802,46.3857746],[6.8304653,46.3857661],[6.8304497,46.3857579],[6.8304389,46.3857524],[6.830422,46.3857482],[6.8304014,46.3857468],[6.8303779,46.3857473],[6.8303527,46.3857473],[6.8303345,46.3857482],[6.8303226,46.3857479],[6.8302838,46.3857485],[6.8302714,46.3857485],[6.8302293,46.3857485],[6.8302153,46.385747],[6.8302091,46.385747],[6.8301798,46.385747],[6.8301674,46.3857468],[6.8301538,46.3857482],[6.8301394,46.3857524],[6.8301229,46.385757],[6.8301039,46.3857618],[6.8300804,46.3857633],[6.8300672,46.385763],[6.8300494,46.3857604],[6.830016,46.3857616],[6.8299888,46.3857618],[6.8299718,46.3857627],[6.8299549,46.3857644],[6.8299421,46.3857664],[6.8299302,46.3857715],[6.8299293,46.3857792],[6.8299293,46.3857883],[6.8299281,46.385794],[6.8299322,46.3857991],[6.8299417,46.3857991],[6.8299607,46.385796],[6.8299896,46.385794],[6.8300011,46.3857937],[6.8300102,46.3857966],[6.830011,46.3858025],[6.8300032,46.3858082],[6.8299851,46.3858122],[6.8299657,46.3858136],[6.8299496,46.3858145],[6.8299186,46.3858173],[6.8299046,46.3858205],[6.8298914,46.3858242],[6.8298757,46.3858293],[6.8298596,46.3858327],[6.8298497,46.3858344],[6.8298386,46.3858347],[6.8298163,46.385835],[6.8297957,46.3858338],[6.8297726,46.3858313],[6.8297655,46.3858279],[6.8297569,46.3858216],[6.8297461,46.3858182],[6.8297375,46.3858182],[6.8296306,46.3858375],[6.829539,46.3858541],[6.8295303,46.3858575],[6.8295266,46.3858629],[6.8295287,46.3858717],[6.8295386,46.3858908],[6.8295419,46.3858976],[6.8295481,46.3858996],[6.8295629,46.3858987],[6.8295753,46.3858959],[6.8295988,46.3858922],[6.8296178,46.3858896],[6.829636,46.3858876],[6.8296451,46.3858882],[6.8296525,46.3858896],[6.829657,46.3858922],[6.8296599,46.3858982],[6.8296591,46.3859047],[6.8296521,46.3859087],[6.8296277,46.385915],[6.8296141,46.3859175],[6.8295873,46.3859263],[6.8295687,46.3859315],[6.8295601,46.3859329],[6.8295535,46.3859309],[6.829551,46.3859269],[6.8295473,46.3859172],[6.8295431,46.3859121],[6.8295394,46.3859104],[6.8295324,46.385907],[6.829525,46.3858976],[6.8295093,46.3858691],[6.8295023,46.3858626],[6.829487,46.3858643],[6.8294086,46.3858817],[6.8293806,46.3858876],[6.8293463,46.3858925],[6.8293327,46.3858925],[6.829303,46.3858825],[6.8292869,46.3858683],[6.8292593,46.3858293],[6.8292122,46.385837],[6.8292069,46.3858404],[6.8292085,46.3858475],[6.8292456,46.3859019],[6.8292741,46.3859198],[6.8293141,46.38594],[6.8293261,46.3859417],[6.8293377,46.3859397],[6.8293513,46.385938],[6.8293686,46.3859377],[6.8293814,46.3859423],[6.8293839,46.3859463],[6.8293752,46.385954],[6.8293711,46.3859611],[6.8293669,46.3859679],[6.8293616,46.3859725],[6.8293393,46.3859727],[6.8293261,46.3859682],[6.8293129,46.3859608],[6.8293018,46.3859528],[6.8292939,46.3859471],[6.8292857,46.385942],[6.8292795,46.385938],[6.8292683,46.385934],[6.8292576,46.3859312],[6.8292448,46.3859332],[6.8292382,46.3859349],[6.8292271,46.385936],[6.8292093,46.3859394],[6.829197,46.3859429],[6.8291755,46.3859446],[6.8291648,46.3859429],[6.829159,46.38594],[6.8291359,46.3859318],[6.8291289,46.3859309],[6.829114,46.3859312],[6.8290917,46.3859337],[6.8290814,46.3859349],[6.8290637,46.3859372],[6.8290232,46.3859474],[6.8290113,46.3859483],[6.8289853,46.385952],[6.8289725,46.3859557],[6.8289564,46.3859633],[6.8289316,46.385971],[6.8289135,46.3859776],[6.828885,46.3859873],[6.828866,46.3859887],[6.8288479,46.385991],[6.8288351,46.3859935],[6.8288136,46.3859986],[6.8287802,46.3860103],[6.8287183,46.3860314],[6.8286597,46.3860496],[6.8285908,46.3860732],[6.8285859,46.3860783],[6.8285908,46.3860843],[6.8285962,46.386092],[6.8286065,46.3861017],[6.8286139,46.3861114],[6.8286164,46.3861162],[6.8286218,46.3861236],[6.8286296,46.3861262],[6.8286424,46.3861256],[6.8286684,46.3861148],[6.8286944,46.3861048],[6.8287072,46.3861014],[6.82872,46.3861017],[6.8287323,46.3861048],[6.8287406,46.3861079],[6.8287513,46.3861136],[6.8287521,46.3861173],[6.8287385,46.3861262],[6.828715,46.3861318],[6.8287055,46.3861318],[6.8286845,46.3861364],[6.8286671,46.3861395],[6.8286498,46.3861441],[6.8286362,46.3861472],[6.828623,46.3861472],[6.8286094,46.3861429],[6.8285987,46.3861404],[6.8285912,46.3861378],[6.828583,46.3861324],[6.8285764,46.3861273],[6.8285694,46.3861233],[6.828559,46.3861205],[6.8285347,46.3861168],[6.8285256,46.3861133],[6.8285165,46.3861096],[6.8285071,46.3861099],[6.8284897,46.3861139],[6.828479,46.3861168],[6.8284637,46.3861247],[6.8284493,46.3861321],[6.8284357,46.3861384],[6.828427,46.3861449],[6.8284249,46.3861475],[6.8284055,46.3861523],[6.8283961,46.386154],[6.8283923,46.3861575],[6.8283911,46.3861614],[6.8283915,46.386168],[6.8283899,46.3861771],[6.8283874,46.3861856],[6.8283833,46.3861908],[6.8283606,46.3861913],[6.8283404,46.3861854],[6.8283321,46.3861799],[6.8283288,46.386178],[6.8283135,46.3861751],[6.8283073,46.386174],[6.8282822,46.3861788],[6.8282562,46.3861899],[6.8281497,46.386232],[6.8281241,46.3862394],[6.828118,46.3862448],[6.82812,46.3862497],[6.8281279,46.3862548],[6.8281382,46.3862639],[6.8281477,46.3862713],[6.8281662,46.3862884],[6.8281745,46.3862989],[6.8281807,46.3863043],[6.8281856,46.386306],[6.8282009,46.3863063],[6.8282351,46.3863018],[6.8282554,46.3862966],[6.8282929,46.3862912],[6.8283288,46.3862858],[6.8283589,46.3862813],[6.8283742,46.3862824],[6.8283895,46.3862872],[6.8283923,46.3862924],[6.8283878,46.3863029],[6.8283763,46.386308],[6.8283552,46.3863129],[6.8283288,46.3863183],[6.8282954,46.386326],[6.8282393,46.3863396],[6.828217,46.3863484],[6.8282091,46.3863507],[6.8281893,46.3863487],[6.828179,46.3863445],[6.8281699,46.3863427],[6.8281576,46.3863419],[6.8281402,46.3863422],[6.8281262,46.3863422],[6.8281134,46.3863433],[6.8280998,46.386345],[6.828094,46.3863459],[6.8280701,46.3863496],[6.8280433,46.3863464],[6.8280218,46.3863459],[6.8280045,46.3863487],[6.8279867,46.3863513],[6.8279694,46.3863556],[6.8279129,46.3863638],[6.8278745,46.3863681],[6.8278477,46.3863706],[6.8278213,46.3863763],[6.8278007,46.3863826],[6.8277829,46.3863866],[6.8277751,46.3863869],[6.8277643,46.3863852],[6.8277598,46.3863829],[6.82774,46.3863772],[6.8277289,46.3863732],[6.8277218,46.3863715],[6.8277152,46.3863704],[6.8276884,46.3863769],[6.8276162,46.3864005],[6.8276179,46.3864096],[6.827622,46.3864165],[6.8276294,46.386427],[6.827643,46.3864458],[6.8276484,46.386452],[6.8276525,46.386454],[6.8276632,46.3864563],[6.8276843,46.3864515],[6.8277004,46.3864464],[6.8277231,46.3864407],[6.8277388,46.3864364],[6.8277412,46.3864335],[6.8277577,46.386431],[6.8277693,46.3864304],[6.827778,46.3864301],[6.8277874,46.3864296],[6.8277899,46.3864333],[6.8277874,46.3864412],[6.8277788,46.3864509],[6.8277676,46.386456],[6.827754,46.3864566],[6.8277408,46.386456],[6.8277218,46.3864575],[6.8277078,46.3864597],[6.8276917,46.3864649],[6.8276665,46.386472500000007],[6.8276426,46.3864777],[6.8276232,46.3864802],[6.8276088,46.3864814],[6.8275877,46.3864836],[6.8275766,46.3864868],[6.8275655,46.3864888],[6.8275395,46.3864936],[6.8275254,46.3864976],[6.8274912,46.3865073],[6.8274615,46.3865147],[6.8274578,46.3865184],[6.8274607,46.3865269],[6.8274615,46.3865315],[6.8274561,46.3865357],[6.8274483,46.3865403],[6.8274363,46.3865445],[6.8274182,46.3865485],[6.8274095,46.3865519],[6.8273979,46.3865551],[6.8273872,46.3865554],[6.8273823,46.3865522],[6.8273695,46.3865403],[6.8273629,46.3865317],[6.8273563,46.3865212],[6.8273525,46.3865181],[6.8273307,46.3865175],[6.827322,46.3865201],[6.8273022,46.3865289],[6.8272791,46.3865354],[6.8272713,46.38654],[6.8272659,46.3865488],[6.8272688,46.3865562],[6.8272741,46.3865653],[6.8272808,46.3865787],[6.8272923,46.3865895],[6.8273121,46.3866097],[6.827329,46.3866166],[6.8273492,46.38662],[6.8273777,46.3866191],[6.8273913,46.3866151],[6.8274021,46.3866151],[6.8274128,46.3866177],[6.8274243,46.3866214],[6.8274371,46.3866331],[6.8274375,46.386637],[6.8274256,46.3866442],[6.8274169,46.3866467],[6.8274095,46.386651],[6.8273967,46.386655],[6.8273847,46.3866575],[6.8273703,46.3866598],[6.8273575,46.3866604],[6.8273447,46.3866598],[6.8273315,46.3866573],[6.8273191,46.3866533],[6.8273117,46.386649],[6.8273006,46.3866456],[6.8272919,46.3866462],[6.8272725,46.3866459],[6.8272618,46.3866459],[6.8272473,46.386647],[6.8272366,46.3866473],[6.8272176,46.386649],[6.8272011,46.386651],[6.8271726,46.3866541],[6.8271537,46.3866564],[6.8271165,46.3866598],[6.8271046,46.3866607],[6.827053,46.3866615],[6.827027,46.3866612],[6.8270113,46.3866624],[6.8269903,46.3866655],[6.8269771,46.3866666],[6.826961,46.3866684],[6.8269379,46.3866692],[6.8269247,46.3866703],[6.8269065,46.3866738],[6.8268842,46.3866783],[6.8268768,46.3866792],[6.8268467,46.38668],[6.8268203,46.3866834],[6.8268005,46.3866894],[6.8267728,46.3866957],[6.826753,46.3866999],[6.8267196,46.3867071],[6.8266969,46.3867165],[6.8266792,46.3867207],[6.8266577,46.386725],[6.8266358,46.3867276],[6.8265979,46.3867307],[6.826562,46.3867358],[6.8265405,46.3867364],[6.82651,46.3867398],[6.8264902,46.3867432],[6.8264667,46.3867483],[6.8264378,46.3867554],[6.8264155,46.38676],[6.8264031,46.3867611],[6.8263796,46.3867626],[6.8263631,46.386762],[6.826342,46.3867634],[6.8263363,46.386766],[6.826335,46.38677],[6.8263375,46.3867768],[6.8263416,46.3867976],[6.8263429,46.3868067],[6.8263408,46.3868129],[6.8263379,46.3868195],[6.8263206,46.3868223],[6.8263103,46.3868223],[6.8262876,46.3868223],[6.8261597,46.3868303],[6.8260359,46.3868394],[6.8260008,46.3868417],[6.8259909,46.3868386],[6.8259855,46.3868363],[6.8259583,46.3868363],[6.8259397,46.3868377],[6.8259005,46.3868411],[6.8258609,46.3868442],[6.8258362,46.3868499],[6.8258184,46.3868536],[6.8257722,46.3868633],[6.825764,46.3868639],[6.8257248,46.3868727],[6.8257058,46.3868801],[6.8256942,46.3868867],[6.8256839,46.3868963],[6.8256654,46.3869046],[6.8256295,46.3869151],[6.8256026,46.3869222],[6.8255651,46.3869265],[6.8255271,46.3869313],[6.8254987,46.3869328],[6.8254743,46.3869333],[6.8254508,46.3869342],[6.8254318,46.3869348],[6.8253963,46.3869373],[6.8253827,46.386939],[6.8253505,46.386943],[6.8253212,46.386945],[6.8253031,46.386943],[6.8252866,46.3869325],[6.8252618,46.3869231],[6.8252408,46.3869114],[6.8252292,46.386896],[6.8252197,46.3868832],[6.8252094,46.3868744],[6.8252016,46.3868645],[6.8251995,46.3868573],[6.8251937,46.3868508],[6.8251723,46.3868423],[6.8251512,46.3868371],[6.8251331,46.3868343],[6.825105,46.3868326],[6.8250823,46.3868317],[6.8250605,46.3868314],[6.8250299,46.3868292],[6.8250064,46.3868249],[6.8249849,46.3868209],[6.8249808,46.3868203],[6.8249722,46.3868209],[6.8249664,46.3868252],[6.8249693,46.3868303],[6.8249796,46.3868374],[6.8249957,46.3868462],[6.8250023,46.3868514],[6.8250019,46.3868551],[6.8249953,46.3868562],[6.8249849,46.3868488],[6.8249684,46.3868357],[6.8249631,46.3868314],[6.8249404,46.3868212],[6.8249325,46.3868175],[6.8249235,46.3868124],[6.8249144,46.3868081],[6.8248946,46.3868041],[6.8248793,46.3868004],[6.8248665,46.386799],[6.824855,46.3867979],[6.82481,46.3867996],[6.8247679,46.3868035],[6.824732,46.3868038],[6.824718,46.3868061],[6.8247019,46.3868175],[6.8246858,46.386828],[6.8246408,46.386832],[6.8245851,46.3868366],[6.8245628,46.3868383],[6.8245575,46.3868423],[6.8245566,46.3868491],[6.8245604,46.3868795],[6.8245624,46.3868895],[6.8245732,46.3868923],[6.8245876,46.3868926],[6.8246573,46.3868898],[6.8246936,46.3868889],[6.82472,46.3868915],[6.8247547,46.3868943],[6.8247811,46.3868992],[6.8248261,46.386906],[6.82485,46.3869094],[6.8248612,46.3869143],[6.8248719,46.38692],[6.8248863,46.3869274],[6.8248979,46.386935],[6.8249032,46.3869444],[6.8249049,46.3869524],[6.8248999,46.3869607],[6.8248723,46.3869629],[6.8248574,46.386955],[6.8248475,46.386943],[6.8248376,46.3869387],[6.8248211,46.3869365],[6.82481,46.3869353],[6.824803,46.3869308],[6.8247997,46.3869254],[6.8247993,46.3869182],[6.8247947,46.3869128],[6.8247894,46.3869097],[6.8247836,46.3869077],[6.8247658,46.3869049],[6.8247514,46.3869026],[6.8247345,46.3868989],[6.8247101,46.3868958],[6.8246994,46.3868958],[6.8246775,46.3868938],[6.8246569,46.3868958],[6.8246099,46.3868997],[6.824567,46.3869017],[6.8245451,46.3869034],[6.8245327,46.3869089],[6.8245212,46.386916],[6.82451,46.3869234],[6.8244919,46.3869279],[6.8244795,46.3869293],[6.8244671,46.3869285],[6.8244452,46.3869271],[6.8244296,46.3869274],[6.824406,46.3869274],[6.8243916,46.3869268],[6.8243805,46.3869282],[6.8243664,46.3869325],[6.8243615,46.3869422],[6.8243627,46.3869487],[6.8243652,46.3869561],[6.8243673,46.3869661],[6.824364,46.3869706],[6.8243479,46.3869732],[6.8243408,46.3869738],[6.8243338,46.3869786],[6.8243322,46.3869874],[6.8243371,46.3870045],[6.8243371,46.387017],[6.8243243,46.3870258],[6.8243124,46.3870295],[6.8243066,46.3870367],[6.8243074,46.3870452],[6.8242967,46.3870537],[6.8242831,46.3870597],[6.8242691,46.387066],[6.8242459,46.3870722],[6.8242307,46.3870776],[6.8242072,46.387085],[6.824189,46.3870919],[6.8241708,46.3871001],[6.8241531,46.3871081],[6.824142,46.3871126],[6.8241325,46.3871155],[6.8241156,46.3871186],[6.8241019,46.3871195],[6.8240834,46.3871195],[6.8240611,46.3871192],[6.8240388,46.3871166],[6.8240244,46.3871126],[6.8240136,46.3871015],[6.8240075,46.3870953],[6.8239967,46.3870919],[6.8239897,46.3870893],[6.8239662,46.3870927],[6.8239398,46.387105],[6.8239336,46.3871112],[6.8239332,46.3871206],[6.8239348,46.3871297],[6.8239352,46.3871368],[6.8239365,46.3871462],[6.8239336,46.3871568],[6.8239237,46.3871659],[6.8238894,46.3871744],[6.8238833,46.3871773],[6.8238692,46.387181],[6.8238449,46.3871872],[6.8238065,46.387198],[6.82379,46.387202],[6.8237723,46.3872091],[6.823764,46.3872128],[6.8237492,46.3872225],[6.8237232,46.3872288],[6.8237001,46.3872339],[6.8236844,46.3872387],[6.8236695,46.3872424],[6.8236472,46.3872501],[6.8236328,46.3872564],[6.8236142,46.3872629],[6.8235911,46.3872769],[6.8235717,46.3872826],[6.8235565,46.3872828],[6.8235358,46.3872831],[6.8235185,46.3872871],[6.8234995,46.3872917],[6.8234768,46.3872974],[6.8234611,46.3873025],[6.8234409,46.3873099],[6.8234211,46.3873124],[6.8234042,46.3873153],[6.8233852,46.3873204],[6.8233716,46.3873233],[6.8233456,46.3873233],[6.8233328,46.3873179],[6.8233192,46.3873068],[6.823311,46.3873025],[6.8232891,46.3872948],[6.8232676,46.3872925],[6.8232524,46.3872925],[6.8232284,46.3872968],[6.8232127,46.3873008],[6.823195,46.3873059],[6.8231764,46.3873096],[6.8231599,46.3873144],[6.82315,46.3873216],[6.8231381,46.3873261],[6.8231121,46.3873304],[6.8230898,46.3873332],[6.823065,46.3873364],[6.8230461,46.3873392],[6.8230283,46.3873423],[6.8230151,46.3873463],[6.8230093,46.3873526],[6.8230102,46.38736],[6.8230118,46.3873677],[6.8230213,46.3873765],[6.8230275,46.3873825],[6.8230353,46.3873893],[6.8230399,46.3873958],[6.8230361,46.3874055],[6.8230279,46.3874109],[6.8230023,46.3874186],[6.8229776,46.3874232],[6.8229569,46.3874274],[6.8229425,46.3874328],[6.822921,46.3874385],[6.8229058,46.3874439],[6.8228488,46.3874616],[6.8228307,46.3874656],[6.8228142,46.3874696],[6.822803,46.3874752],[6.8228005,46.3874818],[6.8227927,46.3874903],[6.8227733,46.3874935],[6.8227568,46.3874915],[6.8227448,46.3874869],[6.8227316,46.3874855],[6.8227077,46.3874869],[6.8226904,46.3874898],[6.822652,46.3874929],[6.8226285,46.3874972],[6.8226182,46.3875006],[6.822607,46.3875083],[6.8225967,46.3875168],[6.8225823,46.3875316],[6.8225777,46.3875401],[6.8225711,46.3875521],[6.8225699,46.387566],[6.8225728,46.3875743],[6.8225802,46.3875877],[6.8225864,46.3875959],[6.8225946,46.3876036],[6.8226074,46.387611],[6.8226219,46.387615],[6.8226475,46.3876224],[6.8226561,46.3876315],[6.8226598,46.3876429],[6.8226586,46.3876528],[6.8226578,46.3876585],[6.8226512,46.387681],[6.8226545,46.387691],[6.8226528,46.3877046],[6.8226524,46.3877126],[6.8226512,46.3877223],[6.8226503,46.3877323],[6.8226549,46.3877587],[6.8226541,46.3877664],[6.8226528,46.3877744],[6.822652,46.3877804],[6.8226413,46.3877966],[6.8226285,46.3878023],[6.8226021,46.3878119],[6.8225918,46.3878174],[6.8225847,46.3878225],[6.8225777,46.3878273],[6.8225682,46.3878364],[6.8225637,46.3878481],[6.8225431,46.3878737],[6.8225369,46.3878834],[6.8225303,46.3878959],[6.8225241,46.3879013],[6.8225253,46.3879079],[6.8225352,46.3879147],[6.8225464,46.3879218],[6.8225612,46.3879252],[6.8225757,46.3879269],[6.8225864,46.3879244],[6.8225951,46.3879187],[6.8226045,46.387913],[6.8226107,46.3879079],[6.8226198,46.3878985],[6.822626,46.3878899],[6.8226341,46.3878778],[6.8226363,46.3878763],[6.8226415,46.3878765],[6.8226433,46.3878793],[6.82264,46.3878839],[6.8226351,46.3878892],[6.8226293,46.3878943],[6.8226266,46.3878976],[6.8226202,46.387904],[6.8226175,46.3879073],[6.8226142,46.387911],[6.8226105,46.3879148],[6.8226085,46.387917],[6.8226027,46.3879208],[6.8225928,46.3879271],[6.8225816,46.3879308],[6.8225693,46.3879342],[6.8225631,46.3879356],[6.8225573,46.3879386],[6.8225538,46.387942],[6.8225509,46.387944],[6.8225464,46.3879454],[6.8225311,46.3879417],[6.8225276,46.3879379],[6.8225175,46.3879305],[6.8225109,46.3879265],[6.8225057,46.3879241],[6.822502,46.3879227],[6.8224981,46.3879209],[6.8224915,46.3879202],[6.8224837,46.3879198],[6.8224795,46.3879207],[6.8224688,46.387919],[6.8224591,46.3879137],[6.8224478,46.3879057],[6.8224393,46.3879006],[6.8224147,46.3878822],[6.8224003,46.3878728],[6.8223863,46.3878632],[6.8223768,46.3878582],[6.8223725,46.3878553],[6.8223638,46.3878571],[6.8223555,46.387862],[6.8223504,46.387865],[6.8223473,46.387869],[6.8223489,46.3878756],[6.8223601,46.3878822],[6.8223679,46.3878882],[6.8223733,46.3878928],[6.8223838,46.3878992],[6.8223877,46.3879016],[6.822397,46.3879083],[6.8224086,46.3879154],[6.8224321,46.3879333],[6.8224389,46.3879394],[6.8224416,46.387947],[6.8224401,46.3879496],[6.8224422,46.3879537],[6.82245,46.3879607],[6.8224539,46.3879651],[6.8224572,46.3879695],[6.8224597,46.3879723],[6.8224618,46.387976],[6.8224632,46.387982],[6.8224572,46.3879922],[6.8224531,46.3880004],[6.8224434,46.3880073],[6.8224352,46.3880132],[6.822429,46.3880183],[6.8224234,46.3880228],[6.8224067,46.3880325],[6.8223885,46.3880443],[6.8223815,46.3880487],[6.8223749,46.3880514],[6.8223597,46.3880543],[6.8223452,46.3880577],[6.8223335,46.3880611],[6.8223147,46.3880691],[6.8223017,46.3880744],[6.8222965,46.3880792],[6.8222924,46.3880847],[6.822285,46.3880906],[6.8222765,46.3880954],[6.8222629,46.3880954],[6.8222357,46.388098],[6.8222208,46.3880988],[6.8222093,46.3881014],[6.822194,46.3881059],[6.822175,46.3881131],[6.8221618,46.3881227],[6.8221503,46.3881287],[6.8221387,46.3881321],[6.8221144,46.3881358],[6.8220966,46.3881392],[6.8220834,46.3881432],[6.8220607,46.3881518],[6.822043,46.3881538],[6.8220137,46.3881543],[6.821991,46.3881552],[6.8219807,46.3881549],[6.8219646,46.3881543],[6.8219357,46.3881586],[6.8219233,46.3881623],[6.8218998,46.3881643],[6.8218907,46.3881654],[6.8218647,46.3881651],[6.8218437,46.3881643],[6.821823,46.3881706],[6.8218103,46.3881765],[6.8217933,46.3881831],[6.8217731,46.3881868],[6.821757,46.3881893],[6.8217203,46.3881916],[6.821696,46.3881959],[6.821672,46.3881982],[6.8216572,46.3881982],[6.8216324,46.3882004],[6.8216147,46.3882036],[6.8215936,46.3882061],[6.8215602,46.3882093],[6.8215272,46.388209],[6.8215024,46.3882067],[6.8214859,46.3882047],[6.8214649,46.3882036],[6.8214472,46.3882019],[6.8214348,46.388203],[6.821403,46.3882076],[6.8213787,46.388213],[6.8213523,46.3882226],[6.8213139,46.3882326],[6.8212858,46.3882357],[6.8212706,46.3882386],[6.8212545,46.388242],[6.8212215,46.3882397],[6.8211917,46.3882397],[6.8211678,46.3882372],[6.8211497,46.3882366],[6.8211303,46.388236],[6.8211047,46.3882346],[6.8210746,46.3882363],[6.8210527,46.3882357],[6.8210234,46.3882352],[6.8210007,46.3882343],[6.8209632,46.3882372],[6.8209,46.3882437],[6.820881,46.3882463],[6.8208542,46.3882485],[6.8208361,46.3882471],[6.8208245,46.3882417],[6.8208113,46.3882306],[6.8208105,46.3882181],[6.8208113,46.3882081],[6.8208121,46.3881999],[6.8208105,46.3881899],[6.8208059,46.3881854],[6.8207903,46.3881851],[6.8207738,46.3881865],[6.8207589,46.3881891],[6.8207552,46.3881916],[6.8207581,46.3881976],[6.8207614,46.3882044],[6.8207643,46.3882144],[6.8207676,46.3882243],[6.8207713,46.3882354],[6.8207721,46.3882417],[6.8207733,46.3882539],[6.8207705,46.3882687],[6.8207651,46.3882767],[6.8207428,46.3882938],[6.8207164,46.3882983],[6.8206805,46.3883066],[6.8206698,46.3883094],[6.8206607,46.3883146],[6.820617,46.3883353],[6.8205881,46.3883416],[6.8205741,46.3883445],[6.8205283,46.3883575],[6.8205113,46.3883624],[6.8204919,46.3883681],[6.8204701,46.3883755],[6.8204569,46.38838],[6.8204383,46.3883863],[6.8204156,46.3883974],[6.8203847,46.3884056],[6.820371,46.3884119],[6.820362,46.3884182],[6.8203446,46.3884227],[6.8203224,46.3884241],[6.8203063,46.3884258],[6.8202204,46.3884387],[6.820194,46.3884418],[6.8201878,46.3884438],[6.8201899,46.388452],[6.8201932,46.3884574],[6.8202006,46.3884688],[6.8202081,46.3884794],[6.8202151,46.3884885],[6.82022,46.3884927],[6.8202407,46.3884979],[6.8202506,46.3884964],[6.82027,46.3884933],[6.8202844,46.3884896],[6.8203162,46.3884828],[6.8203343,46.3884799],[6.8203583,46.3884771],[6.8203715,46.3884802],[6.820376,46.388485],[6.8203793,46.3884953],[6.8203739,46.388505],[6.8203657,46.3885084],[6.8203269,46.3885138],[6.8202997,46.3885172],[6.820277,46.3885218],[6.8202646,46.3885243],[6.8202398,46.3885252],[6.8202229,46.3885223],[6.8202126,46.3885192],[6.8201982,46.3885129],[6.8201874,46.3885109],[6.8201771,46.3885092],[6.8201561,46.3885104],[6.8201396,46.3885132],[6.8201206,46.3885183],[6.8201061,46.3885215],[6.8200859,46.3885232],[6.8200645,46.3885226],[6.8200455,46.3885243],[6.8200253,46.3885263],[6.8200108,46.3885277],[6.8199663,46.3885366],[6.8199473,46.3885397],[6.8199345,46.38854],[6.8199089,46.3885411],[6.8198771,46.3885397],[6.8198681,46.388536],[6.8198615,46.3885326],[6.8198474,46.3885266],[6.8198363,46.3885198],[6.8198256,46.3885067],[6.8198223,46.388501],[6.8198169,46.388497],[6.8197913,46.3884919],[6.8197765,46.3884913],[6.8197542,46.3884993],[6.8197352,46.3885107],[6.8197216,46.3885166],[6.819708,46.3885209],[6.8196811,46.3885223],[6.8196618,46.3885246],[6.8196432,46.3885223],[6.819616,46.3885212],[6.819592,46.3885186],[6.8195718,46.3885166],[6.8195573,46.3885149],[6.8195413,46.3885131],[6.8195227,46.3885127],[6.8195098,46.3885113],[6.8194925,46.3885078],[6.8194884,46.3885031],[6.8194891,46.3884972],[6.8194918,46.3884909],[6.8194935,46.3884825],[6.8194935,46.3884776],[6.8194918,46.3884729],[6.8194854,46.3884659],[6.8194816,46.3884607],[6.819465,46.3884558],[6.8194453,46.3884521],[6.8194328,46.3884495],[6.819409,46.3884474],[6.8193822,46.3884453],[6.819354,46.3884446],[6.8193412,46.3884441],[6.8193286,46.3884453],[6.8193157,46.3884492],[6.8192987,46.388456],[6.8192852,46.3884614],[6.8192709,46.3884656],[6.8192455,46.3884726],[6.8192251,46.3884776],[6.8192095,46.3884815],[6.8191898,46.3884883],[6.819162,46.3884968],[6.8191549,46.3884979],[6.8191172,46.3885094],[6.8191016,46.3885117],[6.8190836,46.3885171],[6.8190714,46.388522],[6.819049,46.3885251],[6.8190124,46.3885344],[6.8189947,46.3885386],[6.8189819,46.3885419],[6.8189676,46.3885452],[6.8189506,46.3885513],[6.8189249,46.3885597],[6.818893,46.3885677],[6.8188658,46.3885761],[6.8188278,46.3885883],[6.8187973,46.3886],[6.8187579,46.3886121],[6.8187274,46.3886215],[6.8186901,46.388636],[6.8186616,46.3886458],[6.8186338,46.388658],[6.818612,46.3886669],[6.818551,46.3886894],[6.8185198,46.3887006],[6.8184933,46.3887081],[6.8184655,46.3887184],[6.8184288,46.3887334],[6.818403,46.3887413],[6.8183766,46.3887507],[6.8183169,46.3887652],[6.8182768,46.3887741],[6.8182293,46.3887891],[6.818175,46.388804],[6.8181465,46.388811],[6.818099,46.3888246],[6.8180712,46.3888335],[6.8180339,46.3888452],[6.8179837,46.3888649],[6.8179477,46.3888803],[6.8179077,46.3888939],[6.817869,46.3889098],[6.8178269,46.3889215],[6.8178093,46.3889262],[6.8177855,46.3889374],[6.8177414,46.3889604],[6.8177143,46.3889772],[6.8176919,46.3889884],[6.8176756,46.3890011],[6.817658,46.3890226],[6.8176546,46.3890292],[6.8176254,46.3890493],[6.8176044,46.3890535],[6.8175888,46.3890577],[6.8175738,46.3890671],[6.8175609,46.3890895],[6.8175413,46.3891504],[6.8175189,46.3892131],[6.8175012,46.3892421],[6.8174605,46.3893282],[6.8174374,46.3893507],[6.8174259,46.3893554],[6.8174069,46.3893474],[6.8173723,46.389331],[6.817354,46.3893212],[6.8173296,46.3893208],[6.8173234,46.389325],[6.8173092,46.389339],[6.8173133,46.3893474],[6.8173302,46.3893657],[6.8173547,46.3893774],[6.8173757,46.3893858],[6.8173852,46.3893956],[6.8173852,46.3894078],[6.8173581,46.3894382],[6.817337,46.3894635],[6.8172678,46.3895141],[6.817202,46.3895445],[6.8171348,46.3895763],[6.8170914,46.3895894],[6.8170554,46.389596],[6.8170466,46.3895871],[6.8170371,46.3895749],[6.8169821,46.3895782],[6.8169217,46.3895875],[6.8168742,46.3895932],[6.8167962,46.3896058],[6.8167494,46.3896142],[6.816689,46.3896334],[6.8166272,46.3896582],[6.8165933,46.3896751],[6.8165526,46.3897022],[6.8165309,46.3897106],[6.8165288,46.38972],[6.8165424,46.3897317],[6.8165709,46.3897546],[6.8165987,46.3897701],[6.8166205,46.3897785],[6.81663,46.3897743],[6.8166449,46.3897551],[6.8166544,46.3897345],[6.8166578,46.3897195],[6.8166686,46.3897041],[6.8166971,46.3896891],[6.8167127,46.3896854],[6.816729,46.3896849],[6.8167378,46.3896924],[6.8167331,46.3897069],[6.8167216,46.3897176],[6.8167121,46.3897233],[6.8166958,46.3897261],[6.8166849,46.3897308],[6.8166646,46.3897532],[6.8166503,46.389771],[6.8166354,46.3897869],[6.8166164,46.3898024],[6.8165763,46.3898319],[6.8165363,46.3898721],[6.8164976,46.3899044],[6.8164556,46.3899358],[6.8164481,46.3899521],[6.8164433,46.3899638],[6.8164528,46.3899788],[6.8164657,46.3899877],[6.8164773,46.3899975],[6.8164617,46.3900102],[6.8164427,46.39002],[6.8164108,46.3900354],[6.8163809,46.3900523],[6.8163646,46.3900617],[6.8163151,46.3900837],[6.8162941,46.390093],[6.8162846,46.3900958],[6.816231,46.3901281],[6.8161984,46.3901515],[6.8161658,46.3901688],[6.8161373,46.3901894],[6.8161271,46.3901955],[6.816098,46.3902077],[6.8160708,46.390217],[6.8160362,46.3902306],[6.8160172,46.3902344],[6.8159914,46.3902316],[6.8159731,46.3902241],[6.8159602,46.3902203],[6.8159473,46.3902245],[6.8159195,46.3902447],[6.8158951,46.3902634],[6.8158754,46.3902905],[6.8158693,46.3903018],[6.8158788,46.3903139],[6.8159032,46.3903303],[6.8159304,46.3903425],[6.8159453,46.3903415],[6.8159704,46.3903214],[6.8159738,46.3903046],[6.8159812,46.3902929],[6.8159955,46.3902887],[6.8160097,46.3902891],[6.8160077,46.3902961],[6.8159928,46.3903144],[6.8159833,46.3903238],[6.8159711,46.3903336],[6.8159595,46.3903434],[6.815948,46.3903537],[6.8159378,46.3903603],[6.8159249,46.3903612],[6.8159019,46.390357],[6.8158713,46.3903523],[6.8158544,46.3903486],[6.8158435,46.3903453],[6.8158326,46.3903434],[6.8158218,46.3903425],[6.8157865,46.3903406],[6.8157655,46.3903364],[6.8157594,46.3903331],[6.8157404,46.3903284],[6.8157247,46.3903289],[6.815703,46.3903336],[6.815665,46.3903444],[6.8156128,46.3903612],[6.8155863,46.390371],[6.8155687,46.390379],[6.8155551,46.390386],[6.8155531,46.390394],[6.8155694,46.3904099],[6.815587,46.3904244],[6.8155938,46.3904319],[6.8155992,46.3904394],[6.8156006,46.3904445],[6.8155917,46.3904501],[6.8155795,46.3904497],[6.815568,46.3904384],[6.8155558,46.390416],[6.8155388,46.3903972],[6.8155185,46.390378],[6.8154893,46.3903621],[6.8154723,46.3903546],[6.8154336,46.3903453],[6.8153807,46.3903495],[6.8153515,46.3903383],[6.8153522,46.3903181],[6.815359,46.3903088],[6.8153651,46.3902933],[6.8153515,46.3902765],[6.8153298,46.3902582],[6.815302,46.3902475],[6.8152715,46.3902381],[6.8152124,46.3902283],[6.81519,46.3902259],[6.8151731,46.3902447],[6.8151704,46.3902526],[6.8151581,46.3902741],[6.8151466,46.3902816],[6.8151127,46.3902816],[6.815076,46.3902779],[6.8150258,46.3902713],[6.814998,46.3902671],[6.8149661,46.3902638],[6.8149566,46.3902578],[6.8149403,46.3902554],[6.8149145,46.3902624],[6.8148813,46.3902699],[6.8148603,46.3902709],[6.8148399,46.3902718],[6.8148243,46.3902695],[6.8148053,46.3902624],[6.8147748,46.3902521],[6.8147585,46.3902409],[6.8147361,46.3902278],[6.8147184,46.3902208],[6.8146906,46.3902175],[6.8146757,46.3902161],[6.8146363,46.3902175],[6.8146051,46.3902236],[6.8145637,46.3902302],[6.8145312,46.3902306],[6.8144701,46.3902461],[6.814445,46.3902521],[6.8143948,46.3902517],[6.8143635,46.3902517],[6.8143188,46.3902592],[6.8142848,46.3902723],[6.814255,46.3902835],[6.8142156,46.3902938],[6.8141722,46.3902985],[6.814103,46.3902947],[6.8140677,46.3902667],[6.8140433,46.3902507],[6.8140066,46.3902414],[6.8139632,46.3902386],[6.8139035,46.3902433],[6.8138641,46.390247],[6.8137976,46.3902517],[6.81378,46.3902423],[6.8137556,46.3902217],[6.8137203,46.3902058],[6.8136755,46.3902011],[6.8136266,46.390203],[6.8135859,46.3902049],[6.8135411,46.3902208],[6.8135004,46.3902376],[6.8134692,46.3902517],[6.8133783,46.390277],[6.8133376,46.3902751],[6.8132765,46.3902685],[6.8132385,46.3902667],[6.8131638,46.3902676],[6.8131513,46.3902664]]},"properties":{"admin_level":"8","boundary":"administrative","source":"swiss Image 2021"}},
{"type":"Feature","geometry":{"type":"LineString","coordinates":[[6.8289653,46.3853892],[6.828945,46.3853968],[6.8289314,46.3854067],[6.8289003,46.3854166],[6.8288605,46.3854254],[6.828839,46.3854298],[6.8288198,46.3854326],[6.8287784,46.3854386],[6.8287521,46.385441899999999],[6.8287298,46.3854485],[6.8286732,46.3854639],[6.8286525,46.3854666],[6.8286142,46.3854666],[6.8286007,46.3854617],[6.82858,46.3854529],[6.8285457,46.3854441],[6.8284875,46.3854441],[6.8284222,46.3854545],[6.828399,46.3854606],[6.8283783,46.3854716],[6.8283536,46.3854859],[6.8283329,46.3854974],[6.8283042,46.3855057],[6.8282596,46.3855178],[6.8282261,46.3855277],[6.8281926,46.3855343],[6.8281552,46.3855381],[6.8281297,46.3855348],[6.8281098,46.3855293],[6.8281034,46.38552],[6.8280962,46.3855051],[6.8280827,46.3854886],[6.8280707,46.3854793],[6.8280579,46.3854721],[6.8280508,46.3854661],[6.8280444,46.3854534],[6.82804,46.3854402],[6.8280404,46.3854235],[6.8280472,46.3854205],[6.8280568,46.3854172],[6.8280735,46.3854163],[6.8280986,46.3854221],[6.8281225,46.3854249],[6.8281408,46.3854249],[6.8281679,46.3854249],[6.828195,46.3854243],[6.8282229,46.3854227],[6.8282325,46.3854216],[6.8282652,46.3854161],[6.828309,46.3854089],[6.8283178,46.3854051],[6.8283512,46.3853869],[6.8284102,46.3853732],[6.8284612,46.3853693],[6.8284979,46.3853693],[6.8285401,46.3853715],[6.8285847,46.3853622],[6.828619,46.3853484],[6.828635,46.3853385],[6.8286429,46.3853248],[6.8286453,46.3853078],[6.828627,46.385283],[6.8286134,46.3852737],[6.8286047,46.3852704],[6.8285855,46.3852544],[6.8285361,46.3852412],[6.8285074,46.3852363],[6.8284676,46.3852363],[6.8284246,46.3852451],[6.828411,46.3852451],[6.8283815,46.3852429],[6.8283616,46.3852319],[6.8283369,46.3852198],[6.8283233,46.385211],[6.8283058,46.3851984],[6.8282946,46.3851808],[6.8282747,46.3851632],[6.8282524,46.3851571],[6.8282277,46.3851571],[6.8282078,46.3851538],[6.8281918,46.3851417],[6.8281847,46.3851302],[6.8281719,46.3851164],[6.8281297,46.3851076],[6.8281074,46.3851098],[6.8280898,46.3851142],[6.8280795,46.3851241],[6.8280723,46.3851351],[6.82805,46.3851511],[6.8280436,46.385161],[6.8280532,46.3851758],[6.8280595,46.3851885],[6.8280595,46.3852006],[6.8280524,46.3852127],[6.8280356,46.3852242],[6.8280165,46.3852379],[6.8280061,46.3852456],[6.827995,46.3852517],[6.8279822,46.3852643],[6.8279679,46.3852863],[6.8279583,46.3852973],[6.8279328,46.385316],[6.8278962,46.385327],[6.8278707,46.3853402],[6.8278212,46.3853655],[6.8278101,46.3853875],[6.8277997,46.3853985],[6.8277973,46.3854073],[6.8277997,46.3854128],[6.8278149,46.3854128],[6.8278468,46.3854089],[6.8278595,46.3854155],[6.8278547,46.3854309],[6.8278348,46.3854441],[6.8278133,46.3854496],[6.827787,46.3854595],[6.8277647,46.3854793],[6.8277423,46.385498],[6.827716,46.385504],[6.8276802,46.3855084],[6.8276523,46.3855095],[6.8276061,46.3855161],[6.8275869,46.3855288],[6.8275734,46.3855518],[6.8275543,46.3855639],[6.8275335,46.3855694],[6.8274977,46.3855738],[6.8274746,46.3855788],[6.8274515,46.3855942],[6.8274355,46.385614],[6.8274172,46.3856338],[6.827406,46.3856552],[6.8274044,46.385675],[6.82741,46.3856937],[6.8274204,46.3857118],[6.8274212,46.3857283],[6.8274132,46.3857553],[6.8273901,46.3857888],[6.827371,46.3857932],[6.8273407,46.3857888],[6.8273168,46.3857904],[6.827308,46.3857965],[6.8273024,46.3858058],[6.8273032,46.385813],[6.8273088,46.3858212],[6.827316,46.3858377],[6.8273144,46.3858504],[6.8273104,46.3858641],[6.8272809,46.3858861],[6.8272642,46.3858905],[6.8272379,46.3858877],[6.8272299,46.3858811],[6.8272227,46.3858756],[6.8272124,46.385866300000007],[6.8272044,46.3858581],[6.8271932,46.3858487],[6.8271964,46.3858399],[6.8272028,46.3858295],[6.8272156,46.3858201],[6.8272275,46.3858119],[6.8272411,46.3857992],[6.8272363,46.3857893],[6.8272203,46.3857855],[6.827202,46.3857838],[6.8271861,46.3857877],[6.8271693,46.3857954],[6.8271518,46.3858047],[6.827139,46.3858135],[6.8271287,46.3858223],[6.8271151,46.3858476],[6.8271135,46.3858542],[6.8271167,46.3858658],[6.8271271,46.3858702],[6.827143,46.3858674],[6.8271669,46.3858713],[6.8271709,46.38588],[6.8271661,46.3858927],[6.8271534,46.3858993],[6.8271175,46.3858965],[6.8271,46.3858916],[6.8270848,46.3858938],[6.8270753,46.3858993],[6.8270609,46.3859037],[6.827037,46.3859032],[6.8270241,46.3858979],[6.8270125,46.3858899],[6.8270159,46.3858734],[6.8270233,46.3858671],[6.8270332,46.3858603],[6.8270414,46.3858512],[6.8270472,46.3858398],[6.8270489,46.3858245],[6.8270324,46.3858102],[6.8270101,46.3857977],[6.8269977,46.385788],[6.8269903,46.3857772],[6.8269787,46.3857681],[6.826968,46.3857601],[6.8269531,46.3857544],[6.8269317,46.3857527],[6.8269143,46.3857539],[6.8268995,46.3857607],[6.8268896,46.3857752],[6.8268875,46.3857877],[6.8268896,46.3858037],[6.8268884,46.3858205],[6.8268896,46.3858319],[6.826902,46.3858455],[6.8269065,46.3858575],[6.8268983,46.3858717],[6.8268813,46.3858763],[6.826857,46.3858754],[6.8268463,46.38587],[6.8268252,46.3858646],[6.8268095,46.385862],[6.8267943,46.3858634],[6.8267815,46.3858714],[6.8267683,46.3858834],[6.8267662,46.3858942],[6.8267724,46.3859041],[6.8267769,46.3859172],[6.8267761,46.385936],[6.8267741,46.3859431],[6.8267741,46.3859554],[6.8267728,46.3859742],[6.8267728,46.3859921],[6.8267695,46.3860126],[6.8267609,46.3860257],[6.8267398,46.3860354],[6.8267196,46.3860416],[6.8266981,46.3860416],[6.826687,46.3860325],[6.826675,46.386018],[6.8266651,46.3860077],[6.8266577,46.3859912],[6.8266523,46.3859773],[6.8266412,46.3859585],[6.8266404,46.385944],[6.8266329,46.385932],[6.8266168,46.3859195],[6.8266008,46.3859152],[6.8265814,46.3859115],[6.8265719,46.3859093],[6.8265422,46.3859084],[6.8265215,46.3859144],[6.8265112,46.3859269],[6.8265108,46.385942],[6.8265141,46.3859614],[6.8265269,46.3859787],[6.8265475,46.385991],[6.8265739,46.3860055],[6.8265917,46.3860177],[6.8266144,46.3860382],[6.8266173,46.3860516],[6.8266189,46.3860721],[6.826616,46.3860809],[6.8266016,46.3861005],[6.826588,46.3861128],[6.8265574,46.3861225],[6.8265158,46.3861262],[6.826486,46.386127],[6.8264576,46.386125],[6.8264398,46.386119],[6.8264237,46.3861059],[6.8264143,46.3860903],[6.8264068,46.3860709],[6.8264089,46.3860564],[6.8264143,46.3860411],[6.8264118,46.3860268],[6.8264048,46.3860146],[6.8263973,46.3860066],[6.8263804,46.3859964],[6.8263598,46.3859904],[6.8263363,46.3859932],[6.8263148,46.3860023],[6.8263016,46.386018],[6.8262958,46.3860337],[6.826295,46.3860527],[6.8262995,46.3860652],[6.8263206,46.3860775],[6.8263474,46.3860934],[6.8263643,46.3861088],[6.8263722,46.3861296],[6.8263635,46.3861464],[6.8263367,46.3861614],[6.8262884,46.3861691],[6.8262418,46.3861694],[6.8262277,46.3861634],[6.8262187,46.3861452],[6.8262104,46.386135],[6.8261968,46.3861284],[6.8261753,46.3861159],[6.8261683,46.386102],[6.8261646,46.3860832],[6.8261654,46.3860687],[6.8261659,46.3860547],[6.8261626,46.3860379],[6.8261642,46.3860049],[6.8261642,46.3859975],[6.8261543,46.3859602],[6.8261477,46.3859497],[6.8261328,46.3859411],[6.8261093,46.3859394],[6.8260903,46.3859477],[6.8260689,46.3859625],[6.8260594,46.3859804],[6.8260524,46.3859989],[6.8260437,46.3860117],[6.8260367,46.3860226],[6.8260301,46.3860305],[6.8260186,46.3860476],[6.8260095,46.3860573],[6.8259913,46.3860695],[6.8259682,46.386082],[6.8259538,46.386088],[6.8259492,46.3860906],[6.8259459,46.3860934],[6.8259393,46.3861034],[6.8259298,46.3861108],[6.8259113,46.3861196],[6.8258828,46.3861281],[6.8258531,46.3861367],[6.8258432000000008,46.3861435],[6.8258337,46.3861532],[6.825825,46.3861612],[6.8258061,46.3861691],[6.8257644,46.3861754],[6.8257491,46.386174],[6.8257107,46.3861811],[6.8256951,46.3861839],[6.8256839,46.3861831],[6.8256699,46.3861825],[6.8256455,46.3861802],[6.8256204,46.3861882],[6.8256117,46.3861976],[6.8255923,46.386205],[6.8255688,46.3862124],[6.8255651,46.3862144],[6.8255436,46.3862212],[6.8255275,46.3862263],[6.8255131,46.3862312],[6.8254826,46.3862409],[6.8254632,46.3862474],[6.825424,46.3862525],[6.8253914,46.3862502],[6.8253666,46.3862428],[6.8253621,46.3862332],[6.8253419,46.3862229],[6.8253258,46.3862098],[6.8253254,46.3862019],[6.8253225,46.3861947],[6.8253192,46.3861819],[6.8253225,46.3861646],[6.8253188,46.3861597],[6.825313,46.3861486],[6.8253097,46.3861375],[6.8253072,46.386131],[6.8253064,46.3861242],[6.8253055,46.3861136],[6.8253043,46.3860997],[6.8253043,46.3860829],[6.8252965,46.3860721],[6.8252812,46.3860647],[6.8252635,46.3860596],[6.8252511,46.3860541],[6.8252412,46.386049],[6.8252296,46.3860422],[6.8252197,46.3860351],[6.8251991,46.3860308],[6.8251813,46.3860325],[6.8251533,46.3860408],[6.8251252,46.3860462],[6.8251112,46.3860476],[6.8250943,46.3860539],[6.8250811,46.386055],[6.8250435,46.3860584],[6.8250378,46.386059],[6.8250213,46.3860621],[6.8250027,46.3860726],[6.8249874,46.3860778],[6.8249606,46.386084],[6.8249429,46.3860855],[6.8249119,46.3860866],[6.8248942,46.386092],[6.824876,46.3861031],[6.8248661,46.3861068],[6.8248401,46.3861142],[6.8248195,46.3861153],[6.8247943,46.3861185],[6.8247757,46.3861236],[6.8247597,46.3861353],[6.8247489,46.3861455],[6.8247386,46.386156],[6.8247287,46.386168],[6.8247122,46.3861825],[6.8247093,46.3861942],[6.8247126,46.3862078],[6.8247143,46.3862206],[6.8247114,46.3862323],[6.8247081,46.3862463],[6.8247077,46.3862562],[6.8247159,46.3862742],[6.8247262,46.386289],[6.8247233,46.3863032],[6.824718,46.3863171],[6.8246912,46.3863308],[6.8246718,46.3863399],[6.8246433,46.3863459],[6.8246144,46.3863538],[6.8245946,46.3863621],[6.8245632,46.3863743],[6.8245538,46.3863775],[6.824524,46.3863829],[6.8245005,46.3863872],[6.82447,46.3863923],[6.8244403,46.386398],[6.8244176,46.3864059],[6.8243974,46.3864091],[6.824378,46.3864079],[6.8243499,46.3864028],[6.8243215,46.3863994],[6.8242884,46.3864065],[6.8242695,46.3864153],[6.824253,46.3864253],[6.8242431,46.3864296],[6.8242241,46.3864375],[6.8241919,46.3864475],[6.8241717,46.3864529],[6.8241498,46.386456],[6.8241127,46.3864609],[6.8240867,46.3864711],[6.824038,46.3864873],[6.8240079,46.3864876],[6.8239749,46.3864922],[6.8239641,46.3864959],[6.8239328,46.3865132],[6.8239187,46.3865209],[6.8238779,46.3865369],[6.8238643,46.3865451],[6.8238337,46.3865491],[6.8238127,46.3865488],[6.8237817,46.386542],[6.823757,46.3865394],[6.8237215,46.386542],[6.8237145,46.386546],[6.8236918,46.3865554],[6.8236819,46.3865625],[6.8236732,46.3865693],[6.823658,46.386577],[6.8236274,46.3865887],[6.8236089,46.3865944],[6.8235759,46.3866018],[6.8235494,46.3866097],[6.8235259,46.3866171],[6.8234991,46.3866319],[6.8234838,46.3866422],[6.8234587,46.3866513],[6.8234261,46.386661],[6.8234009,46.3866601],[6.8233869,46.3866615],[6.8233658,46.3866658],[6.8233489,46.3866698],[6.8233246,46.3866758],[6.8233027,46.3866843],[6.8232878,46.3866891],[6.8232363,46.3866948],[6.8232181,46.3866948],[6.8231921,46.386694],[6.823155,46.3866985],[6.8231327,46.3867099],[6.8231191,46.3867196],[6.8231051,46.3867298],[6.8230737,46.3867401],[6.823056,46.3867401],[6.8230143,46.3867364],[6.8229734,46.3867381],[6.8229367,46.3867441],[6.8229177,46.3867535],[6.8228967,46.3867685],[6.8228666,46.3867862],[6.8228538,46.3868038],[6.8228505,46.3868164],[6.8228426,46.3868448],[6.8228265,46.3868559],[6.8228076,46.386869],[6.8227849,46.386879],[6.8227601,46.3868929],[6.8227444,46.3869066],[6.8227345,46.3869191],[6.8227242,46.3869296],[6.8227098,46.3869399],[6.822685,46.3869461],[6.8226615,46.3869487],[6.8226351,46.3869547],[6.8226107,46.3869652],[6.8225996,46.3869735],[6.8225827,46.3869851],[6.8225666,46.386996],[6.8225513,46.3870019],[6.82252,46.3870125],[6.8225039,46.3870173],[6.8224787,46.387025],[6.8224651,46.3870315],[6.8224424,46.3870406],[6.8224354,46.3870443],[6.8224292,46.3870497],[6.8224205,46.3870586],[6.8224073,46.3870702],[6.8223962,46.387083],[6.8223821,46.3871007],[6.8223694,46.3871121],[6.822357,46.3871206],[6.8223211,46.387128],[6.8222988,46.3871331],[6.8222831,46.3871411],[6.8222728,46.3871477],[6.8222621,46.3871553],[6.8222353,46.3871684],[6.8222022,46.3871787],[6.8221849,46.3871841],[6.8221474,46.3871921],[6.8221115,46.3872003],[6.8220892,46.3872097],[6.8220595,46.3872217],[6.8220397,46.3872299],[6.8220269,46.3872356],[6.8220145,46.3872427],[6.8220046,46.387247],[6.8219843,46.38725]]},"properties":{"source":"Swiss Topo 2021"}},
{"type":"Feature","geometry":{"type":"LineString","coordinates":[[6.8159882,46.3889063],[6.8159494,46.3889222],[6.8159189,46.3889484],[6.8159049,46.3889672],[6.8158941,46.3889894],[6.8158686,46.3890156],[6.8158463,46.3890247],[6.8157992,46.3890389],[6.8157753,46.3890457],[6.8157464,46.38906],[6.8157291,46.3890708],[6.8156986,46.3891032],[6.8156804,46.3891283],[6.8156812,46.3891567],[6.8156878,46.3891863],[6.8156763,46.3892102],[6.8156523,46.3892284],[6.8156259,46.3892415],[6.8155971,46.3892603],[6.8155442,46.3892797],[6.815503,46.3892893],[6.8154832,46.3892933],[6.815465,46.3893053],[6.8154403,46.3893189],[6.8154097,46.3893286],[6.8153775,46.3893326],[6.8153429,46.3893263],[6.8153404,46.3893076],[6.8153445,46.3892933],[6.8153528,46.3892797],[6.8153553,46.3892689],[6.8153388,46.3892478],[6.8153255,46.3892353],[6.8153082,46.3892256],[6.8153008,46.3892222],[6.815267,46.3892131],[6.8152315,46.3891971],[6.815224,46.3891897],[6.8152174,46.3891789],[6.8152026,46.3891687],[6.815191,46.3891601],[6.8151597,46.3891499],[6.8151341,46.3891442],[6.8151044,46.3891436],[6.8150615,46.3891476],[6.8150375,46.3891448],[6.8150276,46.3891322],[6.8150276,46.389118],[6.8150285,46.3891015],[6.8150252,46.3890873],[6.8150045,46.3890782],[6.814993,46.3890719],[6.8149839,46.3890594],[6.8149897,46.3890486],[6.8150037,46.3890355],[6.8150202,46.3890258],[6.8150392,46.3890173],[6.8150829,46.3890008],[6.815111,46.3889939],[6.8151382,46.3889968],[6.8151415,46.3890053],[6.8151234,46.3890201],[6.8151077,46.3890332],[6.8150978,46.389048],[6.8150895,46.3890622],[6.8150854,46.3890719],[6.8150871,46.3890804],[6.8151027,46.3890896],[6.8151143,46.389085],[6.8151201,46.3890702],[6.8151201,46.3890617],[6.8151234,46.3890508],[6.81513,46.3890395],[6.8151456,46.3890252],[6.8151671,46.3890133],[6.8151886,46.3890019],[6.8152051,46.3889934],[6.8152249,46.3889848],[6.8152414,46.388974],[6.8152472,46.3889603],[6.8152472,46.3889524],[6.8152348,46.388941],[6.8152282,46.3889336],[6.8152265,46.3889279],[6.8152265,46.3889194],[6.8152331,46.388912500000007],[6.815267,46.3889051],[6.815295,46.3889131],[6.8153049,46.3889245],[6.815295,46.388949],[6.8152909,46.3889655],[6.815309,46.3889968],[6.815328,46.3890087],[6.8153363,46.3890173],[6.8153379,46.3890361],[6.8153379,46.3890674],[6.8153421,46.3890782],[6.8153544,46.3890924],[6.8153759,46.3890935],[6.815394,46.3890816],[6.8153883,46.389056],[6.8153891,46.3890304],[6.8154064,46.389011000000007],[6.8154229,46.3889911],[6.8154205,46.3889757],[6.815413,46.3889677],[6.8154023,46.3889621],[6.8153957,46.3889564],[6.8153891,46.3889495],[6.8153784,46.3889421],[6.8153709,46.3889342],[6.8153751,46.3889228],[6.8153965,46.3889108],[6.8154337,46.3888949],[6.8154617,46.3888789],[6.8154766,46.3888659],[6.8155178,46.3888539],[6.815536,46.3888516],[6.8155715,46.3888357],[6.8155979,46.3888152],[6.8155987,46.3888004],[6.815616,46.3887827],[6.8156325,46.3887685],[6.815654,46.3887532],[6.8156631,46.3887452],[6.815673,46.3887304],[6.8156911,46.388711],[6.8157151,46.38869],[6.8157571,46.3886581],[6.8157918,46.3886444],[6.8158265,46.3886342],[6.8158677,46.3886228],[6.8159106,46.3886029],[6.8159643,46.3885727],[6.8159857,46.3885545],[6.8160146,46.388534],[6.8160592,46.3885101],[6.8161178,46.3884759],[6.8162168,46.3884406],[6.816268,46.3884247],[6.8163257,46.3884076],[6.8163513,46.3884014],[6.8164025,46.3883934],[6.8164454,46.3883832],[6.8164825,46.3883797],[6.816537,46.3883809],[6.8165816,46.3883894],[6.8166294,46.3883911],[6.8166765,46.3883906],[6.8167185,46.3883837],[6.8167582,46.3883735],[6.8167936,46.3883621],[6.8168308,46.3883541],[6.8168687,46.3883587],[6.8168828,46.3883695],[6.8169026,46.3883911],[6.8169183,46.3884173],[6.8169282,46.3884435],[6.8169306,46.3884794],[6.816924,46.3885067],[6.8169108,46.3885306],[6.8168778,46.3885539],[6.8168341,46.388583],[6.8168002,46.3885892],[6.8167672,46.3886006],[6.8167433,46.38862],[6.8167144,46.3886496],[6.816707,46.3886718],[6.8166946,46.3886917],[6.8166591,46.3887127],[6.8166187,46.3887281],[6.8165931,46.3887349],[6.8165502,46.3887486],[6.816499,46.3887617],[6.8164619,46.3887719],[6.8164256,46.3887867],[6.8163827,46.3887964],[6.8163554,46.3888067],[6.8163282,46.3888192],[6.8162952,46.3888442],[6.8162812,46.3888721],[6.8162729,46.3888881],[6.8162325,46.3889057],[6.8161887,46.3889063],[6.8161648,46.3889],[6.816131,46.3888915],[6.8160897,46.3888881],[6.8160369,46.3888881],[6.8160278,46.3888892],[6.8159882,46.3889063]]},"properties":{"source":"swiss Image 2021"}},
{"type":"Feature","geometry":{"type":"LineString","coordinates":[[6.8199444,46.3878806],[6.8198998,46.3878794],[6.819852,46.3878874],[6.8198239,46.3878965],[6.8197794,46.387909],[6.8197381,46.387917],[6.8196935,46.3879261],[6.8196374,46.3879386],[6.8195598,46.3879591],[6.819512,46.3879705],[6.8194212,46.3879932],[6.81937,46.3880058],[6.819309,46.3880263],[6.8192595,46.3880445],[6.8192116,46.3880581],[6.8191654,46.3880695],[6.8190812,46.3880855],[6.8189574,46.3881059],[6.8189228,46.3881128],[6.8188402,46.3881276],[6.8187841,46.3881447],[6.8187296,46.3881651],[6.8186752,46.3881822],[6.8186125,46.3881879],[6.818553,46.3881925],[6.818492,46.388197],[6.8184309,46.388205],[6.8183946,46.3882175],[6.8183831,46.3882289],[6.8183599,46.3882448],[6.8183302,46.3882665],[6.8183253,46.3882801],[6.8183121,46.3882938],[6.8182853,46.3883084],[6.8182403,46.3883057],[6.8182131,46.3883012],[6.8182007,46.3882972],[6.8181833,46.3882858],[6.8181685,46.3882761],[6.8181512,46.3882727],[6.8181281,46.3882705],[6.8181041,46.3882756],[6.818062,46.3882921],[6.8180199,46.3882989],[6.8179919,46.3883097],[6.8179407,46.3883348],[6.8179118,46.3883536],[6.8178995,46.3883655],[6.8178714,46.388382],[6.8178557,46.3883917],[6.8177823,46.3884111],[6.8177253,46.388419],[6.8176915,46.388419],[6.8176387,46.3884264],[6.8175809,46.3884515],[6.817552,46.3884697],[6.8175199,46.3884942],[6.8174885,46.3885067],[6.8174439,46.3885192],[6.8173985,46.3885181],[6.8173639,46.3885107],[6.817335,46.3884924],[6.8173144,46.3884805],[6.8172715,46.3884725],[6.8172376,46.3884765],[6.81717,46.3884942],[6.8171477,46.3885067],[6.8171213,46.3885374],[6.8171122,46.388559],[6.8171023,46.3885812],[6.8170899,46.3885989],[6.8170462,46.3886154],[6.8170247,46.3886217],[6.8169859,46.3886336],[6.8169661,46.3886439],[6.8169447,46.3886575],[6.8169199,46.3886797],[6.8169051,46.3886985],[6.816891,46.3887099],[6.8168646,46.3887236],[6.8168242,46.3887344],[6.816792,46.388744],[6.8167499,46.3887606],[6.8167185,46.3887765],[6.8167111,46.3887873],[6.8167045,46.3888032],[6.816688,46.3888141],[6.8166534,46.3888254],[6.8166162,46.3888425],[6.8165915,46.3888585],[6.8165576,46.3888818],[6.8165428,46.388892],[6.8165172,46.3889023],[6.8164619,46.3889154],[6.8164182,46.3889251],[6.8163703,46.3889336],[6.8163299,46.388945],[6.8162969,46.3889632],[6.816263,46.3889877],[6.8162407,46.3889996],[6.8162036,46.3890093],[6.8161681,46.3890224],[6.8161368,46.3890372],[6.8160971,46.3890679],[6.8160716,46.3890901],[6.8160542,46.3891044],[6.8159899,46.3891385],[6.8159593,46.3891533],[6.815904,46.3891789],[6.8158842,46.3891949],[6.815876,46.3892045],[6.8158446,46.389233],[6.8157968,46.3892575],[6.8157505,46.3892802],[6.815725,46.3892916],[6.8156969,46.3893127],[6.8156763,46.3893309],[6.815616,46.3893605],[6.8155484,46.3893901],[6.8155261,46.3894066],[6.8155121,46.3894157],[6.815484,46.3894271],[6.8154427,46.3894459],[6.8153833,46.3894675],[6.8153718,46.3894761],[6.8153479,46.3894797]]},"properties":{"source":"swiss Image 2021"}},
{"type":"Feature","geometry":{"type":"LineString","coordinates":[[6.8063193,46.3928674],[6.8063293,46.3928684],[6.8063364,46.3928767],[6.8063371,46.3928873],[6.8063127,46.3929101],[6.8063032,46.392947],[6.8062201,46.3930818],[6.8061697,46.3931364],[6.8060984,46.3932599],[6.8060571,46.3932927],[6.8059933,46.3933128],[6.8059808,46.3933395],[6.8059714,46.3933596],[6.8058682,46.3935726],[6.8057963,46.3936893],[6.8055978,46.3938662],[6.8055901,46.3938797],[6.8055437,46.3939601],[6.8054509,46.3940565],[6.8053633,46.3941261]]},"properties":{"admin_level":"8","boundary":"administrative","source":"swissBOUNDARIES3D swisstopo 2011"}},
{"type":"Feature","geometry":{"type":"LineString","coordinates":[[6.8102992,46.38942],[6.8103172,46.3894378],[6.8103279,46.3894437],[6.810373,46.3894482],[6.8104095,46.3894496],[6.8104482,46.3894541],[6.8104772,46.3894585],[6.810525,46.3894522],[6.8105551,46.38944],[6.8105765,46.3894237],[6.8105873,46.3894096],[6.8105926,46.389393],[6.8105991,46.3893711],[6.8106329,46.38934],[6.8107006,46.38933],[6.8107371,46.3893311],[6.8107623,46.3893333],[6.8107978,46.3893385],[6.8108471,46.3893552],[6.8108627,46.3893671],[6.8108633,46.3893763],[6.8108552,46.3893896],[6.8108418,46.3893941],[6.8108128,46.3894059],[6.8108122,46.3894378],[6.8108149,46.3894441],[6.8108241,46.3894504],[6.81086,46.3894537],[6.8108998,46.3894533],[6.8109277,46.38945],[6.8109572,46.3894482],[6.8109884,46.3894485],[6.8110383,46.3894426],[6.8110829,46.3894304],[6.8111242,46.3894122],[6.8111704,46.3894011],[6.8111913,46.3893959],[6.8112187,46.3893911],[6.8112397,46.3893922],[6.8112719,46.3894011],[6.8112917,46.3894163],[6.8113084,46.38943],[6.8113202,46.3894363],[6.8113385,46.3894404],[6.8113653,46.3894374],[6.811434,46.3894237],[6.8114458,46.3894219],[6.811477,46.3894174],[6.8114909,46.3894152],[6.8115199,46.3894063],[6.8115457,46.3893945],[6.8115854,46.3893804],[6.8115989,46.3893752],[6.8116268,46.38937],[6.811652,46.3893663],[6.8116778,46.389363],[6.8117213,46.3893378],[6.8117304,46.3893322],[6.8117417,46.3893234],[6.8117573,46.3893137],[6.8117761,46.3893056],[6.8117959,46.3892996],[6.8118228,46.38929],[6.8118448,46.3892822],[6.8118604,46.3892734],[6.8118775,46.3892615],[6.8119006,46.3892511],[6.8119232,46.3892452],[6.8119506,46.3892411],[6.8119817,46.3892334],[6.8119989,46.3892267],[6.8120145,46.3892196],[6.8120397,46.3891897],[6.812052,46.3891789],[6.8120724,46.3891693],[6.8120859,46.3891671],[6.8121079,46.3891667],[6.8121417,46.3891597],[6.8121793,46.3891489],[6.8121954,46.3891434],[6.812226,46.3891356],[6.8122636,46.3891248],[6.8122749,46.3891222],[6.8122974,46.3891282],[6.812313,46.3891356],[6.8123211,46.3891459],[6.8123291,46.38916],[6.8123329,46.3891734],[6.8123318,46.3892022],[6.8123345,46.3892204],[6.8123372,46.3892296],[6.8123409,46.3892411],[6.8123415,46.3892522],[6.8123409,46.3892778],[6.8123393,46.3892934],[6.8123339,46.389303],[6.8123227,46.3893215],[6.8123108,46.389343],[6.8123141,46.3893604],[6.8123382,46.389383],[6.8123527,46.3893871],[6.8123801,46.3893882],[6.812407,46.3893874],[6.8124284,46.3893752],[6.8124494,46.3893537],[6.812466,46.3893274],[6.8124692,46.3893152],[6.8124676,46.3893045],[6.8124639,46.3892856],[6.8124403,46.3892641],[6.8124295,46.389253],[6.8124209,46.389243],[6.8123968,46.3892241],[6.8123892,46.3892156],[6.8123833,46.3891985],[6.8123951,46.3891667],[6.812407,46.3891567],[6.8124134,46.389153],[6.8124279,46.3891467],[6.8124397,46.3891411],[6.8124494,46.3891374],[6.8124644,46.3891322],[6.8124827,46.3891308],[6.8125025,46.3891348],[6.8125138,46.3891385],[6.8125229,46.3891445],[6.812546,46.3891434],[6.8125584,46.3891363],[6.8125616,46.3891285],[6.8125847,46.3891156],[6.8126003,46.3891126],[6.8126169,46.3891111],[6.8126346,46.3891159],[6.8126429,46.3891167],[6.8126518,46.3891152],[6.8126625,46.3891076],[6.8126644,46.3890978],[6.8126617,46.3890928],[6.8126534,46.3890826],[6.8126534,46.3890784],[6.8126569,46.3890704],[6.8126548,46.3890572],[6.8126494,46.3890447],[6.8126462,46.3890332],[6.8126432,46.389023],[6.8126376,46.3890102],[6.8126365,46.3890072],[6.812633,46.3890021],[6.8126301,46.3889984],[6.8126252,46.3889945],[6.8126193,46.3889917],[6.8126089,46.3889897],[6.8125968,46.3889845],[6.8125893,46.3889767],[6.8125844,46.3889674],[6.812582,46.3889504],[6.8125836,46.3889448],[6.8125812,46.3889354],[6.8125753,46.3889276],[6.8125664,46.3889154],[6.8125664,46.3889056],[6.8125756,46.3888965],[6.8125922,46.3888887],[6.8126153,46.3888813],[6.8126327,46.3888815],[6.8126397,46.3888882],[6.8126411,46.3888947],[6.8126421,46.3889047],[6.8126507,46.3889134],[6.8126617,46.3889198],[6.8126733,46.3889282],[6.8126797,46.3889354],[6.8126797,46.3889404],[6.8126765,46.3889545],[6.812673,46.38896],[6.8126682,46.3889663],[6.8126644,46.3889791],[6.8126596,46.3889945],[6.8126593,46.3890037],[6.8126609,46.3890119],[6.8126652,46.3890224],[6.8126714,46.3890289],[6.8126797,46.3890317],[6.8126889,46.3890337],[6.8126985,46.3890385],[6.8127017,46.3890415],[6.8127103,46.3890522],[6.8127076,46.38906],[6.8127028,46.3890689],[6.8127012,46.3890774],[6.8127017,46.3890841],[6.8127039,46.3890915],[6.8127168,46.3890967],[6.8127318,46.3891015],[6.8127372,46.3891063],[6.8127399,46.38912],[6.8127463,46.3891248],[6.8127549,46.3891282],[6.8127737,46.3891267],[6.8128129,46.3891215],[6.8128671,46.3891215],[6.8128816,46.3891226],[6.8129036,46.3891237],[6.8129407,46.3891259],[6.8129622,46.3891304],[6.8129852,46.3891341],[6.8130089,46.3891363],[6.8130196,46.38914],[6.8130572,46.3891504],[6.8130814,46.3891493],[6.8130878,46.38914],[6.8130964,46.3891208],[6.8130926,46.3891137],[6.8130712,46.389096],[6.8130448,46.3890797],[6.8130341,46.389063],[6.8130363,46.3890508],[6.8130459,46.3890389],[6.813069,46.3890297],[6.8131023,46.3890293],[6.8131098,46.3890322],[6.8131173,46.3890389],[6.8131291,46.3890474],[6.8131549,46.3890485],[6.8131818,46.3890456],[6.8131968,46.3890352],[6.8132134,46.3890274],[6.8132317,46.3890178],[6.8132532,46.3890037],[6.8132602,46.3889937],[6.813265,46.3889874],[6.8132951,46.3889778],[6.8133284,46.3889748],[6.8133445,46.3889797],[6.8133622,46.3889811],[6.8133874,46.3889767],[6.8134008,46.3889741],[6.8134304,46.3889789],[6.8134438,46.3889882],[6.813469,46.3889926],[6.8134937,46.388993],[6.8135061,46.3889915],[6.8135404,46.3889915],[6.8135764,46.3889993],[6.8135952,46.3890056],[6.8136344,46.3890208],[6.8136473,46.3890252],[6.8136656,46.3890326],[6.8136779,46.3890367],[6.8136983,46.3890448],[6.8137123,46.3890493],[6.8137482,46.3890567],[6.8137729,46.3890556],[6.8138035,46.38905],[6.8138218,46.389036],[6.8138336,46.3890145],[6.813847,46.3889978],[6.8138605,46.38899],[6.813883,46.3889893],[6.8138964,46.3889915],[6.8139142,46.3889911],[6.8139678,46.3889752],[6.8139781,46.3889693],[6.8139872,46.3889563],[6.8139936,46.3889504],[6.8140108,46.388943],[6.8140237,46.3889415],[6.8140462,46.3889441],[6.8140591,46.388946],[6.8140752,46.3889448],[6.8140946,46.3889356],[6.8141053,46.3889274],[6.8141236,46.3889137],[6.8141332,46.3889],[6.8141322,46.3888937],[6.8141241,46.3888823],[6.8141085,46.3888767],[6.8140833,46.3888682],[6.8140742,46.3888645],[6.8140436,46.3888489],[6.8140339,46.3888363],[6.814035,46.3888189],[6.8140398,46.3888134],[6.8140452,46.3888108],[6.8140527,46.3888093],[6.814072,46.3888137],[6.8140962,46.3888271],[6.8141134,46.3888378],[6.8141262,46.3888415],[6.8141617,46.388843],[6.8141821,46.3888378],[6.8141982,46.3888163],[6.814195,46.3887889],[6.8141896,46.3887793],[6.8141853,46.3887674],[6.8141735,46.3887571],[6.8141628,46.3887511],[6.8141348,46.3887415],[6.8141112,46.3887297],[6.8140876,46.3887193],[6.8140747,46.3887141],[6.8140446,46.3887],[6.8140317,46.3886874],[6.8140274,46.3886778],[6.8140167,46.3886586],[6.8140092,46.3886489],[6.8140027,46.3886311],[6.8140049,46.3886126],[6.8140027,46.3885845],[6.8139974,46.3885749],[6.8139909,46.3885623],[6.8139909,46.3885512],[6.8139909,46.3885408],[6.8139909,46.3885304],[6.8139995,46.3885149]]},"properties":{"source":"swiss Image 2021"}},
{"type":"Feature","geometry":{"type":"LineString","coordinates":[[6.8067683,46.3896064],[6.8067871,46.3896102],[6.8068052,46.389617200000007],[6.806825,46.3896558],[6.8068346,46.3896668],[6.8068521,46.3896808],[6.8068634,46.3896878],[6.8068821,46.3896917],[6.8069098,46.3896925],[6.8069308,46.3896773],[6.806933,46.3896461],[6.8069381,46.3896383],[6.8069574,46.3896293],[6.8069873,46.3896176],[6.8070037,46.3896113],[6.8070139,46.389601999999999],[6.8070315,46.3895735],[6.8070462,46.3895583],[6.8070677,46.3895462],[6.8070982,46.3895376],[6.8071186,46.3895352],[6.8071452,46.3895235],[6.8071769,46.3895118],[6.8072131,46.3895083],[6.8072504,46.3895044],[6.8072719,46.3894915],[6.8072832,46.3894736],[6.8072894,46.3894443],[6.8072838,46.3894264],[6.8072668,46.3894166],[6.8072487,46.3894057],[6.8072447,46.3893944],[6.8072289,46.3893702],[6.8072091,46.3893651],[6.8071955,46.389369],[6.8071661,46.3893846],[6.8071537,46.3894057],[6.8071571,46.3894151],[6.8071644,46.389435],[6.8071599,46.3894471],[6.8071457,46.3894681],[6.8071254,46.389483],[6.8070982,46.3894951],[6.8070671,46.3894939],[6.8070547,46.3894904],[6.8070252,46.3894849],[6.8070083,46.3894787],[6.8069811,46.3894794],[6.8069506,46.389488],[6.8069149,46.389483],[6.8068985,46.3894674],[6.8068934,46.3894611],[6.8068951,46.3894389],[6.8069155,46.3894158],[6.8069353,46.3894135],[6.8069839,46.3894108],[6.8069981,46.3893963],[6.8069947,46.3893838],[6.8069811,46.3893772],[6.8069641,46.3893768],[6.8069313,46.3893675],[6.806924,46.3893573],[6.8069262,46.3893397],[6.8069438,46.3893288],[6.8069636,46.3893257],[6.8070077,46.3893249],[6.8070269,46.3893323],[6.8070411,46.389337],[6.8070564,46.3893366],[6.8070903,46.3893226],[6.8071118,46.3893163],[6.807135,46.3893175],[6.8071514,46.3893296],[6.8071588,46.389337],[6.8071746,46.3893444],[6.8072046,46.389344],[6.8072295,46.3893405],[6.8072431,46.3893331],[6.8072612,46.3893269],[6.8072894,46.3893339],[6.8073166,46.3893413],[6.8073488,46.3893479],[6.8074116,46.3893565],[6.8074569,46.3893686],[6.807475,46.3893811],[6.8074959,46.3894006],[6.8074948,46.3894139],[6.8074818,46.389419],[6.8074665,46.3894326],[6.807462,46.389442],[6.8074637,46.389472],[6.8074716,46.3894798],[6.8074988,46.3894869],[6.8075361,46.3894958],[6.8076153,46.3895247],[6.8076261,46.3895278],[6.8076577,46.3895294],[6.8077075,46.389513],[6.8077268,46.3895083],[6.8077528,46.3895099],[6.8077765,46.3895142],[6.807793,46.3895212],[6.8078382,46.389536],[6.8078846,46.3895485],[6.8079112,46.3895524],[6.8079338,46.3895567],[6.8079655,46.3895626],[6.8080108,46.3895684],[6.8080617,46.3895739],[6.808099,46.3895747],[6.8081318,46.3895758],[6.8081794,46.3895778],[6.808232,46.3895809],[6.8082529,46.389584],[6.8083083,46.3895825],[6.808361,46.3895848],[6.8083977,46.3895801],[6.8084413,46.3895751],[6.8084611,46.3895657],[6.8084939,46.3895594],[6.8085086,46.3895579],[6.8085278,46.3895563],[6.8085822,46.3895606],[6.8085991,46.3895649],[6.8086121,46.3895669],[6.8086387,46.3895665],[6.8086636,46.3895669],[6.8087089,46.3895626],[6.8087355,46.3895575],[6.8087587,46.3895563],[6.8088017,46.3895559],[6.8088509,46.3895516],[6.8088814,46.389547],[6.8089222,46.3895356],[6.8089703,46.3895196],[6.8090116,46.3895029],[6.809063,46.3894919],[6.8090806,46.3894908],[6.8091117,46.3895021],[6.8091185,46.3895122],[6.8091196,46.3895274],[6.8091287,46.3895376],[6.8091411,46.3895423],[6.8091756,46.3895427],[6.8091932,46.3895485],[6.8092011,46.3895575],[6.8092005,46.3895661],[6.8091717,46.3895747],[6.8091507,46.3895684],[6.8091326,46.3895606],[6.8091111,46.3895587],[6.8090959,46.3895661],[6.8090817,46.3895813],[6.8090777,46.3895953],[6.8090783,46.3896145],[6.8090851,46.3896227],[6.8090992,46.3896262],[6.8091315,46.3896262],[6.8091581,46.3896285],[6.809166,46.3896328],[6.8091711,46.3896441],[6.8091717,46.3896523],[6.8091711,46.389664],[6.8091694,46.3896742],[6.8091745,46.3896867],[6.8091824,46.3896948],[6.8092181,46.3897081],[6.8092446,46.3897085],[6.8092644,46.3897042],[6.8092933,46.389696],[6.8093205,46.389687],[6.8093538,46.3896859],[6.8093742,46.3896913],[6.8093957,46.3896878],[6.8094234,46.3896679],[6.8094376,46.3896601],[6.8094749,46.3896601],[6.8095128,46.3896668],[6.809519,46.3896835],[6.809523,46.3896995],[6.8095292,46.3897159],[6.8095467,46.389728],[6.8095847,46.3897315],[6.8096327,46.3897249],[6.8096695,46.3897062],[6.8096757,46.3896808],[6.8096639,46.3896609],[6.8096616,46.3896504],[6.8096689,46.3896328],[6.8096893,46.3896258],[6.8097374,46.3896191],[6.8097747,46.389611],[6.8098087,46.3895985],[6.8098234,46.3895829],[6.809833,46.3895501],[6.8098251,46.389536],[6.8098177,46.3895235],[6.8098211,46.3894966],[6.8098347,46.38949],[6.8098692,46.3894849],[6.8098992,46.38949],[6.8099331,46.3894896],[6.8099569,46.3894775],[6.8099931,46.3894553],[6.8099999,46.3894467],[6.8100174,46.3894338],[6.8100395,46.3894158],[6.8100695,46.3894034],[6.8101057,46.3893979],[6.81013,46.3893967],[6.8101628,46.3893959],[6.8101832,46.3893924],[6.8102273,46.3893799],[6.8102437,46.3893698],[6.8102477,46.3893526],[6.8102562,46.3893429],[6.8102664,46.3893366],[6.810289,46.3893331],[6.8102992,46.3893401],[6.8102992,46.389355],[6.8102896,46.3893655],[6.8102828,46.3893772],[6.8102811,46.389387],[6.8102805,46.3893983],[6.8102992,46.38942]]},"properties":{"source":"swiss Image 2021"}},
{"type":"Feature","geometry":{"type":"LineString","coordinates":[[6.8139995,46.3885149],[6.8140092,46.3885037],[6.8140242,46.3884912],[6.8140511,46.3884689],[6.8140586,46.38846],[6.814064,46.3884467],[6.814064,46.3884289],[6.8140564,46.3884141],[6.8140135,46.3884074],[6.8139952,46.3884089],[6.8139802,46.3884074],[6.8139641,46.3884015],[6.8139437,46.3883874],[6.8139265,46.3883763],[6.8139125,46.3883719],[6.8138835,46.3883682],[6.8138717,46.3883652],[6.8138621,46.38836],[6.8138535,46.3883519],[6.8138513,46.3883371],[6.8138503,46.3883267],[6.813876,46.3883149],[6.8139351,46.3883104],[6.8139716,46.3883104],[6.8140017,46.3883112],[6.8140317,46.3883126],[6.81405,46.3883156],[6.8141144,46.3883089],[6.8141434,46.388303],[6.8141606,46.3882934],[6.8141746,46.3882815],[6.8141799,46.3882697],[6.8141821,46.3882504],[6.8141885,46.3882378],[6.8142014,46.388226],[6.8142165,46.38822],[6.8142444,46.3882134],[6.8142637,46.3882223],[6.8142755,46.3882341],[6.8142873,46.388243],[6.8143206,46.3882497],[6.8143453,46.3882437],[6.8143743,46.3882289],[6.8143936,46.3882193],[6.814442,46.3881963],[6.8144581,46.3881823],[6.8145064,46.3881586],[6.8145279,46.38814],[6.8145311,46.3881275],[6.8145268,46.38812],[6.8145204,46.3881075],[6.814529,46.3880904],[6.8145504,46.3880793],[6.8145859,46.3880719],[6.814631,46.3880623],[6.8146439,46.3880563],[6.8146557,46.3880445],[6.8146643,46.3880319],[6.8146696,46.3880215],[6.8146997,46.3879993],[6.8147276,46.3879882],[6.8147502,46.3879756],[6.8147802,46.3879541],[6.8148028,46.3879415],[6.8148232,46.3879282],[6.8148361,46.3879141],[6.8148436,46.3879038],[6.8148576,46.3878912],[6.8148758,46.3878786],[6.8149005,46.3878712],[6.8149327,46.3878623],[6.8149607,46.3878489],[6.8149907,46.3878252],[6.8149993,46.3878082],[6.8150025,46.3877838],[6.8150004,46.3877697],[6.8149993,46.3877489],[6.8150058,46.3877349],[6.8150197,46.3877141],[6.815039,46.3877015],[6.8150455,46.3876956],[6.8150476,46.3876845],[6.8150388,46.3876742]]},"properties":{"source":"swiss Image 2021"}},
{"type":"Feature","geometry":{"type":"LineString","coordinates":[[6.8053633,46.3941261],[6.8053184,46.3941618]]},"properties":{"admin_level":"8","boundary":"administrative","source":"swissBOUNDARIES3D swisstopo 2011"}},
{"type":"Feature","geometry":{"type":"LineString","coordinates":[[6.8131513,46.3902664],[6.8131448,46.3902657],[6.8131163,46.3902723],[6.8130743,46.3902957],[6.8130268,46.3903247],[6.8129901,46.3903425],[6.8129372,46.3903612],[6.8128897,46.3903715],[6.8128191,46.3903883],[6.8127676,46.3904005],[6.8126875,46.3904192],[6.8126156,46.3904342],[6.8125735,46.3904436],[6.8125341,46.3904464],[6.8124948,46.3904464],[6.8124595,46.3904501],[6.8124242,46.3904595],[6.8123821,46.390482],[6.8123319,46.3904997],[6.8123007,46.3905119],[6.8122478,46.3905344],[6.8122166,46.3905456],[6.8120673,46.390583],[6.8120225,46.390598],[6.8119587,46.3906149],[6.8119031,46.3906214],[6.8118759,46.3906158],[6.8118257,46.3906102],[6.8117212,46.3906242],[6.8116791,46.3906317],[6.8116547,46.390628],[6.8116099,46.390628],[6.8115841,46.3906355],[6.811557,46.3906495],[6.8115122,46.3906682],[6.8114539,46.3906879],[6.8114077,46.3906963],[6.8113643,46.3907001],[6.8113331,46.3906963],[6.811291,46.3906879],[6.8112584,46.3906804],[6.8112354,46.3906701],[6.8112123,46.3906607],[6.8111634,46.3906523],[6.8111444,46.3906523],[6.8110942,46.3906514],[6.8110691,46.3906551],[6.8110338,46.3906528],[6.8110026,46.390649],[6.8109653,46.3906453],[6.8109422,46.3906472],[6.8109063,46.3906533],[6.81089,46.3906589],[6.8108703,46.3906762],[6.8108669,46.3906865],[6.8108615,46.3906977],[6.8108588,46.3907066],[6.8108581,46.3907216],[6.8108628,46.3907338],[6.8108676,46.3907403],[6.8108839,46.3907455],[6.8109042,46.390745],[6.810932,46.3907366],[6.8109795,46.3907197],[6.8110365,46.3907057],[6.811065,46.3906982],[6.8110806,46.3906958],[6.8110922,46.390701],[6.8110922,46.3907085],[6.8110908,46.3907136],[6.8110773,46.390723],[6.8110318,46.3907319],[6.8109979,46.3907417],[6.81097,46.3907506],[6.8109524,46.3907539],[6.8109382,46.3907562],[6.8109042,46.3907614],[6.8108859,46.3907632],[6.8108554,46.39076],[6.8108384,46.3907581],[6.810797,46.3907558],[6.810759,46.3907586],[6.8107325,46.3907646],[6.8107122,46.3907703],[6.8106925,46.3907731],[6.8106749,46.3907792],[6.8106396,46.3907899],[6.8105982,46.3908007],[6.8105819,46.3908044],[6.8105419,46.3908152],[6.810514,46.3908246],[6.8104822,46.390833],[6.8104679,46.3908414],[6.8104489,46.3908545],[6.8104177,46.3908685],[6.8103817,46.3908835],[6.810341,46.3908999],[6.8103186000000008,46.3909121],[6.810284,46.3909256],[6.8102331,46.3909505],[6.8102114,46.3909598],[6.8101469,46.3909818],[6.8100913,46.3910113],[6.810056,46.3910272],[6.8100316,46.391037],[6.809999,46.3910492],[6.8099244,46.3910721],[6.8098837,46.3910866],[6.8098653,46.3910946],[6.8098124,46.3911082],[6.8097778,46.3911194],[6.8097513,46.3911325],[6.8097296,46.3911475],[6.8097025,46.3911709],[6.8096889,46.3911826],[6.8096672,46.3912013],[6.8096292,46.3912299],[6.8096041,46.3912467],[6.8095831,46.3912594],[6.809558,46.3912795],[6.8095003,46.3913146],[6.8094915,46.391331],[6.8094663,46.3913459],[6.8094535,46.3913501],[6.8094209,46.3913516],[6.8094012,46.3913459],[6.8093897,46.3913394],[6.809372,46.3913267],[6.8093612,46.3913207],[6.8093191,46.3913179],[6.809294,46.3913314],[6.8092743,46.3913389],[6.8092478,46.391353],[6.8091841,46.3913782],[6.8091515,46.3914049],[6.8091379,46.3914175],[6.8091291,46.3914316],[6.809123,46.3914494],[6.8091148,46.391469],[6.8091087,46.3914793],[6.809104,46.3914873],[6.8090979,46.3915041],[6.8090863,46.3915149],[6.8090741,46.3915224],[6.8090653,46.3915317],[6.8090633,46.3915439],[6.8090762,46.3915528],[6.8091196,46.391579],[6.8091284,46.3915879],[6.8091291,46.3915945],[6.8091203,46.3916038],[6.8091013,46.3916207],[6.8090545,46.3916562],[6.8090219,46.391674],[6.8089832,46.3916796],[6.8089703,46.3916759],[6.8089438,46.391667],[6.8089316,46.3916642],[6.8089133,46.3916651],[6.8088916,46.3916726],[6.808874,46.3916815],[6.8088543,46.3916932],[6.8088488,46.3916974],[6.808855,46.3917096],[6.808874,46.391725],[6.8088997,46.3917442],[6.8089106,46.3917583],[6.8089052,46.3917662],[6.8088909,46.3917732],[6.8088529,46.3917929],[6.8088441,46.3918023],[6.8088339,46.3918051],[6.8088224,46.3918018],[6.8088231,46.3917924],[6.8088278,46.3917765],[6.808836,46.3917658],[6.8088373,46.3917564],[6.8088332,46.3917461],[6.8088271,46.3917307],[6.8088149,46.391725],[6.808798,46.391726],[6.8087756,46.3917339],[6.8087376,46.3917545],[6.8086141,46.3918144],[6.8084655,46.3918912],[6.808422,46.3919141],[6.8083881,46.39193],[6.8083501,46.3919516],[6.8082904,46.391981],[6.8082375,46.3920035],[6.8081947,46.3920288],[6.8081241,46.3920583],[6.8080875,46.3920821],[6.8080753,46.3920924],[6.8080651,46.3921032],[6.8080719,46.3921266],[6.8080773,46.3921519],[6.808099,46.3921785],[6.8081045,46.3921837],[6.808116,46.3921856],[6.8082605,46.3921439],[6.8083711,46.3921093],[6.8083983,46.3921009],[6.8084112,46.3921051],[6.8084356,46.3921009],[6.8084471,46.3921074],[6.8084553,46.3921243],[6.8084566,46.392136],[6.8084376,46.392143],[6.8084302,46.3921463],[6.8084247,46.3921547],[6.8084125,46.3921626],[6.8083352,46.3921898],[6.8081547,46.3922459],[6.8081431,46.3922389],[6.8081377,46.3922277],[6.8081313,46.3922177],[6.8081079,46.3922141],[6.8080821,46.392223],[6.8080617,46.3922361],[6.8080502,46.3922342],[6.8080414,46.3922099],[6.8080305,46.3921879],[6.808002,46.3921874],[6.807907,46.392216],[6.8077984,46.3922614],[6.8076084,46.3923297],[6.8074429,46.3923854],[6.8073723,46.3924018],[6.8073642,46.3924074],[6.8073519,46.3924243],[6.8072868,46.3924341],[6.8072447,46.3924369],[6.8071945,46.3924383],[6.8071558,46.3924383],[6.8071504,46.3924327],[6.807145,46.392428],[6.8071036,46.3924331],[6.8070303,46.3924472],[6.8070283,46.3924542],[6.8070337,46.3924692],[6.8070588,46.3925062],[6.8070683,46.3925165],[6.8070724,46.3925263],[6.8070663,46.3925328],[6.8070561,46.3925342],[6.8070412,46.3925174],[6.8070235,46.3924814],[6.806993,46.3924734],[6.8069713,46.392472],[6.8069272,46.3924668],[6.8069217,46.3924612],[6.8069238,46.3924509],[6.8069034,46.3924481],[6.8067663,46.3924753],[6.8065899,46.3925146],[6.8064277,46.3925506],[6.8064019,46.3925609],[6.8062805,46.3926068],[6.8062629,46.3926183],[6.8062479,46.392628],[6.8062235,46.3926442],[6.8061495,46.3926985],[6.8060287,46.3928057],[6.8059704,46.392860400000007],[6.8059617,46.3928826]]},"properties":{"admin_level":"8","boundary":"administrative","source":"swiss Image 2021"}},
{"type":"Feature","geometry":{"type":"LineString","coordinates":[[6.8076489,46.3896013],[6.8076627,46.389589],[6.8076656,46.3895783],[6.8076656,46.389564],[6.8076575,46.3895469],[6.8076529,46.3895433],[6.8076374,46.389539],[6.8076115,46.3895362],[6.8075867,46.3895342],[6.8075608,46.3895362],[6.807528,46.389541],[6.8074975,46.389537],[6.8074699,46.3895322],[6.8074359,46.389537],[6.8074181,46.3895441],[6.8074042,46.3895576],[6.807387,46.3895703],[6.8073438,46.3895751],[6.8073162,46.3895727],[6.8072793,46.3895775],[6.8072724,46.389595],[6.8072667,46.3896156],[6.8072488,46.3896386],[6.807197,46.3896565],[6.8071815,46.3896672],[6.8071625,46.3896923],[6.8071653,46.3897097],[6.8072056,46.3897331],[6.8072189,46.3897399],[6.8072534,46.3897419],[6.807292,46.3897316],[6.8073288,46.3897212],[6.8073686,46.3897181],[6.8073945,46.389722],[6.8074296,46.3897208],[6.8074561,46.3897125],[6.8074733,46.389701],[6.8074941,46.3896923],[6.807524,46.3896795],[6.8075349,46.3896708],[6.807551,46.3896581],[6.8075689,46.389649],[6.8075942,46.389641],[6.8076155,46.3896355],[6.8076265,46.3896287],[6.8076368,46.3896212],[6.8076414,46.3896164],[6.8076489,46.3896013]]},"properties":{"source":"swiss Image 2021"}},
{"type":"Feature","geometry":{"type":"LineString","coordinates":[[6.8082551,46.3905733],[6.8082499,46.3905845],[6.8082453,46.3905932],[6.8082338,46.3906146],[6.8082315,46.390623],[6.808224,46.3906416],[6.808205,46.3906591],[6.8081814,46.390681],[6.808186,46.3906952],[6.8081993,46.3907076],[6.8082073,46.3907258],[6.8082039,46.3907373],[6.8081826,46.390754],[6.8081469,46.39076],[6.8081164,46.3907544],[6.8081025,46.3907457],[6.8080945,46.3907385],[6.8080824,46.390727],[6.8080778,46.3907123],[6.8080795,46.3907004],[6.808083,46.3906889],[6.8080876,46.390675],[6.8080818,46.3906599],[6.8080709,46.3906504],[6.8080536,46.3906333],[6.8080444,46.3906281],[6.8080271,46.390625],[6.8080122,46.3906254],[6.8079799,46.3906222],[6.8079661,46.3906154],[6.8079598,46.3906023],[6.8079632,46.3905964],[6.8079932,46.3905924],[6.8080087,46.3905956],[6.808026,46.3905936],[6.8080369,46.3905777],[6.8080323,46.390569],[6.8080202,46.3905527],[6.8080237,46.390544],[6.8080306,46.390538],[6.8080312,46.3905297],[6.808026,46.3905241],[6.8080012,46.3905241],[6.8079874,46.3905281],[6.8079506,46.3905344],[6.8079321,46.3905297],[6.8079241,46.3905209],[6.807908,46.3905138],[6.8078838,46.3905122],[6.8078527,46.3905035],[6.8078423,46.3904852],[6.8078562,46.3904677],[6.8078734,46.3904495],[6.8078757,46.3904296],[6.8078642,46.3904185],[6.8078458,46.3904121],[6.807817,46.3904098],[6.8077882,46.3904129],[6.8077686,46.3904225],[6.8077502,46.3904368],[6.8077341,46.3904471],[6.8076961,46.390455],[6.8076662,46.390455],[6.807642,46.3904518],[6.8076098,46.3904431],[6.807581,46.3904391],[6.8075614,46.3904439],[6.8075533,46.3904518],[6.8075499,46.390463],[6.8075556,46.3904749],[6.8075626,46.3904836],[6.807581,46.3904955],[6.807589,46.390509],[6.807581,46.3905297],[6.8075683,46.3905376],[6.8075326,46.3905416],[6.8074969,46.3905456],[6.8074739,46.3905471],[6.8074555,46.3905551],[6.8074428,46.3905638],[6.8074336,46.3905757],[6.807429,46.3905972],[6.8074255,46.3906131],[6.8074175,46.3906432],[6.8074071,46.3906639],[6.8073922,46.3906726],[6.8073565,46.3906829],[6.8073403,46.3906893],[6.8073093,46.3907084],[6.8072597,46.3907195],[6.807239,46.3907147],[6.8072079,46.3906893],[6.8072102,46.3906702],[6.807231,46.3906599],[6.807277,46.3906615],[6.80733,46.3906694],[6.8073657,46.3906734],[6.8073772,46.3906655],[6.8074014,46.3906401],[6.8073979,46.3906162],[6.8073841,46.3906035],[6.8073703,46.3905956],[6.8073415,46.3905861],[6.8073058,46.3905702],[6.8072793,46.3905479],[6.8072839,46.3905328],[6.8073035,46.390517],[6.8073208,46.3905186],[6.8073461,46.3905321],[6.8073691,46.3905368],[6.8073956,46.3905281],[6.807391,46.3905178],[6.8073772,46.3904908],[6.8073899,46.3904781],[6.8073968,46.3904685],[6.8073841,46.3904534],[6.8073806,46.390432],[6.8073968,46.3904256],[6.8074301,46.3904376],[6.8074612,46.390428],[6.8074601,46.3904177],[6.8074313,46.3904082],[6.8073875,46.3903915],[6.8073657,46.390374],[6.8073749,46.3903566],[6.8074129,46.3903534],[6.8074463,46.3903589],[6.8074658,46.3903669],[6.8075107,46.3903836],[6.8075223,46.3903891],[6.8075752,46.3903923],[6.8076109,46.3903836],[6.807627,46.3903438],[6.8076247,46.3903272],[6.8076167,46.3903113],[6.8075879,46.3902994],[6.8075787,46.3902795],[6.8075603,46.3902533],[6.8075533,46.3902438],[6.8075315,46.3902335],[6.8074877,46.390243],[6.8074647,46.3902692],[6.8074394,46.3902875],[6.8074083,46.3902859],[6.807391,46.3902771],[6.8073668,46.390262],[6.8073449,46.390247],[6.8073219,46.3902335],[6.8073012,46.3902208],[6.8072839,46.3902033],[6.8072793,46.3901945],[6.807269,46.3901715],[6.8072759,46.390139],[6.8072839,46.3901175],[6.8072874,46.3901024],[6.8072989,46.3900794],[6.8073035,46.3900651],[6.8073231,46.3900468],[6.8073507,46.3900389],[6.8073783,46.3900254],[6.8074152,46.390004],[6.8074301,46.3899984],[6.8074566,46.3899619],[6.807452,46.3899452],[6.8074371,46.3899396],[6.807406,46.3899412],[6.8073542,46.3899349],[6.807338,46.3899245],[6.8073277,46.3898912],[6.8073323,46.3898666],[6.8073254,46.3898539],[6.807292,46.3898515],[6.8072586,46.3898547],[6.8072068,46.3898507],[6.8071907,46.3898396],[6.8071815,46.3898205],[6.8071653,46.3898086],[6.8071343,46.3897927],[6.8071181,46.3897879],[6.8070951,46.3897848],[6.8070836,46.3897752],[6.8070663,46.3897657],[6.8070007,46.3897681],[6.8069696,46.3897856],[6.8069558,46.3897999],[6.8069293,46.3898126],[6.8068936,46.389814200000007],[6.8068694,46.389811],[6.8068257,46.3897991],[6.8067958,46.3897919],[6.8067762,46.3897903],[6.8067382,46.3897935],[6.8066898,46.3897895],[6.806668,46.3897792],[6.8066495,46.3897641],[6.8066265,46.3897514],[6.8065966,46.3897379],[6.8065828,46.3897252],[6.8065793,46.3897101],[6.8065695,46.389703],[6.8065626,46.3897002],[6.8065494,46.3896994],[6.8065258,46.389703],[6.8065125,46.3897073],[6.8065033,46.3897093],[6.8064901,46.3897121],[6.8064751,46.3897145],[6.8064619,46.3897161],[6.8064423,46.3897185],[6.8064193,46.3897208],[6.8063847,46.3897181],[6.8063749,46.389715700000007],[6.8063525,46.3897149],[6.8063427,46.3897141],[6.8063295,46.3897196],[6.8063243,46.3897276],[6.8063225,46.3897359],[6.8063243,46.3897498],[6.8063346,46.3897574],[6.8063444,46.3897649],[6.8063525,46.3897764],[6.8063462,46.3897971],[6.8063335,46.3898102],[6.8063174,46.3898213],[6.8062984,46.3898265],[6.8062874,46.389828],[6.8062748,46.3898304],[6.8062644,46.3898336],[6.8062546,46.3898336],[6.8062414,46.3898296],[6.8062327,46.3898181],[6.806231,46.389801],[6.8062397,46.3897844],[6.8062512,46.3897685],[6.8062598,46.389753],[6.8062661,46.3897494],[6.8062811,46.3897419],[6.8063036,46.3897308],[6.8063174,46.3897185],[6.8063289,46.3897038],[6.8063323,46.3896923],[6.8063318,46.3896851],[6.8063272,46.3896776],[6.8063168,46.3896672],[6.8063082,46.3896597],[6.8062978,46.3896478],[6.8062903,46.3896347],[6.8062943,46.3896156],[6.806307,46.3896021],[6.8063231,46.3895954],[6.8063398,46.3895906],[6.8063554,46.3895882],[6.8063841,46.3895878],[6.8063985,46.3895783],[6.8064158,46.3895596],[6.8064175,46.3895461],[6.8064089,46.3895334],[6.8063922,46.3895243],[6.8063617,46.3895231],[6.8063427,46.3895271],[6.8063341,46.3895287],[6.8063156,46.3895298],[6.8063018,46.3895287],[6.8062869,46.3895247],[6.8062661,46.3895171],[6.8062604,46.389504],[6.8062581,46.3894977],[6.8062575,46.3894878],[6.80625,46.3894774],[6.8062166,46.3894707],[6.806193,46.3894747],[6.8061723,46.3894818],[6.8061619,46.3894874],[6.8061435,46.3894901],[6.8061314,46.3894874],[6.8061216,46.3894762],[6.8061159,46.3894623],[6.806109,46.389454],[6.806094,46.3894461],[6.8060664,46.3894385],[6.8060405,46.3894377],[6.8060238,46.3894409],[6.8060048,46.3894433],[6.8059754,46.3894429],[6.805957,46.3894417],[6.8059299,46.3894385],[6.8058942,46.3894266],[6.8058914,46.3894175],[6.8059023,46.3893996],[6.8059155,46.3893893],[6.8059351,46.389379],[6.8059645,46.3893686],[6.8059708,46.3893655],[6.8059858,46.3893555],[6.8060077,46.3893452],[6.8060226,46.3893412],[6.8060313,46.3893337],[6.806037,46.3893238],[6.8060353,46.3893067],[6.8060163,46.3892976],[6.8060054,46.3892952],[6.805999,46.3892952],[6.8059858,46.3892932],[6.8059789,46.3892896],[6.8059662,46.3892908],[6.8059587,46.3892952],[6.8059403,46.3893067],[6.8059345,46.3893075],[6.805919,46.3893039],[6.8059109,46.3892991],[6.8058862,46.3892984],[6.8058735,46.3892988],[6.8058511,46.3893031],[6.8058361,46.3893099],[6.805828,46.3893269],[6.8058321,46.3893345],[6.8058367,46.3893416],[6.8058396,46.3893508],[6.8058384,46.389373],[6.8058338,46.3893857],[6.805828,46.3893929],[6.8058073,46.3893988],[6.8057762,46.3894044],[6.8057526,46.3894052],[6.8057354,46.3894016],[6.8057313,46.3893972],[6.8057233,46.3893925],[6.8057175,46.3893905],[6.8057083,46.3893877],[6.8057002,46.3893841],[6.8056933,46.389377],[6.8056939,46.389371],[6.8057025,46.3893651],[6.8057175,46.3893639],[6.8057394,46.3893647],[6.805767,46.3893635],[6.8057929,46.3893555],[6.805801,46.3893464],[6.8058085,46.3893345],[6.8058067,46.3893277],[6.8057958,46.389319],[6.8057866,46.3893115],[6.805778,46.3893035],[6.8057705,46.3892916],[6.8057785,46.3892801],[6.8057877,46.3892717],[6.8057981,46.389265],[6.8058073,46.389261],[6.8058338,46.3892606],[6.805847,46.3892654],[6.8058729,46.3892749],[6.805904,46.3892793],[6.8059196,46.3892785],[6.8059391,46.3892757],[6.8059639,46.3892765],[6.8059944,46.3892825],[6.8060249,46.389288],[6.8060456,46.389294],[6.8060739,46.3892988],[6.8061113,46.3892976],[6.8061389,46.3892944],[6.8061591,46.3892932],[6.8061775,46.3892936],[6.806208,46.3892956],[6.8062402,46.3892944],[6.8062673,46.3892928],[6.8063001,46.3892928],[6.8063185,46.3892999],[6.8063335,46.3893119],[6.8063669,46.3893333],[6.8063818,46.3893389],[6.8063968,46.38934],[6.8064198,46.3893321],[6.8064175,46.3893222],[6.8064101,46.3893079],[6.8064204,46.3892999],[6.8064365,46.3892948],[6.8064584,46.3892956],[6.8064745,46.3893067],[6.806478,46.3893273],[6.8064832,46.3893369],[6.8064924,46.3893416],[6.8065177,46.3893516],[6.8065309,46.3893643],[6.8065332,46.3893825],[6.8065229,46.389398],[6.806516,46.3894155],[6.8065154,46.3894266],[6.8065235,46.3894389],[6.8065315,46.3894481],[6.8065402,46.3894564],[6.8065528,46.3894663],[6.8065655,46.3894743],[6.8065724,46.3894786],[6.8065891,46.3894878],[6.8065977,46.3895009],[6.8066127,46.38951],[6.806638,46.3895175],[6.80668,46.3895263],[6.8067065,46.3895382],[6.8067169,46.3895553],[6.806718,46.3895688],[6.8067284,46.3895823],[6.8067382,46.389593],[6.8067491,46.3895993],[6.8067683,46.3896064]]},"properties":{"source":"swiss Image 2021"}},
{"type":"Feature","geometry":{"type":"LineString","coordinates":[[6.8054757,46.3884309],[6.805463,46.3884258],[6.8054536,46.3884188],[6.8054476,46.3884096],[6.8054435,46.3883966],[6.8054375,46.3883846],[6.8054288,46.3883772],[6.8054167,46.3883721],[6.8053959,46.388367],[6.8053738,46.3883407],[6.8053785,46.3883263],[6.8054073,46.3883111],[6.805408,46.3882898],[6.805404,46.3882602],[6.805416,46.3882435],[6.8054261,46.3882273],[6.8054355,46.3881964],[6.8054321,46.388182],[6.8054241,46.3881658],[6.8054134,46.3881515],[6.8054087,46.388133],[6.80541,46.3881177],[6.8054154,46.3880951],[6.8054093,46.3880844],[6.8053926,46.3880696],[6.8053631,46.3880483],[6.8053463,46.3880345],[6.8053188,46.3880127],[6.8053021,46.387997],[6.8053088,46.387979],[6.8053155,46.3879582],[6.8053295,46.3879341],[6.805343,46.3879216],[6.8053544,46.3879017],[6.8053477000000008,46.3878911],[6.8053302,46.3878777],[6.8053114,46.3878615],[6.8052947,46.3878495],[6.8052746,46.387836],[6.8052598,46.3878249],[6.8052518,46.3878],[6.8052484,46.3877852],[6.8052491,46.3877653],[6.8052531,46.3877449],[6.8052504,46.3877311],[6.8052316,46.3877237],[6.8051914,46.3877348],[6.8051646,46.3877528],[6.8051465,46.3877699],[6.8051116,46.3877792],[6.805068,46.3877819],[6.8050332,46.3877903],[6.8050104,46.3878055],[6.805009,46.3878263],[6.8050023,46.3878471],[6.8049835,46.3878647],[6.8049527,46.3878837],[6.8049205,46.3878994],[6.8049091,46.3879137],[6.8049044,46.3879318],[6.804889,46.3879517],[6.8048649,46.3879646],[6.8048293,46.3879785],[6.8047938,46.3879831],[6.8047629,46.3879845],[6.8047455,46.3879905],[6.8047113,46.3880016],[6.8046925,46.3880137],[6.8046731,46.3880298],[6.8046469,46.388047],[6.8046281,46.3880539],[6.8045852,46.3880613],[6.8045524,46.3880668],[6.8045349,46.3880816],[6.804537,46.388102],[6.8045477,46.3881233],[6.8045651,46.3881376],[6.8045973,46.3881607],[6.8046194,46.3881871],[6.8046349,46.3882107],[6.8046456,46.3882241],[6.8046644,46.3882389],[6.8046912,46.3882574],[6.8047314,46.3882764],[6.8047676,46.3882893],[6.8048032,46.3883013],[6.8048327,46.3883111],[6.804887,46.3883166],[6.8049131,46.3883175],[6.804948,46.3883254],[6.8049715,46.3883397],[6.804999,46.3883476],[6.8050405,46.3883481],[6.8050767,46.3883379],[6.8050915,46.3883337],[6.8051096,46.3883342],[6.8051223,46.388336],[6.8051364,46.3883402],[6.8051995,46.3883527],[6.8052249,46.3883596],[6.8052504,46.3883712],[6.8052739,46.3883865],[6.8052873,46.3884216],[6.8052994,46.3884484],[6.8053128,46.3884614],[6.8053302,46.3884665],[6.8053704,46.3884632],[6.8053993,46.3884581],[6.8054321,46.3884507],[6.805457,46.3884489]]},"properties":{"source":"Swiss Image 2021"}},
{"type":"Feature","geometry":{"type":"LineString","coordinates":[[6.8111466,46.3873883],[6.8111359,46.3874036],[6.8111278,46.3874105],[6.8111171,46.3874221],[6.8111117,46.3874313],[6.8111151,46.387448],[6.8111218,46.3874702],[6.8111439,46.3874915],[6.81116,46.3875002],[6.8111915,46.3875049],[6.8112264,46.3875058],[6.8112519,46.3875076],[6.8112666,46.387516],[6.811272,46.3875224],[6.8112894,46.3875516],[6.8113035,46.3875798],[6.8113182,46.3875946],[6.8113317,46.387602],[6.8113719,46.3876177],[6.811386,46.3876228],[6.8114208,46.3876321],[6.811445,46.3876376],[6.8114651,46.387645],[6.8114772,46.3876598],[6.8114785,46.3876718],[6.8114671,46.387689],[6.8114564,46.3876973],[6.8114336,46.3877084],[6.8114195,46.3877149],[6.8113766,46.3877237],[6.8113578,46.387726],[6.8113022,46.3877385],[6.8112787,46.3877431],[6.8112452,46.3877509],[6.8112291,46.3877556],[6.8112143,46.3877639],[6.8111955,46.3877718],[6.8111674,46.3877805],[6.811152,46.3877838],[6.8111318,46.3877879],[6.8110983,46.387799],[6.8110802,46.3878111],[6.8110809,46.3878277],[6.8110762,46.3878545],[6.8110608,46.3878666],[6.8110373,46.387874],[6.8110111,46.3878758],[6.8109863,46.387874],[6.8109608,46.3878693],[6.8109387,46.3878624],[6.8109313,46.3878582],[6.810922,46.3878462],[6.8109266,46.3878323],[6.8109582,46.3878125],[6.8109702,46.3878069],[6.8110118,46.3877986],[6.8110373,46.3877926],[6.8110641,46.3877842],[6.8110695,46.3877801],[6.8110849,46.387756],[6.8110923,46.3877371],[6.8110943,46.3877223],[6.8110976,46.3877116],[6.8111043,46.387701],[6.8111137,46.3876922],[6.8111318,46.3876797],[6.8111392,46.3876584],[6.8111312,46.387639],[6.8111104,46.3876256],[6.8110903,46.3876187],[6.8110641,46.3876103],[6.8110373,46.3876039],[6.8110172,46.387602],[6.8109857,46.3876011],[6.8109541,46.3876025],[6.8109179,46.3876057],[6.8108931,46.3876057],[6.8108784,46.3876015],[6.8108529,46.3875895],[6.8108321,46.3875747],[6.8108153,46.3875632],[6.8107966,46.3875534],[6.8107778,46.3875521],[6.8107463,46.387553],[6.8107308,46.3875576],[6.8107188,46.3875641],[6.8106859,46.3875701],[6.8106678,46.3875775],[6.8106578,46.3875812],[6.8106443,46.387583],[6.8106262,46.3875817],[6.8106115,46.3875793],[6.8105786,46.3875784],[6.8105565,46.3875793],[6.8105357,46.3875872],[6.8105263,46.3875946],[6.8105149,46.3876117],[6.8105129,46.3876205],[6.8105008,46.3876367],[6.8104814,46.3876469],[6.8104734,46.3876496],[6.8104459,46.3876561],[6.810417,46.3876635],[6.8103996,46.3876705],[6.8103828,46.3876825],[6.810362,46.3876959],[6.8103473,46.3877158],[6.8103446,46.3877329],[6.8103466,46.38775],[6.8103413,46.3877685],[6.8103312,46.3877856],[6.8103171,46.3877898],[6.8103003,46.3877898],[6.8102876,46.3877884],[6.8102675,46.3877838],[6.810246,46.3877704],[6.81024,46.3877634],[6.810234,46.3877565],[6.8102279,46.3877445],[6.8102266,46.3877352],[6.8102279,46.3877278],[6.8102259,46.3877153],[6.8102125,46.3877093],[6.810183,46.3877139],[6.8101736,46.3877186],[6.8101548,46.3877343],[6.8101475,46.3877403],[6.8101294,46.3877537],[6.8101156,46.3877678],[6.8101012,46.3877812],[6.8100841,46.387799],[6.8100801,46.3878062],[6.810069,46.387821]]},"properties":{"source":"Swiss Image 2021"}},
{"type":"Feature","geometry":{"type":"LineString","coordinates":[[6.805457,46.3884489],[6.8054677,46.3884637],[6.8054717,46.3884831],[6.8054784,46.3885007],[6.8054797,46.3885123],[6.8054791,46.388528],[6.8054751,46.3885497],[6.8054623,46.3885738],[6.8054482,46.3885835],[6.8054328,46.3885881],[6.805412,46.3885876],[6.8053946,46.3885904],[6.8053839,46.3885992],[6.8053691,46.3886126],[6.8053369,46.3886205],[6.8053168,46.388621],[6.8052866,46.3886112],[6.8052786,46.3886071],[6.8052464,46.3886052],[6.8052276,46.3886103],[6.8051928,46.3886279],[6.8051666,46.3886501],[6.8051264,46.3886691],[6.8051096,46.3886723],[6.8050995,46.3886839],[6.8050995,46.3886982],[6.8051177,46.388719],[6.8051364,46.3887287],[6.8051653,46.3887287],[6.8051834,46.388731],[6.8052142,46.3887518],[6.8052202,46.3887666],[6.8052249,46.3887736],[6.805233,46.3887805],[6.8052511,46.3887879],[6.8052672,46.3887999],[6.8052544,46.3888208]]},"properties":{"source":"Swiss Image 2021"}},
{"type":"Feature","geometry":{"type":"LineString","coordinates":[[6.806202,46.3880951],[6.8061785,46.3880724],[6.8061684,46.3880608],[6.8061557,46.3880451],[6.8061503,46.3880345],[6.8061483,46.3880164],[6.8061396,46.387995600000007],[6.8061268,46.3879808],[6.8061121,46.3879669],[6.806102,46.3879549],[6.8060953,46.387941],[6.8060879,46.3879239],[6.8060839,46.3879073],[6.8060765,46.3878892],[6.8060779,46.3878804],[6.8060759,46.3878698],[6.8060752,46.3878495],[6.8060692,46.3878444],[6.8060551,46.3878356],[6.806039,46.387831],[6.8060195,46.3878222],[6.8060008,46.3878046],[6.8059961,46.3877963],[6.8059907,46.3877681],[6.8059639,46.3877255],[6.8059485,46.3877162],[6.805929,46.3877079],[6.8058962,46.3876931],[6.8058767,46.3876802],[6.8058687,46.3876658],[6.8058432,46.3876367],[6.805807,46.3876154],[6.8057741,46.387608],[6.80575,46.387615],[6.8057346,46.3876335],[6.8057352,46.3876607],[6.8057372,46.3876732],[6.8057258,46.3876857],[6.805691,46.3877102],[6.8056776,46.3877255],[6.8056709,46.387738],[6.8056675,46.3877468],[6.8056447,46.3877852],[6.8056454,46.3877949],[6.805646,46.3878088],[6.8056467,46.3878236],[6.8056554,46.3878365],[6.8056729,46.3878485],[6.8056896,46.3878615],[6.805703,46.3878814],[6.8057118,46.387898],[6.8057272,46.3879091],[6.8057547,46.3879221],[6.8057708,46.3879253],[6.8058009,46.3879299],[6.8058157,46.3879401],[6.8058278,46.3879484],[6.8058351,46.3879549],[6.8058398,46.3879632],[6.8058331,46.3879771],[6.8058103,46.3879924],[6.8057969,46.3880012],[6.8057681,46.3880206],[6.8057527,46.3880423],[6.8057426,46.3880553],[6.8057211,46.388077],[6.8057118,46.3880872],[6.8056923,46.3881089],[6.8056856,46.3881288],[6.8056849,46.3881422],[6.8056709,46.3881654],[6.8056568,46.3881732],[6.8056434,46.3881829],[6.8056259,46.3881968],[6.8055984,46.3882176],[6.8055528,46.3882421],[6.8055448,46.3882565],[6.8055388,46.3882671],[6.8055374,46.388281],[6.8055381,46.3882902],[6.8055374,46.3883037],[6.8055307,46.3883185],[6.8055267,46.3883448],[6.805528,46.3883661],[6.8055267,46.3883809],[6.8055213,46.3884017],[6.8055106,46.3884202],[6.8054938,46.3884295],[6.8054757,46.3884309]]},"properties":{"source":"Swiss Image 2021"}},
{"type":"Feature","geometry":{"type":"LineString","coordinates":[[6.808685,46.387787],[6.8086642,46.3877829],[6.8086494,46.3877792],[6.8086193,46.3877796],[6.8085978,46.3877856],[6.8085871,46.3877889],[6.8085583,46.3877884],[6.8085368,46.3877824],[6.8085254,46.3877745],[6.8085194,46.3877625],[6.8085167,46.3877523],[6.808514,46.3877435],[6.8084972,46.3877181],[6.8084691,46.3876991],[6.808453,46.3876829],[6.8084449,46.3876496],[6.8084449,46.3876399],[6.8084436,46.3876293],[6.8084422,46.3876182],[6.8084429,46.3876122],[6.8084503,46.3875946],[6.8084523,46.3875793],[6.8084443,46.3875678],[6.8084262,46.3875548],[6.8084081,46.3875423],[6.808402,46.3875317],[6.8084034,46.3875201],[6.8084141,46.3874924],[6.8084121,46.3874859],[6.8084087,46.3874767],[6.8084007,46.3874646],[6.8083853,46.3874531],[6.8083658,46.3874452],[6.808343,46.3874401],[6.8083269,46.387435],[6.8083001,46.387426],[6.8082945,46.3874231],[6.8082742,46.3874159],[6.8082375,46.3874132],[6.8082172,46.3874108],[6.8081969,46.3874105],[6.8081684,46.3874153],[6.8081442,46.3874201],[6.8081248,46.3874234],[6.8081023,46.3874243],[6.8080721,46.3874248],[6.8080384,46.3874257],[6.8079982,46.387426],[6.8079784,46.3874254],[6.8079606,46.3874245],[6.8079442,46.3874245],[6.80792,46.3874287],[6.8079006,46.3874356],[6.8078846,46.3874436],[6.8078648,46.387454],[6.8078505,46.3874612],[6.8078354,46.3874686],[6.8078159,46.3874782],[6.8078008,46.3874818],[6.8077758,46.3874823],[6.8077645,46.3874818],[6.8077455,46.3874812],[6.8077261,46.3874815],[6.807695,46.3874847],[6.8076721,46.3874895],[6.8076449,46.3874943],[6.8076177,46.3874972],[6.8075926,46.3874984],[6.8075749,46.3875014],[6.807562,46.3875086],[6.8075503,46.3875181],[6.8075438,46.3875232],[6.8075227,46.3875297],[6.8074959,46.3875291],[6.8074816,46.3875261],[6.8074665,46.3875208],[6.8074488,46.3875157],[6.8074333,46.3875148],[6.8074237,46.3875166],[6.8074151,46.387522],[6.8074065,46.3875306],[6.8074026,46.3875375],[6.8073991,46.3875464],[6.8073957,46.3875687],[6.8073944,46.387575],[6.8073961,46.3875798],[6.8074095,46.3876012],[6.8074069,46.3876152],[6.8074022,46.3876328],[6.8073853,46.3876531],[6.8073663,46.3876653],[6.8073542,46.3876692],[6.8073287,46.3876727],[6.8073158,46.3876721],[6.8072579,46.3876531],[6.8072549,46.3876507],[6.8072406,46.3876441],[6.8072125,46.387645],[6.8071953,46.3876477],[6.8071875,46.3876537],[6.8071819,46.3876614],[6.8071814,46.3876721],[6.8071849,46.3876832],[6.8071862,46.3876894],[6.8071944,46.3877124],[6.8071974,46.3877204],[6.8072,46.3877293],[6.807197,46.387738],[6.8071888,46.387749],[6.8071823,46.3877538],[6.8071711,46.3877579],[6.8071585,46.3877624],[6.80714,46.3877648],[6.8071141,46.3877672],[6.8071054,46.3877663],[6.807073,46.3877591],[6.8070627,46.3877588],[6.8070523,46.3877588],[6.8070359,46.3877618],[6.8070277,46.3877636],[6.8070035,46.3877684],[6.8069966,46.3877687],[6.8069871,46.3877672],[6.8069797,46.3877621],[6.8069832,46.387755],[6.8069892,46.3877505],[6.8070048,46.3877451],[6.8070203,46.3877398],[6.807029,46.3877356],[6.8070441,46.3877258],[6.8070519,46.387718],[6.8070549,46.3877097],[6.8070519,46.3876972],[6.8070506,46.3876912],[6.8070454,46.3876799],[6.8070454,46.3876733],[6.8070501,46.3876671],[6.807067,46.3876566],[6.8070868,46.3876489],[6.8070955,46.387642],[6.807095,46.3876319],[6.8070747,46.3876248],[6.8070605,46.387626],[6.8070411,46.3876319],[6.8070212,46.3876432],[6.807,46.3876572],[6.8069892,46.3876662],[6.8069767,46.3876718],[6.8069594,46.3876742],[6.80694,46.3876751],[6.8069201,46.3876742],[6.806892,46.3876766],[6.8068804,46.3876787],[6.8068631,46.3876867],[6.8068506,46.3876989],[6.806832,46.387713],[6.8068203,46.3877216],[6.8067957,46.3877341],[6.8067871,46.387738],[6.806762,46.3877448],[6.8067435,46.3877466],[6.8067128,46.3877496],[6.8066972,46.3877511],[6.8066795,46.3877553],[6.8066705,46.3877603],[6.8066571,46.3877669],[6.8066165,46.3877895],[6.80661,46.3877952],[6.8065975,46.3878038],[6.8065927,46.3878131],[6.806591,46.3878214],[6.806594,46.38783],[6.8066044,46.3878354],[6.8066204,46.387836],[6.8066346,46.3878333],[6.8066437,46.3878315],[6.8066588,46.3878324],[6.806667,46.3878381],[6.8066709,46.3878467],[6.8066731,46.3878577],[6.8066774,46.3878753],[6.8066847,46.3878905],[6.8066942,46.3879024],[6.8067046,46.3879072],[6.8067115,46.3879105],[6.806724,46.3879114],[6.8067417,46.3879087],[6.8067603,46.3879036],[6.8067668,46.3878953],[6.8067728,46.3878863],[6.8067793,46.387881],[6.8067944,46.387875],[6.8068121,46.3878741],[6.8068247,46.3878771],[6.8068411,46.3878849],[6.8068411,46.3878944],[6.8068281,46.3879081],[6.8068182,46.3879176],[6.8068022,46.3879209],[6.8067845,46.3879212],[6.8067642,46.3879209],[6.806746,46.3879215],[6.806724,46.3879236],[6.8067154,46.3879251],[6.8067007,46.3879319],[6.8066908,46.3879364],[6.8066791,46.3879433],[6.8066657,46.3879546],[6.8066528,46.3879608],[6.8066497,46.3879644],[6.8066467,46.3879692],[6.8066463,46.3879736],[6.8066484,46.3879766],[6.8066592,46.387985],[6.8066774,46.3879906],[6.8067003,46.3879945],[6.8067232,46.3879966],[6.8067512,46.3879999],[6.8067672,46.388004],[6.8067815,46.3880055],[6.8067974,46.3880061],[6.8068281,46.3880094],[6.8068506,46.3880142],[6.806867,46.3880171],[6.8068912,46.3880225],[6.8068998,46.3880246],[6.8069136,46.3880285],[6.8069184,46.3880341],[6.8069218,46.3880392],[6.8069253,46.3880434],[6.8069244,46.3880553],[6.8069249,46.38806],[6.8069283,46.3880657],[6.8069313,46.3880723],[6.8069335,46.3880794],[6.8069318,46.3880848],[6.8069275,46.3880883],[6.8069054,46.388091],[6.8069011,46.3880895],[6.8068968,46.3880854],[6.8068942,46.3880678],[6.8068942,46.3880624],[6.8068899,46.3880544],[6.806873,46.3880472],[6.8068622,46.3880437],[6.8068532,46.3880383],[6.8068437,46.3880323],[6.8068363,46.388027],[6.806832,46.3880243],[6.806819,46.3880183],[6.8067983,46.3880174],[6.8067771,46.3880177],[6.8067599,46.388018],[6.8067491,46.3880165],[6.8067383,46.388013],[6.8067305,46.3880106],[6.8067167,46.3880052],[6.8067024,46.3880025],[6.8066925,46.3880014],[6.8066739,46.3880017],[6.8066644,46.3879993],[6.8066553,46.3879972],[6.8066428,46.3879939],[6.8066268,46.3879829],[6.8066199,46.3879784],[6.8066044,46.3879781],[6.8065875,46.3879796],[6.8065698,46.3879835],[6.8065551,46.3879865],[6.8065331,46.3879873],[6.8065184,46.3879868],[6.8065111,46.3879873],[6.8064981,46.3879906],[6.8064813,46.3879996],[6.8064679,46.3880031],[6.8064502,46.3880058],[6.8064333,46.3880064],[6.806423,46.3880091],[6.8064161,46.3880124],[6.8064001,46.3880255],[6.8063871,46.3880395],[6.8063694,46.3880475],[6.8063642,46.3880526],[6.8063638,46.3880583],[6.8063629,46.3880651],[6.8063672,46.3880732],[6.8063746,46.3880848],[6.8063759,46.3880937],[6.8063711,46.3880985],[6.8063586,46.3881024],[6.8063469,46.3881],[6.8063431,46.3880928],[6.8063413,46.3880866],[6.8063357,46.3880824],[6.8063197,46.3880815],[6.8062981,46.3880827],[6.8062908,46.3880842],[6.8062791,46.3880898],[6.8062705,46.3880937],[6.8062619,46.3880982],[6.8062502,46.3881035],[6.806239,46.3881056],[6.8062338,46.3881059],[6.8062243,46.3881047],[6.8062174,46.3881021],[6.806202,46.3880951]]},"properties":{"source":"Swiss Image 2021"}},
{"type":"Feature","geometry":{"type":"LineString","coordinates":[[6.8020753,46.3886115],[6.8020761,46.3886195],[6.8020753,46.3886316],[6.8020715,46.3886434],[6.8020711,46.388663],[6.8020745,46.3886791],[6.8020757,46.3886845],[6.8020786,46.3886932],[6.8020807,46.3886998],[6.8020807,46.3887067],[6.8020853,46.3887193],[6.8020924,46.3887286],[6.8020957,46.388738],[6.8020957,46.3887458],[6.8020949,46.3887559],[6.8020945,46.3887743],[6.8020987,46.3887824],[6.8021108,46.3887884],[6.8021258,46.3887947],[6.8021316,46.3888059],[6.8021324,46.3888152],[6.8021262,46.3888284],[6.8021262,46.3888387],[6.8021337,46.3888586],[6.8021462,46.3888698],[6.8021579,46.388877],[6.8021733,46.3888796],[6.8021975,46.3888851],[6.8022263,46.3888902],[6.8022426,46.3888917],[6.8022722,46.3888931],[6.8022847,46.3888977],[6.802296,46.3889029],[6.8023076,46.3889098],[6.8023131,46.3889144],[6.8023256,46.3889222],[6.8023327,46.3889233],[6.8023502,46.3889236],[6.8023744,46.3889242],[6.8023865,46.3889259],[6.8023965,46.3889314],[6.8024057000000008,46.3889363],[6.8024249,46.3889369],[6.8024457,46.3889371],[6.8024766,46.3889374],[6.8024983,46.3889417],[6.8025091,46.3889466],[6.8025233,46.3889541],[6.8025521,46.3889567],[6.8025775,46.3889573],[6.8025909,46.388953],[6.8026,46.3889412],[6.8025963,46.3889323],[6.80259,46.3889265],[6.8025846,46.3889228],[6.8025825,46.388915],[6.8025896,46.3889075],[6.8026142,46.388902],[6.8026347,46.3889029],[6.8026405,46.3889055],[6.8026559,46.3889075],[6.8026772,46.3889072],[6.8027047,46.3889043],[6.8027243,46.3888997],[6.8027339,46.3888972],[6.8027473,46.3888951],[6.8027627,46.3888917],[6.802784,46.3888905],[6.8028023,46.3888923],[6.8028315,46.3888943],[6.8028503,46.3888954],[6.8028778,46.3888966],[6.8028966,46.3888989],[6.8029146,46.3889026],[6.8029154,46.3889147],[6.8029016,46.3889297],[6.802892,46.3889363],[6.8028653,46.3889392],[6.8028524,46.3889363],[6.8028416,46.3889308],[6.8028274,46.388921],[6.8028111000000008,46.3889115],[6.8027902,46.3889049],[6.8027715,46.3889095],[6.8027656,46.388915],[6.8027736,46.3889305],[6.8027777,46.3889374],[6.8027731,46.3889498],[6.8027569,46.3889581],[6.802741,46.3889602],[6.8027156,46.3889622],[6.802701,46.3889605],[6.8026893,46.3889579],[6.8026789,46.3889558],[6.8026605,46.3889558],[6.8026488,46.3889605],[6.802633,46.3889676],[6.8026134,46.3889685],[6.8025842,46.3889639],[6.8025646,46.3889648],[6.8025492,46.3889685],[6.8025371,46.3889786],[6.8025321,46.3889918],[6.8025391,46.3890073],[6.8025537,46.3890143],[6.8025784,46.3890249],[6.8025809,46.3890353],[6.8025879,46.3890548],[6.8025884,46.3890609],[6.8025875,46.3890732],[6.8025863,46.389087],[6.8025775,46.3891052],[6.8025638,46.3891147],[6.8025496,46.3891227],[6.8025312,46.3891285],[6.8025104,46.3891351],[6.8024953,46.38914],[6.8024795,46.3891466],[6.8024624,46.3891541],[6.8024482,46.3891653],[6.8024445,46.3891754],[6.8024449,46.3891814],[6.8024486,46.3891875],[6.802462,46.3892053],[6.8024757,46.3892266],[6.8024799,46.3892384],[6.8024849,46.389247],[6.8024924,46.3892533],[6.8025033,46.3892591],[6.8025291,46.3892657],[6.8025412,46.3892689],[6.8025612,46.3892723],[6.8025733,46.3892795],[6.8025821,46.3892873],[6.8025892,46.3892948],[6.802593,46.3893],[6.8026075,46.38931],[6.8026322,46.3893195],[6.8026422,46.3893276],[6.8026513,46.3893345],[6.8026564,46.3893417],[6.8026622,46.3893569],[6.802663,46.3893624],[6.8026714,46.3893696],[6.8026847,46.3893837],[6.8026964,46.3893946],[6.8027039,46.389409],[6.8027039,46.3894191],[6.8026997,46.389428],[6.8026972,46.3894389],[6.802691,46.3894524],[6.8026876,46.3894585],[6.8026789,46.3894709],[6.8026643,46.3894812],[6.8026551,46.3894847],[6.8026459,46.3894887],[6.8026221,46.389497],[6.8026092,46.3895019],[6.8025921,46.38951],[6.8025825,46.3895183],[6.8025784,46.3895316],[6.8025775,46.3895428],[6.8025758,46.389556],[6.8025729,46.3895615],[6.8025646,46.3895741],[6.8025575,46.3895825],[6.8025412,46.3895911],[6.8025187,46.3896003],[6.8025024,46.3896075],[6.8024933,46.3896153],[6.8024858,46.3896207],[6.8024795,46.3896308],[6.8024778,46.3896354],[6.8024774,46.3896429],[6.8024828,46.389653],[6.8024883,46.389657],[6.8024949,46.3896596],[6.8025149,46.3896685],[6.8025245,46.389676],[6.8025254,46.3896858],[6.8025212,46.3896947],[6.8025145,46.3897048],[6.8025033,46.3897131],[6.8024866,46.3897203],[6.8024649,46.3897281],[6.8024486,46.3897292],[6.8024344,46.3897252],[6.8024232,46.389715700000007],[6.8024269,46.3897094],[6.8024324,46.3896984],[6.8024324,46.3896904],[6.8024261,46.3896846],[6.8024136,46.3896789],[6.8023877,46.3896676],[6.802379,46.3896515],[6.8023806,46.3896475],[6.8023873,46.389642],[6.8024236,46.3896288],[6.8024269,46.3896242],[6.8024265,46.3896144],[6.8024203,46.3896067],[6.8024169,46.3896038],[6.8023911,46.3896006],[6.8023794,46.3896026],[6.8023681,46.3896069],[6.8023564,46.3896141],[6.8023502,46.3896228],[6.8023489,46.3896288],[6.8023464,46.3896374],[6.8023439,46.3896527],[6.8023448,46.3896653],[6.8023427,46.3896771],[6.8023423,46.3896826],[6.8023381,46.3896872],[6.8023293,46.3896901],[6.8023122,46.3896901],[6.802298,46.3896889],[6.8022793,46.3896938],[6.8022693,46.3897105],[6.802278,46.3897171],[6.802288,46.3897226],[6.8023039,46.3897289],[6.8023093,46.389737],[6.8023101,46.3897436],[6.8023018,46.3897508],[6.8022901,46.3897614],[6.8022855,46.3897715],[6.8022918,46.3897922],[6.8023001,46.3897968],[6.8023047,46.3897988],[6.8023135,46.389802],[6.8023331,46.3898069],[6.802341,46.3898106],[6.8023677,46.3898115],[6.8023852,46.3898144],[6.8024173,46.3898236],[6.8024319,46.389827],[6.8024411,46.3898288],[6.8024515,46.3898311],[6.8024591,46.3898339],[6.8024678,46.3898388],[6.8024728,46.3898446],[6.8024762,46.3898506],[6.8024841,46.3898567],[6.8025008,46.389861],[6.8025099,46.3898624],[6.8025287,46.3898601],[6.8025517,46.3898564],[6.8025696,46.3898578],[6.802603,46.3898552],[6.8026138,46.3898489],[6.8026213,46.389838],[6.8026238,46.389829],[6.802633,46.3898198],[6.8026614,46.3898138],[6.802686,46.3898066],[6.8026997,46.3897997],[6.8027031,46.3897971],[6.8027064,46.3897942],[6.8027369,46.3897916],[6.8027615,46.3897942],[6.8027798,46.3897939],[6.8027961,46.3897928],[6.8028011,46.3897937],[6.8028236,46.3897896],[6.8028361,46.3897836],[6.8028495,46.3897764],[6.8028574,46.3897724],[6.8028795,46.3897623],[6.8029012,46.3897588],[6.8029221,46.3897571],[6.8029387,46.38976],[6.8029642,46.3897649],[6.8029721,46.3897701],[6.8029784,46.3897741],[6.8029934,46.3897787],[6.8030163,46.3897807],[6.8030459,46.3897784],[6.803071,46.3897758],[6.8030922,46.3897738],[6.8031073,46.3897721],[6.8031344,46.3897715],[6.8031556,46.3897715],[6.8031707,46.3897735],[6.803174,46.3897752],[6.8031994,46.3897773],[6.8032061,46.3897775],[6.8032228,46.3897747],[6.803247,46.3897632],[6.803262,46.3897617],[6.803272,46.3897623],[6.803287,46.3897637],[6.8032991,46.3897646],[6.8033137,46.3897652],[6.8033342,46.3897646],[6.8033463,46.3897637],[6.8033596,46.3897629],[6.8033788,46.3897614],[6.8033913,46.3897606],[6.8034109,46.3897586],[6.8034284,46.389756],[6.8034405,46.3897542],[6.803451,46.3897528],[6.8034756,46.3897528],[6.8034777,46.3897568],[6.8034747,46.38976],[6.8034635,46.3897617],[6.8034435,46.3897626],[6.8034209,46.3897704],[6.8033851,46.389779],[6.8033742,46.3897793],[6.8033634,46.3897781],[6.8033529,46.3897778],[6.8033321,46.3897787],[6.8033117,46.3897836],[6.8033029,46.3897856],[6.8032749,46.389787],[6.8032558,46.3897885],[6.8032274,46.3897905],[6.803212,46.3897902],[6.8031903,46.3897891],[6.8031627,46.3897893],[6.8031385,46.3897891],[6.8031118,46.3897919],[6.8030881,46.3897942],[6.8030614,46.3897957],[6.8030389,46.3897951],[6.8030172,46.3897925],[6.8029942,46.3897902],[6.8029696,46.3897925],[6.8029471,46.3897908],[6.8029412,46.3897899],[6.8029266,46.3897862],[6.8028991,46.3897862],[6.8028749,46.3897914],[6.8028578,46.3898034],[6.8028532,46.3898135],[6.8028457,46.3898242],[6.8028365,46.3898328],[6.8028245,46.3898383],[6.8028074,46.3898391],[6.8027973,46.3898365],[6.802756,46.3898357],[6.802741,46.3898443],[6.8027381,46.3898552],[6.8027369,46.3898662],[6.8027314,46.3898708],[6.8027252,46.3898762],[6.8027122,46.3898831],[6.8027022,46.3898866],[6.8026776,46.3898912],[6.8026651,46.3898909],[6.8026393,46.3898935],[6.8026034,46.3899047],[6.8025963,46.3899139],[6.8025879,46.3899203],[6.8025784,46.389928],[6.8025671,46.3899507],[6.8025633,46.3899574],[6.802565,46.3899657],[6.8025688,46.3899743],[6.8025729,46.3899795],[6.8025817,46.3899838],[6.8025875,46.3899861],[6.8025984,46.389993],[6.8026025,46.3899988],[6.8026038,46.390006],[6.8026,46.3900184],[6.8025942,46.390025],[6.8025909,46.3900313],[6.8025925,46.3900385],[6.8026067,46.39005],[6.8026192,46.390063],[6.8026276,46.3900762],[6.8026326,46.3900874],[6.8026376,46.3901027],[6.802643,46.3901139],[6.8026543,46.3901211],[6.8026697,46.3901263],[6.8026881,46.3901263],[6.8027056,46.3901263],[6.8027285,46.3901303],[6.8027452,46.3901323],[6.8027706,46.3901389],[6.8027886,46.3901418],[6.8028023,46.3901455],[6.8028194,46.3901498],[6.8028424,46.3901599],[6.8028449,46.3901639],[6.8028474,46.3901726],[6.8028491,46.3901844],[6.8028566,46.390197],[6.802857,46.3902016],[6.8028578,46.3902103],[6.8028616,46.3902235],[6.8028574,46.3902439],[6.8028582,46.3902546],[6.8028587,46.39026],[6.8028603,46.3902661],[6.8028657,46.3902776],[6.8028687,46.3902816],[6.8028891,46.3902977],[6.8028949,46.3903072],[6.8028995,46.3903167],[6.802897,46.390332],[6.8028983,46.3903377],[6.8029029,46.3903438],[6.8029141,46.3903495],[6.8029196,46.3903535],[6.8029229,46.3903579],[6.8029271,46.3903625],[6.8029275,46.3903671],[6.8029268,46.3903764]]},"properties":{"source":"Swiss Image 2021"}},
{"type":"Feature","geometry":{"type":"LineString","coordinates":[[6.8128036,46.3863435],[6.8128814,46.386347],[6.8129365,46.3863442],[6.8129752,46.3863271],[6.8129848,46.3863157],[6.8130262,46.3863118],[6.81304,46.3863147],[6.813051,46.3863223],[6.813062,46.386328],[6.8131172,46.3863432],[6.8131655,46.3863394],[6.8131944,46.3863271],[6.8132041,46.386308],[6.8131696,46.386289],[6.8131407,46.3862747],[6.8131269,46.3862519],[6.8131255,46.3862357],[6.8131282,46.386212],[6.8131296,46.3861825],[6.8130979,46.3861634],[6.8130455,46.3861568],[6.8130069,46.3861549],[6.8129821,46.3861444],[6.812989,46.3861244],[6.8130124,46.3861178],[6.8130552,46.386114],[6.8130786,46.3861035],[6.8130855,46.386093],[6.8131296,46.386075],[6.8131738,46.3860683],[6.813222,46.3860636],[6.8132896,46.3860597],[6.8133393,46.3860636],[6.8133434,46.3860816],[6.8133337,46.3860921],[6.8133117,46.3860959],[6.8132924,46.3860949],[6.8132731,46.3860949],[6.8132331,46.3861045],[6.8132234,46.3861159],[6.8132275,46.3861397],[6.8132413,46.3861473],[6.813302,46.3861558],[6.8133406,46.3861644],[6.8134096,46.3861558],[6.8134386,46.3861378],[6.8134399,46.3861225],[6.8134496,46.3861083],[6.813462,46.3860988],[6.8134758,46.3860854],[6.8135075,46.386074],[6.8135572,46.3860674],[6.8135861,46.3860712],[6.8136109,46.3860835],[6.8136275,46.3860959],[6.8136496,46.386114],[6.8136964,46.3861482],[6.8137033,46.3861644],[6.8136799,46.3861806],[6.8136496,46.3861872],[6.813622,46.3861929],[6.8136054,46.3862082],[6.8135737,46.3862329],[6.8135572,46.3862595],[6.8135089,46.3862985],[6.8134854,46.3863147],[6.8134413,46.386329],[6.8133503,46.3863366],[6.8133186,46.3863556],[6.8132993,46.3863937],[6.8132703,46.3864203],[6.8132317,46.386446],[6.8132289,46.3864641],[6.8132441,46.386484],[6.8132937,46.3864974],[6.8133089,46.3865012],[6.8133586,46.3865354],[6.8133875,46.3865573],[6.8133861,46.3865801],[6.8133682,46.3865953],[6.813331,46.3866087],[6.8132565,46.3866267],[6.8132096,46.3866372],[6.8132096,46.3866505],[6.8132248,46.3866619],[6.8132993,46.3866933],[6.8133337,46.3867152],[6.8133572,46.3867409],[6.8133806,46.3867647],[6.8133834,46.3868189],[6.8133062,46.3868741],[6.8132758,46.3868864],[6.8132593,46.3869007],[6.8132027,46.3869121],[6.8131862,46.3869074],[6.8131765,46.3868912],[6.8131738,46.3868646],[6.8131738,46.3868408],[6.8131875,46.3868113],[6.8131889,46.3867885],[6.8131779,46.3867742],[6.8131669,46.3867637],[6.8131365,46.3867542],[6.8130841,46.3867447],[6.8130552,46.3867418],[6.8130207,46.3867418],[6.8129434,46.3867523],[6.81288,46.3867675],[6.8128455,46.3867732],[6.8128028,46.3867675],[6.8127483,46.3867577]]},"properties":{"source":"swiss Image 2021"}},
{"type":"Feature","geometry":{"type":"LineString","coordinates":[[6.8150388,46.3876742],[6.8150509,46.3876513],[6.8150783,46.3876421],[6.8150936,46.3876302],[6.8150936,46.3876141],[6.8150946,46.3875986],[6.8151261,46.3875741],[6.8151648,46.3875257],[6.815177,46.3875081],[6.8151892,46.3874878],[6.8151943,46.3874675],[6.8151983,46.3874506],[6.8152319,46.3874219],[6.8152797,46.3874184],[6.8153173,46.3874163],[6.8153336,46.3874092],[6.8153732,46.3873882],[6.8154119,46.3873791],[6.8154444,46.3873664],[6.8154841,46.3873566],[6.8155319,46.3873468],[6.8155827,46.387337],[6.8156468,46.3873117],[6.8156824,46.3872858],[6.8157068,46.3872535],[6.8156875,46.387236],[6.8156611,46.387217],[6.8156305,46.3871988],[6.8156305,46.3871791],[6.8156204,46.3871462],[6.815596,46.3871195],[6.8155888,46.3871055],[6.8155858,46.3870858],[6.815596,46.3870711],[6.8156244,46.3870648],[6.8156468,46.3870676],[6.8156651,46.3870753],[6.815717,46.3870774],[6.8157414,46.387076],[6.8157861,46.3870529],[6.8157984,46.3870374],[6.8158014,46.3870199],[6.8157922,46.3870024],[6.8157902,46.3869806],[6.8157912,46.3869673],[6.8158126,46.3869498],[6.8158268,46.3869378],[6.8158339,46.3869168],[6.8158472,46.3869042],[6.8158634,46.3868922],[6.8158828,46.3868775],[6.8158695,46.3868614],[6.8158421,46.3868565],[6.8157811,46.3868607],[6.8157363,46.3868593],[6.8157099,46.3868529],[6.8156672,46.3868459],[6.8156539,46.3868459],[6.8156366,46.3868494],[6.8156133,46.386855],[6.8156041,46.3868607],[6.8156021,46.3868747],[6.815596,46.3868985],[6.8155553,46.386907],[6.8154943,46.3868992],[6.8154688,46.3868852],[6.8154678,46.3868543],[6.8154729,46.3868382],[6.8154851,46.3868172],[6.8155492,46.3868087],[6.815596,46.3868059],[6.8156346,46.3868052],[6.8156916,46.3868116],[6.8157617,46.38682],[6.8158065,46.3868137],[6.8158268,46.3867996],[6.8158177,46.3867765],[6.8157984,46.3867547],[6.8157943,46.3867154],[6.8157963,46.3867035],[6.8157933,46.3866832],[6.8157943,46.3866684],[6.8157984,46.3866558],[6.8158085,46.3866411],[6.8158106,46.3866207],[6.8157943,46.3866032],[6.8157699,46.3865885],[6.8157577,46.386578],[6.8157343,46.3865597],[6.8157261,46.3865443],[6.815717,46.3865155],[6.8157139,46.3865057],[6.8157068,46.3864846],[6.8156956,46.3864755],[6.8156641,46.3864608],[6.815656,46.386451],[6.815659,46.3864299],[6.8156824,46.3864145],[6.8157119,46.3864026],[6.8157536,46.386397],[6.8157811,46.3863815],[6.8157872,46.3863675],[6.8158075,46.3863493],[6.815836,46.3863377],[6.8158568,46.3863286],[6.815868,46.3863261],[6.815899,46.3863215],[6.8159199,46.386324],[6.8159351,46.3863296],[6.8159585,46.3863338],[6.8159794,46.3863314],[6.8160028,46.3863233],[6.8160379,46.3863159],[6.8160531,46.3863173],[6.8160851,46.386317],[6.8161162,46.3863089],[6.816137,46.3862998],[6.8161507,46.3862945],[6.816168,46.3862854],[6.8161797,46.386271],[6.8161812,46.3862563],[6.816197,46.3862409],[6.8162092,46.3862356],[6.8162372,46.3862209],[6.8162504,46.386209],[6.8162535,46.3861984],[6.8162621,46.3861798],[6.8162768,46.3861658],[6.8162875,46.3861588],[6.8162916,46.3861535],[6.8163165,46.3861392],[6.8163241,46.3861363],[6.816348,46.3861318],[6.8163669,46.3861286],[6.8163867,46.3861321],[6.8163892,46.3861374],[6.8163994,46.3861546],[6.8164091,46.3861588],[6.8164299,46.3861598],[6.8164513,46.3861595],[6.8164645,46.3861641],[6.8164772,46.3861749],[6.8164711,46.3861928],[6.816468,46.3862012],[6.8164777,46.386209],[6.816494,46.3862177],[6.8165026,46.3862265],[6.8165036,46.3862367],[6.816498,46.3862486],[6.8165077,46.3862735],[6.8165306,46.3862826],[6.8165418,46.3862851],[6.8165631,46.3862868],[6.8165997,46.3862833],[6.816646,46.3862774],[6.8166811,46.3862707],[6.8166984,46.3862675],[6.8167442,46.3862584],[6.8167604,46.3862539],[6.8167782,46.3862479],[6.8167996,46.3862405],[6.8168209,46.3862339],[6.8168581,46.3862279],[6.8168764,46.3862251],[6.8169231,46.3862212],[6.816947,46.3862163],[6.8169877,46.3862177],[6.817007,46.3862258],[6.817036,46.3862451],[6.8170548,46.3862591],[6.8170615,46.3862742],[6.8170584,46.3862816],[6.8170508,46.3862949],[6.8170589,46.3863107],[6.8170777,46.386324],[6.8170818,46.3863328],[6.8170833,46.386365],[6.8170925,46.3863829],[6.8171108,46.3863924],[6.8171332,46.3863931],[6.8171865,46.3863878],[6.817212,46.3863833],[6.8172435,46.386371],[6.8172827,46.3863531],[6.8173549,46.3863272],[6.8173727,46.3863219],[6.817425,46.3863103],[6.8174708,46.3863033],[6.8175206,46.3862917],[6.8175522,46.3862781],[6.8175669,46.3862609],[6.8175801,46.3862409],[6.8175989,46.3862167],[6.8175928,46.3862005],[6.8175715,46.3861848],[6.817543,46.3861651],[6.8175354,46.3861556],[6.8175288,46.3861406],[6.8175252,46.3861258],[6.8175054,46.3861171],[6.8174683,46.386109],[6.8174367,46.3861202],[6.8174281,46.3861272],[6.8174184,46.3861392],[6.8174057,46.3861514],[6.8173752,46.3861602],[6.817335,46.3861634],[6.8173132,46.3861584],[6.8172923,46.3861493],[6.8172766,46.3861395],[6.8172638,46.3861223],[6.8172643,46.3861065],[6.8172745,46.3860883],[6.8172862,46.3860785],[6.8172999,46.3860651],[6.8173182,46.3860416],[6.8173213,46.3860353],[6.8173299,46.3860273],[6.8173421,46.3860181],[6.8173686,46.3860104],[6.8174098,46.3860069],[6.8174352,46.386002],[6.8174586,46.3859848],[6.8174683,46.385968],[6.8174657,46.385955],[6.8174571,46.3859427],[6.8174499,46.3859227],[6.8174601,46.3859101],[6.8174723,46.3859055],[6.8174937,46.3859006],[6.8175049,46.3858926],[6.8175115,46.3858884],[6.8175176,46.3858785],[6.8175201,46.385867],[6.8175293,46.3858575],[6.8175405,46.3858501],[6.8175471,46.3858417],[6.8175527,46.3858326],[6.8175572,46.3858196],[6.8175527,46.3858056],[6.8175364,46.3857965],[6.8175252,46.3857891],[6.8175191,46.3857817],[6.817514,46.3857709],[6.8175084,46.3857565],[6.8175008,46.3857431],[6.8174977,46.3857302],[6.8174952,46.3857189],[6.8174947,46.3857032],[6.8175033,46.3856905],[6.8175210999999999,46.3856751],[6.8175669,46.385653],[6.8175842,46.3856446],[6.817604,46.3856295],[6.817611,46.3856082],[6.8176272,46.3856049]]},"properties":{"source":"swiss Image 2021"}},
{"type":"Feature","geometry":{"type":"LineString","coordinates":[[6.7936102,46.392746699999999],[6.793599,46.3927168],[6.7936871,46.3927065],[6.7937997,46.3927007],[6.7938765,46.3927014],[6.7939519,46.3927068],[6.7939523,46.3927423],[6.7938547,46.3927342],[6.7937146,46.3927347],[6.7936593,46.3927396],[6.7936102,46.392746699999999]]},"properties":{"natural":"beach","surface":"cobblestone"}},
{"type":"Feature","geometry":{"type":"LineString","coordinates":[[6.8053184,46.3941618],[6.8051614,46.3942865]]},"properties":{"source":"BD TOPO Hydrographie - avril 2017"}},
{"type":"Feature","geometry":{"type":"LineString","coordinates":[[6.8051614,46.3942865],[6.805147,46.3942979],[6.805087,46.3942972],[6.8050092,46.3942963],[6.8049319,46.3942955],[6.8046996,46.3942766],[6.8046627,46.3942768],[6.8045869,46.3942838],[6.8045708,46.3942958],[6.8045614,46.3943194],[6.804539,46.3943367],[6.8045061,46.3943468],[6.8044883,46.3943462],[6.8041289,46.394334],[6.8041259,46.3943765],[6.8040946,46.3943755],[6.8040949,46.3943704],[6.8038483,46.3943603],[6.8036035,46.3943423],[6.803358,46.3943151],[6.8032177,46.3942952],[6.8030785,46.3942697],[6.8015952,46.3939878],[6.8015485,46.3939964],[6.8015005,46.3940008],[6.8014521,46.3940009],[6.8014041,46.3939966],[6.8013573,46.3939881],[6.8013125,46.3939755],[6.8012704,46.3939589],[6.8012318,46.3939388],[6.8011973,46.3939153],[6.8008719,46.3938745],[6.8005454,46.3938425],[6.7996382,46.3937783],[6.799648,46.3937161],[6.7996124,46.3937133],[6.7995768,46.3937105],[6.7995724,46.3937404],[6.7995641000000008,46.3937455],[6.7995547,46.3937452],[6.7995467,46.3937406],[6.799542,46.3937139],[6.7995459,46.3936889],[6.7995616,46.3936796],[6.7995824,46.3936783],[6.7995848,46.3936644],[6.7994163,46.3936505],[6.7992762,46.393639],[6.7989546,46.3936194],[6.7986327,46.3936072],[6.7982955,46.3936017],[6.7980752,46.3935981],[6.7980675,46.3936532],[6.7977462,46.3936113],[6.7974283,46.3935586],[6.7971145,46.3934953],[6.7968055,46.3934215],[6.7965021,46.3933374],[6.7958406,46.3931308],[6.7957235,46.3930908],[6.7956092,46.3930478],[6.7955693,46.3930327],[6.7955798,46.3930195],[6.7954862,46.392962],[6.7954439,46.3929384],[6.7953983,46.3929178],[6.7952153,46.3928485],[6.7951418,46.3928242],[6.7950724,46.3928075],[6.7950061,46.3927981],[6.7949092,46.3927927],[6.7948419,46.3927919],[6.7947762,46.3927944],[6.7947295,46.3928005],[6.7946902,46.392809],[6.7946574,46.3928136],[6.7946235,46.3928148],[6.7946357,46.3929219],[6.7946431,46.3929382],[6.794623,46.3929429],[6.7946123,46.3929232],[6.7945243,46.392928],[6.7945084,46.3929334],[6.7944906,46.3929332],[6.794475,46.3929274],[6.7944649,46.3929173],[6.7944626,46.3929051],[6.7944687,46.3928936],[6.7944817,46.3928853],[6.7944988,46.392882],[6.7944849,46.3927608],[6.7939636,46.3927715],[6.7939535,46.3927717],[6.7939523,46.3927423],[6.7938547,46.3927342],[6.7937146,46.3927347],[6.7936593,46.3927396],[6.7936102,46.392746699999999],[6.7936236,46.3927972],[6.7936257,46.3928272],[6.793615,46.3928559],[6.7935981,46.392881],[6.7935828,46.3928881],[6.7935607,46.3928807],[6.7935603,46.3928686],[6.7935761,46.3928552],[6.7935899,46.3928286],[6.7935895,46.3927933],[6.7935762,46.3927517],[6.7931822,46.3928092],[6.7932138,46.392908],[6.7932239,46.3929191],[6.7932417,46.3929233],[6.7933738,46.3929226],[6.7933875,46.3929159],[6.793408,46.3929124],[6.7934301,46.3929146],[6.7934428,46.3929233],[6.793443,46.3929354],[6.7934329,46.3929456],[6.7934115,46.3929486],[6.7933867,46.3929481],[6.7933753,46.3929435],[6.7933696,46.3929355],[6.7932284,46.3929361],[6.7932115,46.3929318],[6.7932019,46.3929211],[6.7931818,46.3928558],[6.793105,46.3928654],[6.7930953,46.3928508],[6.7930527,46.3928462],[6.7929563,46.3928543],[6.7929407,46.392856],[6.7926779,46.3929054],[6.7922578,46.3929373],[6.7920942,46.3929322],[6.7919185,46.392907],[6.79172,46.392901],[6.7914344,46.3928984],[6.7914381,46.3929514],[6.7913693,46.3929523],[6.7913757,46.3929992],[6.7913846,46.3930151],[6.7914119,46.3930226],[6.7914538,46.3930258],[6.7914709,46.3930217],[6.7914836,46.393022],[6.791489,46.3930312],[6.7914846,46.3930386],[6.7914645,46.3930388],[6.7913754,46.3930311],[6.7913623,46.3930221],[6.7913592,46.3930112],[6.791035,46.392981],[6.7908208,46.3929727],[6.7906106,46.3929749],[6.7904162,46.3929895],[6.7900962,46.3930255]]},"properties":{"source":"BD TOPO Hydrographie - avril 2017"}},
{"type":"Feature","geometry":{"type":"LineString","coordinates":[[6.7774534,46.3950889],[6.7773246,46.3949878],[6.7772746,46.395084],[6.7775678,46.3957228],[6.7781293,46.3955723],[6.7782616,46.3954441],[6.7786121,46.3952862],[6.7789769,46.3952048],[6.779356,46.3951777],[6.7799747,46.3946696],[6.7803859,46.3943095],[6.7803144,46.3941763],[6.7789125,46.3948077],[6.7784226,46.3949532],[6.7777574,46.3953972],[6.7774534,46.3950889]]},"properties":{"natural":"wood"}},
{"type":"Feature","geometry":{"type":"LineString","coordinates":[[6.8040285,46.3926379],[6.8040422,46.3926647],[6.8037272,46.3927027],[6.803731,46.3926213],[6.80368,46.3924485],[6.8039985,46.3924221],[6.8040334,46.3924707],[6.8039529,46.3924903],[6.8040285,46.3926379]]},"properties":{"leisure":"playground"}},
{"type":"Feature","geometry":{"type":"LineString","coordinates":[[6.814033,46.3852549],[6.8139922,46.3852417],[6.8139709,46.3852234],[6.8139762,46.3851953],[6.8139479,46.3851782],[6.8138099,46.3851477],[6.8137763,46.3851355],[6.8137462,46.3851111],[6.8136497,46.385065],[6.8135598,46.3850529],[6.8134995,46.3850511],[6.8134485,46.3850668],[6.8133935,46.3850973],[6.8133774,46.3851307],[6.8133868,46.3851427],[6.8134297,46.3851501],[6.813478,46.3851714],[6.8135263,46.3852232],[6.8135236,46.3852435],[6.8135075,46.3852509],[6.8134673,46.38525],[6.813419,46.3852444],[6.8133707,46.385262],[6.8133211,46.3852879],[6.8133104,46.3853083],[6.8133238,46.3853323],[6.8133104,46.3853592],[6.8132728,46.3853647],[6.8132111,46.3853518],[6.813187,46.3853268],[6.8131897,46.3852999],[6.8131722,46.3852398],[6.813183,46.3851899],[6.8131789,46.3851686],[6.8131481,46.3851649],[6.8130904,46.3851889],[6.8130743,46.3852148],[6.8130784,46.3852546],[6.8130971,46.3852972],[6.8130918,46.3853258],[6.8130663,46.3853314],[6.8130408,46.3853203],[6.8130314,46.3853027],[6.8130287,46.3852731],[6.8130314,46.3852481],[6.8130167,46.3852343],[6.8129724,46.3852167],[6.8128759,46.385225],[6.8127967,46.3852111],[6.8126814,46.385146400000007],[6.8125902,46.3850761],[6.8125433,46.3850224],[6.8125124,46.3849697],[6.8124521,46.3849327],[6.8123931,46.3849049],[6.8123421,46.3848966],[6.8122402,46.3849225],[6.8122013,46.3849262],[6.81209,46.384917],[6.8120269,46.3849373],[6.8119679,46.3849947],[6.8119652,46.3850076],[6.8119813,46.3850354],[6.8119948,46.3850687],[6.8119921,46.385102],[6.8119585,46.385126],[6.8118808,46.3851492],[6.8118325,46.3851538],[6.8118097,46.3851353],[6.8118204,46.3851029],[6.811862,46.3850825],[6.8119103,46.3850631],[6.811929,46.3850307],[6.8119156,46.3850132],[6.8118915,46.3850104],[6.8118647,46.3850233],[6.8118137,46.3850363],[6.811658,46.3850512],[6.8115203,46.3850914],[6.8113568,46.3851059],[6.8111839,46.3851164],[6.8111207,46.3851164],[6.8110268,46.3851079],[6.8109343,46.3851122],[6.8108142,46.3851398],[6.8107033,46.3851536],[6.8106077,46.385159],[6.8105184,46.3851685],[6.8104984,46.3851908],[6.8105061,46.385228],[6.8105369,46.3852546],[6.8106247,46.3852599],[6.8106755,46.3852546],[6.8107572,46.3852344],[6.8108234,46.3852301],[6.8108943,46.3852365],[6.811016,46.3852248],[6.8111115,46.3852216],[6.8111654,46.385211],[6.811207,46.3852163],[6.8112162,46.3852418],[6.8112055,46.385279],[6.8111469,46.3853035],[6.8109482,46.3853215],[6.810902,46.3853396],[6.8108588,46.3853906],[6.8108296,46.3854384],[6.8107695,46.3854958],[6.8107033,46.3855234],[6.8105985,46.3855543],[6.8105045,46.3855691],[6.8103859,46.3855819],[6.8102765,46.3855904],[6.8101995,46.3856159],[6.8101225,46.3856244],[6.8100254,46.3856255],[6.8100008,46.3856371],[6.8099931,46.3856648],[6.8100054,46.3857009],[6.80999,46.3857349],[6.8099438,46.3857817],[6.8099361,46.3858327],[6.8099499,46.3858667],[6.8099946,46.3859071],[6.8100377,46.3859304],[6.8100886,46.3859485],[6.8101132,46.3859719],[6.8101394,46.3860016],[6.8101687,46.386007],[6.8101949,46.3860006],[6.8102241,46.3859783],[6.8102642,46.3859559],[6.8103073,46.3859517],[6.8103412,46.3859591],[6.8103536,46.3859814],[6.8103628,46.3860048],[6.810389,46.3860314],[6.810389,46.3860548],[6.8103659,46.3860622],[6.8103366,46.3860484],[6.8103197,46.3860293],[6.8102858,46.3860208],[6.810201,46.3860261],[6.8100778,46.3860165],[6.81003,46.386025],[6.8100116,46.3860505],[6.8100146,46.3860728],[6.8100408,46.3861111],[6.8100362,46.3862025],[6.8100285,46.3862503],[6.8100531,46.3862801],[6.8101071,46.3862917],[6.8101733,46.386279],[6.8102272,46.386262],[6.8102673,46.3862344],[6.810275,46.3861982],[6.8102919,46.3861504],[6.8103304,46.3861366],[6.8104427,46.386147],[6.8104671,46.3861695],[6.8104549,46.3862073],[6.8104041,46.386241],[6.8103167,46.3862494],[6.8102334,46.3862915],[6.8101968,46.3863293],[6.8102069,46.3863756],[6.8102476,46.3864317],[6.810276,46.3864878],[6.810272,46.3865467],[6.8102496,46.3865887],[6.8102537,46.3866336],[6.8102659,46.3866644],[6.8103309,46.3866813],[6.8104163,46.3866897],[6.8105139,46.3867079],[6.8106806,46.3866995],[6.8108127,46.3866981],[6.810959,46.3867135],[6.8110668,46.3867289],[6.8111643,46.3867528],[6.8112924,46.3867444],[6.8114428,46.3867163],[6.8115058,46.3866869],[6.811514,46.3866602],[6.8114876,46.386635],[6.8114794,46.3866027],[6.811514,46.3865677],[6.8115668,46.3865607],[6.8116563,46.3865859],[6.8117599,46.3865803],[6.8118169,46.3865509],[6.8118555,46.3865144],[6.8119124,46.3864892],[6.8119693,46.3864962],[6.8119957,46.3865396],[6.8119774,46.3865761],[6.8119917,46.3866112],[6.8120323,46.386621],[6.8120791,46.386614],[6.8120892,46.3865747],[6.8120994,46.3865284],[6.8121523,46.3865116],[6.8122214,46.38652],[6.8123088,46.3865467],[6.8123718,46.3865439],[6.8124409,46.3865228],[6.8125161,46.3865172],[6.8125873,46.3865158],[6.812634,46.3864934],[6.8126625,46.3864471],[6.8127214,46.3863924],[6.812758,46.3863574],[6.8128036,46.3863435]]},"properties":{"source":"Swiss Surface 3D 2024"}},
{"type":"Feature","geometry":{"type":"LineString","coordinates":[[6.8041358,46.3891612],[6.8041447,46.3891726],[6.8041591,46.3891845],[6.8041802,46.3891903],[6.8042045,46.3891903],[6.8042162,46.3891852],[6.8042426,46.3891801],[6.804269,46.3891845],[6.8043007,46.3891889],[6.8043345,46.3891911],[6.8043546,46.3892027],[6.80438,46.38921],[6.8044191,46.38921],[6.8044413,46.3891991],[6.8044709,46.3891816],[6.8044952,46.3891772],[6.804529,46.3891933],[6.8045512,46.3892115],[6.8045946,46.3892173],[6.8046612,46.3892078],[6.8046876,46.3891831],[6.8046823,46.3891546],[6.8046569,46.3891276],[6.8046221,46.3891138],[6.8045766,46.3891233],[6.8045481,46.3891313],[6.8045195,46.3891276],[6.804509,46.3891174],[6.80451,46.3891043],[6.8045259,46.3890912],[6.8045354,46.3890795],[6.8045364,46.3890649],[6.8045259,46.3890489],[6.8044963,46.3890372],[6.8044772,46.3890212],[6.8044455,46.3890015],[6.8044244,46.3889767],[6.8044075,46.3889497],[6.8043906,46.3889279],[6.8043779,46.3889162],[6.8043546,46.3889133],[6.8043303,46.3889228],[6.8043134,46.3889395],[6.8043166,46.3889607],[6.8043409,46.3889818],[6.8043589,46.3889935],[6.8043937,46.389027],[6.8044043,46.3890598],[6.8044085,46.3890934],[6.8043916,46.3891349],[6.8043811,46.3891422],[6.8043567,46.3891444],[6.8043324,46.3891444],[6.8043134,46.3891357],[6.8042902,46.3891182],[6.8042722,46.3890992],[6.8042532,46.3890956],[6.8042415,46.3890977],[6.8042362,46.3891101],[6.8042458,46.3891255],[6.8042563,46.389143],[6.8042563,46.3891517],[6.8042468,46.3891568],[6.8042362,46.3891568],[6.804213,46.3891495],[6.8041823,46.3891378],[6.8041623,46.3891342],[6.8041453,46.3891393],[6.8041358,46.3891451],[6.8041358,46.3891612]]},"properties":{"natural":"wood","source":"Swiss Surface 3D 2024"}},
{"type":"Feature","geometry":{"type":"LineString","coordinates":[[6.8052544,46.3888208],[6.8052142,46.3888356],[6.8051767,46.3888286],[6.8051599,46.3888189],[6.8051344,46.3888115],[6.805123,46.3888092],[6.8051123,46.3887967],[6.8051136,46.388787],[6.8051244,46.388774]]},"properties":{"source":"Swiss Image 2021"}},
{"type":"Feature","geometry":{"type":"LineString","coordinates":[[6.8051244,46.388774],[6.8051182,46.3887625],[6.8050958,46.3887471],[6.8050717,46.3887438],[6.8050349,46.3887471],[6.8050189,46.3887382],[6.8050028,46.3887018],[6.8050157,46.3886686],[6.8050397,46.3886542],[6.8050942,46.3886498],[6.805123,46.3886432],[6.8051406,46.3886233],[6.8051454,46.3885946],[6.8051214,46.3885725],[6.8050509,46.3885581],[6.8050269,46.3885459],[6.8050093,46.388525],[6.8049852,46.3885161],[6.8049452,46.3885183],[6.8049195,46.3885426],[6.8048827,46.3885471],[6.8048522,46.3885316],[6.8047769,46.3884984],[6.8047097,46.3884631],[6.8046263,46.3884056],[6.8045446,46.3883658],[6.8044966,46.3883349],[6.8044549,46.3883227],[6.8044341,46.3883227],[6.8043924,46.3883448],[6.8043428,46.3883625],[6.8042915,46.3883625],[6.8042242,46.3883349],[6.8041842,46.388326],[6.8041441,46.3883338],[6.804096,46.3883647],[6.804056,46.3884056],[6.8040352,46.3884432],[6.8039999,46.3884675],[6.8039502,46.3884973],[6.8038797,46.3884984],[6.8037964,46.3884929],[6.8037147,46.3884697],[6.8036571,46.388441],[6.8036442,46.3884144],[6.8036138,46.3883503],[6.8035785,46.3882885],[6.8035417,46.388263],[6.8034936,46.388252],[6.8033927,46.3882454],[6.8033222,46.3882476],[6.803287,46.3882432],[6.8032197,46.3882199],[6.8031508,46.3882067],[6.8031123,46.3882056],[6.8030562,46.3881956],[6.8029793,46.3881746],[6.8029425,46.3881636],[6.8028896,46.3881547],[6.8028496,46.3881592],[6.8027214,46.388168],[6.8026573,46.388168],[6.8025868,46.3881713],[6.8025211,46.3881802],[6.8024603,46.3881835],[6.802409,46.3881691],[6.8023898,46.3881492],[6.8023801,46.3881227],[6.8023994,46.3880995],[6.8024106,46.3880719],[6.8024026,46.3880431],[6.8023481,46.388021],[6.8023,46.3880221],[6.8022536,46.3880387],[6.8022408,46.3880796],[6.8022215,46.3881282],[6.8021863,46.3881813],[6.8021558,46.38821],[6.8020693,46.3882155],[6.801994,46.3881901],[6.8019556,46.3881669],[6.8019476,46.3881326],[6.801938,46.3880873],[6.801938,46.3880464],[6.8019331,46.3880199],[6.8019043,46.3879912],[6.8018787,46.3879746],[6.8017954,46.3879415],[6.8017457,46.3879514],[6.8017185,46.3879702],[6.8017201,46.3880044],[6.8017441,46.3880498],[6.8017761,46.3880829],[6.8018274,46.3881448],[6.8018498,46.3881503],[6.8018963,46.3881691],[6.8019171,46.3881879],[6.8019444,46.3882443],[6.8019412,46.3882641],[6.8019171,46.3883216],[6.8019299,46.3883437],[6.8019508,46.388368],[6.8019732,46.3883901],[6.8020117,46.3884277],[6.8020437,46.3884664],[6.8020629,46.3885172],[6.8020677,46.3885592],[6.8020753,46.3886115]]},"properties":{"source":"Swiss Surface 3D 2024"}},
{"type":"Feature","geometry":{"type":"LineString","coordinates":[[6.8098447,46.3880296],[6.8098286,46.3880294],[6.8098192,46.3880259],[6.8098145,46.3880217],[6.8098068,46.3880139],[6.8098018,46.3880028],[6.8097994,46.3879919],[6.8098011,46.3879847],[6.8098051,46.3879773],[6.8098145,46.3879709],[6.8098219,46.3879614],[6.8098253,46.387948],[6.8098239,46.3879376],[6.8098189,46.3879262],[6.8098098,46.3879181],[6.8098028,46.387911],[6.8097984,46.3878969],[6.8097988,46.3878892],[6.8097984,46.3878735],[6.8097994,46.3878689],[6.8098008,46.3878608],[6.8098005,46.3878562],[6.8098001,46.3878478],[6.8097994,46.3878377],[6.8097971,46.3878277],[6.8097917,46.387815],[6.8097901,46.3878076],[6.8097884,46.3877951],[6.8097884,46.3877872],[6.8097891,46.387781],[6.8097927,46.3877715],[6.8097934,46.3877637],[6.8097901,46.387756],[6.8097874,46.3877493],[6.8097864,46.3877456],[6.809786,46.3877385],[6.8097859,46.3877271],[6.8097733,46.387713],[6.8097646,46.3877065],[6.8097559,46.3877019],[6.8097492,46.3876991],[6.8097378,46.3876959],[6.8097036,46.3876954],[6.8096801,46.387695],[6.8096526,46.387694],[6.8096345,46.3876927],[6.809613,46.3876871],[6.8095916,46.3876806],[6.8095788,46.3876783],[6.8095507,46.3876755],[6.8095212,46.3876774],[6.8095084,46.3876802],[6.8094917,46.3876862],[6.8094823,46.3876917],[6.8094635,46.3877005],[6.8094414,46.3877051],[6.8094259,46.3877038],[6.8094125,46.387701],[6.8094011,46.3876991],[6.8093703,46.3876973],[6.8093562,46.3876991],[6.8093394,46.3877065],[6.8093193,46.3877065],[6.8092925,46.3877019],[6.8092657,46.3876945],[6.8092402,46.3876866],[6.8092047,46.3876723],[6.8091919,46.3876677],[6.8091772,46.3876631],[6.809153,46.387657],[6.809141,46.3876533],[6.8091121,46.3876483],[6.8090786,46.3876478],[6.8090551,46.3876515],[6.8090297,46.3876589],[6.8090102,46.3876705],[6.8090028,46.3876788],[6.8089948,46.387688],[6.8089807,46.3876977],[6.8089686,46.3877042],[6.8089485,46.3877093],[6.8089304,46.3877125],[6.8088908,46.3877149],[6.8088694,46.3877255],[6.8088607,46.3877343],[6.8088567,46.3877426],[6.8088419,46.3877556],[6.8088171,46.3877671],[6.8088084,46.3877727],[6.8087869,46.3877778],[6.8087708,46.3877778],[6.8087514,46.3877745],[6.8087286,46.3877796],[6.8086964,46.387787],[6.808685,46.387787]]},"properties":{"source":"Swiss Image 2021"}},
{"type":"Feature","geometry":{"type":"LineString","coordinates":[[6.810069,46.387821],[6.8100667,46.3878245],[6.8100566,46.3878319],[6.8100476,46.3878367],[6.8100288,46.3878458],[6.8100167,46.3878527],[6.8100046,46.3878626],[6.8099912,46.3878737],[6.8099869,46.3878784],[6.8099731,46.3878911],[6.8099674,46.387898],[6.8099621,46.3879052],[6.809959,46.3879144],[6.809958,46.3879283],[6.809958,46.3879369],[6.8099584,46.3879505],[6.80995,46.3879637],[6.8099426,46.3879706],[6.8099352,46.387979],[6.8099222,46.3879894],[6.8099067,46.3880056],[6.8098886,46.3880194],[6.8098668,46.3880259],[6.8098447,46.3880296]]},"properties":{"source":"Swiss Image 2021"}},
{"type":"Feature","geometry":{"type":"LineString","coordinates":[[6.8127483,46.3867577],[6.8127131,46.3867514],[6.8126373,46.3867732],[6.8126069,46.3867951],[6.8125711,46.3868122],[6.8125104,46.3868322],[6.8124621,46.3868522],[6.812407,46.3868674],[6.8123587,46.3868788],[6.8122925,46.3868864],[6.8122484,46.3868855],[6.8122111,46.3868941],[6.8121629,46.3869074],[6.8121215,46.3869273],[6.8120787,46.3869511],[6.8120484,46.3869616],[6.8120277,46.3869683],[6.8119918,46.3869749],[6.8119063,46.3870082],[6.8118636,46.387013],[6.8118181,46.3870225],[6.8117326,46.3870196],[6.811676,46.3870272],[6.8116595,46.3870348],[6.8116126,46.387052],[6.8115905,46.3870558],[6.8115505,46.3870681],[6.8115257,46.3870786],[6.8115133,46.3871167],[6.8114967,46.3871319],[6.8114609,46.3871404],[6.8113492,46.3871385]]},"properties":{"source":"swiss Image 2021"}},
{"type":"Feature","geometry":{"type":"LineString","coordinates":[[6.8113492,46.3871385],[6.811283,46.38715],[6.8112609,46.3871652],[6.8112457,46.3871728],[6.811203,46.3871928],[6.8111685,46.3872327],[6.8111533,46.3872441],[6.8111326,46.3872574],[6.8111161,46.3872641],[6.8110609,46.3872888],[6.8110416,46.3873098],[6.811054,46.387325],[6.8110651,46.3873316],[6.8111064,46.3873478],[6.8111285,46.3873583],[6.8111395,46.3873707],[6.8111466,46.3873883]]},"properties":{"source":"swiss Image 2021"}},
{"type":"Feature","geometry":{"type":"LineString","coordinates":[[6.8153479,46.3894797],[6.8152942,46.3895065],[6.8152433,46.3895079],[6.8152169,46.3894855],[6.8152169,46.3894575],[6.8152149,46.3894238],[6.8151966,46.3893916],[6.8151112,46.3893649],[6.8149832,46.3893439],[6.8148815,46.3893369],[6.8148043,46.3893565],[6.8147616,46.3894014],[6.8147331,46.3894491],[6.8147311,46.3895122],[6.814725,46.3895851],[6.8147169,46.3896538],[6.8146823,46.3896972],[6.8146254,46.3897365],[6.8143042,46.389808],[6.8138936,46.3898837],[6.8134932,46.3899454],[6.8131069,46.3899945],[6.8124077,46.3900898],[6.8118893,46.3901655],[6.811373,46.3902384],[6.8109543,46.3903183],[6.8106616,46.3903842],[6.8105518,46.3904235],[6.8104745,46.3904389],[6.8103912,46.3904417],[6.8103323,46.3904319],[6.8102794,46.3904263],[6.8102184,46.3904277],[6.8101635,46.3904459],[6.8101534,46.3904712]]},"properties":{"source":"Swiss Surface 3D 2024"}},
{"type":"Feature","geometry":{"type":"LineString","coordinates":[[6.8092813,46.3904264],[6.8091926,46.3904352],[6.8091144,46.390428],[6.8090291,46.3903974],[6.8090034,46.3903579],[6.8089626,46.3903153],[6.8088902,46.3902943],[6.8088178,46.3902951],[6.8087735,46.3903128],[6.8087536,46.3903443],[6.8087735,46.3903813],[6.8088026,46.3904087],[6.8088061,46.3904296],[6.8087641,46.3904667],[6.8087268,46.3904747],[6.8087011,46.3904691],[6.8086427,46.3904151],[6.808603,46.3903716],[6.8085271,46.3903451],[6.8084816,46.3903475],[6.808394,46.3903668],[6.8083672,46.3903893],[6.8083613,46.3904473],[6.8083438,46.3904884],[6.8083111,46.3905182],[6.8082551,46.3905733]]},"properties":{"source":"Swiss Surface 3D 2024"}},
{"type":"Feature","geometry":{"type":"LineString","coordinates":[[6.8101534,46.3904712],[6.8101308,46.3904809],[6.8100285,46.390482],[6.8098639,46.3904618],[6.8098359,46.3904352],[6.8097915,46.3904191],[6.8096771,46.3903958],[6.8095148,46.3903781],[6.8094354,46.3903821],[6.8093584,46.3904006],[6.8092813,46.3904264]]},"properties":{"source":"Swiss Surface 3D 2024"}},
{"type":"Feature","geometry":{"type":"LineString","coordinates":[[6.7939652,46.3928075],[6.7939636,46.3927715],[6.7944849,46.3927608],[6.7944988,46.392882],[6.7944817,46.3928853],[6.7944687,46.3928936],[6.7944626,46.3929051],[6.7944649,46.3929173],[6.794475,46.3929274],[6.7944906,46.3929332],[6.7945084,46.3929334],[6.7945243,46.392928],[6.7946123,46.3929232],[6.794623,46.3929429],[6.7946431,46.3929382],[6.7946357,46.3929219],[6.7946235,46.3928148],[6.7946574,46.3928136],[6.7946902,46.392809],[6.7947295,46.3928005],[6.7947762,46.3927944],[6.7948419,46.3927919],[6.7949092,46.3927927],[6.7950061,46.3927981],[6.7950724,46.3928075],[6.7951418,46.3928242],[6.7952153,46.3928485],[6.7953983,46.3929178],[6.7954439,46.3929384],[6.7954862,46.392962],[6.7954215,46.3930698],[6.7944746,46.3930517],[6.793966,46.3928469],[6.7939652,46.3928075]]},"properties":{"access":"customers","fee":"yes","leisure":"swimming_area","lit":"no","name":"Plage de Saint-Gingolph","supervised":"yes"}},
{"type":"Feature","geometry":{"type":"LineString","coordinates":[[6.7946184,46.3927701],[6.7946728,46.392769],[6.7946719,46.392748],[6.7947759,46.3927518],[6.7947847,46.3927157],[6.7948294,46.3927211],[6.7950293,46.3927454],[6.7955418,46.3929401],[6.7955992,46.3929619],[6.7956196,46.3929696],[6.7955798,46.3930195],[6.7954862,46.392962],[6.7954439,46.3929384],[6.7953983,46.3929178],[6.7952153,46.3928485],[6.7951418,46.3928242],[6.7950724,46.3928075],[6.7950061,46.3927981],[6.7949092,46.3927927],[6.7948419,46.3927919],[6.7947762,46.3927944],[6.7947295,46.3928005],[6.7946902,46.392809],[6.7946574,46.3928136],[6.7946235,46.3928148],[6.7946184,46.3927701]]},"properties":{"lifeguard":"yes","name":"Plage de Saint Gingolph","natural":"beach","surface":"cobblestone"}},
{"type":"Feature","geometry":{"type":"LineString","coordinates":[[6.8059506,46.3930119],[6.8059864,46.3929537]]},"properties":{"highway":"service","leisure":"slipway","surface":"concrete"}},
{"type":"Feature","geometry":{"type":"LineString","coordinates":[[6.8004079,46.3936889],[6.800551,46.3937089],[6.8008134,46.393755],[6.8008016,46.3937993],[6.8007456,46.3937944],[6.8006437,46.3937854],[6.8005438,46.3937774],[6.8004399,46.3937676],[6.8003944,46.3937636],[6.8004055,46.3937022],[6.8004079,46.3936889]]},"properties":{"leisure":"playground","surface":"woodchips"}},
{"type":"Feature","geometry":{"type":"LineString","coordinates":[[6.8059617,46.3928826],[6.8059308,46.3929449],[6.8059139,46.3930041],[6.8059506,46.3930119],[6.8059857,46.3930194],[6.805949,46.3931117],[6.8060648,46.3931509],[6.8060924,46.3931441],[6.8061421,46.3930784],[6.8062094,46.3929756],[6.8062487,46.3929235],[6.8062807,46.3928933],[6.8062881,46.3928771],[6.8063042,46.3928707],[6.8063193,46.3928674]]},"properties":{"admin_level":"8","boundary":"administrative","source":"swissBOUNDARIES3D swisstopo 2011"}},
{"type":"Feature","geometry":{"type":"MultiPolygon","coordinates":[[[[6.8016835,46.392745],[6.8016983,46.392718],[6.8017303,46.3927262],[6.8017988,46.3927456],[6.8017823,46.3927727],[6.8016835,46.392745]]]]},"properties":{"historic":"monument","name":"Monument des Fusillés","source":"extraction vectorielle v1 cadastre-dgi-fr source : Direction Générale des Impôts - Cadas. Mise à jour : 2010"}},
{"type":"Feature","geometry":{"type":"MultiPolygon","coordinates":[[[[6.8004659,46.389495],[6.8009035,46.3894104],[6.8009652,46.3895623],[6.8005277,46.3896469],[6.8004659,46.389495]]]]},"properties":{"leisure":"pitch","source":"data.gouv.fr:Le ministère des droits des femmes, de la ville, de la jeunesse et des sports - 2014","sport":"tennis","surface":"concrete"}},
{"type":"Feature","geometry":{"type":"MultiPolygon","coordinates":[[[[6.8000187,46.3895815],[6.8004659,46.389495],[6.8005277,46.3896469],[6.8000805,46.3897334],[6.8000639,46.3896926],[6.8000187,46.3895815]]]]},"properties":{"leisure":"pitch","source":"data.gouv.fr:Le ministère des droits des femmes, de la ville, de la jeunesse et des sports - 2014","sport":"tennis","surface":"concrete"}},
{"type":"Feature","geometry":{"type":"MultiPolygon","coordinates":[[[[6.7998395,46.3896137],[6.8000187,46.3895815],[6.8000639,46.3896926],[6.7998816,46.3897254],[6.7998395,46.3896137]]]]},"properties":{"leisure":"pitch","name":"Mur","source":"data.gouv.fr:Le ministère des droits des femmes, de la ville, de la jeunesse et des sports - 2014","sport":"tennis","surface":"concrete"}},
{"type":"Feature","geometry":{"type":"MultiPolygon","coordinates":[[[[6.8021849,46.3888371],[6.802201,46.3883299],[6.8035095,46.3883496],[6.8034934,46.3888569],[6.8021849,46.3888371]]]]},"properties":{"leisure":"pitch","sport":"soccer"}},
{"type":"Feature","geometry":{"type":"MultiPolygon","coordinates":[[[[6.8033744,46.3911586],[6.804278,46.3911439],[6.8042902,46.3914983],[6.8033866,46.3915131],[6.8033744,46.3911586]]]]},"properties":{"leisure":"pitch","sport":"soccer"}},
{"type":"Feature","geometry":{"type":"MultiPolygon","coordinates":[[[[6.8041483,46.3927145],[6.8042953,46.3926582],[6.8043024,46.3926555],[6.804445,46.3926009],[6.8045431,46.3927228],[6.8043777,46.3927862],[6.8044219,46.3928411],[6.8042907,46.3928914],[6.8042028,46.3927822],[6.8041483,46.3927145]]]]},"properties":{"building":"office","building:levels":"3","castle_type":"stately","historic":"castle","name":"Château de Saint-Gingolph","roof:material":"tile","roof:orientation":"along/across","roof:shape":"half-hipped","start_date":"1585","wikidata":"Q2970518"}},
{"type":"Feature","geometry":{"type":"MultiPolygon","coordinates":[[[[6.8002032,46.3902393],[6.8002608,46.3902078],[6.8003642,46.3902728],[6.8006497,46.3904823],[6.8005923,46.3904936],[6.8002032,46.3902393]]]]},"properties":{"natural":"scrub"}},
{"type":"Feature","geometry":{"type":"MultiPolygon","coordinates":[[[[6.8027831,46.3912469],[6.8028798,46.3911469],[6.8029658,46.3911865],[6.8030007,46.3912725],[6.8028469,46.3913571],[6.8028394,46.3913241],[6.8027831,46.3912469]]]]},"properties":{"natural":"grassland"}},
{"type":"Feature","geometry":{"type":"MultiPolygon","coordinates":[[[[6.802531,46.3906297],[6.8026725,46.3905927],[6.8027091,46.3906196],[6.8026869,46.3906722],[6.8027352,46.3907989],[6.8027955,46.3908794],[6.8031603,46.391107],[6.8031952,46.3911578],[6.8032046,46.3912096],[6.8030047,46.3914168],[6.8029377,46.3915186],[6.8029095,46.391625],[6.8028975,46.3917582],[6.8028934,46.3918488],[6.8029913,46.3922817],[6.8028298,46.3922907],[6.8026668,46.3923113],[6.8026949,46.392192],[6.8027016,46.392105],[6.8026945,46.3918861],[6.8028025,46.3915473],[6.8028505,46.3914548],[6.8028586,46.3914085],[6.8028469,46.3913571],[6.8030007,46.3912725],[6.8029658,46.3911865],[6.8028798,46.3911469],[6.8029667,46.391057],[6.802762,46.3909636],[6.8026024,46.3908396],[6.8025657,46.3908461],[6.802531,46.3906297]]]]},"properties":{"natural":"scrub"}},
{"type":"Feature","geometry":{"type":"MultiPolygon","coordinates":[[[[6.7975451,46.3922863],[6.7979743,46.3924214],[6.7978844,46.3925851],[6.7975666,46.3925092],[6.7975974,46.3924167],[6.7975451,46.3922863]]]]},"properties":{"natural":"scrub"}},
{"type":"Feature","geometry":{"type":"MultiPolygon","coordinates":[[[[6.8149839,46.3890594],[6.8149897,46.3890486],[6.8150037,46.3890355],[6.8150202,46.3890258],[6.8150392,46.3890173],[6.8150829,46.3890008],[6.815111,46.3889939],[6.8151382,46.3889968],[6.8151415,46.3890053],[6.8151234,46.3890201],[6.8151077,46.3890332],[6.8150978,46.389048],[6.8150895,46.3890622],[6.8150854,46.3890719],[6.8150871,46.3890804],[6.8151027,46.3890896],[6.8151143,46.389085],[6.8151201,46.3890702],[6.8151201,46.3890617],[6.8151234,46.3890508],[6.81513,46.3890395],[6.8151456,46.3890252],[6.8151671,46.3890133],[6.8151886,46.3890019],[6.8152051,46.3889934],[6.8152249,46.3889848],[6.8152414,46.388974],[6.8152472,46.3889603],[6.8152472,46.3889524],[6.8152348,46.388941],[6.8152282,46.3889336],[6.8152265,46.3889279],[6.8152265,46.3889194],[6.8152331,46.388912500000007],[6.815267,46.3889051],[6.815295,46.3889131],[6.8153049,46.3889245],[6.815295,46.388949],[6.8152909,46.3889655],[6.815309,46.3889968],[6.815328,46.3890087],[6.8153363,46.3890173],[6.8153379,46.3890361],[6.8153379,46.3890674],[6.8153421,46.3890782],[6.8153544,46.3890924],[6.8153759,46.3890935],[6.815394,46.3890816],[6.8153883,46.389056],[6.8153891,46.3890304],[6.8154064,46.389011000000007],[6.8154229,46.3889911],[6.8154205,46.3889757],[6.815413,46.3889677],[6.8154023,46.3889621],[6.8153957,46.3889564],[6.8153891,46.3889495],[6.8153784,46.3889421],[6.8153709,46.3889342],[6.8153751,46.3889228],[6.8153965,46.3889108],[6.8154337,46.3888949],[6.8154617,46.3888789],[6.8154766,46.3888659],[6.8155178,46.3888539],[6.815536,46.3888516],[6.8155715,46.3888357],[6.8155979,46.3888152],[6.8155987,46.3888004],[6.815616,46.3887827],[6.8156325,46.3887685],[6.815654,46.3887532],[6.8156631,46.3887452],[6.815673,46.3887304],[6.8156911,46.388711],[6.8157151,46.38869],[6.8157571,46.3886581],[6.8157918,46.3886444],[6.8158265,46.3886342],[6.8158677,46.3886228],[6.8159106,46.3886029],[6.8159643,46.3885727],[6.8159857,46.3885545],[6.8160146,46.388534],[6.8160592,46.3885101],[6.8161178,46.3884759],[6.8162168,46.3884406],[6.816268,46.3884247],[6.8163257,46.3884076],[6.8163513,46.3884014],[6.8164025,46.3883934],[6.8164454,46.3883832],[6.8164825,46.3883797],[6.816537,46.3883809],[6.8165816,46.3883894],[6.8166294,46.3883911],[6.8166765,46.3883906],[6.8167185,46.3883837],[6.8167582,46.3883735],[6.8167936,46.3883621],[6.8168308,46.3883541],[6.8168687,46.3883587],[6.8168828,46.3883695],[6.8169026,46.3883911],[6.8169183,46.3884173],[6.8169282,46.3884435],[6.8169306,46.3884794],[6.816924,46.3885067],[6.8169108,46.3885306],[6.8168778,46.3885539],[6.8168341,46.388583],[6.8168002,46.3885892],[6.8167672,46.3886006],[6.8167433,46.38862],[6.8167144,46.3886496],[6.816707,46.3886718],[6.8166946,46.3886917],[6.8166591,46.3887127],[6.8166187,46.3887281],[6.8165931,46.3887349],[6.8165502,46.3887486],[6.816499,46.3887617],[6.8164619,46.3887719],[6.8164256,46.3887867],[6.8163827,46.3887964],[6.8163554,46.3888067],[6.8163282,46.3888192],[6.8162952,46.3888442],[6.8162812,46.3888721],[6.8162729,46.3888881],[6.8162325,46.3889057],[6.8161887,46.3889063],[6.8161648,46.3889],[6.816131,46.3888915],[6.8160897,46.3888881],[6.8160369,46.3888881],[6.8160278,46.3888892],[6.8159882,46.3889063],[6.8159494,46.3889222],[6.8159189,46.3889484],[6.8159049,46.3889672],[6.8158941,46.3889894],[6.8158686,46.3890156],[6.8158463,46.3890247],[6.8157992,46.3890389],[6.8157753,46.3890457],[6.8157464,46.38906],[6.8157291,46.3890708],[6.8156986,46.3891032],[6.8156804,46.3891283],[6.8156812,46.3891567],[6.8156878,46.3891863],[6.8156763,46.3892102],[6.8156523,46.3892284],[6.8156259,46.3892415],[6.8155971,46.3892603],[6.8155442,46.3892797],[6.815503,46.3892893],[6.8154832,46.3892933],[6.815465,46.3893053],[6.8154403,46.3893189],[6.8154097,46.3893286],[6.8153775,46.3893326],[6.8153429,46.3893263],[6.8153404,46.3893076],[6.8153445,46.3892933],[6.8153528,46.3892797],[6.8153553,46.3892689],[6.8153388,46.3892478],[6.8153255,46.3892353],[6.8153082,46.3892256],[6.8153008,46.3892222],[6.815267,46.3892131],[6.8152315,46.3891971],[6.815224,46.3891897],[6.8152174,46.3891789],[6.8152026,46.3891687],[6.815191,46.3891601],[6.8151597,46.3891499],[6.8151341,46.3891442],[6.8151044,46.3891436],[6.8150615,46.3891476],[6.8150375,46.3891448],[6.8150276,46.3891322],[6.8150276,46.389118],[6.8150285,46.3891015],[6.8150252,46.3890873],[6.8150045,46.3890782],[6.814993,46.3890719],[6.8149839,46.3890594]]]]},"properties":{"source":"swiss Image 2021"}},
{"type":"Feature","geometry":{"type":"MultiPolygon","coordinates":[[[[6.8071625,46.3896923],[6.8071815,46.3896672],[6.807197,46.3896565],[6.8072488,46.3896386],[6.8072667,46.3896156],[6.8072724,46.389595],[6.8072793,46.3895775],[6.8073162,46.3895727],[6.8073438,46.3895751],[6.807387,46.3895703],[6.8074042,46.3895576],[6.8074181,46.3895441],[6.8074359,46.389537],[6.8074699,46.3895322],[6.8074975,46.389537],[6.807528,46.389541],[6.8075608,46.3895362],[6.8075867,46.3895342],[6.8076115,46.3895362],[6.8076374,46.389539],[6.8076529,46.3895433],[6.8076575,46.3895469],[6.8076656,46.389564],[6.8076656,46.3895783],[6.8076627,46.389589],[6.8076489,46.3896013],[6.8076414,46.3896164],[6.8076368,46.3896212],[6.8076265,46.3896287],[6.8076155,46.3896355],[6.8075942,46.389641],[6.8075689,46.389649],[6.807551,46.3896581],[6.8075349,46.3896708],[6.807524,46.3896795],[6.8074941,46.3896923],[6.8074733,46.389701],[6.8074561,46.3897125],[6.8074296,46.3897208],[6.8073945,46.389722],[6.8073686,46.3897181],[6.8073288,46.3897212],[6.807292,46.3897316],[6.8072534,46.3897419],[6.8072189,46.3897399],[6.8072056,46.3897331],[6.8071653,46.3897097],[6.8071625,46.3896923]]]]},"properties":{"source":"swiss Image 2021"}},
{"type":"Feature","geometry":{"type":"MultiPolygon","coordinates":[[[[6.793599,46.3927168],[6.7936871,46.3927065],[6.7937997,46.3927007],[6.7938765,46.3927014],[6.7939519,46.3927068],[6.7939523,46.3927423],[6.7938547,46.3927342],[6.7937146,46.3927347],[6.7936593,46.3927396],[6.7936102,46.392746699999999],[6.793599,46.3927168]]]]},"properties":{"natural":"beach","surface":"cobblestone"}},
{"type":"Feature","geometry":{"type":"MultiPolygon","coordinates":[[[[6.7772746,46.395084],[6.7773246,46.3949878],[6.7774534,46.3950889],[6.7777574,46.3953972],[6.7784226,46.3949532],[6.7789125,46.3948077],[6.7803144,46.3941763],[6.7803859,46.3943095],[6.7799747,46.3946696],[6.779356,46.3951777],[6.7789769,46.3952048],[6.7786121,46.3952862],[6.7782616,46.3954441],[6.7781293,46.3955723],[6.7775678,46.3957228],[6.7772746,46.395084]]]]},"properties":{"natural":"wood"}},
{"type":"Feature","geometry":{"type":"MultiPolygon","coordinates":[[[[6.80368,46.3924485],[6.8039985,46.3924221],[6.8040334,46.3924707],[6.8039529,46.3924903],[6.8040285,46.3926379],[6.8040422,46.3926647],[6.8037272,46.3927027],[6.803731,46.3926213],[6.80368,46.3924485]]]]},"properties":{"leisure":"playground"}},
{"type":"Feature","geometry":{"type":"MultiPolygon","coordinates":[[[[6.8041358,46.3891451],[6.8041453,46.3891393],[6.8041623,46.3891342],[6.8041823,46.3891378],[6.804213,46.3891495],[6.8042362,46.3891568],[6.8042468,46.3891568],[6.8042563,46.3891517],[6.8042563,46.389143],[6.8042458,46.3891255],[6.8042362,46.3891101],[6.8042415,46.3890977],[6.8042532,46.3890956],[6.8042722,46.3890992],[6.8042902,46.3891182],[6.8043134,46.3891357],[6.8043324,46.3891444],[6.8043567,46.3891444],[6.8043811,46.3891422],[6.8043916,46.3891349],[6.8044085,46.3890934],[6.8044043,46.3890598],[6.8043937,46.389027],[6.8043589,46.3889935],[6.8043409,46.3889818],[6.8043166,46.3889607],[6.8043134,46.3889395],[6.8043303,46.3889228],[6.8043546,46.3889133],[6.8043779,46.3889162],[6.8043906,46.3889279],[6.8044075,46.3889497],[6.8044244,46.3889767],[6.8044455,46.3890015],[6.8044772,46.3890212],[6.8044963,46.3890372],[6.8045259,46.3890489],[6.8045364,46.3890649],[6.8045354,46.3890795],[6.8045259,46.3890912],[6.80451,46.3891043],[6.804509,46.3891174],[6.8045195,46.3891276],[6.8045481,46.3891313],[6.8045766,46.3891233],[6.8046221,46.3891138],[6.8046569,46.3891276],[6.8046823,46.3891546],[6.8046876,46.3891831],[6.8046612,46.3892078],[6.8045946,46.3892173],[6.8045512,46.3892115],[6.804529,46.3891933],[6.8044952,46.3891772],[6.8044709,46.3891816],[6.8044413,46.3891991],[6.8044191,46.38921],[6.80438,46.38921],[6.8043546,46.3892027],[6.8043345,46.3891911],[6.8043007,46.3891889],[6.804269,46.3891845],[6.8042426,46.3891801],[6.8042162,46.3891852],[6.8042045,46.3891903],[6.8041802,46.3891903],[6.8041591,46.3891845],[6.8041447,46.3891726],[6.8041358,46.3891612],[6.8041358,46.3891451]]]]},"properties":{"natural":"wood","source":"Swiss Surface 3D 2024"}},
{"type":"Feature","geometry":{"type":"MultiPolygon","coordinates":[[[[6.8032471,46.3919964],[6.8033852,46.3919848],[6.8034018,46.3920789],[6.8032574,46.3920867],[6.8032471,46.3919964]]]]},"properties":{"addr:city":"St-Gingolph","addr:housenumber":"18","addr:postcode":"1898","addr:street":"Rue du Stand","building":"house","name":"Le Nid du Milan","roof:material":"tile","roof:orientation":"across","roof:shape":"gabled","source":"Swiss Image 2024 + GWR from http://qa.poole.ch/addresses/GWR/6155_all.osm.zip","tourism":"guest_house"}},
{"type":"Feature","geometry":{"type":"MultiPolygon","coordinates":[[[[6.7939636,46.3927715],[6.7944849,46.3927608],[6.7944988,46.392882],[6.7944817,46.3928853],[6.7944687,46.3928936],[6.7944626,46.3929051],[6.7944649,46.3929173],[6.794475,46.3929274],[6.7944906,46.3929332],[6.7945084,46.3929334],[6.7945243,46.392928],[6.7946123,46.3929232],[6.794623,46.3929429],[6.7946431,46.3929382],[6.7946357,46.3929219],[6.7946235,46.3928148],[6.7946574,46.3928136],[6.7946902,46.392809],[6.7947295,46.3928005],[6.7947762,46.3927944],[6.7948419,46.3927919],[6.7949092,46.3927927],[6.7950061,46.3927981],[6.7950724,46.3928075],[6.7951418,46.3928242],[6.7952153,46.3928485],[6.7953983,46.3929178],[6.7954439,46.3929384],[6.7954862,46.392962],[6.7954215,46.3930698],[6.7944746,46.3930517],[6.793966,46.3928469],[6.7939652,46.3928075],[6.7939636,46.3927715]]]]},"properties":{"access":"customers","fee":"yes","leisure":"swimming_area","lit":"no","name":"Plage de Saint-Gingolph","supervised":"yes"}},
{"type":"Feature","geometry":{"type":"MultiPolygon","coordinates":[[[[6.7946184,46.3927701],[6.7946728,46.392769],[6.7946719,46.392748],[6.7947759,46.3927518],[6.7947847,46.3927157],[6.7948294,46.3927211],[6.7950293,46.3927454],[6.7955418,46.3929401],[6.7955992,46.3929619],[6.7956196,46.3929696],[6.7955798,46.3930195],[6.7954862,46.392962],[6.7954439,46.3929384],[6.7953983,46.3929178],[6.7952153,46.3928485],[6.7951418,46.3928242],[6.7950724,46.3928075],[6.7950061,46.3927981],[6.7949092,46.3927927],[6.7948419,46.3927919],[6.7947762,46.3927944],[6.7947295,46.3928005],[6.7946902,46.392809],[6.7946574,46.3928136],[6.7946235,46.3928148],[6.7946184,46.3927701]]]]},"properties":{"lifeguard":"yes","name":"Plage de Saint Gingolph","natural":"beach","surface":"cobblestone"}},
{"type":"Feature","geometry":{"type":"MultiPolygon","coordinates":[[[[6.8003944,46.3937636],[6.8004055,46.3937022],[6.8004079,46.3936889],[6.800551,46.3937089],[6.8008134,46.393755],[6.8008016,46.3937993],[6.8007456,46.3937944],[6.8006437,46.3937854],[6.8005438,46.3937774],[6.8004399,46.3937676],[6.8003944,46.3937636]]]]},"properties":{"leisure":"playground","surface":"woodchips"}},
{"type":"Feature","geometry":{"type":"MultiPolygon","coordinates":[[[[6.8053914,46.3938484],[6.8055339,46.3937693],[6.8057107,46.3936547],[6.8057811,46.3936937],[6.8057134,46.3937596],[6.8056356,46.3938279],[6.8055923,46.3938649],[6.8055397,46.393958],[6.8055217,46.3939551],[6.8054794,46.3939205],[6.8053914,46.3938484]]]]},"properties":{"leisure":"outdoor_seating","source":"Swiss Image 2024"}}
]}
