{"type":"FeatureCollection","features":[
{"type":"Feature","geometry":{"type":"Point","coordinates":[-1.173955,43.0376912]},"properties":{"alt_name":"Errozateko lepoa","ele":"1070.46","mountain_pass":"yes","name":"Erroitzateko lepoa","name:es":"Collado de Erroitzate","name:eu":"Erroitzateko lepoa","name:fr":"Col d'Errozaté","natural":"saddle"}},
{"type":"Feature","geometry":{"type":"Point","coordinates":[-1.247621,43.0426151]},"properties":{"historic":"boundary_stone","name":"Mugarrien 205. zenbakia","name:fr":"Borne frontière","ref":"205","source":"survey"}},
{"type":"Feature","geometry":{"type":"Point","coordinates":[-1.250014,43.042339]},"properties":{"historic":"boundary_stone","name":"Mugarrien 204. zenbakia","name:fr":"Borne frontière #204","ref":"204","source":"survey"}},
{"type":"Feature","geometry":{"type":"Point","coordinates":[-1.254748,43.042937]},"properties":{"historic":"boundary_stone","name":"Mugarrien 203. zenbakia","name:fr":"Borne frontière","ref":"203","source":"survey"}},
{"type":"Feature","geometry":{"type":"Point","coordinates":[-1.256774,43.043689]},"properties":{"historic":"boundary_stone","name":"Mugarrien 202. zenbakia","name:fr":"Borne frontière","ref":"202","source":"survey"}},
{"type":"Feature","geometry":{"type":"Point","coordinates":[-1.2475319,43.0426253]},"properties":{"ele":"1236","mountain_pass":"yes","name":"Arnoztegiko lepoa","name:es":"Paso de Arnoztegi","name:eu":"Arnoztegiko lepoa","name:fr":"Col d'Arnostéguy","natural":"saddle"}},
{"type":"Feature","geometry":{"type":"Point","coordinates":[-1.2476721,43.0426125]},"properties":{"ele":"1239","information":"guidepost","name":"Arnoztegi","tourism":"information"}},
{"type":"Feature","geometry":{"type":"Point","coordinates":[-1.1739646,43.0376293]},"properties":{"historic":"boundary_stone","name":"Mugarrien 221. zenbakia","name:fr":"Borne frontière #221","note":"This POI is positioned approximately. We must address the real GPS coordinates."}},
{"type":"Feature","geometry":{"type":"Point","coordinates":[-1.171685,43.036709]},"properties":{"historic":"boundary_stone","inscription":"Borne frontière #222","name":"Mugarrien 222. zenbakia","note":"This POI is positioned approximately. We must address the real GPS coordinates."}},
{"type":"Feature","geometry":{"type":"Point","coordinates":[-1.163524,43.0347201]},"properties":{"name":"Bizkarrotxe Iturburua","natural":"spring","water_source":"stream"}},
{"type":"Feature","geometry":{"type":"Point","coordinates":[-1.1631572,43.0346225]},"properties":{"historic":"boundary_stone","name":"Mugarrien 223. zenbakia","name:fr":"Borne frontière #223","note":"This POI is positioned approximately. We must address the real GPS coordinates."}},
{"type":"Feature","geometry":{"type":"Point","coordinates":[-1.1443047,43.0241166]},"properties":{"historic":"boundary_stone","inscription":"224","name":"Mugarrien 224. zenbakia","name:fr":"Borne frontière #224","note":"This POI is positioned approximately. We must address the real GPS coordinates."}},
{"type":"Feature","geometry":{"type":"Point","coordinates":[-1.1417096,43.0077248]},"properties":{"historic":"boundary_stone","name":"Mugarrien 225. zenbakia","note":"This POI is positioned approximately. We must address the real GPS coordinates."}},
{"type":"Feature","geometry":{"type":"Point","coordinates":[-0.9705099,42.9618759]},"properties":{"historic":"boundary_stone","name":"Mugarrien 240. zenbakia"}},
{"type":"Feature","geometry":{"type":"Point","coordinates":[-1.263581,43.044018]},"properties":{"historic":"boundary_stone","name":"Mugarrien 200. zenbakia","name:fr":"Borne frontière #200","ref":"200","source":"survey"}},
{"type":"Feature","geometry":{"type":"Point","coordinates":[-1.2401544,43.0460671]},"properties":{"ele":"1423","name":"Urkulu","name:es":"Urculu","natural":"peak","source":"survey","wikidata":"Q590012","wikipedia":"en:Urkulu"}},
{"type":"Feature","geometry":{"type":"Point","coordinates":[-1.1502983,43.0388543]},"properties":{"archaeological_site":"megalith","historic":"archaeological_site","megalith_type":"stone_circle","name":"Etxaateko lepoa"}},
{"type":"Feature","geometry":{"type":"Point","coordinates":[-1.1376951,43.0319754]},"properties":{"archaeological_site":"megalith","historic":"archaeological_site","megalith_type":"dolmen","name":"Dolmen d'Artxilondo"}},
{"type":"Feature","geometry":{"type":"Point","coordinates":[-1.1263869,43.0455336]},"properties":{"archaeological_site":"megalith","historic":"archaeological_site","megalith_type":"stone_circle","name":"Apatesaro Hego"}},
{"type":"Feature","geometry":{"type":"Point","coordinates":[-1.1095933,43.0419483]},"properties":{"alt_name":"Ilarrita","archaeological_site":"megalith","ele":"1387","historic":"archaeological_site","megalith_type":"stone_circle","name":"Ilharrita","name:eu":"Ilarrita harrespila","place":"locality"}},
{"type":"Feature","geometry":{"type":"Point","coordinates":[-1.1226222,43.0250597]},"properties":{"ele":"1333","name":"Urkuluko Gandorra","natural":"peak"}},
{"type":"Feature","geometry":{"type":"Point","coordinates":[-1.1840029,43.043912]},"properties":{"name":"Gohosaro","natural":"spring"}},
{"type":"Feature","geometry":{"type":"Point","coordinates":[-1.1546595,43.0412311]},"properties":{"alt_name":"Aranohegi","ele":"1293","name":"Aranohegi","natural":"peak"}},
{"type":"Feature","geometry":{"type":"Point","coordinates":[-1.1502607,43.0390033]},"properties":{"alt_name":"Etxaate","ele":"1199","mountain_pass":"yes","name":"Aitzgarate","natural":"saddle"}},
{"type":"Feature","geometry":{"type":"Point","coordinates":[-1.1419372,43.0135899]},"properties":{"name":"Egurgiko Iturria","natural":"spring"}},
{"type":"Feature","geometry":{"type":"Point","coordinates":[-1.1724254,43.0377871]},"properties":{"name":"Errozateko Iturria","natural":"spring"}},
{"type":"Feature","geometry":{"type":"Point","coordinates":[-1.1127752,43.0400541]},"properties":{"name":"Okhabeko Ithurria","name:eu":"Okabeko Iturria","natural":"spring"}},
{"type":"Feature","geometry":{"type":"Point","coordinates":[-1.1112614,43.0205728]},"properties":{"alt_name":"Ahuntz Bide","ele":"1399","name":"Ahuntzbide","natural":"peak"}},
{"type":"Feature","geometry":{"type":"Point","coordinates":[-1.200271,43.0379191]},"properties":{"ele":"1121","name":"Saiarri","name:es":"Sayarre","natural":"peak","source":"Instituto Geográfico Nacional","source:date":"201011","wikidata":"Q112786921","wikipedia":"eu:Saiarri"}},
{"type":"Feature","geometry":{"type":"Point","coordinates":[-1.1090918,43.0274628]},"properties":{"alt_name":"Oraate","ele":"1305","loc_name":"Orgarateko Lephua","mountain_pass":"yes","name":"Orgarate","name:eu":"Orgarateko lepoa","natural":"saddle"}},
{"type":"Feature","geometry":{"type":"Point","coordinates":[-1.115541,43.0246682]},"properties":{"alt_name":"Curutché","ele":"1270","loc_name":"Kurutxeko Lephoa","mountain_pass":"yes","name":"Kurutxe","natural":"saddle"}},
{"type":"Feature","geometry":{"type":"Point","coordinates":[-1.0835918,43.0114471]},"properties":{"historic":"boundary_stone","inscription":"Euskal Herriko probintzien arteko mugarria","name":"Euskal Herriko mugarria","name:eu":"Nafarroa Beherea, Nafarroa eta Zuberoa arteko Mugarria"}},
{"type":"Feature","geometry":{"type":"Point","coordinates":[-1.1079013,43.0459791]},"properties":{"name":"Fontaine Puchulusaro","natural":"spring","source":"cadastre-dgi-fr source : Direction Générale des Impôts - Cadastre. Mise à jour : 2013"}},
{"type":"Feature","geometry":{"type":"Point","coordinates":[-1.261244,43.0454706]},"properties":{"ele":"1384.9","name":"Bentarte","natural":"peak"}},
{"type":"Feature","geometry":{"type":"Point","coordinates":[-1.1716941,43.0441486]},"properties":{"ele":"1345","name":"Errotzate","natural":"peak"}},
{"type":"Feature","geometry":{"type":"Point","coordinates":[-1.1334785,43.0192236]},"properties":{"alt_name":"Urkulu txikia","description":"Do not mix with another Urkulu few kilometers West, with a roman empire oppidium","ele":"1244","name":"Urkulu","natural":"peak"}},
{"type":"Feature","geometry":{"type":"Point","coordinates":[-1.1069474,43.0346109]},"properties":{"alt_name":"Pic Occabé","ele":"1466","name":"Okabe","natural":"peak"}},
{"type":"Feature","geometry":{"type":"Point","coordinates":[-1.2135705,43.0452208]},"properties":{"archaeological_site":"megalith","historic":"archaeological_site","megalith_type":"stone_circle","name":"Cromlech Axpageta","name:eu":"Axpageta harrespila"}},
{"type":"Feature","geometry":{"type":"Point","coordinates":[-1.1799978,43.0331022]},"properties":{"addr:city":"Orbaitzeta","fee":"no","fold":"anticline","geological":"fold","int_name":"Harpea Cave","name":"Harpeako leizea / Grotte d'Arpea","name:en":"Harpea's Cave","name:es":"Cueva de Arpea","name:eu":"Harpeako leizea","name:fr":"Grotte d'Harpéa","natural":"cave_entrance","wikidata":"Q28494476","wikimedia_commons":"File:Harpea_kobazuola.jpg","wikipedia":"fr:Grotte d'Harpea"}},
{"type":"Feature","geometry":{"type":"Point","coordinates":[-1.0221477,42.9928598]},"properties":{"ford":"yes"}},
{"type":"Feature","geometry":{"type":"Point","coordinates":[-1.2645376,43.0442542]},"properties":{"ele":"1337","name":"Bentarteko lepoa","natural":"saddle"}},
{"type":"Feature","geometry":{"type":"Point","coordinates":[-1.26068,43.043859]},"properties":{"historic":"boundary_stone","name":"Mugarrien 201. zenbakia","name:fr":"Borne frontière #201","ref":"201","source":"survey"}},
{"type":"Feature","geometry":{"type":"Point","coordinates":[-1.1669947,43.0440377]},"properties":{"historic":"archaeological_site","megalith_type":"stone_circle","name":"Errozateko harrespilak / Cromlechs d'Errozate","name:eu":"Errozateko harrespilak","name:fr":"Cromlechs d'Errozate","website":"http://jacquesblot.over-blog.com/article-35740908.html"}},
{"type":"Feature","geometry":{"type":"Point","coordinates":[-1.1237638,43.0444969]},"properties":{"natural":"spring"}},
{"type":"Feature","geometry":{"type":"Point","coordinates":[-1.2651108,43.0444467]},"properties":{"hiking":"yes","information":"guidepost","material":"wood","tourism":"information"}},
{"type":"Feature","geometry":{"type":"Point","coordinates":[-1.1090317,43.0273198]},"properties":{"hiking":"yes","information":"guidepost","material":"wood","tourism":"information"}},
{"type":"Feature","geometry":{"type":"Point","coordinates":[-1.1160377,43.0248119]},"properties":{"hiking":"yes","information":"guidepost","material":"wood","ref":"GR 12","tourism":"information"}},
{"type":"Feature","geometry":{"type":"Point","coordinates":[-1.1311492,43.0206322]},"properties":{"hiking":"yes","information":"guidepost","material":"wood","ref":"GR 12","tourism":"information"}},
{"type":"Feature","geometry":{"type":"Point","coordinates":[-1.1313571,43.0152559]},"properties":{"hiking":"yes","information":"guidepost","material":"wood","ref":"GR 12","tourism":"information"}},
{"type":"Feature","geometry":{"type":"Point","coordinates":[-1.1404599,43.0157217]},"properties":{"hiking":"yes","information":"guidepost","material":"wood","name":"GR12 Euskal Herriko ur-mugaren ibilaldia","ref":"GR 12","tourism":"information"}},
{"type":"Feature","geometry":{"type":"Point","coordinates":[-1.1412478,43.0160541]},"properties":{"hiking":"yes","information":"guidepost","material":"wood","name":"GR12 Euskal Herriko ur-mugaren ibilaldia","ref":"GR 12","tourism":"information"}},
{"type":"Feature","geometry":{"type":"Point","coordinates":[-1.1434753,43.0156138]},"properties":{"hiking":"yes","information":"guidepost","material":"wood","ref":"GR 12","tourism":"information"}},
{"type":"Feature","geometry":{"type":"Point","coordinates":[-1.1447547,43.0145538]},"properties":{"hiking":"yes","information":"guidepost","material":"wood","name":"GR 12 Euskal Herriko ur-mugaren ibilaldia","name:eu":"GR 12 Euskal Herriko ur-mugaren ibilaldia","ref":"GR 12","tourism":"information"}},
{"type":"Feature","geometry":{"type":"Point","coordinates":[-1.1462487,43.0128334]},"properties":{"hiking":"yes","information":"guidepost","material":"wood","name":"GR 12 Euskal Herriko ur-mugaren ibilaldia","name:eu":"GR 12 Euskal Herriko ur-mugaren ibilaldia","ref":"GR 12","tourism":"information"}},
{"type":"Feature","geometry":{"type":"Point","coordinates":[-1.1489055,43.0139498]},"properties":{"hiking":"yes","information":"guidepost","material":"wood","name":"GR 12 Euskal Herriko ur-mugaren ibilaldia","name:eu":"GR 12 Euskal Herriko ur-mugaren ibilaldia","ref":"GR 12","tourism":"information"}},
{"type":"Feature","geometry":{"type":"Point","coordinates":[-1.152159,43.0161267]},"properties":{"hiking":"yes","information":"guidepost","material":"wood","ref":"GR 12","tourism":"information"}},
{"type":"Feature","geometry":{"type":"Point","coordinates":[-1.0837103,43.0142734]},"properties":{"hiking":"yes","information":"guidepost","material":"wood","tourism":"information"}},
{"type":"Feature","geometry":{"type":"Point","coordinates":[-1.1809628,43.0326221]},"properties":{"description":"218","historic":"boundary_stone","name":"Mugarrien 218. zenbakia","name:fr":"Borne frontière #218"}},
{"type":"Feature","geometry":{"type":"Point","coordinates":[-1.1798376,43.0331721]},"properties":{"historic":"boundary_stone","inscription":"219","name":"Mugarrien 219. zenbakia","name:fr":"Borne frontière #219"}},
{"type":"Feature","geometry":{"type":"Point","coordinates":[-1.2055347,43.0464587]},"properties":{"historic":"boundary_stone","name":"Mugarrien 213. zenbakia","name:es":"Hito número 213"}},
{"type":"Feature","geometry":{"type":"Point","coordinates":[-1.1998663,43.0434894]},"properties":{"historic":"boundary_stone","name":"Mugarrien 214. zenbakia","name:es":"Hito número 214"}},
{"type":"Feature","geometry":{"type":"Point","coordinates":[-1.1964914,43.0413582]},"properties":{"historic":"boundary_stone","name":"Mugarrien 215. zenbakia","name:es":"Hito número 215"}},
{"type":"Feature","geometry":{"type":"Point","coordinates":[-1.1916203,43.0386441]},"properties":{"historic":"boundary_stone","name":"Mugarrien 216. zenbakia"}},
{"type":"Feature","geometry":{"type":"Point","coordinates":[-1.1825517,43.0335971]},"properties":{"historic":"boundary_stone","name":"Mugarrien 217. zenbakia"}},
{"type":"Feature","geometry":{"type":"Point","coordinates":[-1.1742609,43.0346809]},"properties":{"historic":"boundary_stone","name":"Mugarrien 220. zenbakia"}},
{"type":"Feature","geometry":{"type":"Point","coordinates":[-1.1340099,43.0084419]},"properties":{"historic":"boundary_stone","name":"Mugarrien 226. zenbakia"}},
{"type":"Feature","geometry":{"type":"Point","coordinates":[-1.1149481,43.0239754]},"properties":{"historic":"boundary_stone","name":"Mugarrien 227. zenbakia"}},
{"type":"Feature","geometry":{"type":"Point","coordinates":[-1.1131178,43.0223118]},"properties":{"historic":"boundary_stone","name":"Mugarrien 228. zenbakia"}},
{"type":"Feature","geometry":{"type":"Point","coordinates":[-1.1105331,43.0199881]},"properties":{"historic":"boundary_stone","name":"Mugarrien 229. zenbakia"}},
{"type":"Feature","geometry":{"type":"Point","coordinates":[-1.0837163,43.0113231]},"properties":{"historic":"boundary_stone","name":"Mugarrien 230. zenbakia"}},
{"type":"Feature","geometry":{"type":"Point","coordinates":[-1.0859632,43.0028681]},"properties":{"historic":"boundary_stone","name":"Mugarrien 231. zenbakia"}},
{"type":"Feature","geometry":{"type":"Point","coordinates":[-1.1121152,43.0268412]},"properties":{"name":"Iturburua","name:en":"Water source","name:ru":"Родник","natural":"spring"}},
{"type":"Feature","geometry":{"type":"Point","coordinates":[-1.2647059,43.0468475]},"properties":{"description:es":"Panel informativo mapa","information":"board","tourism":"information"}},
{"type":"Feature","geometry":{"type":"Point","coordinates":[-1.173325,43.0263511]},"properties":{"ele":"1161.97","name":"Minutegiko lepoa","natural":"saddle"}},
{"type":"Feature","geometry":{"type":"Point","coordinates":[-1.107548,43.0093]},"properties":{"ele":"1107.91","name":"Urdandegizarra","natural":"peak"}},
{"type":"Feature","geometry":{"type":"Point","coordinates":[-1.2570008,43.0434535]},"properties":{"ele":"1326","name":"Txangoamendi","natural":"peak"}},
{"type":"Feature","geometry":{"type":"Point","coordinates":[-1.2575317,43.0436841]},"properties":{"ele":"1319.5","name":"Bidarraiko lepoa","natural":"saddle"}},
{"type":"Feature","geometry":{"type":"Point","coordinates":[-1.240454,43.047031]},"properties":{"historic":"boundary_stone","inscription":"Borne frontière #206","name":"Mugarrien 206. zenbakia","ref":"206","source":"survey"}},
{"type":"Feature","geometry":{"type":"Point","coordinates":[-1.2405478,43.044976]},"properties":{"hiking":"yes","information":"guidepost","tourism":"information"}},
{"type":"Feature","geometry":{"type":"Point","coordinates":[-1.1714906,43.0441129]},"properties":{"ele":"1345","name":"Errozate","natural":"peak","wikidata":"Q3057489"}},
{"type":"Feature","geometry":{"type":"LineString","coordinates":[[-1.263581,43.044018],[-1.26068,43.043859],[-1.256774,43.043689],[-1.254748,43.042937],[-1.250014,43.042339],[-1.247621,43.0426151]]},"properties":{"admin_level":"2","border_type":"nation","boundary":"administrative","name":"France - España","name:an":"Francia - Espanya","name:ar":"إسبانيا - فرنسا","name:ca":"França - Espanya","name:de":"Frankreich - Spanien","name:en":"France - Spain","name:es":"Francia - España","name:eu":"Frantzia - Espainia","name:fa":"اسپانیا - فرانسه","name:fr":"France - Espagne","name:gl":"Francia - España","name:lt":"Prancūzija - Ispanija","name:oc":"França - Espanha","name:pt":"França - Espanha","name:ru":"Франция - Испания","name:ur":"ہسپانیہ - فرانس","source":"cadastre-dgi-fr source : Direction Générale des Impôts - Cadastre. Mise à jour : 2009"}},
{"type":"Feature","geometry":{"type":"LineString","coordinates":[[-1.247621,43.0426151],[-1.2466118,43.0432336],[-1.240454,43.047031],[-1.2357222,43.0487235],[-1.2299526,43.054214],[-1.2298902,43.0542734],[-1.2292925,43.0554486],[-1.2189808,43.0517378],[-1.2133639,43.0497164],[-1.211938,43.0495766]]},"properties":{"admin_level":"2","border_type":"nation","boundary":"administrative","name":"France - España","name:an":"Francia - Espanya","name:ar":"إسبانيا - فرنسا","name:ca":"França - Espanya","name:de":"Frankreich - Spanien","name:en":"France - Spain","name:es":"Francia - España","name:eu":"Frantzia - Espainia","name:fa":"اسپانیا - فرانسه","name:fr":"France - Espagne","name:gl":"Francia - España","name:lt":"Prancūzija - Ispanija","name:oc":"França - Espanha","name:pt":"França - Espanha","name:ru":"Франция - Испания","name:ur":"ہسپانیہ - فرانس","source":"cadastre-dgi-fr source : Direction Générale des Impôts - Cadastre. Mise à jour : 2009"}},
{"type":"Feature","geometry":{"type":"LineString","coordinates":[[-1.211938,43.0495766],[-1.2117456,43.0494691],[-1.2116963,43.0494478],[-1.2068483,43.0469465],[-1.2027844,43.0448498],[-1.1999023,43.0433627],[-1.1982313,43.042436],[-1.1969214,43.0417095],[-1.1901118,43.0379327],[-1.1838395,43.0344537],[-1.1826076,43.0337704],[-1.1825736,43.0337467],[-1.1810693,43.0326965],[-1.1809628,43.0326221],[-1.1798233,43.0331456],[-1.1796637,43.0331958],[-1.1745806,43.0347944]]},"properties":{"admin_level":"2","border_type":"nation","boundary":"administrative","name":"France - España","name:an":"Francia - Espanya","name:ar":"إسبانيا - فرنسا","name:ca":"França - Espanya","name:de":"Frankreich - Spanien","name:en":"France - Spain","name:es":"Francia - España","name:eu":"Frantzia - Espainia","name:fa":"اسپانیا - فرانسه","name:fr":"France - Espagne","name:gl":"Francia - España","name:lt":"Prancūzija - Ispanija","name:oc":"França - Espanha","name:pt":"França - Espanha","name:ru":"Франция - Испания","name:ur":"ہسپانیہ - فرانس"}},
{"type":"Feature","geometry":{"type":"LineString","coordinates":[[-1.0835918,43.0114471],[-1.0832326,43.0109762],[-1.0832226,43.01054],[-1.0840847,43.0097791],[-1.0841832,43.0095479],[-1.0845036,43.0089028],[-1.0845595,43.0086135],[-1.0846347,43.0082241],[-1.0851591,43.0072588],[-1.085819,43.006654],[-1.0852053,43.0065061],[-1.084718,43.0059716],[-1.084527,43.0049366],[-1.0846865,43.0040822],[-1.0856626,43.0034259],[-1.0863389,43.0027319],[-1.0859756,43.0023687],[-1.085148,43.0024491],[-1.0843193,43.0021336],[-1.0828365,43.0016663],[-1.0820663,43.0018138],[-1.0818091,43.0016725],[-1.0816329,43.0014527],[-1.0815028,43.0008548],[-1.0810714,43.0005183],[-1.0805776,43.0006226],[-1.0800175,43.0011436],[-1.0797895,43.0012741],[-1.0796155,43.0014989],[-1.0793631,43.0010988],[-1.0792035,43.0009596],[-1.078811,43.0003297],[-1.0783942,43.0000607],[-1.0774154,43.0001102],[-1.0763183,42.9996458],[-1.0756146,42.99951],[-1.0749578,42.9987834],[-1.0745707,42.9987231],[-1.073962,42.9988464],[-1.073553,42.9987148],[-1.0731683,42.9980649],[-1.0724683,42.9978373],[-1.0678959,42.9979304],[-1.0670995,42.9977319],[-1.0652537,42.9977552],[-1.0614146,42.9966076],[-1.0601851,42.9964811],[-1.044916,42.9956728],[-1.037268,42.9939405],[-1.0366962,42.9941489],[-1.0364487,42.9942717],[-1.0362098,42.9944563],[-1.0358479,42.9946193],[-1.0352007,42.9945691],[-1.0336536,42.9946158],[-1.0332537,42.9946621],[-1.0330817,42.994644],[-1.0328544,42.9945487],[-1.0319118,42.9940844],[-1.0315142,42.9937754],[-1.0310613,42.9932775],[-1.030577,42.9929953],[-1.0302827,42.9929101],[-1.0296398,42.9927826],[-1.0282466,42.9924836],[-1.0275783,42.9923916],[-1.0272914,42.9923567],[-1.0268678,42.9922337],[-1.0265504,42.9922096],[-1.0262544,42.9920913],[-1.0254194,42.9921293],[-1.0252272,42.9921996],[-1.025047,42.9922656],[-1.0248235,42.9922893],[-1.0244049,42.9923337],[-1.0230591,42.9927258],[-1.0221477,42.9928598],[-1.0219218,42.9931495],[-1.0215879,42.9933082],[-1.0209133,42.9933873],[-1.0206558,42.9934399],[-1.0206022,42.9935521],[-1.0196259,42.9936384],[-1.0189607,42.9938503],[-1.0176089,42.9944443],[-1.0170979,42.9947194],[-1.016704,42.9951161]]},"properties":{"admin_level":"2","border_type":"nation","boundary":"administrative","name":"France - España","name:an":"Francia - Espanya","name:ar":"إسبانيا - فرنسا","name:ca":"França - Espanya","name:de":"Frankreich - Spanien","name:en":"France - Spain","name:es":"Francia - España","name:eu":"Frantzia - Espainia","name:fa":"اسپانیا - فرانسه","name:fr":"France - Espagne","name:gl":"Francia - España","name:lt":"Prancūzija - Ispanija","name:oc":"França - Espanha","name:pt":"França - Espanha","name:ru":"Франция - Испания","name:ur":"ہسپانیہ - فرانس","source":"CIA World Databank II"}},
{"type":"Feature","geometry":{"type":"LineString","coordinates":[[-1.1416609,43.0076101],[-1.1409847,43.007922],[-1.1406372,43.0081848],[-1.1403278,43.0087802],[-1.1400965,43.0090843],[-1.1399576,43.0094624],[-1.1398601,43.009557],[-1.139403,43.0096303],[-1.138873,43.009608],[-1.1384356,43.0097239],[-1.1381875,43.0097155],[-1.1381227,43.0097133],[-1.1379671,43.0096668],[-1.1372572,43.0093516],[-1.1366731,43.0094821],[-1.1361901,43.0093954],[-1.1354646,43.0090509],[-1.1346904,43.0088516],[-1.1343605,43.0084916],[-1.1341496,43.0084524],[-1.1339153,43.0083394],[-1.1337953,43.0083645],[-1.1338176,43.00876],[-1.1332223,43.0098696],[-1.1329745,43.0101503],[-1.13181,43.0109734],[-1.1315481,43.0114769],[-1.131169,43.0116501],[-1.1308791,43.0118425],[-1.1302345,43.0118987],[-1.1298234,43.0120651],[-1.1296729,43.0122308],[-1.1296097,43.0126205],[-1.1286549,43.0132697],[-1.1282242,43.0139434],[-1.1281225,43.0139971],[-1.1279643,43.0139989],[-1.1278739,43.0139409],[-1.1277369,43.0136681],[-1.1276146,43.0136302],[-1.1275228,43.0136618],[-1.1274765,43.0137688],[-1.1275759,43.0142802],[-1.1278371,43.0149881],[-1.1277897,43.0151534],[-1.1276376,43.0152244],[-1.127388,43.0152226],[-1.1266075,43.0149216],[-1.1261962,43.0149257],[-1.1252897,43.0148278],[-1.1250605,43.0148912],[-1.1246622,43.0151074],[-1.1244786,43.015414],[-1.1241779,43.0156151],[-1.1238293,43.0157277],[-1.1233841,43.0156289],[-1.1232755,43.0156402],[-1.1230605,43.0158026],[-1.1230694,43.0158868],[-1.1232699,43.0160754],[-1.1233212,43.0161989],[-1.1231437,43.016581],[-1.1230897,43.0171184],[-1.1230287,43.0172224],[-1.1225976,43.0174349],[-1.122162,43.0177394],[-1.1212558,43.0181239],[-1.1200118,43.0188163],[-1.1196282,43.018986],[-1.1191271,43.0194237],[-1.1186145,43.019632],[-1.1182977,43.0198677],[-1.1175673,43.0207078],[-1.1163331,43.0217881],[-1.1154878,43.0246004],[-1.1116188,43.0240142],[-1.1115121,43.023998],[-1.1112337,43.0229508],[-1.1111285,43.0219785],[-1.1114047,43.0211487],[-1.1109841,43.0204612],[-1.107981,43.0182182],[-1.1072553,43.0173789],[-1.1057097,43.0164625],[-1.1037544,43.0155173],[-1.1020287,43.0146048],[-1.1007486,43.0140669],[-1.1000133,43.0138178],[-1.0961128,43.0128827],[-1.0951404,43.0126883],[-1.0932996,43.0119199],[-1.0925129,43.0116789],[-1.0920583,43.0115868],[-1.091558,43.0115437],[-1.0907574,43.0113545],[-1.0900163,43.011253],[-1.0890757,43.010987],[-1.0871574,43.0108717],[-1.0863806,43.011021],[-1.0853122,43.0114132],[-1.0835918,43.0114471]]},"properties":{"admin_level":"2","border_type":"nation","boundary":"administrative","name":"France - España","name:an":"Francia - Espanya","name:ar":"إسبانيا - فرنسا","name:ca":"França - Espanya","name:de":"Frankreich - Spanien","name:en":"France - Spain","name:es":"Francia - España","name:eu":"Frantzia - Espainia","name:fa":"اسپانیا - فرانسه","name:fr":"France - Espagne","name:gl":"Francia - España","name:lt":"Prancūzija - Ispanija","name:oc":"França - Espanha","name:pt":"França - Espanha","name:ru":"Франция - Испания","name:ur":"ہسپانیہ - فرانس","source":"cadastre-dgi-fr source : Direction Générale des Impôts - Cadastre. Mise à jour : 2009"}},
{"type":"Feature","geometry":{"type":"LineString","coordinates":[[-1.1148222,43.0454922],[-1.1159196,43.0435504],[-1.11614,43.0429318],[-1.1153228,43.0421848],[-1.116143,43.0419605],[-1.1178075,43.041709],[-1.1195839,43.0416877],[-1.1195833,43.0408604],[-1.1186197,43.0399203],[-1.1167714,43.0389458],[-1.1165092,43.0390712],[-1.1155316,43.0393275],[-1.1150422,43.0393433],[-1.1136459,43.0395681],[-1.1127241,43.0379617],[-1.1120005,43.0373945],[-1.111578,43.0373561],[-1.1107326,43.0369006],[-1.1112094,43.0359328],[-1.111426,43.0354983],[-1.1121703,43.0348478],[-1.1121348,43.0344219],[-1.1122327,43.0340839],[-1.1120508,43.0337137],[-1.1123063,43.0330483],[-1.1151436,43.0324429],[-1.1171639,43.0324047],[-1.1177738,43.0321512],[-1.1190847,43.0317313],[-1.1196247,43.0319476],[-1.1188195,43.0328279],[-1.1187399,43.0331362],[-1.1190614,43.0333866],[-1.1196531,43.0336463],[-1.1208979,43.0337589],[-1.1218867,43.033691],[-1.1227593,43.0339326],[-1.1223658,43.0341162],[-1.1207504,43.0349777],[-1.1202853,43.0353973],[-1.119847,43.0362657],[-1.1192015,43.0373567],[-1.1194531,43.038077],[-1.1198472,43.0387207],[-1.1208312,43.0391835],[-1.1215112,43.0392784],[-1.1222724,43.0392988],[-1.1232144,43.0390615],[-1.1251387,43.0398716],[-1.1264913,43.0401426],[-1.1263441,43.0403452],[-1.1260683,43.0406509],[-1.1254773,43.0414253],[-1.125403,43.042228],[-1.1255841,43.0432024],[-1.1252841,43.043311],[-1.1246269,43.0435739],[-1.1242067,43.0437733],[-1.1232363,43.0439167],[-1.1221141,43.0444136],[-1.1210348,43.0447955],[-1.1202348,43.0447108],[-1.119244,43.0439917],[-1.1182866,43.0443823],[-1.1166789,43.0453783],[-1.1153115,43.0460879],[-1.1148222,43.0454922]]},"properties":{"CLC:code":"311","CLC:id":"FR-239358","CLC:year":"2006","landuse":"forest","leaf_type":"broadleaved","source":"Union européenne - SOeS, CORINE Land Cover, 2006."}},
{"type":"Feature","geometry":{"type":"LineString","coordinates":[[-1.1094353,43.0301461],[-1.1094279,43.0289417],[-1.1100418,43.0272892],[-1.1105696,43.0266456],[-1.1122084,43.0264824],[-1.1134855,43.0267435],[-1.1142064,43.0265639],[-1.1160147,43.0257066],[-1.1170654,43.0252411],[-1.1179238,43.0252493],[-1.12011,43.0263477],[-1.1205342,43.0274941],[-1.1197207,43.027826],[-1.1191412,43.0281775],[-1.1188112,43.0286018],[-1.1185647,43.0289874],[-1.117548,43.0294069],[-1.1163791,43.0297413],[-1.1150812,43.0297652],[-1.1144593,43.0304327],[-1.1136577,43.0311689],[-1.1121978,43.0315577],[-1.1096841,43.0310759],[-1.1094353,43.0301461]]},"properties":{"CLC:code":"311","CLC:id":"FR-239656","CLC:year":"2006","landuse":"forest","leaf_type":"broadleaved","source":"Union européenne - SOeS, CORINE Land Cover, 2006."}},
{"type":"Feature","geometry":{"type":"LineString","coordinates":[[-1.2699696,43.1183245],[-1.2702911,43.1176188],[-1.270368,43.1170443],[-1.2704606,43.1168823],[-1.2708937,43.1166957],[-1.2726938,43.1161333],[-1.2731139,43.1158219],[-1.2733695,43.1151174],[-1.2739797,43.1143068],[-1.2739644,43.1138035],[-1.2741667,43.113731],[-1.2747789,43.1136641],[-1.2752818,43.1135079],[-1.2758869,43.1134099],[-1.2765175,43.113215],[-1.2768943,43.1129988],[-1.2773178,43.1125516],[-1.2779209,43.1120456],[-1.2782337,43.1118631],[-1.278866,43.1116296],[-1.2788666,43.1114961],[-1.2786862,43.1110893],[-1.2787756,43.1109777],[-1.2804737,43.1104886],[-1.2811297,43.1100442],[-1.2813767,43.1097909],[-1.2814708,43.1096944],[-1.2816642,43.1094984],[-1.2822443,43.1090739],[-1.2826973,43.1086973],[-1.2824316,43.1081641],[-1.2823768,43.1077422],[-1.2824612,43.107617],[-1.2839808,43.1070097],[-1.2844898,43.1066711],[-1.2853129,43.1063082],[-1.2854641,43.1061832],[-1.2857341,43.1057706],[-1.2859564,43.105006],[-1.2858985,43.1046223],[-1.2860597,43.1044501],[-1.2865034,43.1043267],[-1.2874658,43.1042785],[-1.2878753,43.1041898],[-1.2885567,43.1042608],[-1.2889731,43.1041379],[-1.2891287,43.1037798],[-1.2892161,43.1032282],[-1.2897648,43.1025442],[-1.2897307,43.1023809],[-1.2894445,43.1019291],[-1.2894317,43.1017633],[-1.2895679,43.1016609],[-1.2906959,43.101155],[-1.2909708,43.1009745],[-1.2912778,43.1006785],[-1.2915204,43.1006108],[-1.2920081,43.1005897],[-1.2925634,43.1004341],[-1.292708,43.1003459],[-1.292691,43.100232],[-1.2923723,43.0996962],[-1.2924087,43.0994361],[-1.2929261,43.0988363],[-1.2938467,43.0984797],[-1.2943205,43.0977268],[-1.2945691,43.0975125],[-1.2947363,43.0970727],[-1.2951733,43.0964861],[-1.2952813,43.0961344],[-1.2952756,43.0958501],[-1.2953585,43.095664],[-1.2954705,43.0955609],[-1.2957092,43.0955253],[-1.2957913,43.0955627],[-1.2959578,43.0958426],[-1.2962555,43.0959256],[-1.2965548,43.0958248],[-1.296791,43.0956558],[-1.2971855,43.0951839],[-1.2974417,43.0945135],[-1.2984338,43.0935818],[-1.29855,43.0932401],[-1.2988457,43.0930303],[-1.2990059,43.0927662],[-1.2991442,43.092645],[-1.2997747,43.0923714],[-1.2998116,43.0923019],[-1.2997703,43.0921873],[-1.2990768,43.0917361],[-1.2989777,43.091613099999999],[-1.2989896,43.0915075],[-1.2991322,43.0912622],[-1.2997781,43.0905922],[-1.3002811,43.089941],[-1.3010326,43.0892324],[-1.3009082,43.0880253],[-1.3011642,43.0877889],[-1.3017002,43.0877651],[-1.301836,43.0877183],[-1.3019408,43.0876169],[-1.3019951,43.0873692],[-1.3016806,43.0859222],[-1.3017146,43.0855428],[-1.302198,43.0852178],[-1.3023987,43.0851854],[-1.302765,43.0852082],[-1.3028782,43.0851698],[-1.3032041,43.0847516],[-1.3030736,43.0841563],[-1.3030917,43.0839921],[-1.3032495,43.0839047],[-1.3040294,43.08367],[-1.3042211,43.0835509],[-1.3043258,43.0830166],[-1.3040288,43.0819775],[-1.3041074,43.0817244],[-1.3043149,43.0816868],[-1.3046691,43.0817798],[-1.3049396,43.0817317],[-1.3050689,43.081514],[-1.304965,43.0810559],[-1.3049849,43.0808219],[-1.3051174,43.080731],[-1.3057492,43.0805469],[-1.3059113,43.0803769],[-1.3058582,43.079487],[-1.3056346,43.079275],[-1.3050077,43.0789643],[-1.3049731,43.0788209],[-1.3051696,43.0784514],[-1.305231,43.0778683],[-1.3052606,43.0775878],[-1.3053638,43.0775153],[-1.3054933,43.0772153],[-1.3056477,43.0765209],[-1.3057721,43.076428],[-1.3062264,43.0763129],[-1.3064171,43.0761731],[-1.3063846,43.076045],[-1.3060691,43.0757757],[-1.3059653,43.0755626],[-1.3060487,43.0754619],[-1.3062685,43.0753883],[-1.3067711,43.0753294],[-1.3070286,43.0752169],[-1.3071065,43.075063],[-1.3070018,43.0744426],[-1.3073515,43.0740663],[-1.3077105,43.0738919],[-1.3077981,43.0735114],[-1.3079254,43.0733699],[-1.3081447,43.0732103],[-1.3085812000000002,43.073045],[-1.3087435,43.0729119],[-1.3087723,43.0727409],[-1.3085221,43.0722486],[-1.3085169,43.0720857],[-1.3086413,43.0718258],[-1.3089069,43.0714799],[-1.308944,43.0711884],[-1.3089056,43.0710448],[-1.3084995,43.0705071],[-1.3084858,43.0703077],[-1.3096496,43.0696256],[-1.3098527,43.0693647],[-1.3098111,43.0691721],[-1.3090849,43.0688661],[-1.3086894,43.0689594],[-1.3082682,43.0688823],[-1.3078569,43.0689595],[-1.307644,43.0689533],[-1.3067842,43.0685756],[-1.3063819,43.0683179],[-1.3063601,43.0682147],[-1.3061823,43.0680077],[-1.3058845,43.0678932],[-1.3057081,43.0677175],[-1.3055588,43.0676522],[-1.3052602,43.0676761],[-1.3050066,43.0678053],[-1.3047277,43.0677091],[-1.3039781,43.0678126],[-1.3038943,43.0679886],[-1.3039195,43.0683056],[-1.3036575,43.0685504],[-1.3035776,43.0687408],[-1.3033156,43.0688227],[-1.3031282,43.0688282],[-1.3028768,43.0687405],[-1.3026172,43.0685546],[-1.3023801,43.068101],[-1.302449,43.0679028],[-1.302414,43.0677777],[-1.3023314,43.0677203],[-1.3020129,43.0676653],[-1.3018777,43.0675561],[-1.301427,43.0674385],[-1.3010746,43.0675127],[-1.3008205,43.0676835],[-1.3007419,43.0676843],[-1.3004682,43.0675411],[-1.3001019,43.06745],[-1.3000634,43.067252],[-1.299847,43.0670673],[-1.2994658,43.0673134],[-1.2993478,43.0673353],[-1.298711,43.0670622],[-1.2985425,43.0671268],[-1.2979209,43.0671085],[-1.2973078,43.0667598],[-1.2971773,43.0667303],[-1.2970644,43.0665457],[-1.2965727,43.0661354],[-1.2963556,43.0657481],[-1.2959924,43.0654745],[-1.2960141,43.0652297],[-1.2959065,43.0650171],[-1.2958487,43.0647011],[-1.2953779,43.0642876],[-1.2952808,43.0641644],[-1.2952589,43.0639654],[-1.2950066,43.0637859],[-1.2943804,43.0636756],[-1.29416,43.0640442],[-1.2939333,43.0640139],[-1.2937797,43.0640766],[-1.2936825,43.0640504],[-1.2934485,43.0641198],[-1.2927963,43.0640999],[-1.2921194,43.0636394],[-1.2919919,43.0636026],[-1.2914984,43.0636158],[-1.2913277,43.0636203],[-1.2902406,43.0635222],[-1.289932,43.0637078],[-1.2892691,43.0637527],[-1.289128,43.0638449],[-1.2888703,43.0638641],[-1.28863,43.063882],[-1.2876974,43.0637215],[-1.2873531,43.0634696],[-1.2873259,43.0631901],[-1.2871718,43.0628809],[-1.2867171,43.0627207],[-1.2865069,43.0625965],[-1.2860069,43.0624365],[-1.2857696,43.0623062],[-1.2856218,43.0619723],[-1.2852362,43.0614753],[-1.2849697,43.0613748],[-1.284552,43.0613482],[-1.2837417,43.0614202],[-1.2831721,43.0612817],[-1.2821537,43.0604727],[-1.2813326,43.0599477],[-1.2810365,43.0594937],[-1.2800433,43.0589262],[-1.2799076,43.0587714],[-1.2792814,43.0583786],[-1.2791748,43.0581789],[-1.2775974,43.0578248],[-1.2767842,43.0573768],[-1.275865,43.056218],[-1.2751096,43.0560125],[-1.2742158,43.0554664],[-1.2729216,43.0553854],[-1.272493,43.0554328],[-1.2710864,43.0552088],[-1.2706947,43.0549203],[-1.2699545,43.0540696],[-1.2697692,43.0536328],[-1.269638,43.0530825],[-1.2694934,43.0529008],[-1.2693111,43.0527848],[-1.2690628,43.0522137],[-1.268895,43.052034],[-1.2685837,43.0509406],[-1.2685657,43.0505122],[-1.2684862,43.0504585],[-1.2684112,43.0504496],[-1.2680089,43.0500145],[-1.2671337,43.0495571],[-1.2660446,43.0487231],[-1.265329,43.0480087],[-1.2649643,43.0475143],[-1.2646646,43.0469771],[-1.2644608,43.0464163],[-1.2640921,43.0447113],[-1.263581,43.044018]]},"properties":{"admin_level":"2","border_type":"nation","boundary":"administrative","name":"France - España","name:an":"Francia - Espanya","name:ar":"إسبانيا - فرنسا","name:ca":"França - Espanya","name:de":"Frankreich - Spanien","name:en":"France - Spain","name:es":"Francia - España","name:eu":"Frantzia - Espainia","name:fa":"اسپانیا - فرانسه","name:fr":"France - Espagne","name:gl":"Francia - España","name:lt":"Prancūzija - Ispanija","name:oc":"França - Espanha","name:pt":"França - Espanha","name:ru":"Франция - Испания","name:ur":"ہسپانیہ - فرانس","source":"cadastre-dgi-fr source : Direction Générale des Impôts - Cadastre. Mise à jour : 2009"}},
{"type":"Feature","geometry":{"type":"LineString","coordinates":[[-1.1740348,43.0376667],[-1.1725628,43.0372773],[-1.1722232,43.0371248],[-1.1717089,43.0368397],[-1.1714963,43.0366421],[-1.1713415,43.0365828],[-1.1712228,43.03657],[-1.1710095,43.0365377],[-1.1707936,43.0364926],[-1.1705826,43.036435],[-1.1704292,43.036334],[-1.1703183,43.0363061],[-1.1698186,43.036249],[-1.1693436,43.0361336],[-1.1691695,43.036124],[-1.1689887,43.036104],[-1.1687981,43.036072],[-1.1684397,43.0359348],[-1.168102,43.0359118],[-1.1679402,43.0358811],[-1.1678512,43.0358642],[-1.1675501,43.0357703],[-1.1671426,43.0355207],[-1.166824,43.0354212],[-1.1662828,43.0352008],[-1.166138,43.035181],[-1.1657189,43.0351977],[-1.1654533,43.0351683],[-1.1653474,43.0351942],[-1.1652317,43.0351608],[-1.1650158,43.0352082],[-1.1649145,43.0352132],[-1.1646125,43.035157],[-1.1643338,43.0350932],[-1.1642021,43.0350271],[-1.1641257,43.0350119],[-1.163979,43.0349163],[-1.1638696,43.0349178],[-1.1638051,43.0348605],[-1.163722,43.0348144],[-1.1636459,43.0347879],[-1.1635564,43.0346877],[-1.1635359,43.0346811],[-1.1634994,43.0346769],[-1.1634672,43.0346842],[-1.163437,43.0346399],[-1.1633924,43.0346036],[-1.1633434,43.0345797],[-1.1631352,43.0345465],[-1.1629469,43.0343403],[-1.1628811,43.0342125],[-1.1628405,43.0341029],[-1.1628161,43.0339883],[-1.1627275,43.0338987],[-1.162627,43.0338434],[-1.1624004,43.0337909],[-1.1621596,43.0337647],[-1.1619906,43.0337851],[-1.1618988,43.0337732],[-1.1617878,43.0336898],[-1.1616919,43.0336591],[-1.1616272,43.0336008],[-1.1615467,43.0335317],[-1.1614059,43.0334302],[-1.1610727,43.0332756],[-1.1609727,43.0330928],[-1.1609359,43.0329054],[-1.1608933,43.0328156],[-1.1607078,43.0326171],[-1.1606437,43.0324777],[-1.160618,43.0323367],[-1.1605931,43.0317967],[-1.1604157,43.0316118],[-1.1597596,43.0315005],[-1.1591603,43.0315532],[-1.1588441,43.0314934],[-1.1584869,43.0312649],[-1.1584699,43.0309596],[-1.1583942,43.0308341],[-1.1580085,43.0307518],[-1.1578239,43.0306134],[-1.15753,43.0306022],[-1.1571549,43.0307387],[-1.1567766,43.0306438],[-1.1566857,43.030586],[-1.1564441,43.0302343],[-1.1559708,43.0300797],[-1.155801,43.0296676],[-1.1554854,43.0295728],[-1.1551135,43.0293918],[-1.1548757,43.0293358],[-1.1544828,43.0293705],[-1.1540202,43.0292945],[-1.153665,43.0291148],[-1.1532299,43.0292463],[-1.1528033,43.0292323],[-1.1526428,43.0289967],[-1.1522934,43.0279367],[-1.1520966,43.0276025],[-1.1519136,43.0274603],[-1.1516729,43.0274401],[-1.1509175,43.0276524],[-1.1505331,43.0275068],[-1.1499047,43.0269952],[-1.149784,43.0269434],[-1.1492376,43.026884],[-1.1487322,43.0265795],[-1.1485144,43.0266083],[-1.1480859,43.0267556],[-1.1478202,43.0267456],[-1.1477614,43.0266473],[-1.1478533,43.0261465],[-1.1476521,43.0260331],[-1.1468141,43.0258918],[-1.1467237,43.0257803],[-1.1465862,43.0253673],[-1.1465006,43.0252802],[-1.1463429,43.0252533],[-1.1460813,43.0253696],[-1.1457225,43.025872],[-1.1456075,43.0259514],[-1.145425,43.0258791],[-1.1452528,43.0257389],[-1.1451798,43.0256007],[-1.1454691,43.0249733],[-1.1454477,43.0248844],[-1.144745,43.024224],[-1.144327,43.0240362],[-1.1441875,43.023667],[-1.1443574,43.0230638],[-1.1442376,43.0221089],[-1.1442813,43.0217745],[-1.1445497,43.0212789],[-1.1445127,43.0206309],[-1.1442506,43.0196008],[-1.1442368,43.0192643],[-1.1443702,43.0185817],[-1.1444073,43.0179876],[-1.144293,43.0176731],[-1.1438944,43.0172356],[-1.1438116,43.0170299],[-1.1441536,43.0160245],[-1.1441569,43.0156982],[-1.1439592,43.0148931],[-1.1440693,43.0141171],[-1.1442755,43.0135393],[-1.1441972,43.013346],[-1.1434211,43.0125371],[-1.142998,43.011993],[-1.1427549,43.0114117],[-1.1426425,43.0109055],[-1.1423248,43.0105261],[-1.1422773,43.0104693],[-1.1422029,43.0100344],[-1.1418726,43.0094825],[-1.1417192,43.009099],[-1.1416609,43.0076101]]},"properties":{"admin_level":"2","border_type":"nation","boundary":"administrative","name":"France - España","name:an":"Francia - Espanya","name:ar":"إسبانيا - فرنسا","name:ca":"França - Espanya","name:de":"Frankreich - Spanien","name:en":"France - Spain","name:es":"Francia - España","name:eu":"Frantzia - Espainia","name:fa":"اسپانیا - فرانسه","name:fr":"France - Espagne","name:gl":"Francia - España","name:lt":"Prancūzija - Ispanija","name:oc":"França - Espanha","name:pt":"França - Espanha","name:ru":"Франция - Испания","name:ur":"ہسپانیہ - فرانس","source":"cadastre-dgi-fr source : Direction Générale des Impôts - Cadastre. Mise à jour : 2009"}},
{"type":"Feature","geometry":{"type":"LineString","coordinates":[[-1.2617393,43.045862],[-1.2616521,43.0459325],[-1.26151,43.0459021],[-1.2613316,43.0458296],[-1.2611961,43.0457551],[-1.2611666,43.0456855],[-1.2611224,43.0456581],[-1.2610231,43.0456395],[-1.2609521,43.0455866],[-1.2609013,43.0455147],[-1.2608917,43.0454493],[-1.2609118,43.045416],[-1.2609574,43.0453435],[-1.2610258,43.0452994],[-1.2611076,43.0452729],[-1.2612149,43.045271],[-1.2612417,43.0451994],[-1.2613262,43.045169],[-1.2615435,43.0451612],[-1.261632,43.0451798],[-1.2616803,43.0452425],[-1.261632,43.0454229],[-1.2615274,43.0454346],[-1.2615623,43.0456473],[-1.2616923,43.04576],[-1.2617393,43.045862]]},"properties":{"archaeological_site":"fortification","fortification_type":"hill_fort","historic":"archaeological_site","historic:civilization":"modern","name":"Redoute de Bentarte / Bentarteko gotorlekua","name:eu":"Bentarteko gotorlekua","name:fr":"Redoute de Bentarte"}},
{"type":"Feature","geometry":{"type":"LineString","coordinates":[[-1.2834611,43.0235796],[-1.2832152,43.0238649],[-1.2827562,43.0236045],[-1.2827879,43.0233741],[-1.2823743,43.0231968],[-1.2821341,43.023178],[-1.2817646,43.0229657],[-1.2815463,43.0233442],[-1.2812307,43.0230811],[-1.2807355,43.0229929],[-1.2804299,43.0230831],[-1.2802383,43.0233421],[-1.2792425,43.0239511],[-1.2789821,43.0246522],[-1.2788771,43.0251803],[-1.2783765,43.0259907],[-1.2781867,43.0267979],[-1.2776173,43.0269911],[-1.2784802,43.0272744],[-1.2783438,43.0276549],[-1.2779374,43.0276733],[-1.2775519,43.0276229],[-1.2774779,43.0276701],[-1.2776233,43.0278408],[-1.2778899,43.0280771],[-1.2776107,43.0283659],[-1.277343,43.0282727],[-1.2771592,43.0276152],[-1.2768747,43.0273282],[-1.2759673,43.0276045],[-1.2762514,43.0283182],[-1.2755169,43.028347],[-1.2757228,43.0286265],[-1.2760267,43.0286604],[-1.2762433,43.0288955],[-1.2755647,43.0291126],[-1.2753946,43.0288554],[-1.2754322,43.028677],[-1.2753925,43.0284394],[-1.2749862,43.0281966],[-1.2745342,43.0279525],[-1.2735178,43.0279403],[-1.2732574,43.0278021],[-1.27348,43.0272064],[-1.2737557,43.0270433],[-1.2738412,43.0266353],[-1.2735934,43.0264695],[-1.273165,43.0267643],[-1.2724938,43.0266709],[-1.2721233,43.026752],[-1.2718839,43.0260427],[-1.2720771,43.0254409],[-1.2720962,43.0249855],[-1.2717157,43.0252291],[-1.2714009,43.0250043],[-1.2711202,43.0249218],[-1.2712271,43.0247134],[-1.2711291,43.024581],[-1.2706109,43.0248411],[-1.2705381,43.0254125],[-1.2707727,43.0255688],[-1.2707698,43.0257447],[-1.2704668,43.0257143],[-1.2703243,43.0255623],[-1.270106,43.0254614],[-1.2698238,43.025558],[-1.2697422,43.0254538],[-1.2695135,43.0254179],[-1.2694318,43.0254929],[-1.2692402,43.0254483],[-1.2688155,43.0255124],[-1.2687547,43.025723],[-1.2686388,43.0257371],[-1.2685349,43.0257089],[-1.2684473,43.0257599],[-1.2682498,43.0257686],[-1.268033,43.0257219],[-1.2676944,43.0256568],[-1.2675518,43.0256883],[-1.2674167,43.0256535],[-1.2673811,43.0255309],[-1.2675088,43.0253582],[-1.2674776,43.02519],[-1.267586,43.0250836],[-1.2677538,43.0251031],[-1.2679459,43.0249786],[-1.2680745,43.0247659],[-1.2680136,43.0246693],[-1.2678983,43.0246266],[-1.2677567,43.0246205],[-1.2676765,43.0244305],[-1.2680032,43.0243512],[-1.2680277,43.0240544],[-1.2672424,43.0243005],[-1.2668752,43.0244693],[-1.2666028,43.0243458],[-1.2665821,43.0242014],[-1.266189,43.0238705],[-1.2657062,43.0237479],[-1.2663999,43.0231228],[-1.2665621,43.0226067],[-1.2667644,43.0222715],[-1.2664646,43.0220331],[-1.2662387,43.0219664],[-1.2658522,43.0219664],[-1.2655301,43.0220055],[-1.2658072,43.0217148],[-1.2659112,43.0212936],[-1.2661636,43.0209679],[-1.2664086,43.0209145],[-1.2667901,43.020702],[-1.2667553,43.0202519],[-1.2664898,43.0199496],[-1.2666499,43.0195027],[-1.2662979,43.019392],[-1.2661735,43.0191193],[-1.2661304,43.0189716],[-1.2660687,43.0187894],[-1.2667689,43.0180585],[-1.2670392,43.0179641],[-1.2670095,43.0177697],[-1.2670763,43.0175808],[-1.2672936,43.0175322],[-1.2675337,43.0176785],[-1.2676555,43.017913],[-1.2678144,43.0179641],[-1.2678858,43.0181402],[-1.2681351,43.0183397],[-1.2683089,43.0183669],[-1.2683275,43.0184654],[-1.2682643,43.0185862],[-1.2682848,43.0187575],[-1.26845,43.0188756],[-1.2692577,43.018908],[-1.2693632,43.0187859],[-1.2696795,43.018837],[-1.2700567,43.01866],[-1.2707708,43.0182697],[-1.2710902,43.018115],[-1.2710531,43.0179532],[-1.2712461,43.0179771],[-1.2713605,43.0179858],[-1.2713887,43.0180639],[-1.2717213,43.0181323],[-1.2718951,43.0180487],[-1.2719782,43.0178533],[-1.2724104,43.0178555],[-1.2725247,43.0180357],[-1.2731024,43.0180949],[-1.2731588,43.0176503],[-1.2730236,43.0176394],[-1.2731098,43.0174386],[-1.2735077,43.017507],[-1.2737127,43.0176362],[-1.2736458,43.0177762],[-1.2738983,43.0180325],[-1.2741968,43.0178663],[-1.2743334,43.0179532],[-1.2742205,43.0183636],[-1.2745175,43.0187979],[-1.27491,43.0189576],[-1.2755165,43.0186684],[-1.2758432,43.0183209],[-1.2761134,43.0181147],[-1.2762619,43.0181581],[-1.2760719,43.0184795],[-1.2761936,43.0185489],[-1.2769213,43.0184925],[-1.2774321,43.0182916],[-1.2778665,43.0182209],[-1.2776519,43.0179475],[-1.2775286,43.01765],[-1.277692,43.0175251],[-1.277983,43.0176293],[-1.2780632,43.0175316],[-1.278286,43.0174882],[-1.2784285,43.0176489],[-1.278678,43.0177683],[-1.2788443,43.0179008],[-1.2789765,43.0179366],[-1.2791057,43.0180549],[-1.2791383,43.0181917],[-1.2789141,43.0183579],[-1.2788874,43.0184751],[-1.2793745,43.0185369],[-1.2792915,43.018583],[-1.2791981,43.0185999],[-1.279133,43.0186682],[-1.2790322,43.018725],[-1.2789713,43.0187803],[-1.2789114,43.018887],[-1.2789727,43.0194643],[-1.2793732,43.0197829],[-1.2797197,43.0197802],[-1.2798601,43.0195297],[-1.2800155,43.0189124],[-1.2799651,43.0186668],[-1.2795964,43.0183333],[-1.2794509,43.0180619],[-1.2792445,43.0179533],[-1.2790283,43.0176686],[-1.2791331,43.0176211],[-1.279243,43.0176167],[-1.2795997,43.017377],[-1.2797256,43.0173953],[-1.2804116,43.0173605],[-1.2804683,43.0174442],[-1.2806582,43.017443],[-1.2811363,43.0173041],[-1.2813056,43.0173388],[-1.2814868,43.0172009],[-1.2820392,43.0171043],[-1.2823971,43.0170228],[-1.2825173,43.0170543],[-1.282602,43.0171314],[-1.2826168,43.0173095],[-1.282334,43.017552],[-1.2819115,43.0179381],[-1.2818298,43.0184484],[-1.2813412,43.0188425],[-1.2810739,43.0188725],[-1.2808871,43.019117],[-1.2809443,43.0194662],[-1.280692,43.0198463],[-1.2806119,43.0200394],[-1.2806356,43.0202055],[-1.2809038,43.0205906],[-1.2809512,43.0212795],[-1.2810571,43.0216147],[-1.2811826,43.0218682],[-1.2813826,43.0222027],[-1.2815569,43.022321],[-1.2816451,43.0224515],[-1.2818889,43.0226598],[-1.2827687,43.0231255],[-1.283308,43.0233719],[-1.2834971,43.0234721],[-1.2834611,43.0235796]]},"properties":{"natural":"grassland","source":"Union européenne - SOeS, CORINE Land Cover, 2006."}},
{"type":"Feature","geometry":{"type":"LineString","coordinates":[[-1.1437197,43.0106408],[-1.1436096,43.010673],[-1.143586,43.0106299],[-1.1436962,43.0105977],[-1.1437197,43.0106408]]},"properties":{"building":"yes","capacity":"15","description:fr":"Cabane très propre et saine Une cheminée, une table, un grenier pour 10 dans la première partie. Un bas-flanc pour 5 dans un local attenant sans chauffage. Eau au ruisseau. Bois aux alentours","ele":"840","fireplace":"yes","name":"Egurgiko aterpea","name:eu":"Egurgiko aterpea","name:fr":"Refuge d'Egurguy","ref:refuges.info":"3745","tourism":"wilderness_hut"}},
{"type":"Feature","geometry":{"type":"LineString","coordinates":[[-1.1381791,43.0203013],[-1.1379786,43.02037],[-1.1376652,43.0204296],[-1.136794,43.0203929],[-1.1360607,43.02015],[-1.1351018,43.0197651],[-1.1343935,43.0194719],[-1.1336728,43.0192152],[-1.1330335,43.0189861],[-1.132131,43.0187662],[-1.1314039,43.0186516]]},"properties":{"natural":"cliff"}},
{"type":"Feature","geometry":{"type":"LineString","coordinates":[[-1.1289175,43.0218194],[-1.1286417,43.0222409],[-1.1281528,43.0224151],[-1.1274007,43.0227541],[-1.1267113,43.0233132],[-1.1258965,43.0239271],[-1.1254077,43.0242754],[-1.1244299,43.0245503],[-1.1236653,43.0247519],[-1.1227502,43.0249443],[-1.1219354,43.0250451],[-1.1206067,43.0249169],[-1.1196164,43.0247611],[-1.1186763,43.0245778],[-1.1182627,43.0244403]]},"properties":{"natural":"cliff"}},
{"type":"Feature","geometry":{"type":"LineString","coordinates":[[-1.1315373,43.0194916],[-1.1309168,43.0194595],[-1.130077,43.0195283],[-1.1297448,43.0196016]]},"properties":{"natural":"cliff"}},
{"type":"Feature","geometry":{"type":"LineString","coordinates":[[-1.1176359,43.0247152],[-1.1166456,43.0245045],[-1.1159562,43.0242937],[-1.1152918,43.0240005],[-1.1146902,43.0236339]]},"properties":{"natural":"cliff"}},
{"type":"Feature","geometry":{"type":"LineString","coordinates":[[-1.1293061,43.0200323],[-1.1287859,43.0202477],[-1.1287106,43.0204081],[-1.1287796,43.020541],[-1.1291619,43.0211412],[-1.1293875,43.0217507],[-1.129212,43.0223051]]},"properties":{"natural":"cliff"}},
{"type":"Feature","geometry":{"type":"LineString","coordinates":[[-1.1343983,43.0478373],[-1.1340453,43.0481939],[-1.1338661,43.0484035],[-1.1337475,43.048472],[-1.1337089,43.0484277],[-1.1336537,43.048329],[-1.1337144,43.0481436],[-1.1337907,43.0480215],[-1.1338079,43.0479939],[-1.1338302,43.0479582],[-1.1338366,43.0479387],[-1.1338516,43.0478935],[-1.1338688,43.0478413],[-1.1338633,43.0477325],[-1.1338495,43.0476398],[-1.1338605,43.0475491],[-1.1339129,43.0475269],[-1.1339653,43.0474624],[-1.1340839,43.0473556],[-1.1341804,43.0472367],[-1.1342438,43.0471158],[-1.1342973,43.047045],[-1.1343597,43.0469626],[-1.1345058,43.0468296],[-1.1345444,43.0467228],[-1.1345224,43.046616],[-1.1346106,43.0465576],[-1.1347319,43.0465011],[-1.1347706,43.0464064],[-1.134674,43.0463339],[-1.1345913,43.0463319],[-1.1345775,43.046221],[-1.1343845,43.0461686],[-1.1342218,43.0461787],[-1.1340039,43.0461243],[-1.1338219,43.0460719],[-1.1338109,43.0461364],[-1.1335682,43.0461223],[-1.1333752,43.0461021],[-1.1332015,43.0460094],[-1.1331187,43.0459248],[-1.1332373,43.045828],[-1.1333835,43.0457898],[-1.1336344,43.0458018],[-1.1337888,43.0457958],[-1.1338054,43.0457132],[-1.1337999,43.0456688],[-1.1338661,43.0455822],[-1.1338247,43.0454734],[-1.1337944,43.0454089],[-1.1338495,43.0453625],[-1.1339543,43.0453726],[-1.1340343,43.0453363],[-1.1341584,43.0453021],[-1.1342052,43.0453283],[-1.1343459,43.0453242],[-1.1344617,43.0452879],[-1.1345637,43.0452194],[-1.1347375,43.0451126],[-1.1347816,43.045034],[-1.1347071,43.0449131],[-1.1345362,43.0447216],[-1.1344782,43.0445947],[-1.1343817,43.044506],[-1.134299,43.0444637],[-1.1341418,43.044377],[-1.1340177,43.0443669],[-1.1339102,43.0444274],[-1.1337309,43.0445463],[-1.1335737,43.044641],[-1.1335103,43.0447075],[-1.1333421,43.0447841],[-1.133287,43.0447519],[-1.1333366,43.0446572],[-1.1334938,43.0444455],[-1.1336399,43.0443589],[-1.1337695,43.0441755],[-1.1337944,43.0440989],[-1.1336565,43.04398],[-1.13356,43.0439679],[-1.1334166,43.0439901],[-1.1333145,43.0439719],[-1.1334993,43.0439216],[-1.133673,43.0438671],[-1.1339791,43.0437623],[-1.1342687,43.043722],[-1.1344507,43.0436999],[-1.1347402,43.0435427],[-1.1348505,43.0432726],[-1.1348285,43.0430912],[-1.1348064,43.0429461],[-1.1348864,43.0428191],[-1.1350408,43.0427385],[-1.1350243,43.0426478],[-1.135209,43.0425954],[-1.1353441,43.042541],[-1.135351,43.0424054],[-1.1352903,43.0423006],[-1.1353014,43.0421655],[-1.1353813,43.0420365],[-1.1354255,43.0419398],[-1.1354779,43.041841],[-1.1356433,43.0417383],[-1.1358235,43.0415677],[-1.1360633,43.0413406],[-1.1364458,43.0412888],[-1.1365506,43.0413735],[-1.1365726,43.0414561],[-1.1364182,43.0416334],[-1.1362362,43.041839],[-1.1361287,43.0421272],[-1.1361976,43.042359],[-1.1363961,43.0424094],[-1.1365837,43.0425303],[-1.1367739,43.042617],[-1.1369642,43.0426573],[-1.1371104,43.0426794],[-1.1373006,43.0427863],[-1.1374358,43.0428749],[-1.137604,43.0429193],[-1.1377308,43.0428911],[-1.1378108,43.0429314],[-1.1379487,43.0429616],[-1.1380314,43.0429556],[-1.1376233,43.0430342],[-1.1373006,43.0430886],[-1.1370056,43.0431672],[-1.1367201,43.0434487],[-1.1367065,43.043711],[-1.1368019,43.0439201],[-1.1368382,43.0441956],[-1.13692,43.0443882],[-1.136979,43.0445409],[-1.1369518,43.0447069],[-1.1368609,43.0448828],[-1.1368518,43.0451384],[-1.1367383,43.0454272],[-1.1366928,43.0457227],[-1.1367246,43.0459583],[-1.1368155,43.0461774],[-1.1369518,43.0463766],[-1.1371059,43.0465778],[-1.1371425,43.0466256],[-1.1373288,43.0468015],[-1.1375009,43.0469744],[-1.1375468,43.0470206],[-1.1376694,43.0471866],[-1.137707,43.0471936],[-1.1378284,43.0472164],[-1.1379745000000002,43.0472805],[-1.1380449,43.0473114],[-1.1380782,43.047326],[-1.1380881,43.0473308],[-1.1381269,43.0473499],[-1.1383144,43.0474422],[-1.1385188,43.0475783],[-1.13876,43.047707],[-1.1388731,43.0477675],[-1.1390088,43.0478137],[-1.1390775,43.0478372],[-1.1390121,43.0479666],[-1.1385489,43.0479525],[-1.1379036,43.047745],[-1.1376529,43.0476192],[-1.1374375,43.0475112],[-1.1369743,43.0472895],[-1.1365965,43.0471646],[-1.1360174,43.0471384],[-1.1356396,43.0470517],[-1.135168,43.0471162],[-1.1349005,43.0472875],[-1.1346,43.0474386],[-1.1344698,43.0475456],[-1.1344431,43.0475676],[-1.1344014,43.0476019],[-1.1343983,43.0478373]]},"properties":{"managed":"yes","name":"Tourbière d'Archilondo","name:es":"Turbera de Archilondo","name:eu":"Arxilondoko zohikaztegi","natural":"wetland","wetland":"bog"}},
{"type":"Feature","geometry":{"type":"LineString","coordinates":[[-1.1360271,43.0468335],[-1.1359839,43.0468383],[-1.1359725,43.0467984],[-1.1360165,43.0467919],[-1.1360271,43.0468335]]},"properties":{"natural":"water"}},
{"type":"Feature","geometry":{"type":"LineString","coordinates":[[-1.1360165,43.0467919],[-1.1359725,43.0467984],[-1.1359538,43.0467448],[-1.1360018,43.0467359],[-1.1360165,43.0467919]]},"properties":{"name":"Fosse expérimentale","natural":"water"}},
{"type":"Feature","geometry":{"type":"LineString","coordinates":[[-1.2788946,43.0412345],[-1.2791152,43.0415893],[-1.2795919,43.0419248],[-1.2798832,43.0421376],[-1.2799096,43.0423699],[-1.2794948,43.0427118],[-1.2788063,43.0429892],[-1.2775176,43.0431827],[-1.2770674,43.0431956],[-1.276732,43.0430602],[-1.2766613,43.0428602],[-1.2767231,43.0427247],[-1.2766525,43.0425118],[-1.2765378,43.042286],[-1.2766349,43.0421247],[-1.2776235,43.0417119],[-1.2779148,43.0414796],[-1.278109,43.0413054],[-1.2783914,43.0412087],[-1.2788946,43.0412345]]},"properties":{"name":"Burdinkurutzeko Larrea","natural":"heath"}},
{"type":"Feature","geometry":{"type":"LineString","coordinates":[[-1.2436951,43.0560599],[-1.2434087,43.0557434],[-1.2431517,43.0552229],[-1.2429608,43.0549493],[-1.2423661,43.0546328],[-1.2420357,43.0544933],[-1.2416832,43.0543699],[-1.2414776,43.0541338],[-1.2414703,43.054005],[-1.2416318,43.0537958],[-1.2421017,43.0532378],[-1.2421164,43.0529373],[-1.2414996,43.0522398],[-1.2411913,43.0518857],[-1.2412206,43.0515423],[-1.2415143,43.0511989],[-1.2416465,43.0508233],[-1.2415584,43.0503618],[-1.2411325,43.0499433],[-1.2406773,43.0495892],[-1.2407654,43.0480867],[-1.2405892,43.0475394],[-1.2403836,43.0471853],[-1.239943,43.0467882],[-1.239385,43.0467453],[-1.2385479,43.0468204],[-1.2381514,43.046756],[-1.2377108000000002,43.0465306],[-1.2372115,43.0465199],[-1.2364038,43.0465092],[-1.2360073,43.0463589],[-1.2351703,43.0457257],[-1.2348178,43.0453501],[-1.2346269,43.0449959],[-1.2343479,43.0448779],[-1.2337311,43.044674],[-1.2331143,43.0442661],[-1.2326591,43.0441051],[-1.2316164,43.0440622],[-1.2313668,43.0442661],[-1.2304122,43.0442447],[-1.2291402,43.0443966],[-1.2291199,43.0440507],[-1.2295362,43.0439691],[-1.2293386,43.0436901],[-1.2304191,43.0437439],[-1.2313537,43.0436529],[-1.232039,43.0433645],[-1.2329528,43.0426359],[-1.2333267,43.0422565],[-1.2335343,43.042135],[-1.2339497,43.0420591],[-1.2344274,43.042302],[-1.2346143,43.0428332],[-1.2347181,43.0431975],[-1.2354035,43.0434707],[-1.2365457,43.0439109],[-1.2374595,43.0440475],[-1.2388094,43.0440627],[-1.2398271,43.0441993],[-1.2404917,43.0447457],[-1.2412186,43.0452617],[-1.2417793,43.0458688],[-1.2421739,43.0467339],[-1.24261,43.0476446],[-1.2424023,43.0492837],[-1.2422362,43.0497238],[-1.2420077,43.0502701],[-1.2419247,43.0510138],[-1.242257,43.0517574],[-1.2433369,43.0527287],[-1.2444376,43.0533205],[-1.2452683,43.0541097],[-1.2453514,43.0547926],[-1.2452476,43.0552478],[-1.2450422,43.055649],[-1.2450461,43.0557813],[-1.2446941,43.0560019],[-1.2443973,43.0559908],[-1.2440503,43.0559872],[-1.2436951,43.0560599]]},"properties":{"natural":"bare_rock"}},
{"type":"Feature","geometry":{"type":"LineString","coordinates":[[-1.1803946,43.0337821],[-1.1804799,43.0338089],[-1.1807482,43.0338059],[-1.1805266,43.0337331],[-1.1803801,43.0335721],[-1.1801977,43.033476],[-1.1800717,43.033427],[-1.1799706,43.0334014],[-1.1798741,43.0333373],[-1.1798559,43.0332084],[-1.1798409,43.0330999],[-1.1798184,43.0329911],[-1.1800203,43.0327504],[-1.1801992,43.0326778]]},"properties":{"natural":"cliff"}},
{"type":"Feature","geometry":{"type":"LineString","coordinates":[[-1.2420555,43.0467696],[-1.2420275,43.0466103],[-1.2419185,43.0464715],[-1.2418251,43.0463236],[-1.2417037,43.0463259],[-1.2416882,43.0462053],[-1.2416477,43.0460802],[-1.2415792,43.0459414],[-1.2414702,43.0458231],[-1.2413208,43.0457048],[-1.2412305,43.0456183],[-1.2411247,43.0455205],[-1.2409815,43.0454409],[-1.2407635,43.0453863]]},"properties":{"natural":"cliff"}},
{"type":"Feature","geometry":{"type":"LineString","coordinates":[[-1.2404724,43.045681],[-1.2404684,43.0456136],[-1.2403457,43.0456174],[-1.2403497,43.0456849],[-1.2404724,43.045681]]},"properties":{"historic":"ruins","historic:civilization":"modern","inscription":"Restos de un fuerte del siglo XVI, destruido ex-profeso.","ruins":"fort"}},
{"type":"Feature","geometry":{"type":"LineString","coordinates":[[-1.2639427,43.0443712],[-1.2638234,43.044285],[-1.2636356,43.044138],[-1.2635578,43.0440988],[-1.2635149,43.0440968],[-1.2635149,43.044134],[-1.26359,43.044186],[-1.2636812,43.0442546],[-1.2637885,43.0443183],[-1.263928,43.0444055],[-1.2639494,43.0444006],[-1.2639427,43.0443712]]},"properties":{"natural":"water","water":"pond"}},
{"type":"Feature","geometry":{"type":"LineString","coordinates":[[-1.1982527,43.037909],[-1.1982635,43.0378718],[-1.1982447,43.0378237],[-1.1982259,43.0377992],[-1.1981709,43.0377933],[-1.1981401,43.0378198],[-1.1981227,43.0378737],[-1.1981575,43.0379129],[-1.1981978,43.0379413],[-1.1982527,43.037909]]},"properties":{"natural":"water","water":"pond"}},
{"type":"Feature","geometry":{"type":"LineString","coordinates":[[-1.1799344,43.0334984],[-1.1800496,43.0335591],[-1.1801944,43.033638],[-1.180293,43.0337123],[-1.1803946,43.0337821]]},"properties":{"natural":"cliff"}},
{"type":"Feature","geometry":{"type":"LineString","coordinates":[[-1.1796209,43.0328137],[-1.1795158,43.0326887],[-1.179371,43.0325749],[-1.1792932,43.0325063],[-1.1791242,43.032424],[-1.1789713,43.0323201],[-1.1786763,43.0321868],[-1.1784563,43.0320142],[-1.1783356,43.0318515]]},"properties":{"natural":"cliff"}},
{"type":"Feature","geometry":{"type":"LineString","coordinates":[[-1.1745806,43.0347944],[-1.1740348,43.0376667]]},"properties":{"admin_level":"2","border_type":"nation","boundary":"administrative","name":"France - España","name:an":"Francia - Espanya","name:ar":"إسبانيا - فرنسا","name:ca":"França - Espanya","name:de":"Frankreich - Spanien","name:en":"France - Spain","name:es":"Francia - España","name:eu":"Frantzia - Espainia","name:fa":"اسپانیا - فرانسه","name:fr":"France - Espagne","name:gl":"Francia - España","name:lt":"Prancūzija - Ispanija","name:oc":"França - Espanha","name:pt":"França - Espanha","name:ru":"Франция - Испания","name:ur":"ہسپانیہ - فرانس"}},
{"type":"Feature","geometry":{"type":"LineString","coordinates":[[-1.1351871,43.0396848],[-1.135333,43.0396962],[-1.1354354,43.0396939],[-1.1354913,43.0395918],[-1.135513,43.0395328],[-1.1355347,43.0394625],[-1.1354633,43.0394194],[-1.1353516,43.0393695],[-1.1354354,43.0392901],[-1.1352833,43.0392334]]},"properties":{"natural":"cliff"}},
{"type":"Feature","geometry":{"type":"LineString","coordinates":[[-1.0874009,42.9767563],[-1.0863362,42.9767933],[-1.0855926,42.9768057],[-1.085525,42.9772508],[-1.0854086,42.9774764],[-1.0853097,42.9779134],[-1.0853942,42.9784574],[-1.0857491,42.9784142],[-1.0861463,42.9781669],[-1.0866617,42.9779134],[-1.0871518,42.977932],[-1.0875912,42.9780309],[-1.0880052,42.9780123],[-1.088208,42.977796],[-1.0879495,42.9769987],[-1.0874009,42.9767563]]},"properties":{"landuse":"meadow","name":"Akerreriako zabalguneak / Rasos de Akerreria","name:es":"Rasos de Akerreria","name:eu":"Akerreriako zabalguneak"}},
{"type":"Feature","geometry":{"type":"LineString","coordinates":[[-1.0578434,43.018566],[-1.0572475,43.0178116],[-1.0554069,43.016728],[-1.0551014,43.0159104],[-1.0568655,43.0154858],[-1.0547347,43.0142585],[-1.0543715,43.015376],[-1.0528122,43.0144903],[-1.052404,43.0129656],[-1.0511907,43.0115024],[-1.0561406,43.0092876],[-1.0579544,43.0091121],[-1.0581207,43.0091859],[-1.0586706,43.0092486],[-1.0609981,43.009537],[-1.0631168,43.0093393],[-1.0661679,43.0098943],[-1.0673739,43.0107675],[-1.0686645,43.0115739],[-1.0701319,43.0123736],[-1.0731142,43.0132565],[-1.0751944,43.0139062],[-1.0770132,43.0146305],[-1.0801341,43.0163551],[-1.0819257,43.0166239],[-1.0832165,43.017429],[-1.0832783,43.0184701],[-1.0817838,43.0199703],[-1.0817816,43.0199724],[-1.0811808,43.0207986],[-1.0818024,43.0216195],[-1.0813445,43.0228932],[-1.0809125,43.0239271],[-1.0808377,43.0240027],[-1.0803904,43.0242313],[-1.0799438,43.0243639],[-1.0795294,43.0244284],[-1.0788835,43.024476],[-1.0782783,43.0243596],[-1.0778897,43.024237],[-1.0774211,43.0240042],[-1.0772407,43.0239722],[-1.0768836,43.0240069],[-1.0764721,43.024136],[-1.0762591,43.0242754],[-1.0762157,43.0243638],[-1.0762459,43.0246014],[-1.0764564,43.0250283],[-1.0764435,43.0253526],[-1.0755036,43.0269123],[-1.0754282,43.0271345],[-1.0754492,43.0274632],[-1.0755831,43.0276128],[-1.0760481,43.0277189],[-1.0758421,43.0277185],[-1.0754585,43.0277178],[-1.0755283,43.0278629],[-1.0752493,43.0279492],[-1.0743497,43.0284401],[-1.071629,43.02887],[-1.0697367,43.0294113],[-1.0678645,43.0293141],[-1.0656809,43.028867],[-1.0630698,43.0283408],[-1.0616483,43.0279678],[-1.0596533,43.0282559],[-1.0574309,43.0283904],[-1.0556109,43.0283121],[-1.0559603,43.0269612],[-1.0576543,43.0255497],[-1.0605199,43.0238493],[-1.0621222,43.0226587],[-1.0632306,43.0229124],[-1.0641373,43.0234613],[-1.0646616,43.0227073],[-1.0652081,43.0215985],[-1.0670982,43.0210248],[-1.0698727,43.0213535],[-1.0720304,43.0216063],[-1.0748519,43.0217513],[-1.0764132,43.0218522],[-1.0774665,43.021668],[-1.0776583,43.0207615],[-1.0776251,43.0199701],[-1.0770091,43.0190603],[-1.0761189,43.0190235],[-1.0745817,43.0185521],[-1.073079,43.0171657],[-1.0698501,43.0166177],[-1.0657085,43.0156412],[-1.0626989,43.015802],[-1.0602253,43.0160109],[-1.0591773,43.016305],[-1.0594044,43.0171452],[-1.0590032,43.0178739],[-1.0578434,43.018566]]},"properties":{"natural":"wood"}},
{"type":"Feature","geometry":{"type":"LineString","coordinates":[[-1.1107251,43.0421194],[-1.110734,43.0421258],[-1.1107395,43.042134],[-1.1107409,43.042143],[-1.1107381,43.0421519],[-1.1107313,43.0421596],[-1.1107214,43.0421652],[-1.1107096,43.042168],[-1.1106978,43.0421679],[-1.1106868,43.0421651],[-1.1106775,43.0421599],[-1.1106709,43.0421527],[-1.1106677,43.0421445],[-1.1106683,43.0421359],[-1.1106725,43.0421279],[-1.11068,43.0421213],[-1.1106899,43.0421167],[-1.1107013,43.0421147],[-1.1107138,43.0421155],[-1.1107251,43.0421194]]},"properties":{"alt_name":"Okabeko mairu-baratzea","archaeological_site":"megalith","historic":"archaeological_site","material":"stone","megalith_type":"stone_circle","name":"Okabe harrespila / Cromlech d'Okabe","name:en":"Okabe stone circle","name:es":"Crómlech de Okabe","name:eu":"Okabe jentil-baratzea","name:fr":"Cromlech d'Okabe"}},
{"type":"Feature","geometry":{"type":"LineString","coordinates":[[-1.1096832,43.0418574],[-1.1096921,43.0418638],[-1.1096976,43.041872],[-1.109699,43.0418811],[-1.1096962,43.04189],[-1.1096894,43.0418977],[-1.1096795,43.0419033],[-1.1096676,43.0419061],[-1.1096559,43.041906],[-1.1096448,43.0419032],[-1.1096355,43.0418979],[-1.109629,43.0418908],[-1.1096258,43.0418825],[-1.1096264,43.041874],[-1.1096306,43.041866],[-1.1096381,43.0418594],[-1.109648,43.0418548],[-1.1096594,43.0418528],[-1.1096718,43.0418536],[-1.1096832,43.0418574]]},"properties":{"alt_name":"Okabeko mairu-baratzea","archaeological_site":"megalith","historic":"archaeological_site","material":"stone","megalith_type":"stone_circle","name":"Okabe harrespila / Cromlech d'Okabe","name:en":"Okabe stone circle","name:es":"Crómlech de Okabe","name:eu":"Okabe jentil-baratzea","name:fr":"Cromlech d'Okabe"}},
{"type":"Feature","geometry":{"type":"LineString","coordinates":[[-1.1095598,43.0420388],[-1.1095687,43.0420451],[-1.1095742,43.0420534],[-1.1095756,43.0420624],[-1.1095728,43.0420713],[-1.109566,43.042079],[-1.1095561,43.0420846],[-1.1095443,43.0420874],[-1.1095325,43.0420873],[-1.1095214,43.0420845],[-1.1095121,43.0420792],[-1.1095056,43.0420721],[-1.1095024,43.0420639],[-1.109503,43.0420553],[-1.1095072,43.0420473],[-1.1095147,43.0420407],[-1.1095246,43.0420361],[-1.109536,43.0420341],[-1.1095485,43.0420349],[-1.1095598,43.0420388]]},"properties":{"alt_name":"Okabeko mairu-baratzea","archaeological_site":"megalith","historic":"archaeological_site","material":"stone","megalith_type":"stone_circle","name":"Okabe harrespila / Cromlech d'Okabe","name:en":"Okabe stone circle","name:es":"Crómlech de Okabe","name:eu":"Okabe jentil-baratzea","name:fr":"Cromlech d'Okabe"}},
{"type":"Feature","geometry":{"type":"LineString","coordinates":[[-1.1095139,43.0421007],[-1.1095205,43.0420957],[-1.109529,43.0420926],[-1.1095384,43.0420915],[-1.1095478,43.0420928],[-1.1095561,43.0420962],[-1.1095625,43.0421013],[-1.1095663,43.0421077],[-1.1095672,43.0421146],[-1.1095648,43.0421216],[-1.1095594,43.0421275],[-1.1095516,43.0421319],[-1.1095423,43.0421341],[-1.1095326,43.042134],[-1.1095234,43.0421315],[-1.1095158,43.042127],[-1.1095107,43.0421209],[-1.1095087,43.0421139],[-1.1095098,43.042107],[-1.1095139,43.0421007]]},"properties":{"alt_name":"Okabeko mairu-baratzea","archaeological_site":"megalith","historic":"archaeological_site","material":"stone","megalith_type":"stone_circle","name":"Okabe harrespila / Cromlech d'Okabe","name:en":"Okabe stone circle","name:es":"Crómlech de Okabe","name:eu":"Okabe jentil-baratzea","name:fr":"Cromlech d'Okabe"}},
{"type":"Feature","geometry":{"type":"LineString","coordinates":[[-1.10958,43.0420763],[-1.109588,43.0420722],[-1.1095974,43.0420704],[-1.1096071,43.0420709],[-1.1096161,43.0420738],[-1.1096232,43.0420787],[-1.1096276,43.042085],[-1.109629,43.042092],[-1.1096272,43.0420987],[-1.1096226,43.0421046],[-1.1096157,43.0421091],[-1.1096072,43.0421118],[-1.1095979,43.0421124],[-1.1095889,43.0421108],[-1.109581,43.0421072],[-1.1095752,43.042102],[-1.1095718,43.0420956],[-1.1095715,43.0420888],[-1.1095743,43.042082],[-1.10958,43.0420763]]},"properties":{"alt_name":"Okabeko mairu-baratzea","archaeological_site":"megalith","historic":"archaeological_site","material":"stone","megalith_type":"stone_circle","name":"Okabe harrespila / Cromlech d'Okabe","name:en":"Okabe stone circle","name:es":"Crómlech de Okabe","name:eu":"Okabe jentil-baratzea","name:fr":"Cromlech d'Okabe"}},
{"type":"Feature","geometry":{"type":"LineString","coordinates":[[-1.1095605,43.0419984],[-1.1095669,43.0419944],[-1.1095747,43.041992],[-1.1095831,43.0419915],[-1.1095912,43.041993],[-1.1095984,43.0419962],[-1.1096038,43.042001],[-1.1096069,43.0420067],[-1.1096073,43.0420129],[-1.1096049,43.0420193],[-1.1095996,43.0420247],[-1.1095921,43.0420285],[-1.1095833,43.0420302],[-1.1095742,43.0420297],[-1.1095659,43.0420269],[-1.1095594,43.0420223],[-1.1095554,43.0420163],[-1.1095544,43.0420097],[-1.1095562,43.0420037],[-1.1095605,43.0419984]]},"properties":{"alt_name":"Okabeko mairu-baratzea","archaeological_site":"megalith","historic":"archaeological_site","material":"stone","megalith_type":"stone_circle","name":"Okabe harrespila / Cromlech d'Okabe","name:en":"Okabe stone circle","name:es":"Crómlech de Okabe","name:eu":"Okabe jentil-baratzea","name:fr":"Cromlech d'Okabe"}},
{"type":"Feature","geometry":{"type":"LineString","coordinates":[[-1.1095568,43.0419288],[-1.1095668,43.0419218],[-1.1095794,43.0419176],[-1.1095931,43.0419166],[-1.1096065,43.041919],[-1.1096181,43.0419245],[-1.1096266,43.0419324],[-1.1096311,43.041942],[-1.1096311,43.0419521],[-1.1096266,43.0419614],[-1.1096183,43.0419692],[-1.109607,43.0419746],[-1.109594,43.0419771],[-1.1095805,43.0419764],[-1.109568,43.0419726],[-1.1095579,43.041966],[-1.1095512,43.0419575],[-1.1095486,43.0419478],[-1.1095505,43.0419378],[-1.1095568,43.0419288]]},"properties":{"alt_name":"Okabeko mairu-baratzea","archaeological_site":"megalith","historic":"archaeological_site","material":"stone","megalith_type":"stone_circle","name":"Ilarrita harrespila / Cromlech d'Ilharrita","name:en":"Ilarrita stone circle","name:es":"Crómlech de Ilarrita","name:eu":"Ilarrita jentil-baratzea","name:fr":"Cromlech d'Ilharrita"}},
{"type":"Feature","geometry":{"type":"LineString","coordinates":[[-1.1094118,43.0424062],[-1.1094223,43.0424015],[-1.1094344,43.0423996],[-1.1094466,43.0424009],[-1.1094575,43.0424051],[-1.1094659,43.0424117],[-1.1094706,43.0424201],[-1.1094712,43.0424291],[-1.1094681,43.042437],[-1.1094617,43.0424439],[-1.1094527,43.0424489],[-1.109442,43.0424516],[-1.1094307,43.0424518],[-1.1094199,43.0424494],[-1.1094106,43.0424446],[-1.1094039,43.042438],[-1.1094002,43.0424302],[-1.1094002,43.0424219],[-1.1094041,43.0424133],[-1.1094118,43.0424062]]},"properties":{"alt_name":"Okabeko mairu-baratzea","archaeological_site":"megalith","historic":"archaeological_site","material":"stone","megalith_type":"stone_circle","name":"Okabe harrespila / Cromlech d'Okabe","name:en":"Okabe stone circle","name:es":"Crómlech de Okabe","name:eu":"Okabe jentil-baratzea","name:fr":"Cromlech d'Okabe"}},
{"type":"Feature","geometry":{"type":"LineString","coordinates":[[-1.1107042,43.0421728],[-1.1107094,43.0421695],[-1.1107157,43.0421677],[-1.1107224,43.0421673],[-1.110729,43.0421686],[-1.1107347,43.0421713],[-1.110739,43.0421752],[-1.1107413,43.0421798],[-1.1107416,43.0421848],[-1.1107394,43.0421899],[-1.1107351,43.0421941],[-1.1107291,43.0421971],[-1.1107221,43.0421984],[-1.1107148,43.0421979],[-1.1107083,43.0421956],[-1.1107031,43.0421919],[-1.1106999,43.0421871],[-1.1106992,43.0421819],[-1.1107007,43.042177],[-1.1107042,43.0421728]]},"properties":{"alt_name":"Okabeko mairu-baratzea","archaeological_site":"megalith","historic":"archaeological_site","material":"stone","megalith_type":"stone_circle","name":"Okabe harrespila / Cromlech d'Okabe","name:en":"Okabe stone circle","name:es":"Crómlech de Okabe","name:eu":"Okabe jentil-baratzea","name:fr":"Cromlech d'Okabe"}},
{"type":"Feature","geometry":{"type":"LineString","coordinates":[[-1.1110573,43.0426688],[-1.1093566,43.0427619],[-1.1086006,43.0424895],[-1.1091966,43.0416111],[-1.1107653,43.0415311],[-1.1110573,43.0426688]]},"properties":{"alt_name":"Okabeko mairu-baratzea","archaeological_site":"megalith","description":"Hilarrietako jentil baratzeak. Zirkuluan jarritako 26 harrespilek santutegi baten moduko ingurunea osatzen dute.","historic":"archaeological_site","material":"stone","megalith_type":"stone_circle","name":"Okabe harrespilak / Cromlechs d'Okabé","name:en":"Okabe stone circles","name:es":"Crómlechs de Okabe","name:eu":"Okabe jentil-baratzeak","name:fr":"Cromlechs d'Okabé"}},
{"type":"Feature","geometry":{"type":"LineString","coordinates":[[-1.2392585,43.0450405],[-1.2390226,43.0452918],[-1.2385507,43.045359],[-1.238043,43.0455957],[-1.2375232,43.0455548],[-1.2374032,43.0454525],[-1.2374232,43.0453269],[-1.2371793,43.045096],[-1.2366355,43.0451311],[-1.2364516,43.0453356],[-1.2361237,43.0450434],[-1.2360358,43.0447863],[-1.2363556,43.0446226],[-1.2369354,43.0442924],[-1.2377351,43.0441785],[-1.237843,43.0443567],[-1.2372313,43.0446314],[-1.2372913,43.0447162],[-1.237815,43.0444561],[-1.2383388,43.0443597],[-1.2387986,43.0445993],[-1.2386787,43.044836],[-1.2387986,43.0451077],[-1.2388866,43.0450814],[-1.2389266,43.0447132],[-1.2391545,43.0447454],[-1.2393504,43.0448798],[-1.2392585,43.0450405]]},"properties":{"natural":"bare_rock"}},
{"type":"Feature","geometry":{"type":"LineString","coordinates":[[-1.2836254,43.0459989],[-1.2837244,43.0459658],[-1.2837673,43.0457502],[-1.2835796,43.045609],[-1.283306,43.045613],[-1.2831236,43.0456718],[-1.2830874,43.0457167],[-1.2830324,43.0458325],[-1.2832416,43.0459109],[-1.2836254,43.0459989]]},"properties":{"natural":"water"}},
{"type":"Feature","geometry":{"type":"LineString","coordinates":[[-1.1806141,43.0333765],[-1.1809719,43.0334775],[-1.1811833,43.0335399],[-1.1814476,43.0337271],[-1.1816793,43.0340154],[-1.1816447,43.0342828]]},"properties":{"natural":"cliff"}},
{"type":"Feature","geometry":{"type":"LineString","coordinates":[[-1.2297587,43.0466087],[-1.2299053,43.0473421],[-1.2308172,43.0475528],[-1.2310879,43.0473636],[-1.2315221,43.0474323],[-1.2316286,43.0475544],[-1.2325541,43.0479752],[-1.2322763,43.0484578],[-1.2327445,43.0486129],[-1.2329147,43.048282],[-1.2330703,43.0479794],[-1.2333199,43.0473784],[-1.233408,43.0468526],[-1.2333346,43.0464233],[-1.2330115,43.0461765],[-1.232292,43.0462087],[-1.231778,43.0463267],[-1.2311612,43.0465521],[-1.2307059,43.0465843],[-1.2297587,43.0466087]]},"properties":{"natural":"bare_rock"}},
{"type":"Feature","geometry":{"type":"LineString","coordinates":[[-1.0901395,43.0103479],[-1.0899317,43.0104529],[-1.0894865,43.0104607],[-1.089288,43.0101548],[-1.0880756,43.0096801],[-1.0876787,43.0097703],[-1.0872763,43.0101038],[-1.0862732,43.0106019],[-1.0858172,43.0106882],[-1.0856456,43.010853],[-1.086032,43.0112596],[-1.0874135,43.0111017],[-1.0887345,43.0110449],[-1.0902161,43.0110264],[-1.0901395,43.0103479]]},"properties":{"natural":"grassland"}},
{"type":"Feature","geometry":{"type":"LineString","coordinates":[[-1.0872123,43.0310699],[-1.0870884,43.030824],[-1.0869468,43.03041],[-1.0867078,43.0301642],[-1.0863715,43.0299637],[-1.0862034,43.0296531],[-1.0862653,43.0294267],[-1.0863715,43.0291162],[-1.0861061,43.0287669],[-1.0855574,43.0286116],[-1.084699,43.0286504],[-1.0843981,43.0289609],[-1.083929,43.0291615],[-1.0836105,43.0296273],[-1.0831857,43.0298472],[-1.0830175,43.0300283],[-1.0833184,43.0303906],[-1.0835662,43.0306558],[-1.0839998,43.0305071],[-1.0840883,43.0306817],[-1.0840441,43.0308952],[-1.0842122,43.031031],[-1.0845043,43.0310052],[-1.0847167,43.0308823],[-1.0850176,43.0309146],[-1.0854954,43.031031],[-1.0860707,43.0311216],[-1.0864335,43.0313415],[-1.0866636,43.0314515],[-1.0870795,43.0314386],[-1.0871503,43.0312833],[-1.0872123,43.0310699]]},"properties":{"natural":"grassland"}},
{"type":"Feature","geometry":{"type":"LineString","coordinates":[[-1.0886896,43.0305486],[-1.0888014,43.0302291],[-1.0887709,43.0298278],[-1.0886286,43.0295231],[-1.0883744,43.0292853],[-1.0881508,43.029003],[-1.0881711,43.0287429],[-1.0884659,43.0286686],[-1.0886387,43.0285051],[-1.0886692,43.028349],[-1.0887404,43.0281632],[-1.0889132,43.0282153],[-1.0890657,43.0284753],[-1.0894215,43.02878],[-1.0898383,43.0289286],[-1.0902144,43.0288915],[-1.0906617,43.0288469],[-1.0908345,43.0291144],[-1.0907328,43.0294934],[-1.0906312,43.0298278],[-1.0903465,43.0302365],[-1.0901331,43.0304446],[-1.0896451,43.0305635],[-1.0892792,43.0306155],[-1.0889335,43.0306303],[-1.0886896,43.0305486]]},"properties":{"natural":"grassland"}},
{"type":"Feature","geometry":{"type":"LineString","coordinates":[[-1.1867166,43.0380178],[-1.1867447,43.0380011],[-1.1867769,43.0379698],[-1.186789,43.0379404],[-1.1867917,43.0379119],[-1.186787,43.0378855],[-1.1867206,43.0378865],[-1.1866897,43.03791],[-1.1866763,43.0379296],[-1.1866535,43.0379482],[-1.1866347,43.0379688],[-1.1866267,43.0379879],[-1.1866428,43.0380178],[-1.1866683,43.0380305],[-1.1866951,43.0380237],[-1.1867166,43.0380178]]},"properties":{"natural":"water","water":"reservoir"}},
{"type":"Feature","geometry":{"type":"MultiPolygon","coordinates":[[[[-1.1264913,43.0401426],[-1.1251387,43.0398716],[-1.1232144,43.0390615],[-1.1222724,43.0392988],[-1.1215112,43.0392784],[-1.1208312,43.0391835],[-1.1198472,43.0387207],[-1.1194531,43.038077],[-1.1192015,43.0373567],[-1.119847,43.0362657],[-1.1202853,43.0353973],[-1.1207504,43.0349777],[-1.1223658,43.0341162],[-1.1227593,43.0339326],[-1.1218867,43.033691],[-1.1208979,43.0337589],[-1.1196531,43.0336463],[-1.1190614,43.0333866],[-1.1187399,43.0331362],[-1.1188195,43.0328279],[-1.1196247,43.0319476],[-1.1190847,43.0317313],[-1.1177738,43.0321512],[-1.1171639,43.0324047],[-1.1151436,43.0324429],[-1.1123063,43.0330483],[-1.1120508,43.0337137],[-1.1122327,43.0340839],[-1.1121348,43.0344219],[-1.1121703,43.0348478],[-1.111426,43.0354983],[-1.1112094,43.0359328],[-1.1107326,43.0369006],[-1.111578,43.0373561],[-1.1120005,43.0373945],[-1.1127241,43.0379617],[-1.1136459,43.0395681],[-1.1150422,43.0393433],[-1.1155316,43.0393275],[-1.1165092,43.0390712],[-1.1167714,43.0389458],[-1.1186197,43.0399203],[-1.1195833,43.0408604],[-1.1195839,43.0416877],[-1.1178075,43.041709],[-1.116143,43.0419605],[-1.1153228,43.0421848],[-1.11614,43.0429318],[-1.1159196,43.0435504],[-1.1148222,43.0454922],[-1.1153115,43.0460879],[-1.1166789,43.0453783],[-1.1182866,43.0443823],[-1.119244,43.0439917],[-1.1202348,43.0447108],[-1.1210348,43.0447955],[-1.1221141,43.0444136],[-1.1232363,43.0439167],[-1.1242067,43.0437733],[-1.1246269,43.0435739],[-1.1252841,43.043311],[-1.1255841,43.0432024],[-1.125403,43.042228],[-1.1254773,43.0414253],[-1.1260683,43.0406509],[-1.1263441,43.0403452],[-1.1264913,43.0401426]]]]},"properties":{"CLC:code":"311","CLC:id":"FR-239358","CLC:year":"2006","landuse":"forest","leaf_type":"broadleaved","source":"Union européenne - SOeS, CORINE Land Cover, 2006."}},
{"type":"Feature","geometry":{"type":"MultiPolygon","coordinates":[[[[-1.1205342,43.0274941],[-1.12011,43.0263477],[-1.1179238,43.0252493],[-1.1170654,43.0252411],[-1.1160147,43.0257066],[-1.1142064,43.0265639],[-1.1134855,43.0267435],[-1.1122084,43.0264824],[-1.1105696,43.0266456],[-1.1100418,43.0272892],[-1.1094279,43.0289417],[-1.1094353,43.0301461],[-1.1096841,43.0310759],[-1.1121978,43.0315577],[-1.1136577,43.0311689],[-1.1144593,43.0304327],[-1.1150812,43.0297652],[-1.1163791,43.0297413],[-1.117548,43.0294069],[-1.1185647,43.0289874],[-1.1188112,43.0286018],[-1.1191412,43.0281775],[-1.1197207,43.027826],[-1.1205342,43.0274941]]]]},"properties":{"CLC:code":"311","CLC:id":"FR-239656","CLC:year":"2006","landuse":"forest","leaf_type":"broadleaved","source":"Union européenne - SOeS, CORINE Land Cover, 2006."}},
{"type":"Feature","geometry":{"type":"MultiPolygon","coordinates":[[[[-1.2617393,43.045862],[-1.2616923,43.04576],[-1.2615623,43.0456473],[-1.2615274,43.0454346],[-1.261632,43.0454229],[-1.2616803,43.0452425],[-1.261632,43.0451798],[-1.2615435,43.0451612],[-1.2613262,43.045169],[-1.2612417,43.0451994],[-1.2612149,43.045271],[-1.2611076,43.0452729],[-1.2610258,43.0452994],[-1.2609574,43.0453435],[-1.2609118,43.045416],[-1.2608917,43.0454493],[-1.2609013,43.0455147],[-1.2609521,43.0455866],[-1.2610231,43.0456395],[-1.2611224,43.0456581],[-1.2611666,43.0456855],[-1.2611961,43.0457551],[-1.2613316,43.0458296],[-1.26151,43.0459021],[-1.2616521,43.0459325],[-1.2617393,43.045862]]]]},"properties":{"archaeological_site":"fortification","fortification_type":"hill_fort","historic":"archaeological_site","historic:civilization":"modern","name":"Redoute de Bentarte / Bentarteko gotorlekua","name:eu":"Bentarteko gotorlekua","name:fr":"Redoute de Bentarte"}},
{"type":"Feature","geometry":{"type":"MultiPolygon","coordinates":[[[[-1.2834971,43.0234721],[-1.283308,43.0233719],[-1.2827687,43.0231255],[-1.2818889,43.0226598],[-1.2816451,43.0224515],[-1.2815569,43.022321],[-1.2813826,43.0222027],[-1.2811826,43.0218682],[-1.2810571,43.0216147],[-1.2809512,43.0212795],[-1.2809038,43.0205906],[-1.2806356,43.0202055],[-1.2806119,43.0200394],[-1.280692,43.0198463],[-1.2809443,43.0194662],[-1.2808871,43.019117],[-1.2810739,43.0188725],[-1.2813412,43.0188425],[-1.2818298,43.0184484],[-1.2819115,43.0179381],[-1.282334,43.017552],[-1.2826168,43.0173095],[-1.282602,43.0171314],[-1.2825173,43.0170543],[-1.2823971,43.0170228],[-1.2820392,43.0171043],[-1.2814868,43.0172009],[-1.2813056,43.0173388],[-1.2811363,43.0173041],[-1.2806582,43.017443],[-1.2804683,43.0174442],[-1.2804116,43.0173605],[-1.2797256,43.0173953],[-1.2795997,43.017377],[-1.279243,43.0176167],[-1.2791331,43.0176211],[-1.2790283,43.0176686],[-1.2792445,43.0179533],[-1.2794509,43.0180619],[-1.2795964,43.0183333],[-1.2799651,43.0186668],[-1.2800155,43.0189124],[-1.2798601,43.0195297],[-1.2797197,43.0197802],[-1.2793732,43.0197829],[-1.2789727,43.0194643],[-1.2789114,43.018887],[-1.2789713,43.0187803],[-1.2790322,43.018725],[-1.279133,43.0186682],[-1.2791981,43.0185999],[-1.2792915,43.018583],[-1.2793745,43.0185369],[-1.2788874,43.0184751],[-1.2789141,43.0183579],[-1.2791383,43.0181917],[-1.2791057,43.0180549],[-1.2789765,43.0179366],[-1.2788443,43.0179008],[-1.278678,43.0177683],[-1.2784285,43.0176489],[-1.278286,43.0174882],[-1.2780632,43.0175316],[-1.277983,43.0176293],[-1.277692,43.0175251],[-1.2775286,43.01765],[-1.2776519,43.0179475],[-1.2778665,43.0182209],[-1.2774321,43.0182916],[-1.2769213,43.0184925],[-1.2761936,43.0185489],[-1.2760719,43.0184795],[-1.2762619,43.0181581],[-1.2761134,43.0181147],[-1.2758432,43.0183209],[-1.2755165,43.0186684],[-1.27491,43.0189576],[-1.2745175,43.0187979],[-1.2742205,43.0183636],[-1.2743334,43.0179532],[-1.2741968,43.0178663],[-1.2738983,43.0180325],[-1.2736458,43.0177762],[-1.2737127,43.0176362],[-1.2735077,43.017507],[-1.2731098,43.0174386],[-1.2730236,43.0176394],[-1.2731588,43.0176503],[-1.2731024,43.0180949],[-1.2725247,43.0180357],[-1.2724104,43.0178555],[-1.2719782,43.0178533],[-1.2718951,43.0180487],[-1.2717213,43.0181323],[-1.2713887,43.0180639],[-1.2713605,43.0179858],[-1.2712461,43.0179771],[-1.2710531,43.0179532],[-1.2710902,43.018115],[-1.2707708,43.0182697],[-1.2700567,43.01866],[-1.2696795,43.018837],[-1.2693632,43.0187859],[-1.2692577,43.018908],[-1.26845,43.0188756],[-1.2682848,43.0187575],[-1.2682643,43.0185862],[-1.2683275,43.0184654],[-1.2683089,43.0183669],[-1.2681351,43.0183397],[-1.2678858,43.0181402],[-1.2678144,43.0179641],[-1.2676555,43.017913],[-1.2675337,43.0176785],[-1.2672936,43.0175322],[-1.2670763,43.0175808],[-1.2670095,43.0177697],[-1.2670392,43.0179641],[-1.2667689,43.0180585],[-1.2660687,43.0187894],[-1.2661304,43.0189716],[-1.2661735,43.0191193],[-1.2662979,43.019392],[-1.2666499,43.0195027],[-1.2664898,43.0199496],[-1.2667553,43.0202519],[-1.2667901,43.020702],[-1.2664086,43.0209145],[-1.2661636,43.0209679],[-1.2659112,43.0212936],[-1.2658072,43.0217148],[-1.2655301,43.0220055],[-1.2658522,43.0219664],[-1.2662387,43.0219664],[-1.2664646,43.0220331],[-1.2667644,43.0222715],[-1.2665621,43.0226067],[-1.2663999,43.0231228],[-1.2657062,43.0237479],[-1.266189,43.0238705],[-1.2665821,43.0242014],[-1.2666028,43.0243458],[-1.2668752,43.0244693],[-1.2672424,43.0243005],[-1.2680277,43.0240544],[-1.2680032,43.0243512],[-1.2676765,43.0244305],[-1.2677567,43.0246205],[-1.2678983,43.0246266],[-1.2680136,43.0246693],[-1.2680745,43.0247659],[-1.2679459,43.0249786],[-1.2677538,43.0251031],[-1.267586,43.0250836],[-1.2674776,43.02519],[-1.2675088,43.0253582],[-1.2673811,43.0255309],[-1.2674167,43.0256535],[-1.2675518,43.0256883],[-1.2676944,43.0256568],[-1.268033,43.0257219],[-1.2682498,43.0257686],[-1.2684473,43.0257599],[-1.2685349,43.0257089],[-1.2686388,43.0257371],[-1.2687547,43.025723],[-1.2688155,43.0255124],[-1.2692402,43.0254483],[-1.2694318,43.0254929],[-1.2695135,43.0254179],[-1.2697422,43.0254538],[-1.2698238,43.025558],[-1.270106,43.0254614],[-1.2703243,43.0255623],[-1.2704668,43.0257143],[-1.2707698,43.0257447],[-1.2707727,43.0255688],[-1.2705381,43.0254125],[-1.2706109,43.0248411],[-1.2711291,43.024581],[-1.2712271,43.0247134],[-1.2711202,43.0249218],[-1.2714009,43.0250043],[-1.2717157,43.0252291],[-1.2720962,43.0249855],[-1.2720771,43.0254409],[-1.2718839,43.0260427],[-1.2721233,43.026752],[-1.2724938,43.0266709],[-1.273165,43.0267643],[-1.2735934,43.0264695],[-1.2738412,43.0266353],[-1.2737557,43.0270433],[-1.27348,43.0272064],[-1.2732574,43.0278021],[-1.2735178,43.0279403],[-1.2745342,43.0279525],[-1.2749862,43.0281966],[-1.2753925,43.0284394],[-1.2754322,43.028677],[-1.2753946,43.0288554],[-1.2755647,43.0291126],[-1.2762433,43.0288955],[-1.2760267,43.0286604],[-1.2757228,43.0286265],[-1.2755169,43.028347],[-1.2762514,43.0283182],[-1.2759673,43.0276045],[-1.2768747,43.0273282],[-1.2771592,43.0276152],[-1.277343,43.0282727],[-1.2776107,43.0283659],[-1.2778899,43.0280771],[-1.2776233,43.0278408],[-1.2774779,43.0276701],[-1.2775519,43.0276229],[-1.2779374,43.0276733],[-1.2783438,43.0276549],[-1.2784802,43.0272744],[-1.2776173,43.0269911],[-1.2781867,43.0267979],[-1.2783765,43.0259907],[-1.2788771,43.0251803],[-1.2789821,43.0246522],[-1.2792425,43.0239511],[-1.2802383,43.0233421],[-1.2804299,43.0230831],[-1.2807355,43.0229929],[-1.2812307,43.0230811],[-1.2815463,43.0233442],[-1.2817646,43.0229657],[-1.2821341,43.023178],[-1.2823743,43.0231968],[-1.2827879,43.0233741],[-1.2827562,43.0236045],[-1.2832152,43.0238649],[-1.2834611,43.0235796],[-1.2834971,43.0234721]]]]},"properties":{"natural":"grassland","source":"Union européenne - SOeS, CORINE Land Cover, 2006."}},
{"type":"Feature","geometry":{"type":"MultiPolygon","coordinates":[[[[-1.1437197,43.0106408],[-1.1436962,43.0105977],[-1.143586,43.0106299],[-1.1436096,43.010673],[-1.1437197,43.0106408]]]]},"properties":{"building":"yes","capacity":"15","description:fr":"Cabane très propre et saine Une cheminée, une table, un grenier pour 10 dans la première partie. Un bas-flanc pour 5 dans un local attenant sans chauffage. Eau au ruisseau. Bois aux alentours","ele":"840","fireplace":"yes","name":"Egurgiko aterpea","name:eu":"Egurgiko aterpea","name:fr":"Refuge d'Egurguy","ref:refuges.info":"3745","tourism":"wilderness_hut"}},
{"type":"Feature","geometry":{"type":"MultiPolygon","coordinates":[[[[-1.1390775,43.0478372],[-1.1390088,43.0478137],[-1.1388731,43.0477675],[-1.13876,43.047707],[-1.1385188,43.0475783],[-1.1383144,43.0474422],[-1.1381269,43.0473499],[-1.1380881,43.0473308],[-1.1380782,43.047326],[-1.1380449,43.0473114],[-1.1379745000000002,43.0472805],[-1.1378284,43.0472164],[-1.137707,43.0471936],[-1.1376694,43.0471866],[-1.1375468,43.0470206],[-1.1375009,43.0469744],[-1.1373288,43.0468015],[-1.1371425,43.0466256],[-1.1371059,43.0465778],[-1.1369518,43.0463766],[-1.1368155,43.0461774],[-1.1367246,43.0459583],[-1.1366928,43.0457227],[-1.1367383,43.0454272],[-1.1368518,43.0451384],[-1.1368609,43.0448828],[-1.1369518,43.0447069],[-1.136979,43.0445409],[-1.13692,43.0443882],[-1.1368382,43.0441956],[-1.1368019,43.0439201],[-1.1367065,43.043711],[-1.1367201,43.0434487],[-1.1370056,43.0431672],[-1.1373006,43.0430886],[-1.1376233,43.0430342],[-1.1380314,43.0429556],[-1.1379487,43.0429616],[-1.1378108,43.0429314],[-1.1377308,43.0428911],[-1.137604,43.0429193],[-1.1374358,43.0428749],[-1.1373006,43.0427863],[-1.1371104,43.0426794],[-1.1369642,43.0426573],[-1.1367739,43.042617],[-1.1365837,43.0425303],[-1.1363961,43.0424094],[-1.1361976,43.042359],[-1.1361287,43.0421272],[-1.1362362,43.041839],[-1.1364182,43.0416334],[-1.1365726,43.0414561],[-1.1365506,43.0413735],[-1.1364458,43.0412888],[-1.1360633,43.0413406],[-1.1358235,43.0415677],[-1.1356433,43.0417383],[-1.1354779,43.041841],[-1.1354255,43.0419398],[-1.1353813,43.0420365],[-1.1353014,43.0421655],[-1.1352903,43.0423006],[-1.135351,43.0424054],[-1.1353441,43.042541],[-1.135209,43.0425954],[-1.1350243,43.0426478],[-1.1350408,43.0427385],[-1.1348864,43.0428191],[-1.1348064,43.0429461],[-1.1348285,43.0430912],[-1.1348505,43.0432726],[-1.1347402,43.0435427],[-1.1344507,43.0436999],[-1.1342687,43.043722],[-1.1339791,43.0437623],[-1.133673,43.0438671],[-1.1334993,43.0439216],[-1.1333145,43.0439719],[-1.1334166,43.0439901],[-1.13356,43.0439679],[-1.1336565,43.04398],[-1.1337944,43.0440989],[-1.1337695,43.0441755],[-1.1336399,43.0443589],[-1.1334938,43.0444455],[-1.1333366,43.0446572],[-1.133287,43.0447519],[-1.1333421,43.0447841],[-1.1335103,43.0447075],[-1.1335737,43.044641],[-1.1337309,43.0445463],[-1.1339102,43.0444274],[-1.1340177,43.0443669],[-1.1341418,43.044377],[-1.134299,43.0444637],[-1.1343817,43.044506],[-1.1344782,43.0445947],[-1.1345362,43.0447216],[-1.1347071,43.0449131],[-1.1347816,43.045034],[-1.1347375,43.0451126],[-1.1345637,43.0452194],[-1.1344617,43.0452879],[-1.1343459,43.0453242],[-1.1342052,43.0453283],[-1.1341584,43.0453021],[-1.1340343,43.0453363],[-1.1339543,43.0453726],[-1.1338495,43.0453625],[-1.1337944,43.0454089],[-1.1338247,43.0454734],[-1.1338661,43.0455822],[-1.1337999,43.0456688],[-1.1338054,43.0457132],[-1.1337888,43.0457958],[-1.1336344,43.0458018],[-1.1333835,43.0457898],[-1.1332373,43.045828],[-1.1331187,43.0459248],[-1.1332015,43.0460094],[-1.1333752,43.0461021],[-1.1335682,43.0461223],[-1.1338109,43.0461364],[-1.1338219,43.0460719],[-1.1340039,43.0461243],[-1.1342218,43.0461787],[-1.1343845,43.0461686],[-1.1345775,43.046221],[-1.1345913,43.0463319],[-1.134674,43.0463339],[-1.1347706,43.0464064],[-1.1347319,43.0465011],[-1.1346106,43.0465576],[-1.1345224,43.046616],[-1.1345444,43.0467228],[-1.1345058,43.0468296],[-1.1343597,43.0469626],[-1.1342973,43.047045],[-1.1342438,43.0471158],[-1.1341804,43.0472367],[-1.1340839,43.0473556],[-1.1339653,43.0474624],[-1.1339129,43.0475269],[-1.1338605,43.0475491],[-1.1338495,43.0476398],[-1.1338633,43.0477325],[-1.1338688,43.0478413],[-1.1338516,43.0478935],[-1.1338366,43.0479387],[-1.1338302,43.0479582],[-1.1338079,43.0479939],[-1.1337907,43.0480215],[-1.1337144,43.0481436],[-1.1336537,43.048329],[-1.1337089,43.0484277],[-1.1337475,43.048472],[-1.1338661,43.0484035],[-1.1340453,43.0481939],[-1.1343983,43.0478373],[-1.1344014,43.0476019],[-1.1344431,43.0475676],[-1.1344698,43.0475456],[-1.1346,43.0474386],[-1.1349005,43.0472875],[-1.135168,43.0471162],[-1.1356396,43.0470517],[-1.1360174,43.0471384],[-1.1365965,43.0471646],[-1.1369743,43.0472895],[-1.1374375,43.0475112],[-1.1376529,43.0476192],[-1.1379036,43.047745],[-1.1385489,43.0479525],[-1.1390121,43.0479666],[-1.1390775,43.0478372]]]]},"properties":{"managed":"yes","name":"Tourbière d'Archilondo","name:es":"Turbera de Archilondo","name:eu":"Arxilondoko zohikaztegi","natural":"wetland","wetland":"bog"}},
{"type":"Feature","geometry":{"type":"MultiPolygon","coordinates":[[[[-1.1360271,43.0468335],[-1.1360165,43.0467919],[-1.1359725,43.0467984],[-1.1359839,43.0468383],[-1.1360271,43.0468335]]]]},"properties":{"natural":"water"}},
{"type":"Feature","geometry":{"type":"MultiPolygon","coordinates":[[[[-1.1360165,43.0467919],[-1.1360018,43.0467359],[-1.1359538,43.0467448],[-1.1359725,43.0467984],[-1.1360165,43.0467919]]]]},"properties":{"name":"Fosse expérimentale","natural":"water"}},
{"type":"Feature","geometry":{"type":"MultiPolygon","coordinates":[[[[-1.2799096,43.0423699],[-1.2798832,43.0421376],[-1.2795919,43.0419248],[-1.2791152,43.0415893],[-1.2788946,43.0412345],[-1.2783914,43.0412087],[-1.278109,43.0413054],[-1.2779148,43.0414796],[-1.2776235,43.0417119],[-1.2766349,43.0421247],[-1.2765378,43.042286],[-1.2766525,43.0425118],[-1.2767231,43.0427247],[-1.2766613,43.0428602],[-1.276732,43.0430602],[-1.2770674,43.0431956],[-1.2775176,43.0431827],[-1.2788063,43.0429892],[-1.2794948,43.0427118],[-1.2799096,43.0423699]]]]},"properties":{"name":"Burdinkurutzeko Larrea","natural":"heath"}},
{"type":"Feature","geometry":{"type":"MultiPolygon","coordinates":[[[[-1.2453514,43.0547926],[-1.2452683,43.0541097],[-1.2444376,43.0533205],[-1.2433369,43.0527287],[-1.242257,43.0517574],[-1.2419247,43.0510138],[-1.2420077,43.0502701],[-1.2422362,43.0497238],[-1.2424023,43.0492837],[-1.24261,43.0476446],[-1.2421739,43.0467339],[-1.2417793,43.0458688],[-1.2412186,43.0452617],[-1.2404917,43.0447457],[-1.2398271,43.0441993],[-1.2388094,43.0440627],[-1.2374595,43.0440475],[-1.2365457,43.0439109],[-1.2354035,43.0434707],[-1.2347181,43.0431975],[-1.2346143,43.0428332],[-1.2344274,43.042302],[-1.2339497,43.0420591],[-1.2335343,43.042135],[-1.2333267,43.0422565],[-1.2329528,43.0426359],[-1.232039,43.0433645],[-1.2313537,43.0436529],[-1.2304191,43.0437439],[-1.2293386,43.0436901],[-1.2295362,43.0439691],[-1.2291199,43.0440507],[-1.2291402,43.0443966],[-1.2304122,43.0442447],[-1.2313668,43.0442661],[-1.2316164,43.0440622],[-1.2326591,43.0441051],[-1.2331143,43.0442661],[-1.2337311,43.044674],[-1.2343479,43.0448779],[-1.2346269,43.0449959],[-1.2348178,43.0453501],[-1.2351703,43.0457257],[-1.2360073,43.0463589],[-1.2364038,43.0465092],[-1.2372115,43.0465199],[-1.2377108000000002,43.0465306],[-1.2381514,43.046756],[-1.2385479,43.0468204],[-1.239385,43.0467453],[-1.239943,43.0467882],[-1.2403836,43.0471853],[-1.2405892,43.0475394],[-1.2407654,43.0480867],[-1.2406773,43.0495892],[-1.2411325,43.0499433],[-1.2415584,43.0503618],[-1.2416465,43.0508233],[-1.2415143,43.0511989],[-1.2412206,43.0515423],[-1.2411913,43.0518857],[-1.2414996,43.0522398],[-1.2421164,43.0529373],[-1.2421017,43.0532378],[-1.2416318,43.0537958],[-1.2414703,43.054005],[-1.2414776,43.0541338],[-1.2416832,43.0543699],[-1.2420357,43.0544933],[-1.2423661,43.0546328],[-1.2429608,43.0549493],[-1.2431517,43.0552229],[-1.2434087,43.0557434],[-1.2436951,43.0560599],[-1.2440503,43.0559872],[-1.2443973,43.0559908],[-1.2446941,43.0560019],[-1.2450461,43.0557813],[-1.2450422,43.055649],[-1.2452476,43.0552478],[-1.2453514,43.0547926]]]]},"properties":{"natural":"bare_rock"}},
{"type":"Feature","geometry":{"type":"MultiPolygon","coordinates":[[[[-1.2404724,43.045681],[-1.2404684,43.0456136],[-1.2403457,43.0456174],[-1.2403497,43.0456849],[-1.2404724,43.045681]]]]},"properties":{"historic":"ruins","historic:civilization":"modern","inscription":"Restos de un fuerte del siglo XVI, destruido ex-profeso.","ruins":"fort"}},
{"type":"Feature","geometry":{"type":"MultiPolygon","coordinates":[[[[-1.2639494,43.0444006],[-1.2639427,43.0443712],[-1.2638234,43.044285],[-1.2636356,43.044138],[-1.2635578,43.0440988],[-1.2635149,43.0440968],[-1.2635149,43.044134],[-1.26359,43.044186],[-1.2636812,43.0442546],[-1.2637885,43.0443183],[-1.263928,43.0444055],[-1.2639494,43.0444006]]]]},"properties":{"natural":"water","water":"pond"}},
{"type":"Feature","geometry":{"type":"MultiPolygon","coordinates":[[[[-1.1982635,43.0378718],[-1.1982447,43.0378237],[-1.1982259,43.0377992],[-1.1981709,43.0377933],[-1.1981401,43.0378198],[-1.1981227,43.0378737],[-1.1981575,43.0379129],[-1.1981978,43.0379413],[-1.1982527,43.037909],[-1.1982635,43.0378718]]]]},"properties":{"natural":"water","water":"pond"}},
{"type":"Feature","geometry":{"type":"MultiPolygon","coordinates":[[[[-1.088208,42.977796],[-1.0879495,42.9769987],[-1.0874009,42.9767563],[-1.0863362,42.9767933],[-1.0855926,42.9768057],[-1.085525,42.9772508],[-1.0854086,42.9774764],[-1.0853097,42.9779134],[-1.0853942,42.9784574],[-1.0857491,42.9784142],[-1.0861463,42.9781669],[-1.0866617,42.9779134],[-1.0871518,42.977932],[-1.0875912,42.9780309],[-1.0880052,42.9780123],[-1.088208,42.977796]]]]},"properties":{"landuse":"meadow","name":"Akerreriako zabalguneak / Rasos de Akerreria","name:es":"Rasos de Akerreria","name:eu":"Akerreriako zabalguneak"}},
{"type":"Feature","geometry":{"type":"MultiPolygon","coordinates":[[[[-1.0832783,43.0184701],[-1.0832165,43.017429],[-1.0819257,43.0166239],[-1.0801341,43.0163551],[-1.0770132,43.0146305],[-1.0751944,43.0139062],[-1.0731142,43.0132565],[-1.0701319,43.0123736],[-1.0686645,43.0115739],[-1.0673739,43.0107675],[-1.0661679,43.0098943],[-1.0631168,43.0093393],[-1.0609981,43.009537],[-1.0586706,43.0092486],[-1.0581207,43.0091859],[-1.0579544,43.0091121],[-1.0561406,43.0092876],[-1.0511907,43.0115024],[-1.052404,43.0129656],[-1.0528122,43.0144903],[-1.0543715,43.015376],[-1.0547347,43.0142585],[-1.0568655,43.0154858],[-1.0551014,43.0159104],[-1.0554069,43.016728],[-1.0572475,43.0178116],[-1.0578434,43.018566],[-1.0590032,43.0178739],[-1.0594044,43.0171452],[-1.0591773,43.016305],[-1.0602253,43.0160109],[-1.0626989,43.015802],[-1.0657085,43.0156412],[-1.0698501,43.0166177],[-1.073079,43.0171657],[-1.0745817,43.0185521],[-1.0761189,43.0190235],[-1.0770091,43.0190603],[-1.0776251,43.0199701],[-1.0776583,43.0207615],[-1.0774665,43.021668],[-1.0764132,43.0218522],[-1.0748519,43.0217513],[-1.0720304,43.0216063],[-1.0698727,43.0213535],[-1.0670982,43.0210248],[-1.0652081,43.0215985],[-1.0646616,43.0227073],[-1.0641373,43.0234613],[-1.0632306,43.0229124],[-1.0621222,43.0226587],[-1.0605199,43.0238493],[-1.0576543,43.0255497],[-1.0559603,43.0269612],[-1.0556109,43.0283121],[-1.0574309,43.0283904],[-1.0596533,43.0282559],[-1.0616483,43.0279678],[-1.0630698,43.0283408],[-1.0656809,43.028867],[-1.0678645,43.0293141],[-1.0697367,43.0294113],[-1.071629,43.02887],[-1.0743497,43.0284401],[-1.0752493,43.0279492],[-1.0755283,43.0278629],[-1.0754585,43.0277178],[-1.0758421,43.0277185],[-1.0760481,43.0277189],[-1.0755831,43.0276128],[-1.0754492,43.0274632],[-1.0754282,43.0271345],[-1.0755036,43.0269123],[-1.0764435,43.0253526],[-1.0764564,43.0250283],[-1.0762459,43.0246014],[-1.0762157,43.0243638],[-1.0762591,43.0242754],[-1.0764721,43.024136],[-1.0768836,43.0240069],[-1.0772407,43.0239722],[-1.0774211,43.0240042],[-1.0778897,43.024237],[-1.0782783,43.0243596],[-1.0788835,43.024476],[-1.0795294,43.0244284],[-1.0799438,43.0243639],[-1.0803904,43.0242313],[-1.0808377,43.0240027],[-1.0809125,43.0239271],[-1.0813445,43.0228932],[-1.0818024,43.0216195],[-1.0811808,43.0207986],[-1.0817816,43.0199724],[-1.0817838,43.0199703],[-1.0832783,43.0184701]]]]},"properties":{"natural":"wood"}},
{"type":"Feature","geometry":{"type":"MultiPolygon","coordinates":[[[[-1.1107409,43.042143],[-1.1107395,43.042134],[-1.110734,43.0421258],[-1.1107251,43.0421194],[-1.1107138,43.0421155],[-1.1107013,43.0421147],[-1.1106899,43.0421167],[-1.11068,43.0421213],[-1.1106725,43.0421279],[-1.1106683,43.0421359],[-1.1106677,43.0421445],[-1.1106709,43.0421527],[-1.1106775,43.0421599],[-1.1106868,43.0421651],[-1.1106978,43.0421679],[-1.1107096,43.042168],[-1.1107214,43.0421652],[-1.1107313,43.0421596],[-1.1107381,43.0421519],[-1.1107409,43.042143]]]]},"properties":{"alt_name":"Okabeko mairu-baratzea","archaeological_site":"megalith","historic":"archaeological_site","material":"stone","megalith_type":"stone_circle","name":"Okabe harrespila / Cromlech d'Okabe","name:en":"Okabe stone circle","name:es":"Crómlech de Okabe","name:eu":"Okabe jentil-baratzea","name:fr":"Cromlech d'Okabe"}},
{"type":"Feature","geometry":{"type":"MultiPolygon","coordinates":[[[[-1.109699,43.0418811],[-1.1096976,43.041872],[-1.1096921,43.0418638],[-1.1096832,43.0418574],[-1.1096718,43.0418536],[-1.1096594,43.0418528],[-1.109648,43.0418548],[-1.1096381,43.0418594],[-1.1096306,43.041866],[-1.1096264,43.041874],[-1.1096258,43.0418825],[-1.109629,43.0418908],[-1.1096355,43.0418979],[-1.1096448,43.0419032],[-1.1096559,43.041906],[-1.1096676,43.0419061],[-1.1096795,43.0419033],[-1.1096894,43.0418977],[-1.1096962,43.04189],[-1.109699,43.0418811]]]]},"properties":{"alt_name":"Okabeko mairu-baratzea","archaeological_site":"megalith","historic":"archaeological_site","material":"stone","megalith_type":"stone_circle","name":"Okabe harrespila / Cromlech d'Okabe","name:en":"Okabe stone circle","name:es":"Crómlech de Okabe","name:eu":"Okabe jentil-baratzea","name:fr":"Cromlech d'Okabe"}},
{"type":"Feature","geometry":{"type":"MultiPolygon","coordinates":[[[[-1.1095756,43.0420624],[-1.1095742,43.0420534],[-1.1095687,43.0420451],[-1.1095598,43.0420388],[-1.1095485,43.0420349],[-1.109536,43.0420341],[-1.1095246,43.0420361],[-1.1095147,43.0420407],[-1.1095072,43.0420473],[-1.109503,43.0420553],[-1.1095024,43.0420639],[-1.1095056,43.0420721],[-1.1095121,43.0420792],[-1.1095214,43.0420845],[-1.1095325,43.0420873],[-1.1095443,43.0420874],[-1.1095561,43.0420846],[-1.109566,43.042079],[-1.1095728,43.0420713],[-1.1095756,43.0420624]]]]},"properties":{"alt_name":"Okabeko mairu-baratzea","archaeological_site":"megalith","historic":"archaeological_site","material":"stone","megalith_type":"stone_circle","name":"Okabe harrespila / Cromlech d'Okabe","name:en":"Okabe stone circle","name:es":"Crómlech de Okabe","name:eu":"Okabe jentil-baratzea","name:fr":"Cromlech d'Okabe"}},
{"type":"Feature","geometry":{"type":"MultiPolygon","coordinates":[[[[-1.1095672,43.0421146],[-1.1095663,43.0421077],[-1.1095625,43.0421013],[-1.1095561,43.0420962],[-1.1095478,43.0420928],[-1.1095384,43.0420915],[-1.109529,43.0420926],[-1.1095205,43.0420957],[-1.1095139,43.0421007],[-1.1095098,43.042107],[-1.1095087,43.0421139],[-1.1095107,43.0421209],[-1.1095158,43.042127],[-1.1095234,43.0421315],[-1.1095326,43.042134],[-1.1095423,43.0421341],[-1.1095516,43.0421319],[-1.1095594,43.0421275],[-1.1095648,43.0421216],[-1.1095672,43.0421146]]]]},"properties":{"alt_name":"Okabeko mairu-baratzea","archaeological_site":"megalith","historic":"archaeological_site","material":"stone","megalith_type":"stone_circle","name":"Okabe harrespila / Cromlech d'Okabe","name:en":"Okabe stone circle","name:es":"Crómlech de Okabe","name:eu":"Okabe jentil-baratzea","name:fr":"Cromlech d'Okabe"}},
{"type":"Feature","geometry":{"type":"MultiPolygon","coordinates":[[[[-1.109629,43.042092],[-1.1096276,43.042085],[-1.1096232,43.0420787],[-1.1096161,43.0420738],[-1.1096071,43.0420709],[-1.1095974,43.0420704],[-1.109588,43.0420722],[-1.10958,43.0420763],[-1.1095743,43.042082],[-1.1095715,43.0420888],[-1.1095718,43.0420956],[-1.1095752,43.042102],[-1.109581,43.0421072],[-1.1095889,43.0421108],[-1.1095979,43.0421124],[-1.1096072,43.0421118],[-1.1096157,43.0421091],[-1.1096226,43.0421046],[-1.1096272,43.0420987],[-1.109629,43.042092]]]]},"properties":{"alt_name":"Okabeko mairu-baratzea","archaeological_site":"megalith","historic":"archaeological_site","material":"stone","megalith_type":"stone_circle","name":"Okabe harrespila / Cromlech d'Okabe","name:en":"Okabe stone circle","name:es":"Crómlech de Okabe","name:eu":"Okabe jentil-baratzea","name:fr":"Cromlech d'Okabe"}},
{"type":"Feature","geometry":{"type":"MultiPolygon","coordinates":[[[[-1.1096073,43.0420129],[-1.1096069,43.0420067],[-1.1096038,43.042001],[-1.1095984,43.0419962],[-1.1095912,43.041993],[-1.1095831,43.0419915],[-1.1095747,43.041992],[-1.1095669,43.0419944],[-1.1095605,43.0419984],[-1.1095562,43.0420037],[-1.1095544,43.0420097],[-1.1095554,43.0420163],[-1.1095594,43.0420223],[-1.1095659,43.0420269],[-1.1095742,43.0420297],[-1.1095833,43.0420302],[-1.1095921,43.0420285],[-1.1095996,43.0420247],[-1.1096049,43.0420193],[-1.1096073,43.0420129]]]]},"properties":{"alt_name":"Okabeko mairu-baratzea","archaeological_site":"megalith","historic":"archaeological_site","material":"stone","megalith_type":"stone_circle","name":"Okabe harrespila / Cromlech d'Okabe","name:en":"Okabe stone circle","name:es":"Crómlech de Okabe","name:eu":"Okabe jentil-baratzea","name:fr":"Cromlech d'Okabe"}},
{"type":"Feature","geometry":{"type":"MultiPolygon","coordinates":[[[[-1.1096311,43.041942],[-1.1096266,43.0419324],[-1.1096181,43.0419245],[-1.1096065,43.041919],[-1.1095931,43.0419166],[-1.1095794,43.0419176],[-1.1095668,43.0419218],[-1.1095568,43.0419288],[-1.1095505,43.0419378],[-1.1095486,43.0419478],[-1.1095512,43.0419575],[-1.1095579,43.041966],[-1.109568,43.0419726],[-1.1095805,43.0419764],[-1.109594,43.0419771],[-1.109607,43.0419746],[-1.1096183,43.0419692],[-1.1096266,43.0419614],[-1.1096311,43.0419521],[-1.1096311,43.041942]]]]},"properties":{"alt_name":"Okabeko mairu-baratzea","archaeological_site":"megalith","historic":"archaeological_site","material":"stone","megalith_type":"stone_circle","name":"Ilarrita harrespila / Cromlech d'Ilharrita","name:en":"Ilarrita stone circle","name:es":"Crómlech de Ilarrita","name:eu":"Ilarrita jentil-baratzea","name:fr":"Cromlech d'Ilharrita"}},
{"type":"Feature","geometry":{"type":"MultiPolygon","coordinates":[[[[-1.1094712,43.0424291],[-1.1094706,43.0424201],[-1.1094659,43.0424117],[-1.1094575,43.0424051],[-1.1094466,43.0424009],[-1.1094344,43.0423996],[-1.1094223,43.0424015],[-1.1094118,43.0424062],[-1.1094041,43.0424133],[-1.1094002,43.0424219],[-1.1094002,43.0424302],[-1.1094039,43.042438],[-1.1094106,43.0424446],[-1.1094199,43.0424494],[-1.1094307,43.0424518],[-1.109442,43.0424516],[-1.1094527,43.0424489],[-1.1094617,43.0424439],[-1.1094681,43.042437],[-1.1094712,43.0424291]]]]},"properties":{"alt_name":"Okabeko mairu-baratzea","archaeological_site":"megalith","historic":"archaeological_site","material":"stone","megalith_type":"stone_circle","name":"Okabe harrespila / Cromlech d'Okabe","name:en":"Okabe stone circle","name:es":"Crómlech de Okabe","name:eu":"Okabe jentil-baratzea","name:fr":"Cromlech d'Okabe"}},
{"type":"Feature","geometry":{"type":"MultiPolygon","coordinates":[[[[-1.1107416,43.0421848],[-1.1107413,43.0421798],[-1.110739,43.0421752],[-1.1107347,43.0421713],[-1.110729,43.0421686],[-1.1107224,43.0421673],[-1.1107157,43.0421677],[-1.1107094,43.0421695],[-1.1107042,43.0421728],[-1.1107007,43.042177],[-1.1106992,43.0421819],[-1.1106999,43.0421871],[-1.1107031,43.0421919],[-1.1107083,43.0421956],[-1.1107148,43.0421979],[-1.1107221,43.0421984],[-1.1107291,43.0421971],[-1.1107351,43.0421941],[-1.1107394,43.0421899],[-1.1107416,43.0421848]]]]},"properties":{"alt_name":"Okabeko mairu-baratzea","archaeological_site":"megalith","historic":"archaeological_site","material":"stone","megalith_type":"stone_circle","name":"Okabe harrespila / Cromlech d'Okabe","name:en":"Okabe stone circle","name:es":"Crómlech de Okabe","name:eu":"Okabe jentil-baratzea","name:fr":"Cromlech d'Okabe"}},
{"type":"Feature","geometry":{"type":"MultiPolygon","coordinates":[[[[-1.1110573,43.0426688],[-1.1107653,43.0415311],[-1.1091966,43.0416111],[-1.1086006,43.0424895],[-1.1093566,43.0427619],[-1.1110573,43.0426688]]]]},"properties":{"alt_name":"Okabeko mairu-baratzea","archaeological_site":"megalith","description":"Hilarrietako jentil baratzeak. Zirkuluan jarritako 26 harrespilek santutegi baten moduko ingurunea osatzen dute.","historic":"archaeological_site","material":"stone","megalith_type":"stone_circle","name":"Okabe harrespilak / Cromlechs d'Okabé","name:en":"Okabe stone circles","name:es":"Crómlechs de Okabe","name:eu":"Okabe jentil-baratzeak","name:fr":"Cromlechs d'Okabé"}},
{"type":"Feature","geometry":{"type":"MultiPolygon","coordinates":[[[[-1.2393504,43.0448798],[-1.2391545,43.0447454],[-1.2389266,43.0447132],[-1.2388866,43.0450814],[-1.2387986,43.0451077],[-1.2386787,43.044836],[-1.2387986,43.0445993],[-1.2383388,43.0443597],[-1.237815,43.0444561],[-1.2372913,43.0447162],[-1.2372313,43.0446314],[-1.237843,43.0443567],[-1.2377351,43.0441785],[-1.2369354,43.0442924],[-1.2363556,43.0446226],[-1.2360358,43.0447863],[-1.2361237,43.0450434],[-1.2364516,43.0453356],[-1.2366355,43.0451311],[-1.2371793,43.045096],[-1.2374232,43.0453269],[-1.2374032,43.0454525],[-1.2375232,43.0455548],[-1.238043,43.0455957],[-1.2385507,43.045359],[-1.2390226,43.0452918],[-1.2392585,43.0450405],[-1.2393504,43.0448798]]]]},"properties":{"natural":"bare_rock"}},
{"type":"Feature","geometry":{"type":"MultiPolygon","coordinates":[[[[-1.2837673,43.0457502],[-1.2835796,43.045609],[-1.283306,43.045613],[-1.2831236,43.0456718],[-1.2830874,43.0457167],[-1.2830324,43.0458325],[-1.2832416,43.0459109],[-1.2836254,43.0459989],[-1.2837244,43.0459658],[-1.2837673,43.0457502]]]]},"properties":{"natural":"water"}},
{"type":"Feature","geometry":{"type":"MultiPolygon","coordinates":[[[[-1.233408,43.0468526],[-1.2333346,43.0464233],[-1.2330115,43.0461765],[-1.232292,43.0462087],[-1.231778,43.0463267],[-1.2311612,43.0465521],[-1.2307059,43.0465843],[-1.2297587,43.0466087],[-1.2299053,43.0473421],[-1.2308172,43.0475528],[-1.2310879,43.0473636],[-1.2315221,43.0474323],[-1.2316286,43.0475544],[-1.2325541,43.0479752],[-1.2322763,43.0484578],[-1.2327445,43.0486129],[-1.2329147,43.048282],[-1.2330703,43.0479794],[-1.2333199,43.0473784],[-1.233408,43.0468526]]]]},"properties":{"natural":"bare_rock"}},
{"type":"Feature","geometry":{"type":"MultiPolygon","coordinates":[[[[-1.0902161,43.0110264],[-1.0901395,43.0103479],[-1.0899317,43.0104529],[-1.0894865,43.0104607],[-1.089288,43.0101548],[-1.0880756,43.0096801],[-1.0876787,43.0097703],[-1.0872763,43.0101038],[-1.0862732,43.0106019],[-1.0858172,43.0106882],[-1.0856456,43.010853],[-1.086032,43.0112596],[-1.0874135,43.0111017],[-1.0887345,43.0110449],[-1.0902161,43.0110264]]]]},"properties":{"natural":"grassland"}},
{"type":"Feature","geometry":{"type":"MultiPolygon","coordinates":[[[[-1.0872123,43.0310699],[-1.0870884,43.030824],[-1.0869468,43.03041],[-1.0867078,43.0301642],[-1.0863715,43.0299637],[-1.0862034,43.0296531],[-1.0862653,43.0294267],[-1.0863715,43.0291162],[-1.0861061,43.0287669],[-1.0855574,43.0286116],[-1.084699,43.0286504],[-1.0843981,43.0289609],[-1.083929,43.0291615],[-1.0836105,43.0296273],[-1.0831857,43.0298472],[-1.0830175,43.0300283],[-1.0833184,43.0303906],[-1.0835662,43.0306558],[-1.0839998,43.0305071],[-1.0840883,43.0306817],[-1.0840441,43.0308952],[-1.0842122,43.031031],[-1.0845043,43.0310052],[-1.0847167,43.0308823],[-1.0850176,43.0309146],[-1.0854954,43.031031],[-1.0860707,43.0311216],[-1.0864335,43.0313415],[-1.0866636,43.0314515],[-1.0870795,43.0314386],[-1.0871503,43.0312833],[-1.0872123,43.0310699]]]]},"properties":{"natural":"grassland"}},
{"type":"Feature","geometry":{"type":"MultiPolygon","coordinates":[[[[-1.0908345,43.0291144],[-1.0906617,43.0288469],[-1.0902144,43.0288915],[-1.0898383,43.0289286],[-1.0894215,43.02878],[-1.0890657,43.0284753],[-1.0889132,43.0282153],[-1.0887404,43.0281632],[-1.0886692,43.028349],[-1.0886387,43.0285051],[-1.0884659,43.0286686],[-1.0881711,43.0287429],[-1.0881508,43.029003],[-1.0883744,43.0292853],[-1.0886286,43.0295231],[-1.0887709,43.0298278],[-1.0888014,43.0302291],[-1.0886896,43.0305486],[-1.0889335,43.0306303],[-1.0892792,43.0306155],[-1.0896451,43.0305635],[-1.0901331,43.0304446],[-1.0903465,43.0302365],[-1.0906312,43.0298278],[-1.0907328,43.0294934],[-1.0908345,43.0291144]]]]},"properties":{"natural":"grassland"}},
{"type":"Feature","geometry":{"type":"MultiPolygon","coordinates":[[[[-1.1867917,43.0379119],[-1.186787,43.0378855],[-1.1867206,43.0378865],[-1.1866897,43.03791],[-1.1866763,43.0379296],[-1.1866535,43.0379482],[-1.1866347,43.0379688],[-1.1866267,43.0379879],[-1.1866428,43.0380178],[-1.1866683,43.0380305],[-1.1866951,43.0380237],[-1.1867166,43.0380178],[-1.1867447,43.0380011],[-1.1867769,43.0379698],[-1.186789,43.0379404],[-1.1867917,43.0379119]]]]},"properties":{"natural":"water","water":"reservoir"}}
]}
