{"type":"FeatureCollection","features":[
{"type":"Feature","geometry":{"type":"Point","coordinates":[-0.5373965,44.0448374]},"properties":{"historic":"memorial","memorial":"war_memorial","memorial:conflict":"WW1;WW2","ref:FR:MemorialGenWeb":"55412"}},
{"type":"Feature","geometry":{"type":"Point","coordinates":[-0.5402826,44.0434724]},"properties":{"leisure":"playground"}},
{"type":"Feature","geometry":{"type":"Point","coordinates":[-0.5433106,44.0432241]},"properties":{"access":"yes","leisure":"playground"}},
{"type":"Feature","geometry":{"type":"Point","coordinates":[-0.531545,44.0458816]},"properties":{"historic":"ruins","name":"La Gare","note":"L'emplacement indiqué sur le cadastre est erronné","source":"cadastre-dgi-fr source : Direction Générale des Impôts - Cadastre. Mise à jour : 2013"}},
{"type":"Feature","geometry":{"type":"Point","coordinates":[-0.5377127,44.0472662]},"properties":{"historic":"ruins","name":"Persillo","source":"cadastre-dgi-fr source : Direction Générale des Impôts - Cadastre. Mise à jour : 2013"}},
{"type":"Feature","geometry":{"type":"Point","coordinates":[-0.5340792,44.0477651]},"properties":{"historic":"ruins","name":"Petit-Poumes","source":"cadastre-dgi-fr source : Direction Générale des Impôts - Cadastre. Mise à jour : 2013"}},
{"type":"Feature","geometry":{"type":"Point","coordinates":[-0.5339122,44.043415]},"properties":{"historic":"ruins","source":"cadastre-dgi-fr source : Direction Générale des Impôts - Cadastre. Mise à jour : 2013"}},
{"type":"Feature","geometry":{"type":"Point","coordinates":[-0.5369879,44.0441172]},"properties":{"historic":"wayside_cross","source":"cadastre-dgi-fr source : Direction Générale des Impôts - Cadastre. Mise à jour : 2013"}},
{"type":"Feature","geometry":{"type":"Point","coordinates":[-0.553482,44.0453906]},"properties":{"historic":"ruins","name":"Champoou"}},
{"type":"Feature","geometry":{"type":"Point","coordinates":[-0.5313089,44.044206]},"properties":{"addr:housenumber":"336","source":"cadastre-dgi-fr source : Direction Générale des Impôts - Cadastre. Mise à jour : 2013"}},
{"type":"Feature","geometry":{"type":"Point","coordinates":[-0.5277163,44.0476782]},"properties":{"natural":"tree","source":"Bing"}},
{"type":"Feature","geometry":{"type":"Point","coordinates":[-0.5268526,44.0482237]},"properties":{"natural":"tree","source":"Bing"}},
{"type":"Feature","geometry":{"type":"Point","coordinates":[-0.5269518,44.0481737]},"properties":{"natural":"tree","source":"Bing"}},
{"type":"Feature","geometry":{"type":"Point","coordinates":[-0.5264181,44.0482084]},"properties":{"natural":"tree","source":"Bing"}},
{"type":"Feature","geometry":{"type":"Point","coordinates":[-0.5274373,44.0472926]},"properties":{"natural":"tree","source":"Bing"}},
{"type":"Feature","geometry":{"type":"Point","coordinates":[-0.5262062,44.0479096]},"properties":{"natural":"tree","source":"Bing"}},
{"type":"Feature","geometry":{"type":"Point","coordinates":[-0.5262169,44.0480118]},"properties":{"natural":"tree","source":"Bing"}},
{"type":"Feature","geometry":{"type":"Point","coordinates":[-0.5273971,44.048002]},"properties":{"natural":"tree","source":"Bing"}},
{"type":"Feature","geometry":{"type":"Point","coordinates":[-0.534612,44.0438898]},"properties":{"natural":"tree","source":"Bing"}},
{"type":"Feature","geometry":{"type":"Point","coordinates":[-0.5347595,44.0438821]},"properties":{"natural":"tree","source":"Bing"}},
{"type":"Feature","geometry":{"type":"Point","coordinates":[-0.5347622,44.0438204]},"properties":{"natural":"tree","source":"Bing"}},
{"type":"Feature","geometry":{"type":"Point","coordinates":[-0.5346307,44.0437626]},"properties":{"natural":"tree","source":"Bing"}},
{"type":"Feature","geometry":{"type":"Point","coordinates":[-0.5347648,44.0437665]},"properties":{"natural":"tree","source":"Bing"}},
{"type":"Feature","geometry":{"type":"Point","coordinates":[-0.5346415,44.0437086]},"properties":{"natural":"tree","source":"Bing"}},
{"type":"Feature","geometry":{"type":"Point","coordinates":[-0.5346334,44.0438204]},"properties":{"natural":"tree","source":"Bing"}},
{"type":"Feature","geometry":{"type":"Point","coordinates":[-0.5347702,44.0437144]},"properties":{"natural":"tree","source":"Bing"}},
{"type":"Feature","geometry":{"type":"Point","coordinates":[-0.5356816,44.0442933]},"properties":{"information":"board","source":"survey operation-libre","tourism":"information"}},
{"type":"Feature","geometry":{"type":"Point","coordinates":[-0.5359244,44.0444042]},"properties":{"information":"map","map_size":"city","map_type":"scheme","source":"survey operation-libre","tourism":"information"}},
{"type":"Feature","geometry":{"type":"Point","coordinates":[-0.5326561,44.0442498]},"properties":{"name":"Bains Douches","tourism":"attraction"}},
{"type":"Feature","geometry":{"type":"Point","coordinates":[-0.5313952,44.0442927]},"properties":{"description":"Chez nous soyez reine - Mission 1949","historic":"wayside_shrine"}},
{"type":"Feature","geometry":{"type":"Point","coordinates":[-0.5369975,44.0449865]},"properties":{"natural":"tree","source":"survey operation-libre"}},
{"type":"Feature","geometry":{"type":"Point","coordinates":[-0.5370746,44.0449957]},"properties":{"natural":"tree","source":"survey operation-libre"}},
{"type":"Feature","geometry":{"type":"Point","coordinates":[-0.5374145,44.0450831]},"properties":{"natural":"tree","source":"survey operation-libre"}},
{"type":"Feature","geometry":{"type":"Point","coordinates":[-0.5369113,44.0451777]},"properties":{"natural":"tree","source":"survey operation-libre"}},
{"type":"Feature","geometry":{"type":"Point","coordinates":[-0.5369714,44.0451847]},"properties":{"historic":"wayside_cross","source":"survey operation-libre"}},
{"type":"Feature","geometry":{"type":"Point","coordinates":[-0.5369015,44.0452269]},"properties":{"natural":"tree","source":"survey operation-libre"}},
{"type":"Feature","geometry":{"type":"Point","coordinates":[-0.5369714,44.0452299]},"properties":{"natural":"tree","source":"survey operation-libre"}},
{"type":"Feature","geometry":{"type":"Point","coordinates":[-0.5368945,44.0452711]},"properties":{"natural":"tree","source":"survey operation-libre"}},
{"type":"Feature","geometry":{"type":"Point","coordinates":[-0.536963,44.0452771]},"properties":{"natural":"tree","source":"survey operation-libre"}},
{"type":"Feature","geometry":{"type":"Point","coordinates":[-0.5368875,44.0453163]},"properties":{"natural":"tree","source":"survey operation-libre"}},
{"type":"Feature","geometry":{"type":"Point","coordinates":[-0.536956,44.0453203]},"properties":{"natural":"tree","source":"survey operation-libre"}},
{"type":"Feature","geometry":{"type":"Point","coordinates":[-0.5368644,44.0457816]},"properties":{"natural":"tree","source":"survey operation-libre"}},
{"type":"Feature","geometry":{"type":"Point","coordinates":[-0.5369197,44.0457887]},"properties":{"natural":"tree","source":"survey operation-libre"}},
{"type":"Feature","geometry":{"type":"Point","coordinates":[-0.5399884,44.0445864]},"properties":{"natural":"tree"}},
{"type":"Feature","geometry":{"type":"Point","coordinates":[-0.5388391,44.0454961]},"properties":{"natural":"tree"}},
{"type":"Feature","geometry":{"type":"Point","coordinates":[-0.5389872,44.0455503]},"properties":{"natural":"tree"}},
{"type":"Feature","geometry":{"type":"Point","coordinates":[-0.539814,44.0429449]},"properties":{"tourism":"picnic_site"}},
{"type":"Feature","geometry":{"type":"Point","coordinates":[-0.5402629,44.043295]},"properties":{"tourism":"picnic_site"}},
{"type":"Feature","geometry":{"type":"Point","coordinates":[-0.5373001,44.0447726]},"properties":{"natural":"tree","source":"cadastre-dgi-fr source : Direction Générale des Impôts - Cadastre. Mise à jour : 2013"}},
{"type":"Feature","geometry":{"type":"Point","coordinates":[-0.5378028,44.0448428]},"properties":{"natural":"tree","source":"cadastre-dgi-fr source : Direction Générale des Impôts - Cadastre. Mise à jour : 2013"}},
{"type":"Feature","geometry":{"type":"Point","coordinates":[-0.536921,44.0437301]},"properties":{"natural":"tree"}},
{"type":"Feature","geometry":{"type":"Point","coordinates":[-0.5367532,44.0437905]},"properties":{"natural":"tree"}},
{"type":"Feature","geometry":{"type":"Point","coordinates":[-0.5369581,44.0438115]},"properties":{"natural":"tree"}},
{"type":"Feature","geometry":{"type":"Point","coordinates":[-0.5368741,44.0438371]},"properties":{"natural":"tree"}},
{"type":"Feature","geometry":{"type":"Point","coordinates":[-0.5367922,44.043862]},"properties":{"natural":"tree"}},
{"type":"Feature","geometry":{"type":"Point","coordinates":[-0.5426349,44.0417899]},"properties":{"historic":"memorial","name":"Mémorial de la catastrophe du 15 janvier 1843","source":"OPL Brocas 2013"}},
{"type":"Feature","geometry":{"type":"Point","coordinates":[-0.5749639,44.0230562]},"properties":{"historic":"ruins","name":"ancien parc"}},
{"type":"Feature","geometry":{"type":"Point","coordinates":[-0.5569823,44.0299797]},"properties":{"historic":"ruins","name":"Bacouilles"}},
{"type":"Feature","geometry":{"type":"Point","coordinates":[-0.5886376,44.020217]},"properties":{"tourism":"picnic_site"}},
{"type":"Feature","geometry":{"type":"Point","coordinates":[-0.5897427,44.0371105]},"properties":{"historic":"ruins","name":"Angueys"}},
{"type":"Feature","geometry":{"type":"Point","coordinates":[-0.5387095,43.9929067]},"properties":{"name":"Saint-Eutrope","natural":"spring","source":"cadastre-dgi-fr source : Direction Générale des Impôts - Cadastre. Mise à jour : 2013"}},
{"type":"Feature","geometry":{"type":"Point","coordinates":[-0.5386754,43.992957]},"properties":{"historic":"wayside_cross","source":"cadastre-dgi-fr source : Direction Générale des Impôts - Cadastre. Mise à jour : 2013"}},
{"type":"Feature","geometry":{"type":"Point","coordinates":[-0.5424252,44.0429586]},"properties":{"leisure":"playground"}},
{"type":"Feature","geometry":{"type":"Point","coordinates":[-0.542297,44.0419357]},"properties":{"addr:city":"Brocas","addr:country":"FR","addr:housenumber":"40","addr:postcode":"40420","addr:street":"Rue de la Sablière","email":"lemairebrocas@orange.fr","mobile":"+33 6 35 42 73 74","name":"Camping municipal de l'Étang","phone":"+33 5 58 51 40 68","tourism":"camp_site","website":"https://www.brocas.fr/Decouvrir/Tout-pour-vous-accueillir/Les-hebergements"}},
{"type":"Feature","geometry":{"type":"Point","coordinates":[-0.4232965,43.9845059]},"properties":{"name":"Source","natural":"spring","source":"cadastre-dgi-fr source : Direction Générale des Impôts - Cadastre. Mise à jour : 2015"}},
{"type":"Feature","geometry":{"type":"Point","coordinates":[-0.542298,44.0432404]},"properties":{"capacity":"2","covered":"no","lit":"no","surface":"grass","tourism":"picnic_site"}},
{"type":"Feature","geometry":{"type":"Point","coordinates":[-0.5414003,44.043948]},"properties":{"tourism":"picnic_site"}},
{"type":"Feature","geometry":{"type":"Point","coordinates":[-0.5430469,44.0432664]},"properties":{"capacity":"3","covered":"no","lit":"yes","material":"wood","source":"knowledge","surface":"grass","tourism":"picnic_site"}},
{"type":"Feature","geometry":{"type":"Point","coordinates":[-0.5457836,44.045196]},"properties":{"dance:teaching":"yes","leisure":"dance","source":"data.gouv.fr:Le ministère des droits des femmes, de la ville, de la jeunesse et des sports - 2014"}},
{"type":"Feature","geometry":{"type":"Point","coordinates":[-0.4048276,44.0987394]},"properties":{"natural":"tree"}},
{"type":"Feature","geometry":{"type":"Point","coordinates":[-0.4053318,44.0988429]},"properties":{"natural":"tree"}},
{"type":"Feature","geometry":{"type":"Point","coordinates":[-0.405468,44.0988643]},"properties":{"natural":"tree"}},
{"type":"Feature","geometry":{"type":"Point","coordinates":[-0.4047242,44.0989081]},"properties":{"natural":"tree"}},
{"type":"Feature","geometry":{"type":"Point","coordinates":[-0.4054241,44.0989239]},"properties":{"natural":"tree"}},
{"type":"Feature","geometry":{"type":"Point","coordinates":[-0.4055416,44.0989553]},"properties":{"natural":"tree"}},
{"type":"Feature","geometry":{"type":"Point","coordinates":[-0.4045676,44.0989643]},"properties":{"natural":"tree"}},
{"type":"Feature","geometry":{"type":"Point","coordinates":[-0.4046694,44.0989992]},"properties":{"natural":"tree"}},
{"type":"Feature","geometry":{"type":"Point","coordinates":[-0.4053725,44.0990048]},"properties":{"natural":"tree"}},
{"type":"Feature","geometry":{"type":"Point","coordinates":[-0.4050797,44.0990217]},"properties":{"natural":"tree"}},
{"type":"Feature","geometry":{"type":"Point","coordinates":[-0.4047884,44.0990453]},"properties":{"natural":"tree"}},
{"type":"Feature","geometry":{"type":"Point","coordinates":[-0.4054774,44.0990476]},"properties":{"natural":"tree"}},
{"type":"Feature","geometry":{"type":"Point","coordinates":[-0.405194,44.0990565]},"properties":{"natural":"tree"}},
{"type":"Feature","geometry":{"type":"Point","coordinates":[-0.4049074,44.0990734]},"properties":{"natural":"tree"}},
{"type":"Feature","geometry":{"type":"Point","coordinates":[-0.4050108,44.0991038]},"properties":{"natural":"tree"}},
{"type":"Feature","geometry":{"type":"Point","coordinates":[-0.4047195,44.0991139]},"properties":{"natural":"tree"}},
{"type":"Feature","geometry":{"type":"Point","coordinates":[-0.404458,44.0991364]},"properties":{"natural":"tree"}},
{"type":"Feature","geometry":{"type":"Point","coordinates":[-0.405136,44.0991386]},"properties":{"natural":"tree"}},
{"type":"Feature","geometry":{"type":"Point","coordinates":[-0.4048495,44.0991521]},"properties":{"natural":"tree"}},
{"type":"Feature","geometry":{"type":"Point","coordinates":[-0.4045629,44.099169]},"properties":{"natural":"tree"}},
{"type":"Feature","geometry":{"type":"Point","coordinates":[-0.4049607,44.0991847]},"properties":{"natural":"tree"}},
{"type":"Feature","geometry":{"type":"Point","coordinates":[-0.4046851,44.0992084]},"properties":{"natural":"tree"}},
{"type":"Feature","geometry":{"type":"Point","coordinates":[-0.4043625,44.0992117]},"properties":{"natural":"tree"}},
{"type":"Feature","geometry":{"type":"Point","coordinates":[-0.4045254,44.0992398]},"properties":{"natural":"tree"}},
{"type":"Feature","geometry":{"type":"Point","coordinates":[-0.4047884,44.099241]},"properties":{"natural":"tree"}},
{"type":"Feature","geometry":{"type":"Point","coordinates":[-0.4055071,44.099241]},"properties":{"natural":"tree"}},
{"type":"Feature","geometry":{"type":"Point","coordinates":[-0.4046334,44.099268]},"properties":{"natural":"tree"}},
{"type":"Feature","geometry":{"type":"Point","coordinates":[-0.4056214,44.0992871]},"properties":{"natural":"tree"}},
{"type":"Feature","geometry":{"type":"Point","coordinates":[-0.4047383,44.0992938]},"properties":{"natural":"tree"}},
{"type":"Feature","geometry":{"type":"Point","coordinates":[-0.4050327,44.0992949]},"properties":{"natural":"tree"}},
{"type":"Feature","geometry":{"type":"Point","coordinates":[-0.4054792,44.0995783]},"properties":{"natural":"tree"}},
{"type":"Feature","geometry":{"type":"Point","coordinates":[-0.4059756,44.0996458]},"properties":{"natural":"tree"}},
{"type":"Feature","geometry":{"type":"Point","coordinates":[-0.4055544,44.0996851]},"properties":{"natural":"tree"}},
{"type":"Feature","geometry":{"type":"Point","coordinates":[-0.4065642,44.0998802]},"properties":{"natural":"tree"}},
{"type":"Feature","geometry":{"type":"Point","coordinates":[-0.4065111,44.1000528]},"properties":{"natural":"tree"}},
{"type":"Feature","geometry":{"type":"Point","coordinates":[-0.3796308,44.1300945]},"properties":{"name":"Domaine de Grand Lestrat","tourism":"guest_house","website":"http://www.legitedeslandes.com/"}},
{"type":"Feature","geometry":{"type":"Point","coordinates":[-0.5434719,44.1043766]},"properties":{"heritage":"3","heritage:operator":"mhs","historic":"memorial","memorial":"stele","mhs:inscription_date":"2014-10-21","name":"Monument aux morts de la guerre 1914-1918","ref:mhs":"PA40000085","source:heritage":"data.gouv.fr, Ministère de la Culture - 2016","start_date":"C20","wikidata":"Q22996827"}},
{"type":"Feature","geometry":{"type":"Point","coordinates":[-0.4151335,44.0351186]},"properties":{"name":"Site de détente du Ginx","ref:FR:CRTA":"PCUAQU04001VH8HO","source":"Réseau SIRTAQUI - Comité Régional de Tourisme d'Aquitaine - www.sirtaqui-aquitaine.com - 08/2018","tourism":"museum"}},
{"type":"Feature","geometry":{"type":"Point","coordinates":[-0.54337,44.0445395]},"properties":{"leisure":"picnic_table"}},
{"type":"Feature","geometry":{"type":"Point","coordinates":[-0.5426726,44.044619]},"properties":{"leisure":"picnic_table"}},
{"type":"Feature","geometry":{"type":"Point","coordinates":[-0.5457383,44.0451261]},"properties":{"entrance":"main"}},
{"type":"Feature","geometry":{"type":"Point","coordinates":[-0.5000201,44.1245289]},"properties":{"denomination":"catholic","historic":"wayside_cross","religion":"christian"}},
{"type":"Feature","geometry":{"type":"Point","coordinates":[-0.4425205,44.0064033]},"properties":{"historic":"memorial","source":"IGN - 09/2020"}},
{"type":"Feature","geometry":{"type":"Point","coordinates":[-0.600507,44.1540722]},"properties":{"man_made":"spring_box","natural":"spring","source":"IGN - 09/2020"}},
{"type":"Feature","geometry":{"type":"Point","coordinates":[-0.5466042,44.104862]},"properties":{"capacity":"2","covered":"no","lit":"no","material":"wood","surface":"grass","tourism":"picnic_site"}},
{"type":"Feature","geometry":{"type":"Point","coordinates":[-0.6059719,44.0538619]},"properties":{"artist_name":"Alain Domagala","artwork_type":"sculpture","material":"wood","name":"Aux impétueuses manœuvres de l’imprévu","start_date":"2011","tourism":"artwork","website":"http://www.laforetdartcontemporain.com/index.php/2011/04/30/aux-impetueuses-manoeuvres-de-limprevu/"}},
{"type":"Feature","geometry":{"type":"Point","coordinates":[-0.5885337,44.0209011]},"properties":{"artist_name":"Christophe Doucet","artwork_type":"sculpture","description":"Christophe Doucet fabrique des œuvres mélangeant les rêves, les concepts, les pulsions, l’académisme, les tailles, l’assemblage, l’installation. L’enjeu n’est pas d’affirmer une singularité mais de redonner une force à des liens oubliés, de rétablir une c","name":"La Sauveté de Garbachet","start_date":"2013","tourism":"artwork","website":"http://www.laforetdartcontemporain.com/index.php/2013/08/06/la-sauvete-de-garbachet/"}},
{"type":"Feature","geometry":{"type":"Point","coordinates":[-0.3752928,44.0464728]},"properties":{"artist_name":"Émilie Perotto","artwork_type":"sculpture","description":"Émilie Perotto a élu le bois comme matériau de prédilection. Ses sculptures et installations sont autant d’assemblages de formes que les différentes variétés de bois et matériaux issus du bois peuvent le permettre. Jeu de construction, ses agencements de","material":"wood","name":"Cœur Chaud Bois d’Aquitaine","start_date":"2011","tourism":"artwork"}},
{"type":"Feature","geometry":{"type":"Point","coordinates":[-0.4607202,44.0627482]},"properties":{"natural":"tree"}},
{"type":"Feature","geometry":{"type":"Point","coordinates":[-0.4607886,44.0629053]},"properties":{"artist_name":"Stefan Rinck","artwork_type":"sculpture","image":"http://www.laforetdartcontemporain.com/wp-content/uploads/2020/09/IMG_1312.jpg","material":"stone","name":"Saint Georges et son dragon de compagnie","network":"La Forêt d'Art Contemporain","start_date":"2020","tourism":"artwork","website":"http://www.laforetdartcontemporain.com/index.php/2020/07/10/sculptures-en-cours/?preview=true"}},
{"type":"Feature","geometry":{"type":"Point","coordinates":[-0.4603581,44.0628802]},"properties":{"natural":"tree"}},
{"type":"Feature","geometry":{"type":"Point","coordinates":[-0.4625153,44.062803099999999]},"properties":{"natural":"tree"}},
{"type":"Feature","geometry":{"type":"Point","coordinates":[-0.4627218,44.0627511]},"properties":{"natural":"tree"}},
{"type":"Feature","geometry":{"type":"Point","coordinates":[-0.4624268,44.0626721]},"properties":{"natural":"tree"}},
{"type":"Feature","geometry":{"type":"Point","coordinates":[-0.4625394,44.0626412]},"properties":{"natural":"tree"}},
{"type":"Feature","geometry":{"type":"Point","coordinates":[-0.4615604,44.0626836]},"properties":{"historic":"monument"}},
{"type":"Feature","geometry":{"type":"Point","coordinates":[-0.4626655,44.0629169]},"properties":{"natural":"tree"}},
{"type":"Feature","geometry":{"type":"Point","coordinates":[-0.4627298,44.0628224]},"properties":{"natural":"tree"}},
{"type":"Feature","geometry":{"type":"Point","coordinates":[-0.4625528,44.0642197]},"properties":{"natural":"tree"}},
{"type":"Feature","geometry":{"type":"Point","coordinates":[-0.4624911,44.0642313]},"properties":{"capacity":"1","tourism":"picnic_site"}},
{"type":"Feature","geometry":{"type":"Point","coordinates":[-0.4625421,44.0643026]},"properties":{"natural":"tree"}},
{"type":"Feature","geometry":{"type":"Point","coordinates":[-0.4623356,44.0642833]},"properties":{"leisure":"playground"}},
{"type":"Feature","geometry":{"type":"Point","coordinates":[-0.4625957,44.0643662]},"properties":{"leisure":"pitch","sport":"table_tennis"}},
{"type":"Feature","geometry":{"type":"Point","coordinates":[-0.4626798,44.0634957]},"properties":{"natural":"tree"}},
{"type":"Feature","geometry":{"type":"Point","coordinates":[-0.4623472,44.0637636]},"properties":{"natural":"tree"}},
{"type":"Feature","geometry":{"type":"Point","coordinates":[-0.4622909,44.0639794]},"properties":{"natural":"tree"}},
{"type":"Feature","geometry":{"type":"Point","coordinates":[-0.4622721,44.0639505]},"properties":{"natural":"tree"}},
{"type":"Feature","geometry":{"type":"Point","coordinates":[-0.4622721,44.06391]},"properties":{"natural":"tree"}},
{"type":"Feature","geometry":{"type":"Point","coordinates":[-0.4619342,44.0638426]},"properties":{"natural":"tree"}},
{"type":"Feature","geometry":{"type":"Point","coordinates":[-0.4623231,44.0637096]},"properties":{"natural":"tree"}},
{"type":"Feature","geometry":{"type":"Point","coordinates":[-0.4622373,44.0636961]},"properties":{"natural":"tree"}},
{"type":"Feature","geometry":{"type":"Point","coordinates":[-0.4621192,44.0637481]},"properties":{"natural":"tree"}},
{"type":"Feature","geometry":{"type":"Point","coordinates":[-0.5347887,43.9923295]},"properties":{"historic":"wayside_cross"}},
{"type":"Feature","geometry":{"type":"Point","coordinates":[-0.5357012,43.9925846]},"properties":{"historic":"wayside_cross"}},
{"type":"Feature","geometry":{"type":"Point","coordinates":[-0.4619543,44.0627179]},"properties":{"historic":"wayside_cross"}},
{"type":"Feature","geometry":{"type":"Point","coordinates":[-0.4644141,44.0620888]},"properties":{"historic":"wayside_shrine"}},
{"type":"Feature","geometry":{"type":"Point","coordinates":[-0.501599,44.1261189]},"properties":{"historic":"wayside_cross"}},
{"type":"Feature","geometry":{"type":"Point","coordinates":[-0.5010402,44.1260487]},"properties":{"historic":"memorial","memorial":"war_memorial","name":"Monument aux Morts"}},
{"type":"Feature","geometry":{"type":"Point","coordinates":[-0.5798123,44.0902818]},"properties":{"historic":"memorial","memorial":"war_memorial","name":"Monument aux Morts"}},
{"type":"Feature","geometry":{"type":"Point","coordinates":[-0.5767708,44.0908321]},"properties":{"leisure":"picnic_table"}},
{"type":"Feature","geometry":{"type":"Point","coordinates":[-0.4053764,44.0988451]},"properties":{"information":"map","map_size":"village","map_type":"citymap","tourism":"information"}},
{"type":"Feature","geometry":{"type":"Point","coordinates":[-0.406421,44.0986771]},"properties":{"historic":"wayside_cross"}},
{"type":"Feature","geometry":{"type":"Point","coordinates":[-0.4055723,44.1002457]},"properties":{"historic":"memorial","memorial":"war_memorial","name":"Monument aux Morts"}},
{"type":"Feature","geometry":{"type":"Point","coordinates":[-0.5459481,44.1046404]},"properties":{"natural":"tree"}},
{"type":"Feature","geometry":{"type":"Point","coordinates":[-0.5460715,44.1041252]},"properties":{"natural":"tree"}},
{"type":"Feature","geometry":{"type":"Point","coordinates":[-0.5459737,44.1044639]},"properties":{"natural":"tree"}},
{"type":"Feature","geometry":{"type":"Point","coordinates":[-0.5455072,44.1046802]},"properties":{"natural":"tree"}},
{"type":"Feature","geometry":{"type":"Point","coordinates":[-0.5451813,44.1045493]},"properties":{"natural":"tree"}},
{"type":"Feature","geometry":{"type":"Point","coordinates":[-0.5453048,44.1046037]},"properties":{"natural":"tree"}},
{"type":"Feature","geometry":{"type":"Point","coordinates":[-0.5450762,44.1048921]},"properties":{"natural":"tree"}},
{"type":"Feature","geometry":{"type":"Point","coordinates":[-0.5452091,44.1047856]},"properties":{"natural":"tree"}},
{"type":"Feature","geometry":{"type":"Point","coordinates":[-0.5452353,44.1041666]},"properties":{"natural":"tree"}},
{"type":"Feature","geometry":{"type":"Point","coordinates":[-0.5453527,44.1044484]},"properties":{"natural":"tree"}},
{"type":"Feature","geometry":{"type":"Point","coordinates":[-0.5447503,44.1045749]},"properties":{"natural":"tree"}},
{"type":"Feature","geometry":{"type":"Point","coordinates":[-0.5445633,44.1050851]},"properties":{"natural":"tree"}},
{"type":"Feature","geometry":{"type":"Point","coordinates":[-0.5443888,44.1050774]},"properties":{"natural":"tree"}},
{"type":"Feature","geometry":{"type":"Point","coordinates":[-0.5444351,44.1048089]},"properties":{"natural":"tree"}},
{"type":"Feature","geometry":{"type":"Point","coordinates":[-0.5448507,44.1052937]},"properties":{"natural":"tree"}},
{"type":"Feature","geometry":{"type":"Point","coordinates":[-0.5443563,44.1048333]},"properties":{"natural":"tree"}},
{"type":"Feature","geometry":{"type":"Point","coordinates":[-0.5442636,44.1048555]},"properties":{"natural":"tree"}},
{"type":"Feature","geometry":{"type":"Point","coordinates":[-0.5441926,44.1048877]},"properties":{"natural":"tree"}},
{"type":"Feature","geometry":{"type":"Point","coordinates":[-0.544052,44.1053458]},"properties":{"natural":"tree"}},
{"type":"Feature","geometry":{"type":"Point","coordinates":[-0.544069,44.1049309]},"properties":{"natural":"tree"}},
{"type":"Feature","geometry":{"type":"Point","coordinates":[-0.5439794,44.1049675]},"properties":{"natural":"tree"}},
{"type":"Feature","geometry":{"type":"Point","coordinates":[-0.5465292,44.1048468]},"properties":{"natural":"tree"}},
{"type":"Feature","geometry":{"type":"Point","coordinates":[-0.5463836,44.1037831]},"properties":{"natural":"tree"}},
{"type":"Feature","geometry":{"type":"Point","coordinates":[-0.5466256,44.1038866]},"properties":{"natural":"tree"}},
{"type":"Feature","geometry":{"type":"Point","coordinates":[-0.546662,44.1043343]},"properties":{"natural":"tree"}},
{"type":"Feature","geometry":{"type":"Point","coordinates":[-0.5468474,44.1038462]},"properties":{"natural":"tree"}},
{"type":"Feature","geometry":{"type":"Point","coordinates":[-0.5466203,44.1045684]},"properties":{"natural":"tree"}},
{"type":"Feature","geometry":{"type":"Point","coordinates":[-0.5470745,44.1048257]},"properties":{"natural":"tree"}},
{"type":"Feature","geometry":{"type":"Point","coordinates":[-0.5445843,44.1051352]},"properties":{"natural":"tree"}},
{"type":"Feature","geometry":{"type":"Point","coordinates":[-0.5444267,44.1051275]},"properties":{"natural":"tree"}},
{"type":"Feature","geometry":{"type":"Point","coordinates":[-0.5444221,44.10493]},"properties":{"natural":"tree"}},
{"type":"Feature","geometry":{"type":"Point","coordinates":[-0.5443551,44.104963]},"properties":{"natural":"tree"}},
{"type":"Feature","geometry":{"type":"Point","coordinates":[-0.5444007,44.1048937]},"properties":{"natural":"tree"}},
{"type":"Feature","geometry":{"type":"Point","coordinates":[-0.5443323,44.1049207]},"properties":{"natural":"tree"}},
{"type":"Feature","geometry":{"type":"Point","coordinates":[-0.54439,44.1050054]},"properties":{"natural":"tree"}},
{"type":"Feature","geometry":{"type":"Point","coordinates":[-0.5444436,44.1049784]},"properties":{"natural":"tree"}},
{"type":"Feature","geometry":{"type":"Point","coordinates":[-0.5435934,44.1037872]},"properties":{"information":"map","tourism":"information"}},
{"type":"Feature","geometry":{"type":"Point","coordinates":[-0.5433775,44.1040029]},"properties":{"natural":"tree"}},
{"type":"Feature","geometry":{"type":"Point","coordinates":[-0.5431589,44.104313]},"properties":{"natural":"tree"}},
{"type":"Feature","geometry":{"type":"Point","coordinates":[-0.5434512,44.103975]},"properties":{"natural":"tree"}},
{"type":"Feature","geometry":{"type":"Point","coordinates":[-0.5435411,44.1039442]},"properties":{"natural":"tree"}},
{"type":"Feature","geometry":{"type":"Point","coordinates":[-0.5452827,44.0449065]},"properties":{"natural":"tree"}},
{"type":"Feature","geometry":{"type":"Point","coordinates":[-0.5453498,44.0450434]},"properties":{"natural":"tree"}},
{"type":"Feature","geometry":{"type":"Point","coordinates":[-0.5439255,44.0442722]},"properties":{"natural":"tree"}},
{"type":"Feature","geometry":{"type":"Point","coordinates":[-0.5449099,44.0435916]},"properties":{"natural":"tree"}},
{"type":"Feature","geometry":{"type":"Point","coordinates":[-0.5456086,44.0451012]},"properties":{"natural":"tree"}},
{"type":"Feature","geometry":{"type":"Point","coordinates":[-0.5448724,44.0437459]},"properties":{"natural":"tree"}},
{"type":"Feature","geometry":{"type":"Point","coordinates":[-0.5445934,44.0439223]},"properties":{"natural":"tree"}},
{"type":"Feature","geometry":{"type":"Point","coordinates":[-0.544466,44.0437999]},"properties":{"natural":"tree"}},
{"type":"Feature","geometry":{"type":"Point","coordinates":[-0.5446457,44.0434654]},"properties":{"natural":"tree"}},
{"type":"Feature","geometry":{"type":"Point","coordinates":[-0.5450507,44.0436389]},"properties":{"natural":"tree"}},
{"type":"Feature","geometry":{"type":"Point","coordinates":[-0.5453498,44.0437979]},"properties":{"natural":"tree"}},
{"type":"Feature","geometry":{"type":"Point","coordinates":[-0.5453726,44.0439117]},"properties":{"natural":"tree"}},
{"type":"Feature","geometry":{"type":"Point","coordinates":[-0.5453136,44.0437199]},"properties":{"natural":"tree"}},
{"type":"Feature","geometry":{"type":"Point","coordinates":[-0.5449582,44.0437073]},"properties":{"bench":"yes","leisure":"picnic_table","material":"wood"}},
{"type":"Feature","geometry":{"type":"Point","coordinates":[-0.54493,44.0436852]},"properties":{"bench":"yes","leisure":"picnic_table","material":"wood"}},
{"type":"Feature","geometry":{"type":"Point","coordinates":[-0.5442407,44.0433979]},"properties":{"natural":"tree"}},
{"type":"Feature","geometry":{"type":"Point","coordinates":[-0.5439993,44.043395]},"properties":{"natural":"tree"}},
{"type":"Feature","geometry":{"type":"Point","coordinates":[-0.5438531,44.0433641]},"properties":{"natural":"tree"}},
{"type":"Feature","geometry":{"type":"Point","coordinates":[-0.5439752,44.0432041]},"properties":{"natural":"tree"}},
{"type":"Feature","geometry":{"type":"Point","coordinates":[-0.5440838,44.0430046]},"properties":{"natural":"tree"}},
{"type":"Feature","geometry":{"type":"Point","coordinates":[-0.5441455,44.0428754]},"properties":{"natural":"tree"}},
{"type":"Feature","geometry":{"type":"Point","coordinates":[-0.5439993,44.0429082]},"properties":{"natural":"tree"}},
{"type":"Feature","geometry":{"type":"Point","coordinates":[-0.5443547,44.0427019]},"properties":{"natural":"tree"}},
{"type":"Feature","geometry":{"type":"Point","coordinates":[-0.5439001,44.0427963]},"properties":{"natural":"tree"}},
{"type":"Feature","geometry":{"type":"Point","coordinates":[-0.5430413,44.043005]},"properties":{"natural":"tree"}},
{"type":"Feature","geometry":{"type":"Point","coordinates":[-0.5434369,44.0430536]},"properties":{"leisure":"fitness_station","sport":"fitness"}},
{"type":"Feature","geometry":{"type":"Point","coordinates":[-0.5430041,44.0433962]},"properties":{"natural":"tree"}},
{"type":"Feature","geometry":{"type":"Point","coordinates":[-0.5428131,44.0434643]},"properties":{"natural":"tree"}},
{"type":"Feature","geometry":{"type":"Point","coordinates":[-0.5424158,44.0435712]},"properties":{"natural":"tree"}},
{"type":"Feature","geometry":{"type":"Point","coordinates":[-0.543256,44.0431508]},"properties":{"natural":"tree"}},
{"type":"Feature","geometry":{"type":"Point","coordinates":[-0.5432222,44.0430365]},"properties":{"natural":"tree"}},
{"type":"Feature","geometry":{"type":"Point","coordinates":[-0.5431664,44.0429697]},"properties":{"natural":"tree"}},
{"type":"Feature","geometry":{"type":"Point","coordinates":[-0.5421555,44.0429187]},"properties":{"natural":"tree"}},
{"type":"Feature","geometry":{"type":"Point","coordinates":[-0.5435231,44.0428263]},"properties":{"natural":"tree"}},
{"type":"Feature","geometry":{"type":"Point","coordinates":[-0.5433845,44.0427972]},"properties":{"natural":"tree"}},
{"type":"Feature","geometry":{"type":"Point","coordinates":[-0.5429044,44.0427218]},"properties":{"natural":"tree"}},
{"type":"Feature","geometry":{"type":"Point","coordinates":[-0.5432137,44.0426258]},"properties":{"natural":"tree"}},
{"type":"Feature","geometry":{"type":"Point","coordinates":[-0.5415097,44.0428203]},"properties":{"natural":"tree"}},
{"type":"Feature","geometry":{"type":"Point","coordinates":[-0.5423702,44.0429904]},"properties":{"natural":"tree"}},
{"type":"Feature","geometry":{"type":"Point","coordinates":[-0.5424902,44.0433112]},"properties":{"natural":"tree"}},
{"type":"Feature","geometry":{"type":"Point","coordinates":[-0.5425308,44.0434776]},"properties":{"natural":"tree"}},
{"type":"Feature","geometry":{"type":"Point","coordinates":[-0.5422992,44.0427243]},"properties":{"natural":"tree"}},
{"type":"Feature","geometry":{"type":"Point","coordinates":[-0.5429703,44.0427619]},"properties":{"information":"map","map_size":"region","tourism":"information"}},
{"type":"Feature","geometry":{"type":"Point","coordinates":[-0.543092,44.0428154]},"properties":{"information":"map","tourism":"information"}},
{"type":"Feature","geometry":{"type":"Point","coordinates":[-0.542426,44.0427]},"properties":{"information":"map","tourism":"information"}},
{"type":"Feature","geometry":{"type":"Point","coordinates":[-0.5423245,44.0425639]},"properties":{"leisure":"pitch","sport":"table_tennis"}},
{"type":"Feature","geometry":{"type":"Point","coordinates":[-0.5422028,44.0425894]},"properties":{"access":"yes","capacity":"6","name":"Brocas - Étang des Forges","tourism":"picnic_site"}},
{"type":"Feature","geometry":{"type":"Point","coordinates":[-0.5424344,44.04261]},"properties":{"natural":"tree"}},
{"type":"Feature","geometry":{"type":"Point","coordinates":[-0.5427522,44.0426234]},"properties":{"natural":"tree"}},
{"type":"Feature","geometry":{"type":"Point","coordinates":[-0.5423786,44.0424059]},"properties":{"natural":"tree"}},
{"type":"Feature","geometry":{"type":"Point","coordinates":[-0.5421589,44.0424606]},"properties":{"natural":"tree"}},
{"type":"Feature","geometry":{"type":"Point","coordinates":[-0.5420777,44.0426161]},"properties":{"natural":"tree"}},
{"type":"Feature","geometry":{"type":"Point","coordinates":[-0.5421285,44.0425541]},"properties":{"information":"map","tourism":"information"}},
{"type":"Feature","geometry":{"type":"Point","coordinates":[-0.5404988,44.0426185]},"properties":{"natural":"tree"}},
{"type":"Feature","geometry":{"type":"Point","coordinates":[-0.5412443,44.0428288]},"properties":{"natural":"tree"}},
{"type":"Feature","geometry":{"type":"Point","coordinates":[-0.5409671,44.0428494]},"properties":{"natural":"tree"}},
{"type":"Feature","geometry":{"type":"Point","coordinates":[-0.5410871,44.042847]},"properties":{"natural":"tree"}},
{"type":"Feature","geometry":{"type":"Point","coordinates":[-0.5412173,44.0426963]},"properties":{"natural":"tree"}},
{"type":"Feature","geometry":{"type":"Point","coordinates":[-0.540509,44.042785]},"properties":{"natural":"tree"}},
{"type":"Feature","geometry":{"type":"Point","coordinates":[-0.5408437,44.0423646]},"properties":{"natural":"tree"}},
{"type":"Feature","geometry":{"type":"Point","coordinates":[-0.5399173,44.0422637]},"properties":{"natural":"tree"}},
{"type":"Feature","geometry":{"type":"Point","coordinates":[-0.5399511,44.0426756]},"properties":{"natural":"tree"}},
{"type":"Feature","geometry":{"type":"Point","coordinates":[-0.5398937,44.0425189]},"properties":{"natural":"tree"}},
{"type":"Feature","geometry":{"type":"Point","coordinates":[-0.5397195,44.0426501]},"properties":{"natural":"tree"}},
{"type":"Feature","geometry":{"type":"Point","coordinates":[-0.5397618,44.042847]},"properties":{"natural":"tree"}},
{"type":"Feature","geometry":{"type":"Point","coordinates":[-0.5398108,44.0433513]},"properties":{"natural":"tree"}},
{"type":"Feature","geometry":{"type":"Point","coordinates":[-0.5406307,44.0436198]},"properties":{"natural":"tree"}},
{"type":"Feature","geometry":{"type":"Point","coordinates":[-0.5416078,44.0438288]},"properties":{"natural":"tree"}},
{"type":"Feature","geometry":{"type":"Point","coordinates":[-0.5418225,44.0439406]},"properties":{"natural":"tree"}},
{"type":"Feature","geometry":{"type":"Point","coordinates":[-0.5428503,44.043666]},"properties":{"natural":"tree"}},
{"type":"Feature","geometry":{"type":"Point","coordinates":[-0.5433743,44.0435408]},"properties":{"natural":"tree"}},
{"type":"Feature","geometry":{"type":"Point","coordinates":[-0.5431292,44.0435117]},"properties":{"natural":"tree"}},
{"type":"Feature","geometry":{"type":"Point","coordinates":[-0.5416247,44.0428506]},"properties":{"natural":"tree"}},
{"type":"Feature","geometry":{"type":"Point","coordinates":[-0.5404363,44.0430536]},"properties":{"natural":"tree"}},
{"type":"Feature","geometry":{"type":"Point","coordinates":[-0.5370406,44.0445346]},"properties":{"natural":"tree"}},
{"type":"Feature","geometry":{"type":"Point","coordinates":[-0.5370245,44.04447]},"properties":{"natural":"tree"}},
{"type":"Feature","geometry":{"type":"Point","coordinates":[-0.5368944,44.044148]},"properties":{"natural":"tree"}},
{"type":"Feature","geometry":{"type":"Point","coordinates":[-0.5366504,44.0441953]},"properties":{"natural":"tree"}},
{"type":"Feature","geometry":{"type":"Point","coordinates":[-0.536645,44.0443235]},"properties":{"natural":"tree"}},
{"type":"Feature","geometry":{"type":"Point","coordinates":[-0.4274383,44.0709093]},"properties":{"leisure":"playground"}},
{"type":"Feature","geometry":{"type":"Point","coordinates":[-0.4274877,44.0710196]},"properties":{"tourism":"picnic_site"}},
{"type":"Feature","geometry":{"type":"Point","coordinates":[-0.5416553,44.0439365]},"properties":{"artist_name":"Estelle Deschamp","artwork_type":"installation","description":"A pour inspiration le patrimoine bâti communal, témoignant de l'activité des forges d'autrefois","image":"http://www.laforetdartcontemporain.com/wp-content/uploads/2022/12/27-ED-18.jpg","material":"concrete","name":"Volute","network":"La Forêt d'Art Contemporain","network:website":"www.laforetdartcontemporain.com","start_date":"12/11/2022","tourism":"artwork","website":"http://www.laforetdartcontemporain.com/index.php/2022/12/07/volute/?fbclid=IwAR3WUL1azsq9Yq-z-XHLttBISOapLo0yJzNAciaFl15di384k50oKZLMxbA"}},
{"type":"Feature","geometry":{"type":"Point","coordinates":[-0.4148375,44.0352574]},"properties":{"leisure":"picnic_table"}},
{"type":"Feature","geometry":{"type":"Point","coordinates":[-0.5412734,44.0438683]},"properties":{"natural":"tree"}},
{"type":"Feature","geometry":{"type":"Point","coordinates":[-0.5401845,44.0438972]},"properties":{"natural":"tree"}},
{"type":"Feature","geometry":{"type":"Point","coordinates":[-0.5401684,44.0430971]},"properties":{"natural":"tree"}},
{"type":"Feature","geometry":{"type":"Point","coordinates":[-0.5404554,44.0433709]},"properties":{"natural":"tree"}},
{"type":"Feature","geometry":{"type":"Point","coordinates":[-0.5403588,44.0436929]},"properties":{"natural":"tree"}},
{"type":"Feature","geometry":{"type":"Point","coordinates":[-0.5407263,44.0436967]},"properties":{"natural":"tree"}},
{"type":"Feature","geometry":{"type":"Point","coordinates":[-0.5417375,44.0439917]},"properties":{"natural":"tree"}},
{"type":"Feature","geometry":{"type":"Point","coordinates":[-0.5414156,44.0438008]},"properties":{"natural":"tree"}},
{"type":"Feature","geometry":{"type":"Point","coordinates":[-0.5411313,44.0438143]},"properties":{"natural":"tree"}},
{"type":"Feature","geometry":{"type":"Point","coordinates":[-0.5436687,44.0442443]},"properties":{"natural":"tree"}},
{"type":"Feature","geometry":{"type":"Point","coordinates":[-0.5441032,44.0442558]},"properties":{"natural":"tree"}},
{"type":"Feature","geometry":{"type":"Point","coordinates":[-0.5442453,44.0441787]},"properties":{"natural":"tree"}},
{"type":"Feature","geometry":{"type":"Point","coordinates":[-0.5448408,44.044225]},"properties":{"natural":"tree"}},
{"type":"Feature","geometry":{"type":"Point","coordinates":[-0.5445621,44.1034925]},"properties":{"natural":"tree"}},
{"type":"Feature","geometry":{"type":"Point","coordinates":[-0.5360944,44.0442042]},"properties":{"addr:housenumber":"39"}},
{"type":"Feature","geometry":{"type":"Point","coordinates":[-0.5409338,44.0427567]},"properties":{"addr:housenumber":"397"}},
{"type":"Feature","geometry":{"type":"Point","coordinates":[-0.5405048,44.0426905]},"properties":{"board_type":"history","information":"board","tourism":"information"}},
{"type":"Feature","geometry":{"type":"Point","coordinates":[-0.5423133,44.0423389]},"properties":{"addr:city":"Brocas","addr:postcode":"40420","addr:street":"Rue de l'Étang","leisure":"park","name":"aire naturelle l'Etang des Forges"}},
{"type":"Feature","geometry":{"type":"Point","coordinates":[-0.5310777,44.1037461]},"properties":{"leisure":"playground","name":"jeux pour enfants extérieur"}},
{"type":"Feature","geometry":{"type":"Point","coordinates":[-0.5357767,44.0445179]},"properties":{"contact:city":"Brocas","contact:postcode":"40420","contact:street":"Place Robert Bézos","description":"salle de d'exposition / vente","name":"Galerie Broc'art","note":"Fermé temporairement","phone":"+33 5 58 51 40 68","tourism":"gallery"}},
{"type":"Feature","geometry":{"type":"Point","coordinates":[-0.5356273,44.0444233]},"properties":{"natural":"tree"}},
{"type":"Feature","geometry":{"type":"Point","coordinates":[-0.4872052,44.1079205]},"properties":{"natural":"tree"}},
{"type":"Feature","geometry":{"type":"Point","coordinates":[-0.486996,44.1080457]},"properties":{"natural":"tree"}},
{"type":"Feature","geometry":{"type":"Point","coordinates":[-0.4869369,44.1079186]},"properties":{"natural":"tree"}},
{"type":"Feature","geometry":{"type":"Point","coordinates":[-0.4868833,44.1077896]},"properties":{"natural":"tree"}},
{"type":"Feature","geometry":{"type":"Point","coordinates":[-0.4869557,44.1075103]},"properties":{"natural":"tree"}},
{"type":"Feature","geometry":{"type":"Point","coordinates":[-0.4877148,44.1067111]},"properties":{"natural":"tree"}},
{"type":"Feature","geometry":{"type":"Point","coordinates":[-0.4877362,44.1065608]},"properties":{"natural":"tree"}},
{"type":"Feature","geometry":{"type":"Point","coordinates":[-0.4862986,44.1058636]},"properties":{"natural":"tree"}},
{"type":"Feature","geometry":{"type":"Point","coordinates":[-0.4862718,44.1060042]},"properties":{"natural":"tree"}},
{"type":"Feature","geometry":{"type":"Point","coordinates":[-0.4859365,44.1055921]},"properties":{"natural":"tree"}},
{"type":"Feature","geometry":{"type":"Point","coordinates":[-0.486379,44.1066552]},"properties":{"natural":"tree"}},
{"type":"Feature","geometry":{"type":"Point","coordinates":[-0.4864836,44.1069229]},"properties":{"natural":"tree"}},
{"type":"Feature","geometry":{"type":"Point","coordinates":[-0.4869396,44.1073543]},"properties":{"natural":"tree"}},
{"type":"Feature","geometry":{"type":"Point","coordinates":[-0.4866821,44.1073216]},"properties":{"natural":"tree"}},
{"type":"Feature","geometry":{"type":"Point","coordinates":[-0.4868162,44.1075854]},"properties":{"natural":"tree"}},
{"type":"Feature","geometry":{"type":"Point","coordinates":[-0.4867304,44.1073986]},"properties":{"natural":"tree"}},
{"type":"Feature","geometry":{"type":"Point","coordinates":[-0.4866473,44.1071791]},"properties":{"natural":"tree"}},
{"type":"Feature","geometry":{"type":"Point","coordinates":[-0.4865561,44.1070828]},"properties":{"natural":"tree"}},
{"type":"Feature","geometry":{"type":"Point","coordinates":[-0.5014954,44.1258019]},"properties":{"natural":"tree"}},
{"type":"Feature","geometry":{"type":"Point","coordinates":[-0.5014592,44.1258914]},"properties":{"natural":"tree"}},
{"type":"Feature","geometry":{"type":"Point","coordinates":[-0.4860052,44.1064587]},"properties":{"natural":"tree"}},
{"type":"Feature","geometry":{"type":"Point","coordinates":[-0.4859435,44.1063624]},"properties":{"natural":"tree"}},
{"type":"Feature","geometry":{"type":"Point","coordinates":[-0.5009778,44.1256931]},"properties":{"natural":"tree"}},
{"type":"Feature","geometry":{"type":"Point","coordinates":[-0.5008758,44.1257008]},"properties":{"natural":"tree"}},
{"type":"Feature","geometry":{"type":"Point","coordinates":[-0.5014243,44.1259636]},"properties":{"natural":"tree"}},
{"type":"Feature","geometry":{"type":"Point","coordinates":[-0.5013412,44.1260291]},"properties":{"natural":"tree"}},
{"type":"Feature","geometry":{"type":"Point","coordinates":[-0.5012513,44.1260387]},"properties":{"natural":"tree"}},
{"type":"Feature","geometry":{"type":"Point","coordinates":[-0.5011601,44.125954]},"properties":{"natural":"tree"}},
{"type":"Feature","geometry":{"type":"Point","coordinates":[-0.500853,44.1254918]},"properties":{"natural":"tree"}},
{"type":"Feature","geometry":{"type":"Point","coordinates":[-0.5454041,44.1036249]},"properties":{"natural":"tree"}},
{"type":"Feature","geometry":{"type":"LineString","coordinates":[[-0.5403231,44.044941],[-0.5404283,44.0448575],[-0.5405757,44.0447627],[-0.5407787,44.0446082],[-0.5410422,44.0443608],[-0.5412071,44.0442739],[-0.5414864,44.0442132],[-0.5416782,44.044117],[-0.5418085,44.044082],[-0.5418808,44.0440425],[-0.5418729,44.0439759],[-0.5418132,44.0438992],[-0.541686,44.0438315],[-0.5414945,44.0437908],[-0.5413177,44.0437821],[-0.5411211,44.0438012],[-0.5410878,44.0438044],[-0.5409339,44.0437716],[-0.5407517,44.0436915],[-0.5406041,44.0435843],[-0.5405131,44.0434737],[-0.5404691,44.0433032],[-0.5404942,44.043205],[-0.540557,44.0430854],[-0.5406685,44.0430278],[-0.5408381,44.0429623],[-0.540948,44.0428822],[-0.5412401,44.0428585],[-0.5413169,44.0428362],[-0.5413013,44.0427445],[-0.5413761,44.0427417],[-0.5414521,44.0427388],[-0.5414745,44.0428376],[-0.5415133,44.0428641],[-0.5415887,44.0428687],[-0.5416721,44.0428915],[-0.5416869,44.0428587],[-0.5418485,44.0428954],[-0.5418384,44.0429307],[-0.5419828,44.0429939],[-0.5420456,44.0430955],[-0.542077,44.0432344],[-0.5421069,44.0433563],[-0.5421508,44.0434579],[-0.5422231,44.0435402],[-0.542278,44.043617],[-0.542333,44.0436464],[-0.5423801,44.0436938],[-0.5423958,44.0437931],[-0.5424539,44.0438823],[-0.5425733,44.0438665],[-0.5428496,44.0437062],[-0.5430255,44.043696],[-0.5431778,44.0437728],[-0.5433505,44.0438845],[-0.5434196,44.044003],[-0.5434039,44.0441452],[-0.5433097,44.0442909],[-0.5431715,44.0443428],[-0.542892,44.0443732],[-0.542669,44.0444669],[-0.5424586,44.0445821],[-0.5424194,44.0446859],[-0.5424541,44.0447867],[-0.5423848,44.0449421],[-0.5422395,44.0450875],[-0.5420645,44.0452107],[-0.5418685,44.0453287],[-0.5417127,44.045353],[-0.54154,44.0453484],[-0.5414113,44.0452954],[-0.5413155,44.0452164],[-0.5411349,44.0451182],[-0.5408475,44.0450956],[-0.5406481,44.0451182],[-0.5405366,44.0451995],[-0.540345,44.0451746],[-0.5401535,44.0451916],[-0.5398692,44.0452751],[-0.5397609,44.0452965],[-0.5397087,44.0452701],[-0.5397248,44.0452186],[-0.5397939,44.0451679],[-0.5399258,44.0451159],[-0.5400749,44.0450572],[-0.5402681,44.0450019],[-0.5403231,44.044941]]},"properties":{"name":"Étang des Forges","name:oc":"Estanh de las Hargas","natural":"water","source:name:oc":"ieo-bdtopoc"}},
{"type":"Feature","geometry":{"type":"LineString","coordinates":[[-0.5279978,44.0469454],[-0.527341,44.0471891],[-0.526097,44.0476381],[-0.5260512,44.0483209],[-0.527037,44.048305],[-0.5285586,44.0477422],[-0.5279978,44.0469454]]},"properties":{"leisure":"sports_centre","name":"Stade Raoul Danné"}},
{"type":"Feature","geometry":{"type":"LineString","coordinates":[[-0.5449951,44.0440664],[-0.544805,44.0437726],[-0.5445901,44.0438444],[-0.5447801,44.0441383],[-0.5449951,44.0440664]]},"properties":{"leisure":"pitch","name":"Tennis 1","sport":"tennis"}},
{"type":"Feature","geometry":{"type":"LineString","coordinates":[[-0.5445901,44.0438444],[-0.544805,44.0437726],[-0.5446194,44.0434857],[-0.5444045,44.0435575],[-0.5445901,44.0438444]]},"properties":{"leisure":"pitch","name":"Tennis 2","sport":"tennis"}},
{"type":"Feature","geometry":{"type":"LineString","coordinates":[[-0.5339292,44.0444662],[-0.5338354,44.0445038],[-0.5334809,44.0444929],[-0.533483,44.0444498],[-0.5334875,44.0443597],[-0.5334896,44.0443181],[-0.5339364,44.0443296],[-0.5339292,44.0444662]]},"properties":{"leisure":"pitch","sport":"pelota","start_date":"1928"}},
{"type":"Feature","geometry":{"type":"LineString","coordinates":[[-0.4868172,44.0185441],[-0.4868721,44.0185262],[-0.4868887,44.0184981],[-0.486899,44.0184483],[-0.4868658,44.0183947],[-0.4867904,44.0183576],[-0.4860856,44.0181367],[-0.4860371,44.0181329],[-0.4859796,44.0181482],[-0.4859464,44.0181865],[-0.4858762,44.0183206],[-0.4858953,44.0183691],[-0.4859822,44.0184253],[-0.4861303,44.0184802],[-0.4862363,44.0184981],[-0.4863078,44.0185019],[-0.4865006,44.0185211],[-0.4866717,44.0185479],[-0.4867777,44.0185517],[-0.4868172,44.0185441]]},"properties":{"natural":"water","source":"Bing"}},
{"type":"Feature","geometry":{"type":"LineString","coordinates":[[-0.531458,43.9912761],[-0.5315236,43.9906824],[-0.5301419,43.9906023],[-0.5300921,43.991193],[-0.5301145,43.9911944],[-0.5302371,43.9912018],[-0.531458,43.9912761]]},"properties":{"leisure":"pitch","source":"Bing","sport":"soccer"}},
{"type":"Feature","geometry":{"type":"LineString","coordinates":[[-0.534445,43.9949806],[-0.5342445,43.9949173],[-0.5340225,43.9951945],[-0.5342243,43.9952725],[-0.534445,43.9949806]]},"properties":{"leisure":"pitch","source":"Bing","sport":"tennis"}},
{"type":"Feature","geometry":{"type":"LineString","coordinates":[[-0.5308946,43.9915882],[-0.5306716,43.9915728],[-0.5307146,43.9912503],[-0.5309376,43.9912657],[-0.5308946,43.9915882]]},"properties":{"leisure":"pitch","source":"Bing","sport":"tennis"}},
{"type":"Feature","geometry":{"type":"LineString","coordinates":[[-0.5277279,44.0478013],[-0.5265888,44.0482404],[-0.5261883,44.0477036],[-0.5273273,44.0472645],[-0.5277279,44.0478013]]},"properties":{"leisure":"pitch","source":"data.gouv.fr:Le ministère des droits des femmes, de la ville, de la jeunesse et des sports - 2014","sport":"multi","surface":"grass"}},
{"type":"Feature","geometry":{"type":"LineString","coordinates":[[-0.542091,44.0425815],[-0.542099,44.0425075],[-0.542023,44.0425025],[-0.542015,44.0425765],[-0.542091,44.0425815]]},"properties":{"addr:city":"Brocas","addr:postcode":"40420","addr:street":"Rue de l'Étang","amenity":"public_building","building":"yes","email":"syndicat.iniative40420@gmail.com","information":"syndicat_d'iniative","name":"Syndicat d'Initiative","phone":"+33 5.58.51.40.23","source":"cadastre-dgi-fr source : Direction Générale des Impôts - Cadastre. Mise à jour : 2013","tourism":"information"}},
{"type":"Feature","geometry":{"type":"LineString","coordinates":[[-0.5459412,44.0447335],[-0.5456898,44.0447503],[-0.5457347,44.0450927],[-0.5457383,44.0451261],[-0.5457393,44.045136],[-0.5457535,44.0452413],[-0.5460049,44.0452246],[-0.5459412,44.0447335]]},"properties":{"building":"sports_hall","leisure":"sports_hall","name":"Salle omnisports","source":"data.gouv.fr:Le ministère des droits des femmes, de la ville, de la jeunesse et des sports - 2014","sport":"multi"}},
{"type":"Feature","geometry":{"type":"LineString","coordinates":[[-0.5345593,44.0457091],[-0.5345895,44.0456569],[-0.5345797,44.0456539],[-0.5346545,44.0455248],[-0.5346662,44.0455283],[-0.5346958,44.0454772],[-0.5345551,44.0454352],[-0.5345305,44.0454778],[-0.5344971,44.0454678],[-0.5344137,44.0456118],[-0.534444,44.0456208],[-0.5344175,44.0456667],[-0.5345367,44.0457023],[-0.5345593,44.0457091]]},"properties":{"building":"yes","historic":"castle","name":"Château d'Aon","source":"cadastre-dgi-fr source : Direction Générale des Impôts - Cadastre. Mise à jour : 2013","wikidata":"Q15940601","wikipedia":"fr:Château d'Aon (Brocas)"}},
{"type":"Feature","geometry":{"type":"LineString","coordinates":[[-0.5311509,44.0442248],[-0.5312439,44.0442098],[-0.5312439,44.0442168],[-0.5313089,44.044206],[-0.5313339,44.0442018],[-0.5312959,44.0440758],[-0.5312339,44.0440818],[-0.5312269,44.0440508],[-0.5313089,44.0440408],[-0.5313229,44.0440268],[-0.5313229,44.0440148],[-0.5313899,44.0440108],[-0.5313839,44.0439468],[-0.5311449,44.0439518],[-0.5311459,44.0439708],[-0.5310949,44.0439738],[-0.5311059,44.0440518],[-0.5311299,44.0440488],[-0.5311309,44.0440608],[-0.5311129,44.0440728],[-0.5311179,44.0440888],[-0.5311089,44.0440898],[-0.5311509,44.0442248]]},"properties":{"building":"yes","name":"Hôtel de la Gare","source":"cadastre-dgi-fr source : Direction Générale des Impôts - Cadastre. Mise à jour : 2013","tourism":"hotel"}},
{"type":"Feature","geometry":{"type":"LineString","coordinates":[[-0.5411445,44.0427534],[-0.5411415,44.0426517],[-0.5409025,44.0426554],[-0.5409055,44.0427571],[-0.5409338,44.0427567],[-0.5411445,44.0427534]]},"properties":{"building":"yes","contact:email":"museedesforgesbrocas@gmail.com","contact:phone":"+33 6 75 35 19 43","contact:website":"http://musee-forges-brocas.fr/","name":"Musée des Forges","ref:FR:CRTA":"PCUAQU04001WB9RE","tourism":"museum","wheelchair":"yes","wikidata":"Q2845928"}},
{"type":"Feature","geometry":{"type":"LineString","coordinates":[[-0.5406594,44.0426737],[-0.5407689,44.0426725],[-0.5407671,44.042594],[-0.5406576,44.0425952],[-0.5406594,44.0426737]]},"properties":{"building":"yes","historic":"ruins","man_made":"kiln","name":"Haut Fourneau","source":"cadastre-dgi-fr source : Direction Générale des Impôts - Cadastre. Mise à jour : 2013","tourism":"attraction"}},
{"type":"Feature","geometry":{"type":"LineString","coordinates":[[-0.5279927,44.0479164],[-0.5274595,44.0471869],[-0.5279693,44.0469944],[-0.5285025,44.047724],[-0.5279927,44.0479164]]},"properties":{"leisure":"pitch","sport":"multi","surface":"grass"}},
{"type":"Feature","geometry":{"type":"LineString","coordinates":[[-0.5438383,44.0435194],[-0.5436596,44.0435118],[-0.5434451,44.0434299],[-0.5436422,44.0431513],[-0.5441996,44.0434019],[-0.54407,44.0435967],[-0.5438383,44.0435194]]},"properties":{"boules":"petanque","leisure":"pitch","sport":"boules"}},
{"type":"Feature","geometry":{"type":"LineString","coordinates":[[-0.54542,44.0444096],[-0.5452661,44.0436952],[-0.5463869,44.0438156],[-0.5466173,44.0441623],[-0.5462745,44.0443361],[-0.5459329,44.0444149],[-0.54542,44.0444096]]},"properties":{"contact:website":"http://www.gites-de-france.com/location-vacances-Brocas-Gite-Les-Aubepines-40G10217.html","name":"Gîte Les Aubépines","tourism":"chalet"}},
{"type":"Feature","geometry":{"type":"LineString","coordinates":[[-0.5590659,44.0610636],[-0.5587772,44.0603487],[-0.5584041,44.0602082],[-0.5582887,44.0601508],[-0.558373,44.0601061],[-0.5586262,44.060087],[-0.5589415,44.0601731],[-0.5591325,44.0603072],[-0.559248,44.0605497],[-0.5593102,44.0608561],[-0.5592835,44.0610572],[-0.5591547,44.0611178],[-0.5590659,44.0610636]]},"properties":{"natural":"wetland","wetland":"marsh"}},
{"type":"Feature","geometry":{"type":"LineString","coordinates":[[-0.5543931,44.0571012],[-0.5541764,44.0570583],[-0.5540728,44.0570674],[-0.5539723,44.0570403],[-0.5539377,44.0569726],[-0.5539692,44.0569207],[-0.5540948,44.05688],[-0.5542016,44.0569026],[-0.5542675,44.0569545],[-0.554346,44.0569726],[-0.5544025,44.0569861],[-0.5544434,44.057047],[-0.5543931,44.0571012]]},"properties":{"natural":"wetland","wetland":"marsh"}},
{"type":"Feature","geometry":{"type":"LineString","coordinates":[[-0.5546857,44.05706],[-0.554759,44.0570983],[-0.5548456,44.0570983],[-0.5549389,44.0570743],[-0.5550299,44.0570312],[-0.5550966,44.0569642],[-0.5550899,44.0568972],[-0.5550211,44.0568397],[-0.5548878,44.0568286],[-0.5547324,44.0568828],[-0.554688,44.0569435],[-0.5546702,44.0570217],[-0.5546857,44.05706]]},"properties":{"natural":"wetland","wetland":"marsh"}},
{"type":"Feature","geometry":{"type":"LineString","coordinates":[[-0.5557963,44.0575361],[-0.5558829,44.0575648],[-0.5560117,44.0575457],[-0.5561627,44.0574898],[-0.5562094,44.0574244],[-0.5561983,44.0573398],[-0.5560806,44.0572808],[-0.555974,44.0572632],[-0.5558585,44.0572871],[-0.5558141,44.0573621],[-0.5557652,44.0574164],[-0.5557541,44.057485],[-0.5557963,44.0575361]]},"properties":{"natural":"wetland","wetland":"marsh"}},
{"type":"Feature","geometry":{"type":"LineString","coordinates":[[-0.556799,44.0593585],[-0.556834,44.0593481],[-0.5569122,44.059325],[-0.5569922,44.0593712],[-0.5570588,44.0594111],[-0.5570987,44.0594686],[-0.5570987,44.0595452],[-0.5570388,44.0596154],[-0.5569788,44.0596617],[-0.5568634,44.0596792],[-0.5567701,44.0596553],[-0.5567479,44.0595851],[-0.5568212,44.0595452],[-0.5568434,44.0594702],[-0.556799,44.0593585]]},"properties":{"natural":"wetland","wetland":"marsh"}},
{"type":"Feature","geometry":{"type":"LineString","coordinates":[[-0.5539283,44.0578347],[-0.5540351,44.057776],[-0.5540728,44.0577083],[-0.5540288,44.0576203],[-0.5539377,44.0575842],[-0.5538875,44.0575481],[-0.5538875,44.0574939],[-0.5539346,44.0574307],[-0.5538969,44.0573743],[-0.5538341,44.0573427],[-0.5537399,44.0573314],[-0.5536237,44.0573811],[-0.5535263,44.0574352],[-0.5534886,44.0574962],[-0.5534981,44.0575774],[-0.5535546,44.0576745],[-0.5536331,44.0577715],[-0.5537839,44.0578279],[-0.5539283,44.0578347]]},"properties":{"natural":"wetland","wetland":"marsh"}},
{"type":"Feature","geometry":{"type":"LineString","coordinates":[[-0.5589219,44.0617713],[-0.5589353,44.0616453],[-0.5589664,44.0614538],[-0.559073,44.061374],[-0.559203,44.0613793],[-0.5592306,44.0613804],[-0.5593461,44.0614235],[-0.5595793,44.0614937],[-0.559748,44.0616118],[-0.5599235,44.0617203],[-0.5599812,44.0618176],[-0.5599189999999999,44.0619309],[-0.5598218,44.0619665],[-0.5597836,44.0619804],[-0.5596947,44.0619501],[-0.5595859,44.0618846],[-0.5594305,44.0618479],[-0.5592861,44.0618479],[-0.5591418,44.0618719],[-0.5590041,44.0618591],[-0.5589397,44.0618176],[-0.5589219,44.0617713]]},"properties":{"natural":"wetland","wetland":"marsh"}},
{"type":"Feature","geometry":{"type":"LineString","coordinates":[[-0.5556305,44.0581146],[-0.5556776,44.0582184],[-0.5557844,44.0582703],[-0.5558943,44.0582658],[-0.5559791,44.0582184],[-0.5560325,44.058171],[-0.5560827,44.0581778],[-0.5561361,44.0582139],[-0.5561487,44.0582906],[-0.5561173,44.0583561],[-0.5560576,44.058426],[-0.555954,44.0584689],[-0.5558346,44.0584734],[-0.5556807,44.0584373],[-0.555596,44.0584012],[-0.5555112,44.0583425],[-0.5554735,44.058268],[-0.5554955,44.0581936],[-0.5554703,44.0581394],[-0.5554044,44.0580965],[-0.5553636,44.0580288],[-0.5553824,44.0579679],[-0.555486,44.057943],[-0.5555865,44.0579543],[-0.555665,44.0579814],[-0.5556902,44.0580378],[-0.5556305,44.0581146]]},"properties":{"natural":"wetland","wetland":"marsh"}},
{"type":"Feature","geometry":{"type":"LineString","coordinates":[[-0.5562523,44.0566701],[-0.5561016,44.0567243],[-0.5559383,44.0567401],[-0.5558975,44.0567624],[-0.5558598,44.056783],[-0.5558032,44.0568755],[-0.5558221,44.0569861],[-0.5559069,44.0570448],[-0.5560545,44.0570877],[-0.5563089,44.0570583],[-0.5564596,44.0571102],[-0.5565758,44.0572163],[-0.5565664,44.0572953],[-0.5565758,44.0574149],[-0.5566234,44.0575082],[-0.5566878,44.0574875],[-0.5566972,44.0574172],[-0.5567485,44.0573021],[-0.5568427,44.0572253],[-0.556937,44.0572095],[-0.5569875,44.0571829],[-0.5570312,44.0571599],[-0.5570563,44.0570651],[-0.5569998,44.0569793],[-0.5568459,44.0568507],[-0.5567988,44.0567514],[-0.5568553,44.0566476],[-0.5569495,44.056555],[-0.5571223,44.0564941],[-0.5573075,44.0564219],[-0.5573138,44.0563677],[-0.557229,44.0562661],[-0.5570877,44.0561555],[-0.5569715,44.0561623],[-0.5568019,44.0562503],[-0.5567171,44.0563609],[-0.556557,44.0564128],[-0.5564031,44.0564015],[-0.5563497,44.0564422],[-0.556356,44.056537],[-0.5563371,44.0566092],[-0.5562523,44.0566701]]},"properties":{"natural":"wetland","wetland":"marsh"}},
{"type":"Feature","geometry":{"type":"LineString","coordinates":[[-0.5566934,44.0577203],[-0.5566575,44.0578302],[-0.5565632,44.0578844],[-0.5565758,44.0579182],[-0.5566951,44.0579972],[-0.5567642,44.0580762],[-0.5567046,44.0581732],[-0.5565884,44.0582522],[-0.5564847,44.058329],[-0.5564753,44.0584779],[-0.5564659,44.0586246],[-0.5564596,44.058751],[-0.5563685,44.0588593],[-0.5562775,44.0589519],[-0.556312,44.0590557],[-0.5563999,44.0591776],[-0.5565287,44.0592723],[-0.5566229,44.0593085],[-0.5567529,44.0592714],[-0.5568051,44.0592565],[-0.5568333,44.0591753],[-0.5568553,44.0591099],[-0.5569181,44.0590647],[-0.5569966,44.0590196],[-0.5570249,44.0589767],[-0.5570029,44.0588887],[-0.5570783,44.0588187],[-0.5571725,44.0587691],[-0.5572133,44.0586743],[-0.5572133,44.0585614],[-0.5571128,44.0584666],[-0.5570657,44.0583448],[-0.5570523,44.0582879],[-0.55705,44.0582139],[-0.5570343,44.0581439],[-0.556937,44.0580785],[-0.5569087,44.058004],[-0.556849,44.057943],[-0.5568459,44.0578686],[-0.556871,44.0578302],[-0.5568607,44.0578129],[-0.5568466,44.0577891],[-0.556793,44.0577655],[-0.5567567,44.0577165],[-0.5566934,44.0577203]]},"properties":{"natural":"wetland","wetland":"marsh"}},
{"type":"Feature","geometry":{"type":"LineString","coordinates":[[-0.555703,44.0577803],[-0.555743,44.0578249],[-0.5558296,44.0578393],[-0.5559384,44.0578138],[-0.5559762,44.0577675],[-0.5559451,44.0577276],[-0.5558874,44.0577116],[-0.5558141,44.0577164],[-0.5557297,44.0577372],[-0.555703,44.0577803]]},"properties":{"natural":"wetland","wetland":"marsh"}},
{"type":"Feature","geometry":{"type":"LineString","coordinates":[[-0.4993598,44.0354361],[-0.4993991,44.0353676],[-0.4994006,44.0353066],[-0.4993911,44.0352495],[-0.4993454,44.0351868],[-0.499216,44.0350723],[-0.4991114,44.0350222],[-0.4989844,44.0349936],[-0.4988823,44.03499],[-0.4988026,44.0350383],[-0.4987578,44.0350741],[-0.498693,44.0351207],[-0.4986556,44.0351225],[-0.4986233,44.0350938],[-0.4986482,44.0350634],[-0.4986905,44.0350509],[-0.4987254,44.0350133],[-0.4987005,44.034947],[-0.4986432,44.0349148],[-0.498551,44.03487],[-0.4984365,44.0348915],[-0.4983817,44.0349363],[-0.498307,44.0349846],[-0.4982123,44.0350097],[-0.4981152,44.0349918],[-0.498033,44.0349828],[-0.4979932,44.0350025],[-0.4979807,44.0350526],[-0.4979907,44.0350885],[-0.4980529,44.0351207],[-0.4981127,44.0351225],[-0.4981501,44.0350867],[-0.4981824,44.0350705],[-0.4981999,44.0350849],[-0.4981899,44.0351171],[-0.4981974,44.0351493],[-0.4982323,44.0351708],[-0.4983991,44.0351887],[-0.4985411,44.0352174],[-0.498688,44.0352836],[-0.498835,44.0353893],[-0.4989695,44.0354609],[-0.499094,44.0355235],[-0.4991911,44.0355307],[-0.4992441,44.0355125],[-0.4992957,44.0354949],[-0.4993598,44.0354361]]},"properties":{"natural":"water"}},
{"type":"Feature","geometry":{"type":"LineString","coordinates":[[-0.593073,44.045029],[-0.5935009,44.0449931],[-0.5935544,44.0450033],[-0.5935812,44.0450367],[-0.5935722,44.0451994],[-0.5935509,44.045234],[-0.5935116,44.0452481],[-0.5932549,44.0452251],[-0.5932246,44.0451956],[-0.5932139,44.0451379],[-0.5932121,44.0450943],[-0.59318,44.0450789],[-0.5931408,44.0450866],[-0.5931051,44.0451123],[-0.5930837,44.0451828],[-0.5930641,44.0452148],[-0.5930106,44.0452238],[-0.5929553,44.045193],[-0.5929304,44.0451482],[-0.5929589,44.0450995],[-0.5930142,44.0450661],[-0.593073,44.045029]]},"properties":{"natural":"water"}},
{"type":"Feature","geometry":{"type":"LineString","coordinates":[[-0.5376994,44.0460705],[-0.5375627,44.0460718],[-0.5375618,44.0460209],[-0.5376984,44.0460196],[-0.5376994,44.0460705]]},"properties":{"access":"private","leisure":"swimming_pool"}},
{"type":"Feature","geometry":{"type":"LineString","coordinates":[[-0.5793412,44.026574],[-0.579309,44.026547],[-0.579368,44.0265239],[-0.5794217,44.0265432],[-0.5794056,44.0265856],[-0.5793412,44.026574]]},"properties":{"natural":"water"}},
{"type":"Feature","geometry":{"type":"LineString","coordinates":[[-0.5738613,44.0291388],[-0.5738237,44.0291099],[-0.5737478,44.0290907],[-0.5736915,44.0291042],[-0.5736459,44.0291293],[-0.5736226,44.0291716],[-0.5736521,44.0291909],[-0.5737245,44.0292063],[-0.5737755,44.0292063],[-0.5738184,44.0291851],[-0.5738578,44.0291659],[-0.5738613,44.0291388]]},"properties":{"natural":"water"}},
{"type":"Feature","geometry":{"type":"LineString","coordinates":[[-0.3638613,44.1998013],[-0.3751816,44.2017732],[-0.3737208,44.2054496],[-0.372541,44.2091476],[-0.3711963,44.2095025],[-0.3641058,44.2122496],[-0.3607011,44.2072198],[-0.3501938,44.2053225],[-0.3626701,44.2001414],[-0.3631657,44.2001063],[-0.3638613,44.1998013]]},"properties":{"natural":"scrub"}},
{"type":"Feature","geometry":{"type":"LineString","coordinates":[[-0.4229187,44.2111126],[-0.4223136,44.20844],[-0.4228392,44.2055087],[-0.4206876,44.1967622],[-0.3902046,44.1889479],[-0.3867022,44.1911306],[-0.380119,44.1939925],[-0.3712498,44.1976737],[-0.3676067,44.1991987],[-0.3774662,44.200899],[-0.375064,44.2070949],[-0.3732363,44.2122868],[-0.3712436,44.2179558],[-0.3780835,44.236496699999999],[-0.3950335,44.2350033],[-0.3896851,44.22906],[-0.3932364,44.2261035],[-0.3925151,44.2257399],[-0.3981814,44.2213464],[-0.4168123,44.2096712],[-0.4229187,44.2111126]]},"properties":{"natural":"scrub"}},
{"type":"Feature","geometry":{"type":"LineString","coordinates":[[-0.4281846,44.2319902],[-0.4118276,44.2334727],[-0.411849,44.2326296],[-0.4094743,44.2328902],[-0.4093979,44.2336632],[-0.4025274,44.2343158],[-0.3954247,44.2349464],[-0.3900763,44.2290206],[-0.3936704,44.2259765],[-0.3930316,44.2256458],[-0.3984198,44.221502],[-0.4027933,44.2187444],[-0.4081265,44.2154171],[-0.4089058,44.215761],[-0.4093092,44.2161641],[-0.4095721,44.216094],[-0.4093856,44.2156099],[-0.4083985,44.21522],[-0.4168673,44.2099056],[-0.4230318,44.2116055],[-0.4270324,44.2273562],[-0.4281846,44.2319902]]},"properties":{"natural":"scrub"}},
{"type":"Feature","geometry":{"type":"LineString","coordinates":[[-0.3884549,44.1884873],[-0.3865478,44.1900257],[-0.3851358,44.1907007],[-0.3433997,44.1834861],[-0.3407407,44.1822763],[-0.3477884,44.1780023],[-0.3884549,44.1884873]]},"properties":{"natural":"scrub"}},
{"type":"Feature","geometry":{"type":"LineString","coordinates":[[-0.384639,44.1908406],[-0.3764622,44.1942419],[-0.3656125,44.1986637],[-0.3623362,44.1991983],[-0.3588826,44.1985848],[-0.3723974,44.1930016],[-0.3685648,44.1880578],[-0.384639,44.1908406]]},"properties":{"natural":"scrub"}},
{"type":"Feature","geometry":{"type":"LineString","coordinates":[[-0.408876,44.1023567],[-0.4090537,44.1017649],[-0.4076895,44.1015537],[-0.407527,44.1020951],[-0.4075889,44.1021574],[-0.408876,44.1023567]]},"properties":{"leisure":"pitch","sport":"soccer"}},
{"type":"Feature","geometry":{"type":"LineString","coordinates":[[-0.5484337,44.0952665],[-0.5486622,44.0947607],[-0.5474527,44.0944789],[-0.5472242,44.0949847],[-0.5484337,44.0952665]]},"properties":{"leisure":"pitch","sport":"soccer"}},
{"type":"Feature","geometry":{"type":"LineString","coordinates":[[-0.4075358,43.987481],[-0.4076462,43.9875338],[-0.4075995,43.9875847],[-0.4074891,43.9875319],[-0.4075358,43.987481]]},"properties":{"access":"private","leisure":"swimming_pool","source":"cadastre-dgi-fr source : Direction Générale des Impôts - Cadastre. Mise à jour : 2015"}},
{"type":"Feature","geometry":{"type":"LineString","coordinates":[[-0.4125127,43.9880182],[-0.412513,43.9880709],[-0.4123813,43.9880684],[-0.4123872,43.988016],[-0.4125127,43.9880182]]},"properties":{"access":"private","leisure":"swimming_pool","source":"cadastre-dgi-fr source : Direction Générale des Impôts - Cadastre. Mise à jour : 2015"}},
{"type":"Feature","geometry":{"type":"LineString","coordinates":[[-0.4278566,43.985505],[-0.4279902,43.9855189],[-0.4280815,43.9855614],[-0.4281718,43.98562],[-0.4282155,43.9856785],[-0.4282645,43.9858273],[-0.4282047,43.9860873],[-0.428228,43.9862106],[-0.428282,43.9863417],[-0.4283899,43.986426],[-0.428618,43.9865621],[-0.428458,43.9866603],[-0.4283385,43.9867266],[-0.4281461,43.9866478],[-0.4280471,43.9865778],[-0.4279223,43.9864148],[-0.4275902,43.9861865],[-0.4275673,43.9859786],[-0.4275053,43.9858958],[-0.4274329,43.9858704],[-0.4273406,43.9858771],[-0.4272426,43.9859273],[-0.4270407,43.9859727],[-0.4269231,43.9860136],[-0.4266649,43.9861567],[-0.4265543,43.9860483],[-0.4264008,43.985988],[-0.4262668,43.9859802],[-0.4261891,43.9859569],[-0.4261795,43.9859316],[-0.4262921,43.9858042],[-0.4261768,43.9856482],[-0.4260168,43.9855684],[-0.4256901,43.9855782],[-0.4254118,43.9856219],[-0.4253169,43.9856779],[-0.4252555,43.9857487],[-0.4249057,43.9857828],[-0.4247777,43.9858319],[-0.4247478,43.985882],[-0.4248113,43.9859431],[-0.424874,43.9859905],[-0.4248873,43.9860314],[-0.4247864,43.986125],[-0.4247056,43.9861432],[-0.4246385,43.9861137],[-0.4244529,43.9859696],[-0.4243805,43.9859423],[-0.4242351,43.985927],[-0.4242405,43.9858724],[-0.42425620000000005,43.98582],[-0.4244092,43.9858253],[-0.4247253,43.9856799],[-0.4250031,43.9856263],[-0.4251337,43.9856224],[-0.4253978,43.9854727],[-0.4256431,43.985424],[-0.4256959,43.9853988],[-0.4256739,43.9853348],[-0.4254352,43.985053],[-0.4253549,43.9849846],[-0.4252659,43.9849292],[-0.4251186,43.9848578],[-0.4251251,43.9848281],[-0.425208,43.9846819],[-0.4253356,43.9847912],[-0.425527,43.9848465],[-0.4255708,43.9848738],[-0.4257314,43.9850826],[-0.4257905,43.9851389],[-0.4258648,43.985174],[-0.4265977,43.9853302],[-0.4268176,43.9853725],[-0.4268694,43.9854549],[-0.4269201,43.9855774],[-0.4269448,43.9856751],[-0.4270114,43.9857184],[-0.4273128,43.9856976],[-0.4273636,43.9856803],[-0.4275006,43.9855728],[-0.4275826,43.985529],[-0.4276497,43.9855112],[-0.4277648,43.9854979],[-0.4278566,43.985505]]},"properties":{"intermittent":"no","name":"Étang Neuf","natural":"wetland","salt":"no","source":"cadastre-dgi-fr source : Direction Générale des Impôts - Cadastre. Mise à jour : 2015","tidal":"no"}},
{"type":"Feature","geometry":{"type":"LineString","coordinates":[[-0.4096141,44.0465135],[-0.4095604,44.0461133],[-0.4092879,44.0456267],[-0.4081574,44.0453433],[-0.4077121,44.0462417],[-0.4070374,44.0460938],[-0.4067824,44.0474081],[-0.4072217,44.0474422],[-0.4068246,44.048301],[-0.409304,44.0487545],[-0.4093915,44.0492245],[-0.4109001,44.0501407],[-0.4126034,44.0478365],[-0.4111054,44.0469303],[-0.4094961,44.0469303],[-0.4096141,44.0465135]]},"properties":{"natural":"heath"}},
{"type":"Feature","geometry":{"type":"LineString","coordinates":[[-0.3917828,44.040052],[-0.3946044,44.0388642],[-0.3950229,44.0377845],[-0.3939285,44.0376379],[-0.3936496,44.0384015],[-0.3913858,44.0382009],[-0.3912892,44.0375068],[-0.3898408,44.0373525],[-0.3897443,44.0368512],[-0.3883281,44.0371366],[-0.3882208,44.0397975],[-0.3917828,44.040052]]},"properties":{"natural":"heath"}},
{"type":"Feature","geometry":{"type":"LineString","coordinates":[[-0.6045242,44.0095348],[-0.6040524,44.0086263],[-0.6012116,44.0093771],[-0.6008415,44.0094712],[-0.6010947,44.0105136],[-0.6045242,44.0095348]]},"properties":{"leisure":"pitch","name":"Moto-Cross","source":"cadastre-dgi-fr source : Direction Générale des Impôts - Cadastre. Mise à jour : 2015","sport":"motocross"}},
{"type":"Feature","geometry":{"type":"LineString","coordinates":[[-0.3780964,44.0261337],[-0.3778391,44.0259449],[-0.378103,44.0257719],[-0.3782322,44.0254635],[-0.378455,44.0253872],[-0.3785794,44.0253719],[-0.3789311,44.0252647],[-0.3795505,44.0251492],[-0.3798988,44.0249495],[-0.3801074,44.0248737],[-0.3808304,44.0246599],[-0.3810823,44.0244021],[-0.3811435,44.0242828],[-0.3812408,44.023838],[-0.3814908,44.0236582],[-0.3822776,44.0234025],[-0.3830481,44.023079],[-0.3838323,44.0230287],[-0.3842576,44.0232742],[-0.3850849,44.0232252],[-0.3854152,44.0231212],[-0.3856186,44.0229861],[-0.3856758,44.0228592],[-0.3856728,44.0227121],[-0.3856164,44.0226325],[-0.385618,44.0225976],[-0.3852249,44.0222917],[-0.3849986,44.0220243],[-0.3847144,44.0218371],[-0.3846764,44.0217753],[-0.3845698,44.021542],[-0.3846655,44.0213888],[-0.3847866,44.0212501],[-0.3864255,44.020266],[-0.3867583,44.0199814],[-0.3871528,44.0194906],[-0.3876677,44.0188605],[-0.3878019,44.0187287],[-0.388067,44.0185876],[-0.388554,44.0184326],[-0.3888118,44.018341],[-0.3890278,44.0181795],[-0.3891215,44.0180489],[-0.3892355,44.0175636],[-0.3894263,44.017317],[-0.3895089,44.0172562],[-0.3902484,44.0169622],[-0.3908295,44.0164175],[-0.39158,44.015867],[-0.3917502,44.0157074],[-0.3920706,44.0152927],[-0.3923412,44.0150711],[-0.392622,44.0146283],[-0.3927741,44.0144559],[-0.3932141,44.0141434],[-0.3937037,44.0139263],[-0.3939752,44.013785],[-0.3940954,44.0137193],[-0.3942988,44.0135389],[-0.3943962,44.0133836],[-0.394243,44.0129382],[-0.3941173,44.0127302],[-0.3935592,44.0123681],[-0.3933264,44.0120564],[-0.39309,44.0115259],[-0.3930977,44.0113504],[-0.3931711,44.0111511],[-0.3932966,44.0109785],[-0.3934013,44.0109079],[-0.3943229,44.0103712],[-0.394896,44.0101087],[-0.395113,44.0100557],[-0.3951975,44.0100514],[-0.3957496,44.0100641],[-0.3959732,44.0099498],[-0.3960869,44.009815],[-0.396055,44.0096325],[-0.3959756,44.0093939],[-0.3958795,44.0092617],[-0.3955695,44.0091815],[-0.395265,44.0091303],[-0.3950881,44.0090653],[-0.3948101,44.0088253],[-0.3947297,44.0086579],[-0.3947438,44.0085507],[-0.3948941,44.0083675],[-0.3952966,44.007618],[-0.3955467,44.0074591],[-0.3962373,44.0073463],[-0.396412,44.0071778],[-0.3965873,44.0066997],[-0.3967991,44.0064774],[-0.3970202,44.0063865],[-0.3971367,44.0063501],[-0.3972589,44.0063491],[-0.3975129,44.0063864],[-0.397771,44.0064959],[-0.3980204,44.0066452],[-0.3984094,44.0070011],[-0.3985189,44.0070335],[-0.3987058,44.0070463],[-0.3988263,44.0070151],[-0.3996072,44.0067258],[-0.3999284,44.0066622],[-0.4003226,44.006661],[-0.4005422,44.0067045],[-0.4008024,44.0067863],[-0.4009345,44.0068628],[-0.4011153,44.0069382],[-0.4012952,44.0070877],[-0.4015962,44.0076153],[-0.4017135,44.0076878],[-0.4018276,44.0076739],[-0.4022966,44.0075137],[-0.4029321,44.007201],[-0.4031469,44.0071604],[-0.403435,44.0072203],[-0.4037227,44.0073052],[-0.4038982,44.0073106],[-0.404072,44.0072856],[-0.4043961,44.0072088],[-0.405681,44.0070519],[-0.4060098,44.0069288],[-0.4067581,44.0065799],[-0.4070998,44.0063971],[-0.4072944,44.0062254],[-0.4074776,44.0059512],[-0.4074729,44.0058697],[-0.4070424,44.0050119],[-0.4068578,44.0046359],[-0.4067918,44.0042686],[-0.4068559,44.0041328],[-0.4071676,44.0039038],[-0.4073484,44.004046],[-0.4071647,44.004399],[-0.4072525,44.0047143],[-0.4074892,44.0050505],[-0.4078208,44.0054828],[-0.408125,44.0057428],[-0.4082052,44.0060272],[-0.4080288,44.0062671],[-0.4075247,44.0065884],[-0.4071005,44.0069026],[-0.405422,44.007441],[-0.4036595,44.0075851],[-0.4036176,44.007547],[-0.4034157,44.0075279],[-0.4031097,44.0075549],[-0.4026296,44.0077017],[-0.4024516,44.0077983],[-0.4022066,44.0078933],[-0.4020686,44.0079081],[-0.4019293,44.007915],[-0.4015213,44.0078697],[-0.4012933,44.0078195],[-0.4009634,44.0072118],[-0.4008669,44.0070614],[-0.4007462,44.006961],[-0.4006603,44.0069147],[-0.4004286,44.0068956],[-0.400111,44.0069008],[-0.3997279,44.0070109],[-0.3993552,44.0071723],[-0.3991387,44.007288],[-0.3989558,44.0073417],[-0.3987119,44.0073275],[-0.3984567,44.0073039],[-0.3972796,44.0067795],[-0.3971595,44.0067796],[-0.3970548,44.0068381],[-0.3970384,44.0070283],[-0.3971028,44.0073306],[-0.3970476,44.0074504],[-0.3968715,44.0075362],[-0.3966734,44.0076187],[-0.3964131,44.0076304],[-0.395777,44.007694],[-0.3956247,44.0077832],[-0.3953161,44.0081784],[-0.3950036,44.0085815],[-0.3950357,44.0087011],[-0.3950921,44.0087687],[-0.3952385,44.0089773],[-0.395936,44.0090765],[-0.3960912,44.0091023],[-0.3962936,44.0092162],[-0.3964338,44.0094659],[-0.3964804,44.0097726],[-0.396457,44.0100373],[-0.3964343,44.0100952],[-0.3962702,44.0102612],[-0.3961846,44.010307],[-0.395435,44.0102708],[-0.3953497,44.0102742],[-0.3951378,44.0103423],[-0.3947326,44.0105208],[-0.3943032,44.0107365],[-0.3939544,44.0109636],[-0.3935504,44.0113432],[-0.3935036,44.0114074],[-0.3935023,44.0115363],[-0.3935708,44.011716],[-0.3937481,44.0120427],[-0.3939684,44.0122928],[-0.3941988,44.0124866],[-0.394501,44.0126324],[-0.3948272,44.0132859],[-0.3948825,44.0134478],[-0.3948593,44.0135453],[-0.3947817,44.0136631],[-0.3945977,44.0138493],[-0.3942007,44.0140633],[-0.3933269,44.0144779],[-0.3929686,44.0148497],[-0.3926537,44.0153065],[-0.3917957,44.0160533],[-0.3914999,44.0163337],[-0.3912619,44.016509],[-0.3909825,44.0168287],[-0.390666,44.0171066],[-0.3904917,44.0172111],[-0.3898269,44.0174841],[-0.3897419,44.01756],[-0.3896576,44.0176466],[-0.3896247,44.0177657],[-0.3896078,44.0179917],[-0.3895095,44.0182685],[-0.389355,44.0184306],[-0.3890398,44.0186039],[-0.388775,44.0186738],[-0.3883975,44.0187083],[-0.3881883,44.0187789],[-0.3880015,44.0188748],[-0.3878584,44.0189983],[-0.3876665,44.0192409],[-0.3874386,44.0196334],[-0.3871653,44.0199779],[-0.3870287,44.0201493],[-0.3868737,44.0203082],[-0.3865908,44.0204737],[-0.3862365,44.0206328],[-0.3856232,44.0209919],[-0.3852119,44.021218],[-0.3850049,44.0213617],[-0.384906,44.021456],[-0.3848939,44.0215906],[-0.3849798,44.0217062],[-0.3853339,44.0220447],[-0.3855398,44.0222623],[-0.3859025,44.0224914],[-0.3860905,44.0226129],[-0.3861701,44.0227846],[-0.3861131,44.0228679],[-0.3860971,44.022926],[-0.3860341,44.0230196],[-0.3857927,44.0231546],[-0.3854303,44.0233419],[-0.3849635,44.0235462],[-0.3847129,44.0235665],[-0.3838703,44.0235064],[-0.3836308,44.0235053],[-0.3831498,44.0235132],[-0.3828523,44.0235492],[-0.3823845,44.0237023],[-0.3820534,44.023833],[-0.3817735,44.0239987],[-0.3814696,44.0241774],[-0.381276,44.0245141],[-0.3810722,44.0247571],[-0.3807098,44.0250172],[-0.3805502,44.0250534],[-0.3799631,44.0250994],[-0.3797954,44.0251718],[-0.379715,44.0252151],[-0.3795674,44.0253231],[-0.3793601,44.0254126],[-0.3789747,44.0254553],[-0.3785509,44.0255941],[-0.3783647,44.025824],[-0.3780964,44.0261337]]},"properties":{"natural":"water","water":"river"}},
{"type":"Feature","geometry":{"type":"LineString","coordinates":[[-0.376263,43.9975458],[-0.3763153,43.9975892],[-0.3763354,43.9976375],[-0.3763045,43.9977147],[-0.3762643,43.997761],[-0.376204,43.9977764],[-0.3761356,43.9977735],[-0.3753684,43.9975786],[-0.3752384,43.9974802],[-0.3749487,43.997322],[-0.3745866,43.9972429],[-0.3744726,43.9971522],[-0.3744163,43.9971059],[-0.3744216,43.9970644],[-0.3746147,43.9971049],[-0.3746872,43.9971194],[-0.3749836,43.9971126],[-0.3750989,43.9972313],[-0.3753094,43.9973307],[-0.3754932,43.9973924],[-0.3759787,43.9974648],[-0.376098,43.9974937],[-0.376263,43.9975458]]},"properties":{"natural":"water","water":"reservoir"}},
{"type":"Feature","geometry":{"type":"LineString","coordinates":[[-0.5289728,43.9895198],[-0.5289609,43.9895803],[-0.5289482,43.9895872],[-0.528922,43.9896123],[-0.5287887,43.9896151],[-0.5284721,43.9895863],[-0.5284961,43.9895176],[-0.5285733,43.9895212],[-0.528608,43.9895148],[-0.5286231,43.9895208],[-0.5286259,43.9895108],[-0.5287564,43.9894794],[-0.5288358,43.9894763],[-0.5289667,43.9894923],[-0.5289728,43.9895198]]},"properties":{"natural":"water","source":"cadastre-dgi-fr source : Direction Générale des Finances Publiques - Cadastre. Mise à jour : 2014","water":"pond"}},
{"type":"Feature","geometry":{"type":"LineString","coordinates":[[-0.5449321,44.0450011],[-0.5447729,44.044992],[-0.5447661,44.0450051],[-0.5447541,44.0450351],[-0.5447181,44.0450771],[-0.5446531,44.0451231],[-0.5446151,44.0451411],[-0.5445731,44.0451541],[-0.5444841,44.0451681],[-0.5443931,44.0451641],[-0.5443081,44.0451421],[-0.5442331,44.0451041],[-0.5441771,44.0450531],[-0.5441421,44.0449921],[-0.5441321,44.0449271],[-0.5441471,44.0448621],[-0.5441631,44.0448311],[-0.5441861,44.0448021],[-0.5442291,44.0447641],[-0.5442641,44.0447431],[-0.5443231,44.0447181],[-0.5444101,44.0446991],[-0.5444791,44.0446971],[-0.5445241,44.0447021],[-0.5446101,44.0447241],[-0.5446841,44.0447621],[-0.5447411,44.0448131],[-0.5447691,44.0448581],[-0.5447781,44.0448881],[-0.5447819,44.0449123],[-0.5449401,44.0449191],[-0.5449321,44.0450011]]},"properties":{"alt_name":"Arènes de l'Estrigon","leisure":"stadium","name":"Arènes de Brocas","source":"data.gouv.fr:Le ministère des droits des femmes, de la ville, de la jeunesse et des sports - 2014","sport":"bullfighting;course_landaise","tourism":"attraction","wikidata":"Q16303848","wikipedia":"fr:Arènes de Brocas"}},
{"type":"Feature","geometry":{"type":"LineString","coordinates":[[-0.4113447,44.0929226],[-0.4115325,44.0926221],[-0.4113367,44.0925643],[-0.4111516,44.0928552],[-0.4113447,44.0929226]]},"properties":{"leisure":"pitch","sport":"tennis"}},
{"type":"Feature","geometry":{"type":"LineString","coordinates":[[-0.40233,44.1044373],[-0.4023864,44.1042659],[-0.4017024,44.1041503],[-0.4016622,44.1043333],[-0.40233,44.1044373]]},"properties":{"natural":"water"}},
{"type":"Feature","geometry":{"type":"LineString","coordinates":[[-0.5411437,44.106966],[-0.5409747,44.1069815],[-0.5407602,44.1069718],[-0.5407092,44.1070604],[-0.5409828,44.107124],[-0.5410847,44.1072203],[-0.5411813,44.1073339],[-0.5413985,44.1073243],[-0.5415863,44.1072318],[-0.5417606,44.1070604],[-0.5417767,44.1068466],[-0.5416775,44.1066829],[-0.5415326,44.1065751],[-0.541361,44.1066001],[-0.541243,44.1066945],[-0.5412296,44.1068505],[-0.5411437,44.106966]]},"properties":{"natural":"water"}},
{"type":"Feature","geometry":{"type":"LineString","coordinates":[[-0.5091691,44.1264533],[-0.5093166,44.1263657],[-0.5094078,44.1262627],[-0.5093542,44.1260644],[-0.5092898,44.1259585],[-0.509204,44.12587],[-0.5092335,44.125843],[-0.5092093,44.1257987],[-0.5091396,44.1258083],[-0.5090269,44.1258026],[-0.5088338,44.1258334],[-0.5084798,44.1259239],[-0.5082277,44.1260163],[-0.5080184,44.1260067],[-0.5078253,44.1260259],[-0.5077824,44.1260779],[-0.5077851,44.1261279],[-0.5078414,44.1261665],[-0.5079246,44.1261626],[-0.5080989,44.1261356],[-0.5082277,44.1261597],[-0.5083323,44.1262338],[-0.5084395,44.1263012],[-0.5085978,44.1263051],[-0.5086836,44.1263147],[-0.5087373,44.1263571],[-0.5088714,44.1264187],[-0.5090699,44.1264514],[-0.5091691,44.1264533]]},"properties":{"natural":"water"}},
{"type":"Feature","geometry":{"type":"LineString","coordinates":[[-0.3892206,44.1109404],[-0.3891877,44.110971],[-0.3891637,44.1109797],[-0.3891511,44.1109765],[-0.389147,44.1109738],[-0.3891403,44.1109669],[-0.3891375,44.1109563],[-0.3891368,44.1109492],[-0.3891389,44.1109419],[-0.3891415,44.1109382],[-0.3891604,44.1109295],[-0.3891884,44.1109208],[-0.3891993,44.1109209],[-0.3892124,44.1109217],[-0.3892191,44.1109312],[-0.3892206,44.1109404]]},"properties":{"access":"private","leisure":"swimming_pool"}},
{"type":"Feature","geometry":{"type":"LineString","coordinates":[[-0.5042875,43.992801],[-0.5044538,43.9927856],[-0.5044779,43.9927528],[-0.5044833,43.9926736],[-0.5043465,43.9924903],[-0.5041426,43.9923398],[-0.5037457,43.9921584],[-0.5028713,43.9918651],[-0.5026916,43.9917532],[-0.5024314,43.9916413],[-0.5015194,43.9914039],[-0.5012003,43.9913576],[-0.4997867,43.9911048],[-0.4995722,43.9911048],[-0.4995346,43.991182],[-0.4995024,43.9913364],[-0.4994381,43.991402],[-0.499422,43.9914792],[-0.4994702,43.9915525],[-0.4995507,43.9916181],[-0.4996473,43.9916644],[-0.4999584,43.9917686],[-0.5006504,43.9920928],[-0.5008328,43.9923051],[-0.5010045,43.9924016],[-0.5013317,43.9924903],[-0.5024368,43.9926679],[-0.503102,43.9927412],[-0.50403,43.9927605],[-0.5042875,43.992801]]},"properties":{"name":"Lagune de Paulin","natural":"water"}},
{"type":"Feature","geometry":{"type":"LineString","coordinates":[[-0.5788341,44.0932691],[-0.5788864,44.09322],[-0.5788542,44.0931603],[-0.578763,44.0931371],[-0.5786866,44.09314],[-0.5786383,44.0931824],[-0.5786692,44.0932286],[-0.5787416,44.0932575],[-0.5788341,44.0932691]]},"properties":{"natural":"water","source":"BD Carthage"}},
{"type":"Feature","geometry":{"type":"LineString","coordinates":[[-0.5785337,44.0931858],[-0.5784941,44.0932498],[-0.5784868,44.0932864],[-0.5785029,44.0933129],[-0.5785545,44.09331],[-0.578649,44.0933047],[-0.5789079,44.0933057],[-0.5789588,44.0933317],[-0.5789964,44.0933789],[-0.5790031,44.0934531],[-0.5789655,44.0935032],[-0.5787483,44.0936534],[-0.5785592,44.0938027],[-0.5784868,44.0938258],[-0.5784117,44.093796],[-0.5784023,44.0937796],[-0.5784559,44.0937478],[-0.5787362,44.093637],[-0.578755,44.0936187],[-0.5787349,44.0936081],[-0.5785994,44.0936303],[-0.5784707,44.0936746],[-0.5783902,44.0936813],[-0.5783701,44.0936679],[-0.5783808,44.0936293],[-0.5784197,44.0936197],[-0.5785096,44.0936178],[-0.5785806,44.0935831],[-0.5785914,44.0935388],[-0.5785565,44.0934714],[-0.5784975,44.0934386],[-0.5784345,44.0933934],[-0.5784237,44.0933124],[-0.5784331,44.0932277],[-0.5784747,44.0931285],[-0.5784425,44.0930861],[-0.578362,44.0930476],[-0.5783111,44.0930206],[-0.5782467,44.0929464],[-0.5781971,44.0929069],[-0.578173,44.0929031],[-0.578185,44.092931],[-0.5782749,44.0930456],[-0.5783781,44.0930986],[-0.5783848,44.0931246],[-0.5783701,44.0931477],[-0.5783486,44.0931497],[-0.578177,44.0930254],[-0.5780563,44.0928857],[-0.5779168,44.0927952],[-0.5778323,44.0927605],[-0.577611,44.0927576],[-0.5774528,44.0927104],[-0.5773669,44.0925428],[-0.5772918,44.0924668],[-0.5772489,44.0924176],[-0.5772905,44.0923916],[-0.5772892,44.0923675],[-0.5772369,44.0922905],[-0.5771229,44.0922587],[-0.5770773,44.0922009],[-0.5769794,44.0920593],[-0.57675,44.0918908],[-0.5765878,44.0917569],[-0.5765717,44.0916808],[-0.5766346999999999,44.091648],[-0.5766937,44.0916162],[-0.576746,44.0916451],[-0.5767795,44.0916962],[-0.576856,44.0917135],[-0.5769472,44.0917501],[-0.577025,44.0918243],[-0.5771564,44.0919341],[-0.5772463,44.0920015],[-0.5772422,44.0920767],[-0.5772422,44.0921537],[-0.5773012,44.0922818],[-0.5773549,44.0923839],[-0.5774273,44.0923878],[-0.5777411,44.0924619],[-0.5779235,44.0925168],[-0.5781823,44.0926652],[-0.578244,44.0926642],[-0.5783728,44.09259],[-0.5784345,44.0925852],[-0.5785833,44.0926334],[-0.5787832,44.0926652],[-0.5790178,44.0927885],[-0.5791694,44.092905],[-0.5792794,44.0930447],[-0.5793518,44.0931352],[-0.5793437,44.0931872],[-0.579274,44.0932065],[-0.5792834,44.0932498],[-0.5793987,44.0932267],[-0.5795529,44.0931901],[-0.5797447,44.093194],[-0.5799365,44.0931699],[-0.5800398,44.0932026],[-0.5800599,44.0932412],[-0.5800398,44.0932778],[-0.5799271,44.0932672],[-0.5798185,44.093323],[-0.5796294,44.0934126],[-0.5792874,44.0935109],[-0.5791211,44.09356],[-0.5790688,44.0935504],[-0.5791251,44.0935253],[-0.579388,44.0934425],[-0.579612,44.0933693],[-0.5796549,44.0933182],[-0.5796106,44.0932691],[-0.5795087,44.0932575],[-0.5793598,44.0933182],[-0.5792727,44.093349],[-0.5792257,44.0933346],[-0.5792163,44.0933047],[-0.5792244,44.0932315],[-0.57916,44.093192],[-0.5790715,44.0931853],[-0.579042,44.0931391],[-0.5790313,44.0930899],[-0.5790031,44.0930659],[-0.5789535,44.0930582],[-0.5788784,44.0930861],[-0.5788127,44.0930774],[-0.5787201,44.0930408],[-0.5785511,44.0929878],[-0.578468,44.0929474],[-0.5784465,44.0928867],[-0.5784962,44.0927914],[-0.5785766,44.0927567],[-0.5786584,44.0927596],[-0.5787376,44.0927875],[-0.578822,44.0928463],[-0.5788757,44.092905],[-0.5789977,44.0929956],[-0.5790581,44.0929878],[-0.579038,44.0929532],[-0.5789106,44.0928434],[-0.5788918,44.0927808],[-0.5787832,44.0927326],[-0.5786383,44.0927018],[-0.5784854,44.09267],[-0.5783714,44.0926266],[-0.5783205,44.09267],[-0.5782735,44.092723],[-0.5782749,44.0928068],[-0.5783151,44.0929329],[-0.5783446,44.092983],[-0.578413,44.0930158],[-0.5785082,44.0930678],[-0.5785525,44.0931082],[-0.5785337,44.0931858]]},"properties":{"natural":"water","source":"BD Carthage"}},
{"type":"Feature","geometry":{"type":"LineString","coordinates":[[-0.5785525,44.1318834],[-0.5789602,44.1315908],[-0.5790782,44.1314021],[-0.5790407,44.131302],[-0.5788583,44.1312057],[-0.5786008,44.131225],[-0.5784559,44.1313674],[-0.5782628,44.1316909],[-0.5783647,44.1318218],[-0.5785525,44.1318834]]},"properties":{"natural":"water"}},
{"type":"Feature","geometry":{"type":"LineString","coordinates":[[-0.5705515,44.1468532],[-0.5705246,44.146986],[-0.5705783,44.1471323],[-0.5705193,44.1473517],[-0.5704227,44.1476134],[-0.570302,44.1478386],[-0.5703396,44.1479175],[-0.5705515,44.1479579],[-0.5707338,44.1479637],[-0.5708358,44.1478655],[-0.5709431,44.1476346],[-0.570986,44.1475056],[-0.5709109,44.147446],[-0.5708975,44.1473536],[-0.5709699,44.14724],[-0.5709752,44.1471053],[-0.5707768,44.1469687],[-0.5705515,44.1468532]]},"properties":{"natural":"water"}},
{"type":"Feature","geometry":{"type":"LineString","coordinates":[[-0.5313322,44.0849379],[-0.5310264,44.0847953],[-0.5308601,44.0847279],[-0.5308387,44.0845564],[-0.5308065,44.0843945],[-0.5308521,44.0842096],[-0.5308816,44.0841287],[-0.5309996,44.0841017],[-0.5311149,44.0841094],[-0.5311579,44.0842038],[-0.531131,44.0843637],[-0.5311015,44.0845506],[-0.5311337,44.0846392],[-0.5313268,44.0847991],[-0.5314744,44.0848627],[-0.5315307,44.0849302],[-0.5316219,44.0850419],[-0.5315039,44.0850361],[-0.5313322,44.0849379]]},"properties":{"natural":"water"}},
{"type":"Feature","geometry":{"type":"LineString","coordinates":[[-0.3923401,44.0023482],[-0.3924072,44.0022613],[-0.3924099,44.0021745],[-0.3923187,44.00208],[-0.3921255,44.0019796],[-0.3919968,44.0019372],[-0.391978,44.0018928],[-0.3921121,44.0019121],[-0.3923187,44.0019411],[-0.3923965,44.0019661],[-0.3925306,44.0020491],[-0.3927505,44.0021784],[-0.3927666,44.0022633],[-0.3926969,44.0023173],[-0.3925359,44.0023713],[-0.3924459,44.0023607],[-0.3923401,44.0023482]]},"properties":{"natural":"water","water":"pond"}},
{"type":"Feature","geometry":{"type":"LineString","coordinates":[[-0.5158129,44.0083809],[-0.5158371,44.0082709],[-0.5156896,44.0081417],[-0.5155018,44.0081147],[-0.5153114,44.0080896],[-0.5151692,44.0080337],[-0.5149841,44.0080182],[-0.5147883,44.0079584],[-0.5145443,44.0078774],[-0.5142224,44.0078176],[-0.5139408,44.0076825],[-0.513702,44.0075861],[-0.513584,44.0075784],[-0.5135626,44.0076247],[-0.513643,44.0076787],[-0.5137423,44.0076903],[-0.5138254,44.0077809],[-0.5142036,44.0079507],[-0.5147159,44.0081841],[-0.5149412,44.0082111],[-0.5150539,44.0082767],[-0.5150834,44.0083828],[-0.5152497,44.0084504],[-0.5154911,44.0084658],[-0.515652,44.0084658],[-0.51577,44.0084214],[-0.5158129,44.0083809]]},"properties":{"natural":"water"}},
{"type":"Feature","geometry":{"type":"LineString","coordinates":[[-0.4935586,44.0832385],[-0.4934755,44.0830112],[-0.4933038,44.0827588],[-0.4930142,44.0824717],[-0.4929552,44.0823387],[-0.4929632,44.0822771],[-0.492982,44.082096],[-0.492931,44.081963],[-0.4928613,44.0817954],[-0.4927406,44.0817029],[-0.4925716,44.0816143],[-0.4925716,44.0815411],[-0.4925904,44.0813619],[-0.4926118,44.0811326],[-0.4926574,44.0810189],[-0.4927245,44.0809611],[-0.4927593,44.0809226],[-0.4927459,44.0808571],[-0.492644,44.0808031],[-0.4925019,44.0807646],[-0.4924268,44.0807684],[-0.4923999,44.0807935],[-0.4922605,44.0810247],[-0.4922015,44.0811037],[-0.4920888,44.0812097],[-0.4920378,44.0813484],[-0.4920137,44.0815199],[-0.4919654,44.0815603],[-0.4919171,44.0816201],[-0.4919547,44.0816721],[-0.4921371,44.0818551],[-0.4922122,44.0819418],[-0.4922202,44.0820709],[-0.4921773,44.0821538],[-0.4922551,44.0822405],[-0.4923034,44.0823503],[-0.4922685,44.0824274],[-0.4921317,44.082516],[-0.492247,44.0825353],[-0.4923597,44.0824524],[-0.4924858,44.0824023],[-0.4925314,44.0824023],[-0.4926226,44.0824524],[-0.4929015,44.0827607],[-0.4932743,44.0831249],[-0.4934782,44.083225],[-0.4935586,44.0832385]]},"properties":{"name":"Étang des Graouses","name:oc":"Estanh de las Grausas","natural":"water","source:name:oc":"ieo-bdtopoc"}},
{"type":"Feature","geometry":{"type":"LineString","coordinates":[[-0.5836058,44.0014568],[-0.583648,44.001451],[-0.5836856,44.00141],[-0.5837017,44.0013627],[-0.5837017,44.0012571],[-0.5836654,44.0011756],[-0.5836299,44.0011606],[-0.5835756,44.0011611],[-0.5835367,44.0011708],[-0.5835226,44.0011881],[-0.5835079,44.0013468],[-0.5835394,44.0014447],[-0.5835743,44.0014606],[-0.5836058,44.0014568]]},"properties":{"name":"Lagune des Oies","natural":"water"}},
{"type":"Feature","geometry":{"type":"LineString","coordinates":[[-0.5443611,44.0447471],[-0.5444171,44.0447371],[-0.5444751,44.0447351],[-0.5445681,44.0447511],[-0.5446321,44.0447801],[-0.5446731,44.0448101],[-0.5447121,44.0448581],[-0.5447271,44.0448941],[-0.5447311,44.0449101],[-0.5447311,44.0449521],[-0.5447231,44.0449891],[-0.5447191,44.0449971],[-0.5446871,44.0450431],[-0.5446501,44.0450751],[-0.5446211,44.0450931],[-0.5445531,44.0451191],[-0.5444791,44.0451311],[-0.5444411,44.0451311],[-0.5443841,44.0451241],[-0.5443301,44.0451091],[-0.5442981,44.0450951],[-0.5442421,44.0450571],[-0.5442041,44.0450091],[-0.5441911,44.0449831],[-0.5441831,44.0449421],[-0.5441861,44.0449001],[-0.5442021,44.0448601],[-0.5442281,44.0448241],[-0.5442651,44.0447911],[-0.5442941,44.0447731],[-0.5443611,44.0447471]]},"properties":{"leisure":"pitch","sport":"bullfighting;course_landaise","surface":"sand"}},
{"type":"Feature","geometry":{"type":"LineString","coordinates":[[-0.4624381,44.0642686],[-0.4623863,44.0643388],[-0.4624333,44.0643588],[-0.4624873,44.0642927],[-0.4624381,44.0642686]]},"properties":{"leisure":"pitch","sport":"boules"}},
{"type":"Feature","geometry":{"type":"LineString","coordinates":[[-0.461165,44.0628108],[-0.4612602,44.0628965],[-0.4612933,44.0629104],[-0.46134,44.0629153],[-0.461381,44.0629128],[-0.4614221,44.0629063],[-0.4614756,44.0628924],[-0.461544,44.0628629],[-0.461707,44.0627335],[-0.4614449,44.0626172],[-0.4614187,44.0626631],[-0.4614483,44.0626721],[-0.4614014,44.0627196],[-0.4613078,44.062863],[-0.4612945,44.0628587],[-0.4612773,44.0628772],[-0.4612291,44.0628578],[-0.4612386,44.0628406],[-0.461165,44.0628108]]},"properties":{"leisure":"park"}},
{"type":"Feature","geometry":{"type":"LineString","coordinates":[[-0.5027632,44.1261157],[-0.5022724,44.1260778],[-0.5022967,44.125915],[-0.5027876,44.1259529],[-0.5027632,44.1261157]]},"properties":{"leisure":"pitch","sport":"tennis"}},
{"type":"Feature","geometry":{"type":"LineString","coordinates":[[-0.4410852,44.0060151],[-0.4408642,44.0059555],[-0.4410258,44.0056454],[-0.4412468,44.0057051],[-0.4410852,44.0060151]]},"properties":{"leisure":"pitch"}},
{"type":"Feature","geometry":{"type":"LineString","coordinates":[[-0.5780081,44.090899],[-0.5782122,44.0908432],[-0.578051,44.0905388],[-0.5778468,44.0905946],[-0.5780081,44.090899]]},"properties":{"leisure":"pitch","sport":"tennis"}},
{"type":"Feature","geometry":{"type":"LineString","coordinates":[[-0.5773285,44.0909946],[-0.5772185,44.0907382],[-0.5778388,44.0906009],[-0.5779488,44.0908573],[-0.5773285,44.0909946]]},"properties":{"leisure":"pitch","sport":"soccer"}},
{"type":"Feature","geometry":{"type":"LineString","coordinates":[[-0.5479735,44.0944775],[-0.5471454,44.0942959],[-0.5473418,44.0938337],[-0.5475511,44.0933415],[-0.5483792,44.0935231],[-0.5479735,44.0944775]]},"properties":{"leisure":"pitch","sport":"soccer"}},
{"type":"Feature","geometry":{"type":"LineString","coordinates":[[-0.5432938,44.1062034],[-0.5431646,44.1062327],[-0.543088,44.1060583],[-0.5432173,44.1060291],[-0.5432938,44.1062034]]},"properties":{"leisure":"playground"}},
{"type":"Feature","geometry":{"type":"LineString","coordinates":[[-0.5436629,44.1056091],[-0.5435018,44.105633],[-0.5434025,44.1052891],[-0.5435635,44.1052651],[-0.5436629,44.1056091]]},"properties":{"leisure":"pitch","sport":"pelota"}},
{"type":"Feature","geometry":{"type":"LineString","coordinates":[[-0.5491678,44.0961206],[-0.5491377,44.0957121],[-0.5488072,44.0957247],[-0.5488373,44.0961331],[-0.5491678,44.0961206]]},"properties":{"access":"private","leisure":"pitch","sport":"multi"}},
{"type":"Feature","geometry":{"type":"LineString","coordinates":[[-0.5483245,44.0957369],[-0.5484904,44.095773199999999],[-0.548493,44.0958032],[-0.5485587,44.0958003],[-0.5485561,44.0957703],[-0.5487163,44.0957251],[-0.5486844,44.0956851],[-0.5486369,44.095654],[-0.5485784,44.0956349],[-0.5485145,44.0956296],[-0.5484515,44.0956387],[-0.5483954,44.0956612],[-0.5483517,44.095695],[-0.5483245,44.0957369]]},"properties":{"access":"private","leisure":"pitch","sport":"athletics"}},
{"type":"Feature","geometry":{"type":"LineString","coordinates":[[-0.4000159,44.2023501],[-0.4000268,44.2021632],[-0.3995024,44.2021475],[-0.3994914,44.2023344],[-0.4000159,44.2023501]]},"properties":{"leisure":"pitch","sport":"tennis"}},
{"type":"Feature","geometry":{"type":"LineString","coordinates":[[-0.3754529,43.9970335],[-0.375469,43.9970615],[-0.3754449,43.997104],[-0.3753926,43.9971271],[-0.3753577,43.9971117],[-0.375355,43.9970374],[-0.3753886,43.9970191],[-0.3754127,43.9970191],[-0.3754529,43.9970335]]},"properties":{"natural":"water","water":"pond"}},
{"type":"Feature","geometry":{"type":"LineString","coordinates":[[-0.4020664,43.9971247],[-0.4020578,43.997075],[-0.4021597,43.9970345],[-0.4022348,43.9970422],[-0.402275,43.9970905],[-0.4022616,43.9971619],[-0.4021677,43.9971754],[-0.4020664,43.9971247]]},"properties":{"natural":"water","water":"pond"}},
{"type":"Feature","geometry":{"type":"LineString","coordinates":[[-0.399861,43.9972641],[-0.3997913,43.9972062],[-0.399861,43.9971117],[-0.400022,43.9971213],[-0.4000649,43.9971368],[-0.4000783,43.9972236],[-0.4000166,43.9972641],[-0.399861,43.9972641]]},"properties":{"natural":"water","water":"pond"}},
{"type":"Feature","geometry":{"type":"LineString","coordinates":[[-0.3999361,43.9968686],[-0.3998557,43.9969284],[-0.3997189,43.996938],[-0.3996089,43.9968763],[-0.3995875,43.996803],[-0.3997028,43.9967586],[-0.3999281,43.996801],[-0.3999361,43.9968686]]},"properties":{"natural":"water","water":"pond"}},
{"type":"Feature","geometry":{"type":"LineString","coordinates":[[-0.3983027,44.000249],[-0.3984877,44.0000541],[-0.3986004,43.999992399999999],[-0.3987613,44.0000155],[-0.3988445,44.0000753],[-0.3988498,44.0001699],[-0.398646,44.0003358],[-0.3984985,44.0003551],[-0.398367,44.0003435],[-0.398308,44.0003223],[-0.3983027,44.000249]]},"properties":{"natural":"water","water":"pond"}},
{"type":"Feature","geometry":{"type":"LineString","coordinates":[[-0.3977555,43.999757],[-0.3977045,43.9996856],[-0.3978226,43.9995988],[-0.3979701,43.9996239],[-0.3979915,43.9997126],[-0.3979245,43.9997898],[-0.3977555,43.999757]]},"properties":{"natural":"water","water":"pond"}},
{"type":"Feature","geometry":{"type":"LineString","coordinates":[[-0.3970367,44.0000773],[-0.3971762,44.0002818],[-0.3971493,44.0003783],[-0.3970206,44.0004284],[-0.3966719,44.0002509],[-0.3966719,44.0001467],[-0.3967792,44.0000811],[-0.3970367,44.0000773]]},"properties":{"natural":"water","water":"pond"}},
{"type":"Feature","geometry":{"type":"LineString","coordinates":[[-0.3901836,43.9994348],[-0.3875282,43.9985742],[-0.3868631,43.9998592]]},"properties":{"natural":"tree_row"}},
{"type":"Feature","geometry":{"type":"LineString","coordinates":[[-0.3899945,44.0000483],[-0.389666,44.0006744],[-0.3884147,44.0004043],[-0.3882229,44.0008278],[-0.3864943,44.0004188],[-0.3867933,43.9999702]]},"properties":{"natural":"tree_row"}},
{"type":"Feature","geometry":{"type":"LineString","coordinates":[[-0.5390801,44.0418227],[-0.5390296,44.0417675],[-0.5390649,44.041753],[-0.5390983,44.0417856],[-0.5391155,44.0417813],[-0.5391286,44.0418016],[-0.5390801,44.0418227]]},"properties":{"access":"private","leisure":"swimming_pool","location":"outdoor"}},
{"type":"Feature","geometry":{"type":"LineString","coordinates":[[-0.3986,44.2002743],[-0.3984872,44.1999038],[-0.3983534,44.1999226],[-0.398495,44.2002875],[-0.3986,44.2002743]]},"properties":{"natural":"water"}},
{"type":"Feature","geometry":{"type":"LineString","coordinates":[[-0.3994788,44.2011865],[-0.3994185,44.2010529],[-0.3994762,44.2009533],[-0.3993581,44.2007182],[-0.3992033,44.2005207],[-0.3988964,44.200406],[-0.3986787,44.2004041],[-0.3983298,44.2005057],[-0.3980359,44.2006881],[-0.3980858,44.2008592],[-0.3984047,44.2011385],[-0.3986078,44.201209],[-0.3991273,44.201305],[-0.3993162,44.2012711],[-0.3990223,44.2011507],[-0.3987679,44.2011695],[-0.3984935,44.2010644],[-0.3983044,44.2008774],[-0.3982403,44.2007597],[-0.3982878,44.2007031],[-0.3986393,44.2005809],[-0.3989122,44.2006524],[-0.3991378,44.2008517],[-0.3992296,44.2010059],[-0.3994158,44.2012053],[-0.3994788,44.2011865]]},"properties":{"natural":"water"}},
{"type":"Feature","geometry":{"type":"LineString","coordinates":[[-0.3790751,44.1987575],[-0.3787177,44.1990361],[-0.3787311,44.1993116],[-0.3790215,44.1994525],[-0.3795844,44.1993084],[-0.3797273,44.1991002],[-0.3797095,44.1989321],[-0.3795531,44.1987703],[-0.3790751,44.1987575]]},"properties":{"natural":"wood"}},
{"type":"Feature","geometry":{"type":"LineString","coordinates":[[-0.3961759,44.2052452],[-0.3959895,44.2052231],[-0.3956013,44.2051315],[-0.3954904,44.2051646],[-0.395401,44.2051403],[-0.3954781,44.2050984],[-0.3955736,44.2050851],[-0.396179,44.2051867],[-0.3963084,44.2052618],[-0.3962946,44.2053954],[-0.39614509999999999,44.2055666],[-0.3959094,44.2056936],[-0.395703,44.2057223],[-0.3954812,44.205624],[-0.3953271,44.2054871],[-0.3952994,44.2053733],[-0.3953179,44.2052894],[-0.3953595,44.2052287],[-0.3953995,44.2052209],[-0.395458,44.2052331],[-0.3954488,44.2053656],[-0.3954396,44.2054992],[-0.3955643,44.205582],[-0.3957769,44.2056549],[-0.3959217,44.2056163],[-0.3960773,44.2055136],[-0.3961975,44.2053711],[-0.3962144,44.2052883],[-0.3961759,44.2052452]]},"properties":{"natural":"water"}},
{"type":"Feature","geometry":{"type":"LineString","coordinates":[[-0.3954904,44.2051646],[-0.395458,44.2052331],[-0.3954488,44.2053656],[-0.3954396,44.2054992],[-0.3955643,44.205582],[-0.3957769,44.2056549],[-0.3959217,44.2056163],[-0.3960773,44.2055136],[-0.3961975,44.2053711],[-0.3962144,44.2052883],[-0.3961759,44.2052452],[-0.3959895,44.2052231],[-0.3956013,44.2051315],[-0.3954904,44.2051646]]},"properties":{"natural":"wood"}},
{"type":"Feature","geometry":{"type":"LineString","coordinates":[[-0.3879672,44.2066388],[-0.3880493,44.2059223],[-0.3867484,44.2058217],[-0.3863239,44.2062855],[-0.3865465,44.2063542],[-0.3864472,44.2066585],[-0.3867553,44.2065382],[-0.3871216,44.2066953],[-0.387303,44.2065603],[-0.3875701,44.2067198],[-0.3879672,44.2066388]]},"properties":{"natural":"wetland"}},
{"type":"Feature","geometry":{"type":"LineString","coordinates":[[-0.4158868,44.20807],[-0.4155315,44.2080264],[-0.4151781,44.2083016],[-0.4150079,44.2086623],[-0.4147785,44.2086729],[-0.414231,44.2084607],[-0.4141126,44.2084873],[-0.41375,44.2084289],[-0.4137426,44.2079781],[-0.4137352,44.2076917],[-0.4139868,44.2075697],[-0.414379,44.2079197],[-0.4147859,44.2079516],[-0.4150375,44.2078455],[-0.4155555,44.2079197],[-0.4156177,44.207874],[-0.4158868,44.20807]]},"properties":{"natural":"water"}},
{"type":"Feature","geometry":{"type":"LineString","coordinates":[[-0.4139868,44.2075697],[-0.4148942,44.2075683],[-0.4153024,44.2069748],[-0.4149282,44.206857],[-0.4149395,44.2064058],[-0.4139472,44.206479],[-0.4137352,44.2076917],[-0.4139868,44.2075697]]},"properties":{"natural":"wetland"}},
{"type":"Feature","geometry":{"type":"LineString","coordinates":[[-0.3739851,44.1835629],[-0.3735371,44.1843509],[-0.3780002,44.1855269],[-0.3783806,44.1846783],[-0.3739851,44.1835629]]},"properties":{"natural":"heath"}},
{"type":"Feature","geometry":{"type":"LineString","coordinates":[[-0.3786764,44.1847874],[-0.3783045,44.1856057],[-0.3825731,44.1867209],[-0.3830634,44.1859148],[-0.3786764,44.1847874]]},"properties":{"natural":"heath"}},
{"type":"Feature","geometry":{"type":"LineString","coordinates":[[-0.3833592,44.1859936],[-0.3828943,44.1868058],[-0.3875095,44.188012],[-0.3879068,44.1871998],[-0.3833592,44.1859936]]},"properties":{"natural":"heath"}},
{"type":"Feature","geometry":{"type":"LineString","coordinates":[[-0.3882449,44.1872967],[-0.3877716,44.1880665],[-0.388583,44.1882605],[-0.3889211,44.1874665],[-0.3882449,44.1872967]]},"properties":{"natural":"heath"}},
{"type":"Feature","geometry":{"type":"LineString","coordinates":[[-0.4216995,44.0692318],[-0.4220541,44.0691778],[-0.4221913,44.0691842],[-0.4224103,44.0692145],[-0.4225488,44.0692445],[-0.4226166,44.0692807],[-0.4226606,44.0693163],[-0.4227031,44.0693874],[-0.4227914,44.0694154],[-0.4228162,44.0694088],[-0.4228499,44.0693955],[-0.4228955,44.0693899],[-0.4229477,44.0693991],[-0.4229838,44.0694104],[-0.4230114,44.0694287],[-0.4230282,44.0694622],[-0.4230682,44.0695817],[-0.4230875,44.0695977],[-0.423111,44.0696086],[-0.4231332,44.0696138],[-0.4231709,44.0696117],[-0.4231968,44.0696036],[-0.4234134,44.069477],[-0.4235285,44.0694152],[-0.4235572,44.069396],[-0.4235692,44.0693824],[-0.423653,44.0692534],[-0.4236206,44.0692255],[-0.4236451,44.0691975],[-0.4237002,44.0691558],[-0.4236854,44.0691447],[-0.4236085,44.0692067],[-0.423023,44.0689856],[-0.4229865,44.0689875],[-0.4229718,44.0689921],[-0.4227995,44.0690841],[-0.422703,44.0691002],[-0.4226684,44.0690962],[-0.4225824,44.0690807],[-0.4225377,44.0690581],[-0.4224014,44.0689604],[-0.4223672,44.0689449],[-0.4223383,44.06894],[-0.4222791,44.0689467],[-0.4221718,44.0689739],[-0.4219576,44.0690374],[-0.4216016,44.0691513],[-0.4216995,44.0692318]]},"properties":{"natural":"water","source":"cadastre-dgi-fr source : Direction Générale des Impôts - Cadastre. Mise à jour : 2023"}},
{"type":"Feature","geometry":{"type":"LineString","coordinates":[[-0.4144979,44.0596991],[-0.4146186,44.0596355],[-0.4146749,44.0595564],[-0.4146132,44.0594408],[-0.414412,44.0592904],[-0.4143396,44.0590958],[-0.4141545,44.0590052],[-0.4140258,44.0590206],[-0.4139802,44.0590553],[-0.4139641,44.0591941],[-0.4139185,44.0592384],[-0.4138166,44.0592615],[-0.413712,44.0591883],[-0.4133579,44.0589377],[-0.4132372,44.0589204],[-0.4131728,44.0589801],[-0.4131809,44.0590514],[-0.4132882,44.059117],[-0.4135001,44.0592268],[-0.4136047,44.0593695],[-0.413779,44.0595931],[-0.4137844,44.0596817],[-0.4137173,44.059728],[-0.4136261,44.0597415],[-0.4134893,44.0596702],[-0.4131031,44.0591979],[-0.4129744,44.0590572],[-0.4129422,44.0588992],[-0.4128429,44.0588683],[-0.4127759,44.058903],[-0.4127517,44.059009],[-0.4128161,44.0591613],[-0.4129395,44.059329],[-0.4132372,44.0595931],[-0.4132587,44.0596567],[-0.4132506,44.059728],[-0.4131702,44.0597646],[-0.4130977,44.0597646],[-0.4129958,44.0597261],[-0.41291,44.0595969],[-0.4127517,44.0593078],[-0.412623,44.0589647],[-0.4125291,44.0588568],[-0.4124165,44.058851],[-0.4123601,44.0589107],[-0.4123789,44.0589859],[-0.4125318,44.059117],[-0.412513,44.0592056],[-0.4124379,44.059223],[-0.412344,44.0591864],[-0.4122984,44.0590861],[-0.4122421,44.0589242],[-0.4121268,44.0588722],[-0.412049,44.0588953],[-0.4119819,44.0589608],[-0.4119444,44.0591382],[-0.41199,44.0592615],[-0.4120892,44.0593117],[-0.4123172,44.0593251],[-0.4125211,44.0593541],[-0.4126954,44.0594466],[-0.4128402,44.0596123],[-0.4129314,44.059782],[-0.412918,44.059834],[-0.4128724,44.0598571],[-0.4128054,44.0598456],[-0.412741,44.059807],[-0.4127196,44.0597087],[-0.4126954,44.0595776],[-0.4126444,44.0594986],[-0.4125157,44.0594389],[-0.4123762,44.0594119],[-0.4121348,44.0594157],[-0.4119417,44.0594504],[-0.4118827,44.0595063],[-0.4118907,44.0595757],[-0.4119471,44.0596104],[-0.4120356,44.059595],[-0.4121509,44.059543],[-0.4122636,44.0595044],[-0.4124486,44.0595025],[-0.412564,44.0595449],[-0.4126069,44.0595931],[-0.4125989,44.0596413],[-0.4125264,44.0596644],[-0.4123735,44.0596355],[-0.4121938,44.0596451],[-0.4120624,44.0596798],[-0.4119927,44.0597453],[-0.4119927,44.0598224],[-0.412041,44.0598822],[-0.4121616,44.0599287]]},"properties":{"leisure":"track"}},
{"type":"Feature","geometry":{"type":"LineString","coordinates":[[-0.4120034,44.05877],[-0.4121858,44.0587488],[-0.4130656,44.0588066],[-0.4144576,44.0590033],[-0.4157451,44.0591999],[-0.4158738,44.0592538],[-0.4158738,44.0593598],[-0.4157826,44.0594215],[-0.4155225,44.0594003],[-0.415265,44.0594446],[-0.4146829,44.059674],[-0.4144979,44.0596991],[-0.41394,44.0598147],[-0.4129744,44.0599323],[-0.4122743,44.0599362],[-0.4121616,44.0599287],[-0.4119551,44.059915],[-0.4118344,44.0598301],[-0.4117942,44.0597376],[-0.4118344,44.0588876],[-0.4120034,44.05877]]},"properties":{"leisure":"track"}},
{"type":"Feature","geometry":{"type":"LineString","coordinates":[[-0.5305098,43.9913655],[-0.5305268,43.9912435],[-0.5302918,43.9912266],[-0.5302748,43.9913486],[-0.5305098,43.9913655]]},"properties":{"leisure":"pitch","sport":"boules"}},
{"type":"Feature","geometry":{"type":"LineString","coordinates":[[-0.5304934,43.9914834],[-0.5302584,43.9914665],[-0.5302748,43.9913486],[-0.5305098,43.9913655],[-0.5304934,43.9914834]]},"properties":{"leisure":"pitch","sport":"boules"}},
{"type":"Feature","geometry":{"type":"LineString","coordinates":[[-0.5302065,43.9914636],[-0.5300838,43.9914562],[-0.5301145,43.9911944],[-0.5302371,43.9912018],[-0.5302065,43.9914636]]},"properties":{"leisure":"pitch","sport":"pelota"}},
{"type":"Feature","geometry":{"type":"LineString","coordinates":[[-0.5311984,43.9914419],[-0.5309897,43.991471],[-0.530957,43.9913495],[-0.5311658,43.9913205],[-0.5311984,43.9914419]]},"properties":{"leisure":"playground"}},
{"type":"Feature","geometry":{"type":"LineString","coordinates":[[-0.5318153,43.991068],[-0.5316726,43.9910568],[-0.5317014,43.9908652],[-0.5318441,43.9908763],[-0.5318153,43.991068]]},"properties":{"leisure":"pitch","sport":"multi"}},
{"type":"Feature","geometry":{"type":"LineString","coordinates":[[-0.5491009,44.0942145],[-0.5487524,44.0951929],[-0.5496754,44.0953625],[-0.5500239,44.0943842],[-0.5491009,44.0942145]]},"properties":{"leisure":"pitch","sport":"soccer"}},
{"type":"Feature","geometry":{"type":"LineString","coordinates":[[-0.5303615,44.1040575],[-0.5300075,44.1039304],[-0.5301523,44.1037455],[-0.5301952,44.1037609],[-0.5303025,44.1036299],[-0.530589,44.103745],[-0.5303615,44.1040575]]},"properties":{"access":"yes","addr:full":"1209 route de roquefort 40420 labrit","email":"mairie.labrit@coeurhautelande.fr","leisure":"swimming_pool","location":"outdoor","name":"bassin ludique de plein air","opening_hours":"Jul 01-Aug 31 14:00-20:30","phone":"+33 5 58510031","swimming_pool":"piscine_avec_pente_progressive_et_pataugeoire","website":"https://www.labrit.fr"}},
{"type":"Feature","geometry":{"type":"LineString","coordinates":[[-0.5307023,44.1042064],[-0.5305259,44.1042013],[-0.5305374,44.1039991],[-0.5307138,44.1040043],[-0.5307023,44.1042064]]},"properties":{"leisure":"pitch","name":"skate-park","sport":"skateboard"}},
{"type":"Feature","geometry":{"type":"LineString","coordinates":[[-0.5310859,44.1043031],[-0.5309388,44.1042591],[-0.5310643,44.1040428],[-0.5312113,44.1040868],[-0.5310859,44.1043031]]},"properties":{"access":"yes","leisure":"pitch","name":"city","sport":"basketball;football;tennis"}},
{"type":"Feature","geometry":{"type":"LineString","coordinates":[[-0.575124,44.1052775],[-0.5755837,44.1048501],[-0.5756902,44.1044714],[-0.5751724,44.103846],[-0.5742047,44.1032901],[-0.572787,44.1028592],[-0.5727628,44.1029878],[-0.5726732,44.1030503],[-0.5724192,44.1031407],[-0.5723636,44.1032553],[-0.5723152,44.1034377],[-0.5722499,44.103568],[-0.5723466,44.1036792],[-0.5724652,44.1037574],[-0.5723853,44.1041066],[-0.5719353,44.104329],[-0.5718676,44.104461],[-0.5719208,44.1046452],[-0.572066,44.1046313],[-0.5721192,44.1045235],[-0.572366,44.1045444],[-0.5727579,44.1046903],[-0.5729321,44.1047598],[-0.5728934,44.1048745],[-0.5726757,44.1050934],[-0.5726999,44.1052358],[-0.5730337,44.1053227],[-0.5732611,44.1054512],[-0.5734402,44.1054721],[-0.5734257,44.1055416],[-0.5732079,44.1057222],[-0.5729466,44.1055728],[-0.5727966,44.1056701],[-0.5728982,44.1058577],[-0.5731402,44.1059515],[-0.573445,44.1060037],[-0.5737934,44.1059133],[-0.5740886,44.1058508],[-0.5743353,44.1057466],[-0.5744756,44.1055242],[-0.5747079,44.1055172],[-0.574795,44.105479],[-0.5748337,44.1053713],[-0.5743595,44.104659],[-0.5743716,44.1045948],[-0.574599,44.1047598],[-0.5746789,44.1048988],[-0.5748337,44.1050916],[-0.5749692,44.1052514],[-0.575124,44.1052775]]},"properties":{"natural":"water"}},
{"type":"Feature","geometry":{"type":"LineString","coordinates":[[-0.487299,44.1062931],[-0.4869182,44.1062488],[-0.4868753,44.1063143],[-0.4868055,44.1063779],[-0.4867304,44.1064222],[-0.4867653,44.1064318],[-0.486894,44.106453],[-0.486996,44.1064318],[-0.4870791,44.1064048],[-0.487299,44.1062931]]},"properties":{"intermittent":"yes","natural":"water","water":"basin"}},
{"type":"Feature","geometry":{"type":"LineString","coordinates":[[-0.4873178,44.1062469],[-0.4869316,44.1062199],[-0.4869209,44.1061294],[-0.4868699,44.1060447],[-0.4868243,44.1060062],[-0.4868511,44.1059965],[-0.4869235,44.1060023],[-0.4870523,44.1060235],[-0.4871542,44.106089],[-0.4873178,44.1062469]]},"properties":{"intermittent":"yes","natural":"water","water":"basin"}},
{"type":"Feature","geometry":{"type":"LineString","coordinates":[[-0.4868887,44.1062296],[-0.4868484,44.1062931],[-0.4867572,44.1063605],[-0.4866875,44.106374],[-0.4866339,44.1063663],[-0.4865856,44.1063259],[-0.4865802,44.1062392],[-0.486599,44.1061256],[-0.4866312,44.1060813],[-0.4867009,44.106037],[-0.4867277,44.1060254],[-0.4868082,44.1060524],[-0.4868323,44.1060755],[-0.4868645,44.1061275],[-0.4868887,44.1062296]]},"properties":{"intermittent":"yes","natural":"water","water":"basin"}},
{"type":"Feature","geometry":{"type":"LineString","coordinates":[[-0.4875565,44.1068825],[-0.4872987,44.1068561],[-0.486363,44.1067534]]},"properties":{"natural":"tree_row"}},
{"type":"Feature","geometry":{"type":"LineString","coordinates":[[-0.4851935,44.107597],[-0.4851291,44.107572],[-0.4850835,44.107518],[-0.4851908,44.1072888],[-0.4852364,44.1072619],[-0.4853947,44.1072908],[-0.4854054,44.1073177],[-0.4852847,44.1075739],[-0.4852606,44.1076124],[-0.4851935,44.107597]]},"properties":{"intermittent":"yes","natural":"water","water":"basin"}},
{"type":"Feature","geometry":{"type":"LineString","coordinates":[[-0.4813552,44.1063796],[-0.4811407,44.106291],[-0.4811621,44.1061062],[-0.4812265,44.1056247],[-0.4817898,44.1056978],[-0.4817093,44.1058558],[-0.4817522,44.1058789],[-0.4816181,44.106137],[-0.4813552,44.1063796]]},"properties":{"intermittent":"yes","natural":"water","water":"basin"}},
{"type":"Feature","geometry":{"type":"LineString","coordinates":[[-0.4809797,44.1060676],[-0.4803736,44.1060561],[-0.4804755,44.1054975],[-0.4807169,44.1054975],[-0.4810602,44.1055515],[-0.4809797,44.1060676]]},"properties":{"intermittent":"yes","natural":"water","water":"basin"}},
{"type":"Feature","geometry":{"type":"LineString","coordinates":[[-0.4801912,44.1060407],[-0.4793865,44.1057633],[-0.4793919,44.1055592],[-0.4795635,44.1052664],[-0.4802126,44.1054821],[-0.4803038,44.1055476],[-0.4803145,44.1056401],[-0.4801965,44.1056516],[-0.4802126,44.1056978],[-0.4802985,44.1057248],[-0.4801912,44.1060407]]},"properties":{"intermittent":"yes","natural":"water","water":"basin"}},
{"type":"Feature","geometry":{"type":"LineString","coordinates":[[-0.4813148,44.1053886],[-0.4810278,44.1053532],[-0.4810964,44.1050663],[-0.4813835,44.1051017],[-0.4813148,44.1053886]]},"properties":{"intermittent":"yes","natural":"water","water":"basin"}},
{"type":"Feature","geometry":{"type":"LineString","coordinates":[[-0.4819274,44.1054696],[-0.4823527,44.1055187],[-0.482385,44.1053744],[-0.4819596,44.1053253],[-0.4819274,44.1054696]]},"properties":{"intermittent":"yes","natural":"water","water":"basin"}},
{"type":"Feature","geometry":{"type":"LineString","coordinates":[[-0.4818623,44.1054575],[-0.4816606,44.1054336],[-0.4816923,44.1052956],[-0.481894,44.1053194],[-0.4818623,44.1054575]]},"properties":{"intermittent":"yes","natural":"water","water":"basin"}},
{"type":"Feature","geometry":{"type":"LineString","coordinates":[[-0.4815967,44.1054247],[-0.4814005,44.1054009],[-0.4814732,44.1050921],[-0.4816695,44.105116],[-0.4815967,44.1054247]]},"properties":{"intermittent":"yes","natural":"water","water":"basin"}},
{"type":"Feature","geometry":{"type":"LineString","coordinates":[[-0.4879676,44.1092105],[-0.4878962,44.1091838],[-0.4879122,44.1091511],[-0.4879902,44.1091793],[-0.4879676,44.1092105]]},"properties":{"leisure":"swimming_pool"}},
{"type":"Feature","geometry":{"type":"LineString","coordinates":[[-0.5007739,44.1262765],[-0.5005298,44.1262765],[-0.5005325,44.1261484],[-0.5007122,44.1261597],[-0.5007723,44.1261594],[-0.5007739,44.1262765]]},"properties":{"leisure":"pitch"}},
{"type":"Feature","geometry":{"type":"LineString","coordinates":[[-0.4833742,44.0186231],[-0.4834123,44.0186179],[-0.4834742,44.0186008],[-0.4834956,44.0185871],[-0.4835194,44.0185649],[-0.4835289,44.0185392],[-0.4835266,44.0185169],[-0.4835147,44.0184964],[-0.4834932,44.0184827],[-0.4834647,44.0184793],[-0.4834266,44.0184793],[-0.4833909,44.0184793],[-0.4833575,44.0184793],[-0.483329,44.018481],[-0.483298,44.0184844],[-0.4832409,44.0184895],[-0.4832123,44.0184964],[-0.4831861,44.0185067],[-0.4831575,44.0185169],[-0.4831195,44.0185272],[-0.4830909,44.018534],[-0.4830576,44.018546],[-0.4830409,44.0185631],[-0.4830456,44.0185888],[-0.4830718,44.0186059],[-0.4831123,44.0186179],[-0.4831409,44.0186196],[-0.4831861,44.0186265],[-0.4832218,44.0186299],[-0.4832623,44.0186299],[-0.483298,44.0186282],[-0.4833409,44.0186299],[-0.4833742,44.0186231]]},"properties":{"natural":"water","water":"pond"}},
{"type":"Feature","geometry":{"type":"LineString","coordinates":[[-0.5361465,44.0442069],[-0.536145,44.0442252],[-0.5360545,44.0442228],[-0.5360564,44.0442022],[-0.5360944,44.0442042],[-0.5361465,44.0442069]]},"properties":{"leisure":"outdoor_seating"}},
{"type":"Feature","geometry":{"type":"LineString","coordinates":[[-0.5465987,44.1021245],[-0.5465225,44.1021111],[-0.5465683,44.101977],[-0.5466444,44.1019904],[-0.5465987,44.1021245]]},"properties":{"access":"private","leisure":"swimming_pool","location":"outdoor"}},
{"type":"Feature","geometry":{"type":"MultiPolygon","coordinates":[[[[-0.5434196,44.044003],[-0.5433505,44.0438845],[-0.5431778,44.0437728],[-0.5430255,44.043696],[-0.5428496,44.0437062],[-0.5425733,44.0438665],[-0.5424539,44.0438823],[-0.5423958,44.0437931],[-0.5423801,44.0436938],[-0.542333,44.0436464],[-0.542278,44.043617],[-0.5422231,44.0435402],[-0.5421508,44.0434579],[-0.5421069,44.0433563],[-0.542077,44.0432344],[-0.5420456,44.0430955],[-0.5419828,44.0429939],[-0.5418384,44.0429307],[-0.5418485,44.0428954],[-0.5416869,44.0428587],[-0.5416721,44.0428915],[-0.5415887,44.0428687],[-0.5415133,44.0428641],[-0.5414745,44.0428376],[-0.5414521,44.0427388],[-0.5413761,44.0427417],[-0.5413013,44.0427445],[-0.5413169,44.0428362],[-0.5412401,44.0428585],[-0.540948,44.0428822],[-0.5408381,44.0429623],[-0.5406685,44.0430278],[-0.540557,44.0430854],[-0.5404942,44.043205],[-0.5404691,44.0433032],[-0.5405131,44.0434737],[-0.5406041,44.0435843],[-0.5407517,44.0436915],[-0.5409339,44.0437716],[-0.5410878,44.0438044],[-0.5411211,44.0438012],[-0.5413177,44.0437821],[-0.5414945,44.0437908],[-0.541686,44.0438315],[-0.5418132,44.0438992],[-0.5418729,44.0439759],[-0.5418808,44.0440425],[-0.5418085,44.044082],[-0.5416782,44.044117],[-0.5414864,44.0442132],[-0.5412071,44.0442739],[-0.5410422,44.0443608],[-0.5407787,44.0446082],[-0.5405757,44.0447627],[-0.5404283,44.0448575],[-0.5403231,44.044941],[-0.5402681,44.0450019],[-0.5400749,44.0450572],[-0.5399258,44.0451159],[-0.5397939,44.0451679],[-0.5397248,44.0452186],[-0.5397087,44.0452701],[-0.5397609,44.0452965],[-0.5398692,44.0452751],[-0.5401535,44.0451916],[-0.540345,44.0451746],[-0.5405366,44.0451995],[-0.5406481,44.0451182],[-0.5408475,44.0450956],[-0.5411349,44.0451182],[-0.5413155,44.0452164],[-0.5414113,44.0452954],[-0.54154,44.0453484],[-0.5417127,44.045353],[-0.5418685,44.0453287],[-0.5420645,44.0452107],[-0.5422395,44.0450875],[-0.5423848,44.0449421],[-0.5424541,44.0447867],[-0.5424194,44.0446859],[-0.5424586,44.0445821],[-0.542669,44.0444669],[-0.542892,44.0443732],[-0.5431715,44.0443428],[-0.5433097,44.0442909],[-0.5434039,44.0441452],[-0.5434196,44.044003]]]]},"properties":{"name":"Étang des Forges","name:oc":"Estanh de las Hargas","natural":"water","source:name:oc":"ieo-bdtopoc"}},
{"type":"Feature","geometry":{"type":"MultiPolygon","coordinates":[[[[-0.5285586,44.0477422],[-0.5279978,44.0469454],[-0.527341,44.0471891],[-0.526097,44.0476381],[-0.5260512,44.0483209],[-0.527037,44.048305],[-0.5285586,44.0477422]]]]},"properties":{"leisure":"sports_centre","name":"Stade Raoul Danné"}},
{"type":"Feature","geometry":{"type":"MultiPolygon","coordinates":[[[[-0.5449951,44.0440664],[-0.544805,44.0437726],[-0.5445901,44.0438444],[-0.5447801,44.0441383],[-0.5449951,44.0440664]]]]},"properties":{"leisure":"pitch","name":"Tennis 1","sport":"tennis"}},
{"type":"Feature","geometry":{"type":"MultiPolygon","coordinates":[[[[-0.544805,44.0437726],[-0.5446194,44.0434857],[-0.5444045,44.0435575],[-0.5445901,44.0438444],[-0.544805,44.0437726]]]]},"properties":{"leisure":"pitch","name":"Tennis 2","sport":"tennis"}},
{"type":"Feature","geometry":{"type":"MultiPolygon","coordinates":[[[[-0.5339364,44.0443296],[-0.5334896,44.0443181],[-0.5334875,44.0443597],[-0.533483,44.0444498],[-0.5334809,44.0444929],[-0.5338354,44.0445038],[-0.5339292,44.0444662],[-0.5339364,44.0443296]]]]},"properties":{"leisure":"pitch","sport":"pelota","start_date":"1928"}},
{"type":"Feature","geometry":{"type":"MultiPolygon","coordinates":[[[[-0.486899,44.0184483],[-0.4868658,44.0183947],[-0.4867904,44.0183576],[-0.4860856,44.0181367],[-0.4860371,44.0181329],[-0.4859796,44.0181482],[-0.4859464,44.0181865],[-0.4858762,44.0183206],[-0.4858953,44.0183691],[-0.4859822,44.0184253],[-0.4861303,44.0184802],[-0.4862363,44.0184981],[-0.4863078,44.0185019],[-0.4865006,44.0185211],[-0.4866717,44.0185479],[-0.4867777,44.0185517],[-0.4868172,44.0185441],[-0.4868721,44.0185262],[-0.4868887,44.0184981],[-0.486899,44.0184483]]]]},"properties":{"natural":"water","source":"Bing"}},
{"type":"Feature","geometry":{"type":"MultiPolygon","coordinates":[[[[-0.5315236,43.9906824],[-0.5301419,43.9906023],[-0.5300921,43.991193],[-0.5301145,43.9911944],[-0.5302371,43.9912018],[-0.531458,43.9912761],[-0.5315236,43.9906824]]]]},"properties":{"leisure":"pitch","source":"Bing","sport":"soccer"}},
{"type":"Feature","geometry":{"type":"MultiPolygon","coordinates":[[[[-0.534445,43.9949806],[-0.5342445,43.9949173],[-0.5340225,43.9951945],[-0.5342243,43.9952725],[-0.534445,43.9949806]]]]},"properties":{"leisure":"pitch","source":"Bing","sport":"tennis"}},
{"type":"Feature","geometry":{"type":"MultiPolygon","coordinates":[[[[-0.5309376,43.9912657],[-0.5307146,43.9912503],[-0.5306716,43.9915728],[-0.5308946,43.9915882],[-0.5309376,43.9912657]]]]},"properties":{"leisure":"pitch","source":"Bing","sport":"tennis"}},
{"type":"Feature","geometry":{"type":"MultiPolygon","coordinates":[[[[-0.5277279,44.0478013],[-0.5273273,44.0472645],[-0.5261883,44.0477036],[-0.5265888,44.0482404],[-0.5277279,44.0478013]]]]},"properties":{"leisure":"pitch","source":"data.gouv.fr:Le ministère des droits des femmes, de la ville, de la jeunesse et des sports - 2014","sport":"multi","surface":"grass"}},
{"type":"Feature","geometry":{"type":"MultiPolygon","coordinates":[[[[-0.542099,44.0425075],[-0.542023,44.0425025],[-0.542015,44.0425765],[-0.542091,44.0425815],[-0.542099,44.0425075]]]]},"properties":{"addr:city":"Brocas","addr:postcode":"40420","addr:street":"Rue de l'Étang","amenity":"public_building","building":"yes","email":"syndicat.iniative40420@gmail.com","information":"syndicat_d'iniative","name":"Syndicat d'Initiative","phone":"+33 5.58.51.40.23","source":"cadastre-dgi-fr source : Direction Générale des Impôts - Cadastre. Mise à jour : 2013","tourism":"information"}},
{"type":"Feature","geometry":{"type":"MultiPolygon","coordinates":[[[[-0.5460049,44.0452246],[-0.5459412,44.0447335],[-0.5456898,44.0447503],[-0.5457347,44.0450927],[-0.5457383,44.0451261],[-0.5457393,44.045136],[-0.5457535,44.0452413],[-0.5460049,44.0452246]]]]},"properties":{"building":"sports_hall","leisure":"sports_hall","name":"Salle omnisports","source":"data.gouv.fr:Le ministère des droits des femmes, de la ville, de la jeunesse et des sports - 2014","sport":"multi"}},
{"type":"Feature","geometry":{"type":"MultiPolygon","coordinates":[[[[-0.5346958,44.0454772],[-0.5345551,44.0454352],[-0.5345305,44.0454778],[-0.5344971,44.0454678],[-0.5344137,44.0456118],[-0.534444,44.0456208],[-0.5344175,44.0456667],[-0.5345367,44.0457023],[-0.5345593,44.0457091],[-0.5345895,44.0456569],[-0.5345797,44.0456539],[-0.5346545,44.0455248],[-0.5346662,44.0455283],[-0.5346958,44.0454772]]]]},"properties":{"building":"yes","historic":"castle","name":"Château d'Aon","source":"cadastre-dgi-fr source : Direction Générale des Impôts - Cadastre. Mise à jour : 2013","wikidata":"Q15940601","wikipedia":"fr:Château d'Aon (Brocas)"}},
{"type":"Feature","geometry":{"type":"MultiPolygon","coordinates":[[[[-0.5313899,44.0440108],[-0.5313839,44.0439468],[-0.5311449,44.0439518],[-0.5311459,44.0439708],[-0.5310949,44.0439738],[-0.5311059,44.0440518],[-0.5311299,44.0440488],[-0.5311309,44.0440608],[-0.5311129,44.0440728],[-0.5311179,44.0440888],[-0.5311089,44.0440898],[-0.5311509,44.0442248],[-0.5312439,44.0442098],[-0.5312439,44.0442168],[-0.5313089,44.044206],[-0.5313339,44.0442018],[-0.5312959,44.0440758],[-0.5312339,44.0440818],[-0.5312269,44.0440508],[-0.5313089,44.0440408],[-0.5313229,44.0440268],[-0.5313229,44.0440148],[-0.5313899,44.0440108]]]]},"properties":{"building":"yes","name":"Hôtel de la Gare","source":"cadastre-dgi-fr source : Direction Générale des Impôts - Cadastre. Mise à jour : 2013","tourism":"hotel"}},
{"type":"Feature","geometry":{"type":"MultiPolygon","coordinates":[[[[-0.5411445,44.0427534],[-0.5411415,44.0426517],[-0.5409025,44.0426554],[-0.5409055,44.0427571],[-0.5409338,44.0427567],[-0.5411445,44.0427534]]]]},"properties":{"building":"yes","contact:email":"museedesforgesbrocas@gmail.com","contact:phone":"+33 6 75 35 19 43","contact:website":"http://musee-forges-brocas.fr/","name":"Musée des Forges","ref:FR:CRTA":"PCUAQU04001WB9RE","tourism":"museum","wheelchair":"yes","wikidata":"Q2845928"}},
{"type":"Feature","geometry":{"type":"MultiPolygon","coordinates":[[[[-0.5407689,44.0426725],[-0.5407671,44.042594],[-0.5406576,44.0425952],[-0.5406594,44.0426737],[-0.5407689,44.0426725]]]]},"properties":{"building":"yes","historic":"ruins","man_made":"kiln","name":"Haut Fourneau","source":"cadastre-dgi-fr source : Direction Générale des Impôts - Cadastre. Mise à jour : 2013","tourism":"attraction"}},
{"type":"Feature","geometry":{"type":"MultiPolygon","coordinates":[[[[-0.5285025,44.047724],[-0.5279693,44.0469944],[-0.5274595,44.0471869],[-0.5279927,44.0479164],[-0.5285025,44.047724]]]]},"properties":{"leisure":"pitch","sport":"multi","surface":"grass"}},
{"type":"Feature","geometry":{"type":"MultiPolygon","coordinates":[[[[-0.5441996,44.0434019],[-0.5436422,44.0431513],[-0.5434451,44.0434299],[-0.5436596,44.0435118],[-0.5438383,44.0435194],[-0.54407,44.0435967],[-0.5441996,44.0434019]]]]},"properties":{"boules":"petanque","leisure":"pitch","sport":"boules"}},
{"type":"Feature","geometry":{"type":"MultiPolygon","coordinates":[[[[-0.5466173,44.0441623],[-0.5463869,44.0438156],[-0.5452661,44.0436952],[-0.54542,44.0444096],[-0.5459329,44.0444149],[-0.5462745,44.0443361],[-0.5466173,44.0441623]]]]},"properties":{"contact:website":"http://www.gites-de-france.com/location-vacances-Brocas-Gite-Les-Aubepines-40G10217.html","name":"Gîte Les Aubépines","tourism":"chalet"}},
{"type":"Feature","geometry":{"type":"MultiPolygon","coordinates":[[[[-0.5593102,44.0608561],[-0.559248,44.0605497],[-0.5591325,44.0603072],[-0.5589415,44.0601731],[-0.5586262,44.060087],[-0.558373,44.0601061],[-0.5582887,44.0601508],[-0.5584041,44.0602082],[-0.5587772,44.0603487],[-0.5590659,44.0610636],[-0.5591547,44.0611178],[-0.5592835,44.0610572],[-0.5593102,44.0608561]]]]},"properties":{"natural":"wetland","wetland":"marsh"}},
{"type":"Feature","geometry":{"type":"MultiPolygon","coordinates":[[[[-0.5544434,44.057047],[-0.5544025,44.0569861],[-0.554346,44.0569726],[-0.5542675,44.0569545],[-0.5542016,44.0569026],[-0.5540948,44.05688],[-0.5539692,44.0569207],[-0.5539377,44.0569726],[-0.5539723,44.0570403],[-0.5540728,44.0570674],[-0.5541764,44.0570583],[-0.5543931,44.0571012],[-0.5544434,44.057047]]]]},"properties":{"natural":"wetland","wetland":"marsh"}},
{"type":"Feature","geometry":{"type":"MultiPolygon","coordinates":[[[[-0.5550966,44.0569642],[-0.5550899,44.0568972],[-0.5550211,44.0568397],[-0.5548878,44.0568286],[-0.5547324,44.0568828],[-0.554688,44.0569435],[-0.5546702,44.0570217],[-0.5546857,44.05706],[-0.554759,44.0570983],[-0.5548456,44.0570983],[-0.5549389,44.0570743],[-0.5550299,44.0570312],[-0.5550966,44.0569642]]]]},"properties":{"natural":"wetland","wetland":"marsh"}},
{"type":"Feature","geometry":{"type":"MultiPolygon","coordinates":[[[[-0.5562094,44.0574244],[-0.5561983,44.0573398],[-0.5560806,44.0572808],[-0.555974,44.0572632],[-0.5558585,44.0572871],[-0.5558141,44.0573621],[-0.5557652,44.0574164],[-0.5557541,44.057485],[-0.5557963,44.0575361],[-0.5558829,44.0575648],[-0.5560117,44.0575457],[-0.5561627,44.0574898],[-0.5562094,44.0574244]]]]},"properties":{"natural":"wetland","wetland":"marsh"}},
{"type":"Feature","geometry":{"type":"MultiPolygon","coordinates":[[[[-0.5570987,44.0594686],[-0.5570588,44.0594111],[-0.5569922,44.0593712],[-0.5569122,44.059325],[-0.556834,44.0593481],[-0.556799,44.0593585],[-0.5568434,44.0594702],[-0.5568212,44.0595452],[-0.5567479,44.0595851],[-0.5567701,44.0596553],[-0.5568634,44.0596792],[-0.5569788,44.0596617],[-0.5570388,44.0596154],[-0.5570987,44.0595452],[-0.5570987,44.0594686]]]]},"properties":{"natural":"wetland","wetland":"marsh"}},
{"type":"Feature","geometry":{"type":"MultiPolygon","coordinates":[[[[-0.5540728,44.0577083],[-0.5540288,44.0576203],[-0.5539377,44.0575842],[-0.5538875,44.0575481],[-0.5538875,44.0574939],[-0.5539346,44.0574307],[-0.5538969,44.0573743],[-0.5538341,44.0573427],[-0.5537399,44.0573314],[-0.5536237,44.0573811],[-0.5535263,44.0574352],[-0.5534886,44.0574962],[-0.5534981,44.0575774],[-0.5535546,44.0576745],[-0.5536331,44.0577715],[-0.5537839,44.0578279],[-0.5539283,44.0578347],[-0.5540351,44.057776],[-0.5540728,44.0577083]]]]},"properties":{"natural":"wetland","wetland":"marsh"}},
{"type":"Feature","geometry":{"type":"MultiPolygon","coordinates":[[[[-0.5599812,44.0618176],[-0.5599235,44.0617203],[-0.559748,44.0616118],[-0.5595793,44.0614937],[-0.5593461,44.0614235],[-0.5592306,44.0613804],[-0.559203,44.0613793],[-0.559073,44.061374],[-0.5589664,44.0614538],[-0.5589353,44.0616453],[-0.5589219,44.0617713],[-0.5589397,44.0618176],[-0.5590041,44.0618591],[-0.5591418,44.0618719],[-0.5592861,44.0618479],[-0.5594305,44.0618479],[-0.5595859,44.0618846],[-0.5596947,44.0619501],[-0.5597836,44.0619804],[-0.5598218,44.0619665],[-0.5599189999999999,44.0619309],[-0.5599812,44.0618176]]]]},"properties":{"natural":"wetland","wetland":"marsh"}},
{"type":"Feature","geometry":{"type":"MultiPolygon","coordinates":[[[[-0.5561487,44.0582906],[-0.5561361,44.0582139],[-0.5560827,44.0581778],[-0.5560325,44.058171],[-0.5559791,44.0582184],[-0.5558943,44.0582658],[-0.5557844,44.0582703],[-0.5556776,44.0582184],[-0.5556305,44.0581146],[-0.5556902,44.0580378],[-0.555665,44.0579814],[-0.5555865,44.0579543],[-0.555486,44.057943],[-0.5553824,44.0579679],[-0.5553636,44.0580288],[-0.5554044,44.0580965],[-0.5554703,44.0581394],[-0.5554955,44.0581936],[-0.5554735,44.058268],[-0.5555112,44.0583425],[-0.555596,44.0584012],[-0.5556807,44.0584373],[-0.5558346,44.0584734],[-0.555954,44.0584689],[-0.5560576,44.058426],[-0.5561173,44.0583561],[-0.5561487,44.0582906]]]]},"properties":{"natural":"wetland","wetland":"marsh"}},
{"type":"Feature","geometry":{"type":"MultiPolygon","coordinates":[[[[-0.5573138,44.0563677],[-0.557229,44.0562661],[-0.5570877,44.0561555],[-0.5569715,44.0561623],[-0.5568019,44.0562503],[-0.5567171,44.0563609],[-0.556557,44.0564128],[-0.5564031,44.0564015],[-0.5563497,44.0564422],[-0.556356,44.056537],[-0.5563371,44.0566092],[-0.5562523,44.0566701],[-0.5561016,44.0567243],[-0.5559383,44.0567401],[-0.5558975,44.0567624],[-0.5558598,44.056783],[-0.5558032,44.0568755],[-0.5558221,44.0569861],[-0.5559069,44.0570448],[-0.5560545,44.0570877],[-0.5563089,44.0570583],[-0.5564596,44.0571102],[-0.5565758,44.0572163],[-0.5565664,44.0572953],[-0.5565758,44.0574149],[-0.5566234,44.0575082],[-0.5566878,44.0574875],[-0.5566972,44.0574172],[-0.5567485,44.0573021],[-0.5568427,44.0572253],[-0.556937,44.0572095],[-0.5569875,44.0571829],[-0.5570312,44.0571599],[-0.5570563,44.0570651],[-0.5569998,44.0569793],[-0.5568459,44.0568507],[-0.5567988,44.0567514],[-0.5568553,44.0566476],[-0.5569495,44.056555],[-0.5571223,44.0564941],[-0.5573075,44.0564219],[-0.5573138,44.0563677]]]]},"properties":{"natural":"wetland","wetland":"marsh"}},
{"type":"Feature","geometry":{"type":"MultiPolygon","coordinates":[[[[-0.5572133,44.0585614],[-0.5571128,44.0584666],[-0.5570657,44.0583448],[-0.5570523,44.0582879],[-0.55705,44.0582139],[-0.5570343,44.0581439],[-0.556937,44.0580785],[-0.5569087,44.058004],[-0.556849,44.057943],[-0.5568459,44.0578686],[-0.556871,44.0578302],[-0.5568607,44.0578129],[-0.5568466,44.0577891],[-0.556793,44.0577655],[-0.5567567,44.0577165],[-0.5566934,44.0577203],[-0.5566575,44.0578302],[-0.5565632,44.0578844],[-0.5565758,44.0579182],[-0.5566951,44.0579972],[-0.5567642,44.0580762],[-0.5567046,44.0581732],[-0.5565884,44.0582522],[-0.5564847,44.058329],[-0.5564753,44.0584779],[-0.5564659,44.0586246],[-0.5564596,44.058751],[-0.5563685,44.0588593],[-0.5562775,44.0589519],[-0.556312,44.0590557],[-0.5563999,44.0591776],[-0.5565287,44.0592723],[-0.5566229,44.0593085],[-0.5567529,44.0592714],[-0.5568051,44.0592565],[-0.5568333,44.0591753],[-0.5568553,44.0591099],[-0.5569181,44.0590647],[-0.5569966,44.0590196],[-0.5570249,44.0589767],[-0.5570029,44.0588887],[-0.5570783,44.0588187],[-0.5571725,44.0587691],[-0.5572133,44.0586743],[-0.5572133,44.0585614]]]]},"properties":{"natural":"wetland","wetland":"marsh"}},
{"type":"Feature","geometry":{"type":"MultiPolygon","coordinates":[[[[-0.5559762,44.0577675],[-0.5559451,44.0577276],[-0.5558874,44.0577116],[-0.5558141,44.0577164],[-0.5557297,44.0577372],[-0.555703,44.0577803],[-0.555743,44.0578249],[-0.5558296,44.0578393],[-0.5559384,44.0578138],[-0.5559762,44.0577675]]]]},"properties":{"natural":"wetland","wetland":"marsh"}},
{"type":"Feature","geometry":{"type":"MultiPolygon","coordinates":[[[[-0.4994006,44.0353066],[-0.4993911,44.0352495],[-0.4993454,44.0351868],[-0.499216,44.0350723],[-0.4991114,44.0350222],[-0.4989844,44.0349936],[-0.4988823,44.03499],[-0.4988026,44.0350383],[-0.4987578,44.0350741],[-0.498693,44.0351207],[-0.4986556,44.0351225],[-0.4986233,44.0350938],[-0.4986482,44.0350634],[-0.4986905,44.0350509],[-0.4987254,44.0350133],[-0.4987005,44.034947],[-0.4986432,44.0349148],[-0.498551,44.03487],[-0.4984365,44.0348915],[-0.4983817,44.0349363],[-0.498307,44.0349846],[-0.4982123,44.0350097],[-0.4981152,44.0349918],[-0.498033,44.0349828],[-0.4979932,44.0350025],[-0.4979807,44.0350526],[-0.4979907,44.0350885],[-0.4980529,44.0351207],[-0.4981127,44.0351225],[-0.4981501,44.0350867],[-0.4981824,44.0350705],[-0.4981999,44.0350849],[-0.4981899,44.0351171],[-0.4981974,44.0351493],[-0.4982323,44.0351708],[-0.4983991,44.0351887],[-0.4985411,44.0352174],[-0.498688,44.0352836],[-0.498835,44.0353893],[-0.4989695,44.0354609],[-0.499094,44.0355235],[-0.4991911,44.0355307],[-0.4992441,44.0355125],[-0.4992957,44.0354949],[-0.4993598,44.0354361],[-0.4993991,44.0353676],[-0.4994006,44.0353066]]]]},"properties":{"natural":"water"}},
{"type":"Feature","geometry":{"type":"MultiPolygon","coordinates":[[[[-0.5935812,44.0450367],[-0.5935544,44.0450033],[-0.5935009,44.0449931],[-0.593073,44.045029],[-0.5930142,44.0450661],[-0.5929589,44.0450995],[-0.5929304,44.0451482],[-0.5929553,44.045193],[-0.5930106,44.0452238],[-0.5930641,44.0452148],[-0.5930837,44.0451828],[-0.5931051,44.0451123],[-0.5931408,44.0450866],[-0.59318,44.0450789],[-0.5932121,44.0450943],[-0.5932139,44.0451379],[-0.5932246,44.0451956],[-0.5932549,44.0452251],[-0.5935116,44.0452481],[-0.5935509,44.045234],[-0.5935722,44.0451994],[-0.5935812,44.0450367]]]]},"properties":{"natural":"water"}},
{"type":"Feature","geometry":{"type":"MultiPolygon","coordinates":[[[[-0.5376994,44.0460705],[-0.5376984,44.0460196],[-0.5375618,44.0460209],[-0.5375627,44.0460718],[-0.5376994,44.0460705]]]]},"properties":{"access":"private","leisure":"swimming_pool"}},
{"type":"Feature","geometry":{"type":"MultiPolygon","coordinates":[[[[-0.5794217,44.0265432],[-0.579368,44.0265239],[-0.579309,44.026547],[-0.5793412,44.026574],[-0.5794056,44.0265856],[-0.5794217,44.0265432]]]]},"properties":{"natural":"water"}},
{"type":"Feature","geometry":{"type":"MultiPolygon","coordinates":[[[[-0.5738613,44.0291388],[-0.5738237,44.0291099],[-0.5737478,44.0290907],[-0.5736915,44.0291042],[-0.5736459,44.0291293],[-0.5736226,44.0291716],[-0.5736521,44.0291909],[-0.5737245,44.0292063],[-0.5737755,44.0292063],[-0.5738184,44.0291851],[-0.5738578,44.0291659],[-0.5738613,44.0291388]]]]},"properties":{"natural":"water"}},
{"type":"Feature","geometry":{"type":"MultiPolygon","coordinates":[[[[-0.3751816,44.2017732],[-0.3638613,44.1998013],[-0.3631657,44.2001063],[-0.3626701,44.2001414],[-0.3501938,44.2053225],[-0.3607011,44.2072198],[-0.3641058,44.2122496],[-0.3711963,44.2095025],[-0.372541,44.2091476],[-0.3737208,44.2054496],[-0.3751816,44.2017732]]]]},"properties":{"natural":"scrub"}},
{"type":"Feature","geometry":{"type":"MultiPolygon","coordinates":[[[[-0.4229187,44.2111126],[-0.4223136,44.20844],[-0.4228392,44.2055087],[-0.4206876,44.1967622],[-0.3902046,44.1889479],[-0.3867022,44.1911306],[-0.380119,44.1939925],[-0.3712498,44.1976737],[-0.3676067,44.1991987],[-0.3774662,44.200899],[-0.375064,44.2070949],[-0.3732363,44.2122868],[-0.3712436,44.2179558],[-0.3780835,44.236496699999999],[-0.3950335,44.2350033],[-0.3896851,44.22906],[-0.3932364,44.2261035],[-0.3925151,44.2257399],[-0.3981814,44.2213464],[-0.4168123,44.2096712],[-0.4229187,44.2111126]]]]},"properties":{"natural":"scrub"}},
{"type":"Feature","geometry":{"type":"MultiPolygon","coordinates":[[[[-0.4281846,44.2319902],[-0.4270324,44.2273562],[-0.4230318,44.2116055],[-0.4168673,44.2099056],[-0.4083985,44.21522],[-0.4093856,44.2156099],[-0.4095721,44.216094],[-0.4093092,44.2161641],[-0.4089058,44.215761],[-0.4081265,44.2154171],[-0.4027933,44.2187444],[-0.3984198,44.221502],[-0.3930316,44.2256458],[-0.3936704,44.2259765],[-0.3900763,44.2290206],[-0.3954247,44.2349464],[-0.4025274,44.2343158],[-0.4093979,44.2336632],[-0.4094743,44.2328902],[-0.411849,44.2326296],[-0.4118276,44.2334727],[-0.4281846,44.2319902]]]]},"properties":{"natural":"scrub"}},
{"type":"Feature","geometry":{"type":"MultiPolygon","coordinates":[[[[-0.3884549,44.1884873],[-0.3477884,44.1780023],[-0.3407407,44.1822763],[-0.3433997,44.1834861],[-0.3851358,44.1907007],[-0.3865478,44.1900257],[-0.3884549,44.1884873]]]]},"properties":{"natural":"scrub"}},
{"type":"Feature","geometry":{"type":"MultiPolygon","coordinates":[[[[-0.384639,44.1908406],[-0.3685648,44.1880578],[-0.3723974,44.1930016],[-0.3588826,44.1985848],[-0.3623362,44.1991983],[-0.3656125,44.1986637],[-0.3764622,44.1942419],[-0.384639,44.1908406]]]]},"properties":{"natural":"scrub"}},
{"type":"Feature","geometry":{"type":"MultiPolygon","coordinates":[[[[-0.4090537,44.1017649],[-0.4076895,44.1015537],[-0.407527,44.1020951],[-0.4075889,44.1021574],[-0.408876,44.1023567],[-0.4090537,44.1017649]]]]},"properties":{"leisure":"pitch","sport":"soccer"}},
{"type":"Feature","geometry":{"type":"MultiPolygon","coordinates":[[[[-0.5486622,44.0947607],[-0.5474527,44.0944789],[-0.5472242,44.0949847],[-0.5484337,44.0952665],[-0.5486622,44.0947607]]]]},"properties":{"leisure":"pitch","sport":"soccer"}},
{"type":"Feature","geometry":{"type":"MultiPolygon","coordinates":[[[[-0.4076462,43.9875338],[-0.4075358,43.987481],[-0.4074891,43.9875319],[-0.4075995,43.9875847],[-0.4076462,43.9875338]]]]},"properties":{"access":"private","leisure":"swimming_pool","source":"cadastre-dgi-fr source : Direction Générale des Impôts - Cadastre. Mise à jour : 2015"}},
{"type":"Feature","geometry":{"type":"MultiPolygon","coordinates":[[[[-0.412513,43.9880709],[-0.4125127,43.9880182],[-0.4123872,43.988016],[-0.4123813,43.9880684],[-0.412513,43.9880709]]]]},"properties":{"access":"private","leisure":"swimming_pool","source":"cadastre-dgi-fr source : Direction Générale des Impôts - Cadastre. Mise à jour : 2015"}},
{"type":"Feature","geometry":{"type":"MultiPolygon","coordinates":[[[[-0.428618,43.9865621],[-0.4283899,43.986426],[-0.428282,43.9863417],[-0.428228,43.9862106],[-0.4282047,43.9860873],[-0.4282645,43.9858273],[-0.4282155,43.9856785],[-0.4281718,43.98562],[-0.4280815,43.9855614],[-0.4279902,43.9855189],[-0.4278566,43.985505],[-0.4277648,43.9854979],[-0.4276497,43.9855112],[-0.4275826,43.985529],[-0.4275006,43.9855728],[-0.4273636,43.9856803],[-0.4273128,43.9856976],[-0.4270114,43.9857184],[-0.4269448,43.9856751],[-0.4269201,43.9855774],[-0.4268694,43.9854549],[-0.4268176,43.9853725],[-0.4265977,43.9853302],[-0.4258648,43.985174],[-0.4257905,43.9851389],[-0.4257314,43.9850826],[-0.4255708,43.9848738],[-0.425527,43.9848465],[-0.4253356,43.9847912],[-0.425208,43.9846819],[-0.4251251,43.9848281],[-0.4251186,43.9848578],[-0.4252659,43.9849292],[-0.4253549,43.9849846],[-0.4254352,43.985053],[-0.4256739,43.9853348],[-0.4256959,43.9853988],[-0.4256431,43.985424],[-0.4253978,43.9854727],[-0.4251337,43.9856224],[-0.4250031,43.9856263],[-0.4247253,43.9856799],[-0.4244092,43.9858253],[-0.42425620000000005,43.98582],[-0.4242405,43.9858724],[-0.4242351,43.985927],[-0.4243805,43.9859423],[-0.4244529,43.9859696],[-0.4246385,43.9861137],[-0.4247056,43.9861432],[-0.4247864,43.986125],[-0.4248873,43.9860314],[-0.424874,43.9859905],[-0.4248113,43.9859431],[-0.4247478,43.985882],[-0.4247777,43.9858319],[-0.4249057,43.9857828],[-0.4252555,43.9857487],[-0.4253169,43.9856779],[-0.4254118,43.9856219],[-0.4256901,43.9855782],[-0.4260168,43.9855684],[-0.4261768,43.9856482],[-0.4262921,43.9858042],[-0.4261795,43.9859316],[-0.4261891,43.9859569],[-0.4262668,43.9859802],[-0.4264008,43.985988],[-0.4265543,43.9860483],[-0.4266649,43.9861567],[-0.4269231,43.9860136],[-0.4270407,43.9859727],[-0.4272426,43.9859273],[-0.4273406,43.9858771],[-0.4274329,43.9858704],[-0.4275053,43.9858958],[-0.4275673,43.9859786],[-0.4275902,43.9861865],[-0.4279223,43.9864148],[-0.4280471,43.9865778],[-0.4281461,43.9866478],[-0.4283385,43.9867266],[-0.428458,43.9866603],[-0.428618,43.9865621]]]]},"properties":{"intermittent":"no","name":"Étang Neuf","natural":"wetland","salt":"no","source":"cadastre-dgi-fr source : Direction Générale des Impôts - Cadastre. Mise à jour : 2015","tidal":"no"}},
{"type":"Feature","geometry":{"type":"MultiPolygon","coordinates":[[[[-0.4126034,44.0478365],[-0.4111054,44.0469303],[-0.4094961,44.0469303],[-0.4096141,44.0465135],[-0.4095604,44.0461133],[-0.4092879,44.0456267],[-0.4081574,44.0453433],[-0.4077121,44.0462417],[-0.4070374,44.0460938],[-0.4067824,44.0474081],[-0.4072217,44.0474422],[-0.4068246,44.048301],[-0.409304,44.0487545],[-0.4093915,44.0492245],[-0.4109001,44.0501407],[-0.4126034,44.0478365]]]]},"properties":{"natural":"heath"}},
{"type":"Feature","geometry":{"type":"MultiPolygon","coordinates":[[[[-0.3950229,44.0377845],[-0.3939285,44.0376379],[-0.3936496,44.0384015],[-0.3913858,44.0382009],[-0.3912892,44.0375068],[-0.3898408,44.0373525],[-0.3897443,44.0368512],[-0.3883281,44.0371366],[-0.3882208,44.0397975],[-0.3917828,44.040052],[-0.3946044,44.0388642],[-0.3950229,44.0377845]]]]},"properties":{"natural":"heath"}},
{"type":"Feature","geometry":{"type":"MultiPolygon","coordinates":[[[[-0.6045242,44.0095348],[-0.6040524,44.0086263],[-0.6012116,44.0093771],[-0.6008415,44.0094712],[-0.6010947,44.0105136],[-0.6045242,44.0095348]]]]},"properties":{"leisure":"pitch","name":"Moto-Cross","source":"cadastre-dgi-fr source : Direction Générale des Impôts - Cadastre. Mise à jour : 2015","sport":"motocross"}},
{"type":"Feature","geometry":{"type":"MultiPolygon","coordinates":[[[[-0.4082052,44.0060272],[-0.408125,44.0057428],[-0.4078208,44.0054828],[-0.4074892,44.0050505],[-0.4072525,44.0047143],[-0.4071647,44.004399],[-0.4073484,44.004046],[-0.4071676,44.0039038],[-0.4068559,44.0041328],[-0.4067918,44.0042686],[-0.4068578,44.0046359],[-0.4070424,44.0050119],[-0.4074729,44.0058697],[-0.4074776,44.0059512],[-0.4072944,44.0062254],[-0.4070998,44.0063971],[-0.4067581,44.0065799],[-0.4060098,44.0069288],[-0.405681,44.0070519],[-0.4043961,44.0072088],[-0.404072,44.0072856],[-0.4038982,44.0073106],[-0.4037227,44.0073052],[-0.403435,44.0072203],[-0.4031469,44.0071604],[-0.4029321,44.007201],[-0.4022966,44.0075137],[-0.4018276,44.0076739],[-0.4017135,44.0076878],[-0.4015962,44.0076153],[-0.4012952,44.0070877],[-0.4011153,44.0069382],[-0.4009345,44.0068628],[-0.4008024,44.0067863],[-0.4005422,44.0067045],[-0.4003226,44.006661],[-0.3999284,44.0066622],[-0.3996072,44.0067258],[-0.3988263,44.0070151],[-0.3987058,44.0070463],[-0.3985189,44.0070335],[-0.3984094,44.0070011],[-0.3980204,44.0066452],[-0.397771,44.0064959],[-0.3975129,44.0063864],[-0.3972589,44.0063491],[-0.3971367,44.0063501],[-0.3970202,44.0063865],[-0.3967991,44.0064774],[-0.3965873,44.0066997],[-0.396412,44.0071778],[-0.3962373,44.0073463],[-0.3955467,44.0074591],[-0.3952966,44.007618],[-0.3948941,44.0083675],[-0.3947438,44.0085507],[-0.3947297,44.0086579],[-0.3948101,44.0088253],[-0.3950881,44.0090653],[-0.395265,44.0091303],[-0.3955695,44.0091815],[-0.3958795,44.0092617],[-0.3959756,44.0093939],[-0.396055,44.0096325],[-0.3960869,44.009815],[-0.3959732,44.0099498],[-0.3957496,44.0100641],[-0.3951975,44.0100514],[-0.395113,44.0100557],[-0.394896,44.0101087],[-0.3943229,44.0103712],[-0.3934013,44.0109079],[-0.3932966,44.0109785],[-0.3931711,44.0111511],[-0.3930977,44.0113504],[-0.39309,44.0115259],[-0.3933264,44.0120564],[-0.3935592,44.0123681],[-0.3941173,44.0127302],[-0.394243,44.0129382],[-0.3943962,44.0133836],[-0.3942988,44.0135389],[-0.3940954,44.0137193],[-0.3939752,44.013785],[-0.3937037,44.0139263],[-0.3932141,44.0141434],[-0.3927741,44.0144559],[-0.392622,44.0146283],[-0.3923412,44.0150711],[-0.3920706,44.0152927],[-0.3917502,44.0157074],[-0.39158,44.015867],[-0.3908295,44.0164175],[-0.3902484,44.0169622],[-0.3895089,44.0172562],[-0.3894263,44.017317],[-0.3892355,44.0175636],[-0.3891215,44.0180489],[-0.3890278,44.0181795],[-0.3888118,44.018341],[-0.388554,44.0184326],[-0.388067,44.0185876],[-0.3878019,44.0187287],[-0.3876677,44.0188605],[-0.3871528,44.0194906],[-0.3867583,44.0199814],[-0.3864255,44.020266],[-0.3847866,44.0212501],[-0.3846655,44.0213888],[-0.3845698,44.021542],[-0.3846764,44.0217753],[-0.3847144,44.0218371],[-0.3849986,44.0220243],[-0.3852249,44.0222917],[-0.385618,44.0225976],[-0.3856164,44.0226325],[-0.3856728,44.0227121],[-0.3856758,44.0228592],[-0.3856186,44.0229861],[-0.3854152,44.0231212],[-0.3850849,44.0232252],[-0.3842576,44.0232742],[-0.3838323,44.0230287],[-0.3830481,44.023079],[-0.3822776,44.0234025],[-0.3814908,44.0236582],[-0.3812408,44.023838],[-0.3811435,44.0242828],[-0.3810823,44.0244021],[-0.3808304,44.0246599],[-0.3801074,44.0248737],[-0.3798988,44.0249495],[-0.3795505,44.0251492],[-0.3789311,44.0252647],[-0.3785794,44.0253719],[-0.378455,44.0253872],[-0.3782322,44.0254635],[-0.378103,44.0257719],[-0.3778391,44.0259449],[-0.3780964,44.0261337],[-0.3783647,44.025824],[-0.3785509,44.0255941],[-0.3789747,44.0254553],[-0.3793601,44.0254126],[-0.3795674,44.0253231],[-0.379715,44.0252151],[-0.3797954,44.0251718],[-0.3799631,44.0250994],[-0.3805502,44.0250534],[-0.3807098,44.0250172],[-0.3810722,44.0247571],[-0.381276,44.0245141],[-0.3814696,44.0241774],[-0.3817735,44.0239987],[-0.3820534,44.023833],[-0.3823845,44.0237023],[-0.3828523,44.0235492],[-0.3831498,44.0235132],[-0.3836308,44.0235053],[-0.3838703,44.0235064],[-0.3847129,44.0235665],[-0.3849635,44.0235462],[-0.3854303,44.0233419],[-0.3857927,44.0231546],[-0.3860341,44.0230196],[-0.3860971,44.022926],[-0.3861131,44.0228679],[-0.3861701,44.0227846],[-0.3860905,44.0226129],[-0.3859025,44.0224914],[-0.3855398,44.0222623],[-0.3853339,44.0220447],[-0.3849798,44.0217062],[-0.3848939,44.0215906],[-0.384906,44.021456],[-0.3850049,44.0213617],[-0.3852119,44.021218],[-0.3856232,44.0209919],[-0.3862365,44.0206328],[-0.3865908,44.0204737],[-0.3868737,44.0203082],[-0.3870287,44.0201493],[-0.3871653,44.0199779],[-0.3874386,44.0196334],[-0.3876665,44.0192409],[-0.3878584,44.0189983],[-0.3880015,44.0188748],[-0.3881883,44.0187789],[-0.3883975,44.0187083],[-0.388775,44.0186738],[-0.3890398,44.0186039],[-0.389355,44.0184306],[-0.3895095,44.0182685],[-0.3896078,44.0179917],[-0.3896247,44.0177657],[-0.3896576,44.0176466],[-0.3897419,44.01756],[-0.3898269,44.0174841],[-0.3904917,44.0172111],[-0.390666,44.0171066],[-0.3909825,44.0168287],[-0.3912619,44.016509],[-0.3914999,44.0163337],[-0.3917957,44.0160533],[-0.3926537,44.0153065],[-0.3929686,44.0148497],[-0.3933269,44.0144779],[-0.3942007,44.0140633],[-0.3945977,44.0138493],[-0.3947817,44.0136631],[-0.3948593,44.0135453],[-0.3948825,44.0134478],[-0.3948272,44.0132859],[-0.394501,44.0126324],[-0.3941988,44.0124866],[-0.3939684,44.0122928],[-0.3937481,44.0120427],[-0.3935708,44.011716],[-0.3935023,44.0115363],[-0.3935036,44.0114074],[-0.3935504,44.0113432],[-0.3939544,44.0109636],[-0.3943032,44.0107365],[-0.3947326,44.0105208],[-0.3951378,44.0103423],[-0.3953497,44.0102742],[-0.395435,44.0102708],[-0.3961846,44.010307],[-0.3962702,44.0102612],[-0.3964343,44.0100952],[-0.396457,44.0100373],[-0.3964804,44.0097726],[-0.3964338,44.0094659],[-0.3962936,44.0092162],[-0.3960912,44.0091023],[-0.395936,44.0090765],[-0.3952385,44.0089773],[-0.3950921,44.0087687],[-0.3950357,44.0087011],[-0.3950036,44.0085815],[-0.3953161,44.0081784],[-0.3956247,44.0077832],[-0.395777,44.007694],[-0.3964131,44.0076304],[-0.3966734,44.0076187],[-0.3968715,44.0075362],[-0.3970476,44.0074504],[-0.3971028,44.0073306],[-0.3970384,44.0070283],[-0.3970548,44.0068381],[-0.3971595,44.0067796],[-0.3972796,44.0067795],[-0.3984567,44.0073039],[-0.3987119,44.0073275],[-0.3989558,44.0073417],[-0.3991387,44.007288],[-0.3993552,44.0071723],[-0.3997279,44.0070109],[-0.400111,44.0069008],[-0.4004286,44.0068956],[-0.4006603,44.0069147],[-0.4007462,44.006961],[-0.4008669,44.0070614],[-0.4009634,44.0072118],[-0.4012933,44.0078195],[-0.4015213,44.0078697],[-0.4019293,44.007915],[-0.4020686,44.0079081],[-0.4022066,44.0078933],[-0.4024516,44.0077983],[-0.4026296,44.0077017],[-0.4031097,44.0075549],[-0.4034157,44.0075279],[-0.4036176,44.007547],[-0.4036595,44.0075851],[-0.405422,44.007441],[-0.4071005,44.0069026],[-0.4075247,44.0065884],[-0.4080288,44.0062671],[-0.4082052,44.0060272]]]]},"properties":{"natural":"water","water":"river"}},
{"type":"Feature","geometry":{"type":"MultiPolygon","coordinates":[[[[-0.3763354,43.9976375],[-0.3763153,43.9975892],[-0.376263,43.9975458],[-0.376098,43.9974937],[-0.3759787,43.9974648],[-0.3754932,43.9973924],[-0.3753094,43.9973307],[-0.3750989,43.9972313],[-0.3749836,43.9971126],[-0.3746872,43.9971194],[-0.3746147,43.9971049],[-0.3744216,43.9970644],[-0.3744163,43.9971059],[-0.3744726,43.9971522],[-0.3745866,43.9972429],[-0.3749487,43.997322],[-0.3752384,43.9974802],[-0.3753684,43.9975786],[-0.3761356,43.9977735],[-0.376204,43.9977764],[-0.3762643,43.997761],[-0.3763045,43.9977147],[-0.3763354,43.9976375]]]]},"properties":{"natural":"water","water":"reservoir"}},
{"type":"Feature","geometry":{"type":"MultiPolygon","coordinates":[[[[-0.5289728,43.9895198],[-0.5289667,43.9894923],[-0.5288358,43.9894763],[-0.5287564,43.9894794],[-0.5286259,43.9895108],[-0.5286231,43.9895208],[-0.528608,43.9895148],[-0.5285733,43.9895212],[-0.5284961,43.9895176],[-0.5284721,43.9895863],[-0.5287887,43.9896151],[-0.528922,43.9896123],[-0.5289482,43.9895872],[-0.5289609,43.9895803],[-0.5289728,43.9895198]]]]},"properties":{"natural":"water","source":"cadastre-dgi-fr source : Direction Générale des Finances Publiques - Cadastre. Mise à jour : 2014","water":"pond"}},
{"type":"Feature","geometry":{"type":"MultiPolygon","coordinates":[[[[-0.5449401,44.0449191],[-0.5447819,44.0449123],[-0.5447781,44.0448881],[-0.5447691,44.0448581],[-0.5447411,44.0448131],[-0.5446841,44.0447621],[-0.5446101,44.0447241],[-0.5445241,44.0447021],[-0.5444791,44.0446971],[-0.5444101,44.0446991],[-0.5443231,44.0447181],[-0.5442641,44.0447431],[-0.5442291,44.0447641],[-0.5441861,44.0448021],[-0.5441631,44.0448311],[-0.5441471,44.0448621],[-0.5441321,44.0449271],[-0.5441421,44.0449921],[-0.5441771,44.0450531],[-0.5442331,44.0451041],[-0.5443081,44.0451421],[-0.5443931,44.0451641],[-0.5444841,44.0451681],[-0.5445731,44.0451541],[-0.5446151,44.0451411],[-0.5446531,44.0451231],[-0.5447181,44.0450771],[-0.5447541,44.0450351],[-0.5447661,44.0450051],[-0.5447729,44.044992],[-0.5449321,44.0450011],[-0.5449401,44.0449191]]]]},"properties":{"alt_name":"Arènes de l'Estrigon","leisure":"stadium","name":"Arènes de Brocas","source":"data.gouv.fr:Le ministère des droits des femmes, de la ville, de la jeunesse et des sports - 2014","sport":"bullfighting;course_landaise","tourism":"attraction","wikidata":"Q16303848","wikipedia":"fr:Arènes de Brocas"}},
{"type":"Feature","geometry":{"type":"MultiPolygon","coordinates":[[[[-0.4115325,44.0926221],[-0.4113367,44.0925643],[-0.4111516,44.0928552],[-0.4113447,44.0929226],[-0.4115325,44.0926221]]]]},"properties":{"leisure":"pitch","sport":"tennis"}},
{"type":"Feature","geometry":{"type":"MultiPolygon","coordinates":[[[[-0.4023864,44.1042659],[-0.4017024,44.1041503],[-0.4016622,44.1043333],[-0.40233,44.1044373],[-0.4023864,44.1042659]]]]},"properties":{"natural":"water"}},
{"type":"Feature","geometry":{"type":"MultiPolygon","coordinates":[[[[-0.5417767,44.1068466],[-0.5416775,44.1066829],[-0.5415326,44.1065751],[-0.541361,44.1066001],[-0.541243,44.1066945],[-0.5412296,44.1068505],[-0.5411437,44.106966],[-0.5409747,44.1069815],[-0.5407602,44.1069718],[-0.5407092,44.1070604],[-0.5409828,44.107124],[-0.5410847,44.1072203],[-0.5411813,44.1073339],[-0.5413985,44.1073243],[-0.5415863,44.1072318],[-0.5417606,44.1070604],[-0.5417767,44.1068466]]]]},"properties":{"natural":"water"}},
{"type":"Feature","geometry":{"type":"MultiPolygon","coordinates":[[[[-0.5094078,44.1262627],[-0.5093542,44.1260644],[-0.5092898,44.1259585],[-0.509204,44.12587],[-0.5092335,44.125843],[-0.5092093,44.1257987],[-0.5091396,44.1258083],[-0.5090269,44.1258026],[-0.5088338,44.1258334],[-0.5084798,44.1259239],[-0.5082277,44.1260163],[-0.5080184,44.1260067],[-0.5078253,44.1260259],[-0.5077824,44.1260779],[-0.5077851,44.1261279],[-0.5078414,44.1261665],[-0.5079246,44.1261626],[-0.5080989,44.1261356],[-0.5082277,44.1261597],[-0.5083323,44.1262338],[-0.5084395,44.1263012],[-0.5085978,44.1263051],[-0.5086836,44.1263147],[-0.5087373,44.1263571],[-0.5088714,44.1264187],[-0.5090699,44.1264514],[-0.5091691,44.1264533],[-0.5093166,44.1263657],[-0.5094078,44.1262627]]]]},"properties":{"natural":"water"}},
{"type":"Feature","geometry":{"type":"MultiPolygon","coordinates":[[[[-0.3892206,44.1109404],[-0.3892191,44.1109312],[-0.3892124,44.1109217],[-0.3891993,44.1109209],[-0.3891884,44.1109208],[-0.3891604,44.1109295],[-0.3891415,44.1109382],[-0.3891389,44.1109419],[-0.3891368,44.1109492],[-0.3891375,44.1109563],[-0.3891403,44.1109669],[-0.389147,44.1109738],[-0.3891511,44.1109765],[-0.3891637,44.1109797],[-0.3891877,44.110971],[-0.3892206,44.1109404]]]]},"properties":{"access":"private","leisure":"swimming_pool"}},
{"type":"Feature","geometry":{"type":"MultiPolygon","coordinates":[[[[-0.5044833,43.9926736],[-0.5043465,43.9924903],[-0.5041426,43.9923398],[-0.5037457,43.9921584],[-0.5028713,43.9918651],[-0.5026916,43.9917532],[-0.5024314,43.9916413],[-0.5015194,43.9914039],[-0.5012003,43.9913576],[-0.4997867,43.9911048],[-0.4995722,43.9911048],[-0.4995346,43.991182],[-0.4995024,43.9913364],[-0.4994381,43.991402],[-0.499422,43.9914792],[-0.4994702,43.9915525],[-0.4995507,43.9916181],[-0.4996473,43.9916644],[-0.4999584,43.9917686],[-0.5006504,43.9920928],[-0.5008328,43.9923051],[-0.5010045,43.9924016],[-0.5013317,43.9924903],[-0.5024368,43.9926679],[-0.503102,43.9927412],[-0.50403,43.9927605],[-0.5042875,43.992801],[-0.5044538,43.9927856],[-0.5044779,43.9927528],[-0.5044833,43.9926736]]]]},"properties":{"name":"Lagune de Paulin","natural":"water"}},
{"type":"Feature","geometry":{"type":"MultiPolygon","coordinates":[[[[-0.5788864,44.09322],[-0.5788542,44.0931603],[-0.578763,44.0931371],[-0.5786866,44.09314],[-0.5786383,44.0931824],[-0.5786692,44.0932286],[-0.5787416,44.0932575],[-0.5788341,44.0932691],[-0.5788864,44.09322]]]]},"properties":{"natural":"water","source":"BD Carthage"}},
{"type":"Feature","geometry":{"type":"MultiPolygon","coordinates":[[[[-0.5800599,44.0932412],[-0.5800398,44.0932026],[-0.5799365,44.0931699],[-0.5797447,44.093194],[-0.5795529,44.0931901],[-0.5793987,44.0932267],[-0.5792834,44.0932498],[-0.579274,44.0932065],[-0.5793437,44.0931872],[-0.5793518,44.0931352],[-0.5792794,44.0930447],[-0.5791694,44.092905],[-0.5790178,44.0927885],[-0.5787832,44.0926652],[-0.5785833,44.0926334],[-0.5784345,44.0925852],[-0.5783728,44.09259],[-0.578244,44.0926642],[-0.5781823,44.0926652],[-0.5779235,44.0925168],[-0.5777411,44.0924619],[-0.5774273,44.0923878],[-0.5773549,44.0923839],[-0.5773012,44.0922818],[-0.5772422,44.0921537],[-0.5772422,44.0920767],[-0.5772463,44.0920015],[-0.5771564,44.0919341],[-0.577025,44.0918243],[-0.5769472,44.0917501],[-0.576856,44.0917135],[-0.5767795,44.0916962],[-0.576746,44.0916451],[-0.5766937,44.0916162],[-0.5766346999999999,44.091648],[-0.5765717,44.0916808],[-0.5765878,44.0917569],[-0.57675,44.0918908],[-0.5769794,44.0920593],[-0.5770773,44.0922009],[-0.5771229,44.0922587],[-0.5772369,44.0922905],[-0.5772892,44.0923675],[-0.5772905,44.0923916],[-0.5772489,44.0924176],[-0.5772918,44.0924668],[-0.5773669,44.0925428],[-0.5774528,44.0927104],[-0.577611,44.0927576],[-0.5778323,44.0927605],[-0.5779168,44.0927952],[-0.5780563,44.0928857],[-0.578177,44.0930254],[-0.5783486,44.0931497],[-0.5783701,44.0931477],[-0.5783848,44.0931246],[-0.5783781,44.0930986],[-0.5782749,44.0930456],[-0.578185,44.092931],[-0.578173,44.0929031],[-0.5781971,44.0929069],[-0.5782467,44.0929464],[-0.5783111,44.0930206],[-0.578362,44.0930476],[-0.5784425,44.0930861],[-0.5784747,44.0931285],[-0.5784331,44.0932277],[-0.5784237,44.0933124],[-0.5784345,44.0933934],[-0.5784975,44.0934386],[-0.5785565,44.0934714],[-0.5785914,44.0935388],[-0.5785806,44.0935831],[-0.5785096,44.0936178],[-0.5784197,44.0936197],[-0.5783808,44.0936293],[-0.5783701,44.0936679],[-0.5783902,44.0936813],[-0.5784707,44.0936746],[-0.5785994,44.0936303],[-0.5787349,44.0936081],[-0.578755,44.0936187],[-0.5787362,44.093637],[-0.5784559,44.0937478],[-0.5784023,44.0937796],[-0.5784117,44.093796],[-0.5784868,44.0938258],[-0.5785592,44.0938027],[-0.5787483,44.0936534],[-0.5789655,44.0935032],[-0.5790031,44.0934531],[-0.5789964,44.0933789],[-0.5789588,44.0933317],[-0.5789079,44.0933057],[-0.578649,44.0933047],[-0.5785545,44.09331],[-0.5785029,44.0933129],[-0.5784868,44.0932864],[-0.5784941,44.0932498],[-0.5785337,44.0931858],[-0.5785525,44.0931082],[-0.5785082,44.0930678],[-0.578413,44.0930158],[-0.5783446,44.092983],[-0.5783151,44.0929329],[-0.5782749,44.0928068],[-0.5782735,44.092723],[-0.5783205,44.09267],[-0.5783714,44.0926266],[-0.5784854,44.09267],[-0.5786383,44.0927018],[-0.5787832,44.0927326],[-0.5788918,44.0927808],[-0.5789106,44.0928434],[-0.579038,44.0929532],[-0.5790581,44.0929878],[-0.5789977,44.0929956],[-0.5788757,44.092905],[-0.578822,44.0928463],[-0.5787376,44.0927875],[-0.5786584,44.0927596],[-0.5785766,44.0927567],[-0.5784962,44.0927914],[-0.5784465,44.0928867],[-0.578468,44.0929474],[-0.5785511,44.0929878],[-0.5787201,44.0930408],[-0.5788127,44.0930774],[-0.5788784,44.0930861],[-0.5789535,44.0930582],[-0.5790031,44.0930659],[-0.5790313,44.0930899],[-0.579042,44.0931391],[-0.5790715,44.0931853],[-0.57916,44.093192],[-0.5792244,44.0932315],[-0.5792163,44.0933047],[-0.5792257,44.0933346],[-0.5792727,44.093349],[-0.5793598,44.0933182],[-0.5795087,44.0932575],[-0.5796106,44.0932691],[-0.5796549,44.0933182],[-0.579612,44.0933693],[-0.579388,44.0934425],[-0.5791251,44.0935253],[-0.5790688,44.0935504],[-0.5791211,44.09356],[-0.5792874,44.0935109],[-0.5796294,44.0934126],[-0.5798185,44.093323],[-0.5799271,44.0932672],[-0.5800398,44.0932778],[-0.5800599,44.0932412]]]]},"properties":{"natural":"water","source":"BD Carthage"}},
{"type":"Feature","geometry":{"type":"MultiPolygon","coordinates":[[[[-0.5790782,44.1314021],[-0.5790407,44.131302],[-0.5788583,44.1312057],[-0.5786008,44.131225],[-0.5784559,44.1313674],[-0.5782628,44.1316909],[-0.5783647,44.1318218],[-0.5785525,44.1318834],[-0.5789602,44.1315908],[-0.5790782,44.1314021]]]]},"properties":{"natural":"water"}},
{"type":"Feature","geometry":{"type":"MultiPolygon","coordinates":[[[[-0.570986,44.1475056],[-0.5709109,44.147446],[-0.5708975,44.1473536],[-0.5709699,44.14724],[-0.5709752,44.1471053],[-0.5707768,44.1469687],[-0.5705515,44.1468532],[-0.5705246,44.146986],[-0.5705783,44.1471323],[-0.5705193,44.1473517],[-0.5704227,44.1476134],[-0.570302,44.1478386],[-0.5703396,44.1479175],[-0.5705515,44.1479579],[-0.5707338,44.1479637],[-0.5708358,44.1478655],[-0.5709431,44.1476346],[-0.570986,44.1475056]]]]},"properties":{"natural":"water"}},
{"type":"Feature","geometry":{"type":"MultiPolygon","coordinates":[[[[-0.5316219,44.0850419],[-0.5315307,44.0849302],[-0.5314744,44.0848627],[-0.5313268,44.0847991],[-0.5311337,44.0846392],[-0.5311015,44.0845506],[-0.531131,44.0843637],[-0.5311579,44.0842038],[-0.5311149,44.0841094],[-0.5309996,44.0841017],[-0.5308816,44.0841287],[-0.5308521,44.0842096],[-0.5308065,44.0843945],[-0.5308387,44.0845564],[-0.5308601,44.0847279],[-0.5310264,44.0847953],[-0.5313322,44.0849379],[-0.5315039,44.0850361],[-0.5316219,44.0850419]]]]},"properties":{"natural":"water"}},
{"type":"Feature","geometry":{"type":"MultiPolygon","coordinates":[[[[-0.3927666,44.0022633],[-0.3927505,44.0021784],[-0.3925306,44.0020491],[-0.3923965,44.0019661],[-0.3923187,44.0019411],[-0.3921121,44.0019121],[-0.391978,44.0018928],[-0.3919968,44.0019372],[-0.3921255,44.0019796],[-0.3923187,44.00208],[-0.3924099,44.0021745],[-0.3924072,44.0022613],[-0.3923401,44.0023482],[-0.3924459,44.0023607],[-0.3925359,44.0023713],[-0.3926969,44.0023173],[-0.3927666,44.0022633]]]]},"properties":{"natural":"water","water":"pond"}},
{"type":"Feature","geometry":{"type":"MultiPolygon","coordinates":[[[[-0.5158371,44.0082709],[-0.5156896,44.0081417],[-0.5155018,44.0081147],[-0.5153114,44.0080896],[-0.5151692,44.0080337],[-0.5149841,44.0080182],[-0.5147883,44.0079584],[-0.5145443,44.0078774],[-0.5142224,44.0078176],[-0.5139408,44.0076825],[-0.513702,44.0075861],[-0.513584,44.0075784],[-0.5135626,44.0076247],[-0.513643,44.0076787],[-0.5137423,44.0076903],[-0.5138254,44.0077809],[-0.5142036,44.0079507],[-0.5147159,44.0081841],[-0.5149412,44.0082111],[-0.5150539,44.0082767],[-0.5150834,44.0083828],[-0.5152497,44.0084504],[-0.5154911,44.0084658],[-0.515652,44.0084658],[-0.51577,44.0084214],[-0.5158129,44.0083809],[-0.5158371,44.0082709]]]]},"properties":{"natural":"water"}},
{"type":"Feature","geometry":{"type":"MultiPolygon","coordinates":[[[[-0.4935586,44.0832385],[-0.4934755,44.0830112],[-0.4933038,44.0827588],[-0.4930142,44.0824717],[-0.4929552,44.0823387],[-0.4929632,44.0822771],[-0.492982,44.082096],[-0.492931,44.081963],[-0.4928613,44.0817954],[-0.4927406,44.0817029],[-0.4925716,44.0816143],[-0.4925716,44.0815411],[-0.4925904,44.0813619],[-0.4926118,44.0811326],[-0.4926574,44.0810189],[-0.4927245,44.0809611],[-0.4927593,44.0809226],[-0.4927459,44.0808571],[-0.492644,44.0808031],[-0.4925019,44.0807646],[-0.4924268,44.0807684],[-0.4923999,44.0807935],[-0.4922605,44.0810247],[-0.4922015,44.0811037],[-0.4920888,44.0812097],[-0.4920378,44.0813484],[-0.4920137,44.0815199],[-0.4919654,44.0815603],[-0.4919171,44.0816201],[-0.4919547,44.0816721],[-0.4921371,44.0818551],[-0.4922122,44.0819418],[-0.4922202,44.0820709],[-0.4921773,44.0821538],[-0.4922551,44.0822405],[-0.4923034,44.0823503],[-0.4922685,44.0824274],[-0.4921317,44.082516],[-0.492247,44.0825353],[-0.4923597,44.0824524],[-0.4924858,44.0824023],[-0.4925314,44.0824023],[-0.4926226,44.0824524],[-0.4929015,44.0827607],[-0.4932743,44.0831249],[-0.4934782,44.083225],[-0.4935586,44.0832385]]]]},"properties":{"name":"Étang des Graouses","name:oc":"Estanh de las Grausas","natural":"water","source:name:oc":"ieo-bdtopoc"}},
{"type":"Feature","geometry":{"type":"MultiPolygon","coordinates":[[[[-0.5837017,44.0012571],[-0.5836654,44.0011756],[-0.5836299,44.0011606],[-0.5835756,44.0011611],[-0.5835367,44.0011708],[-0.5835226,44.0011881],[-0.5835079,44.0013468],[-0.5835394,44.0014447],[-0.5835743,44.0014606],[-0.5836058,44.0014568],[-0.583648,44.001451],[-0.5836856,44.00141],[-0.5837017,44.0013627],[-0.5837017,44.0012571]]]]},"properties":{"name":"Lagune des Oies","natural":"water"}},
{"type":"Feature","geometry":{"type":"MultiPolygon","coordinates":[[[[-0.5447311,44.0449101],[-0.5447271,44.0448941],[-0.5447121,44.0448581],[-0.5446731,44.0448101],[-0.5446321,44.0447801],[-0.5445681,44.0447511],[-0.5444751,44.0447351],[-0.5444171,44.0447371],[-0.5443611,44.0447471],[-0.5442941,44.0447731],[-0.5442651,44.0447911],[-0.5442281,44.0448241],[-0.5442021,44.0448601],[-0.5441861,44.0449001],[-0.5441831,44.0449421],[-0.5441911,44.0449831],[-0.5442041,44.0450091],[-0.5442421,44.0450571],[-0.5442981,44.0450951],[-0.5443301,44.0451091],[-0.5443841,44.0451241],[-0.5444411,44.0451311],[-0.5444791,44.0451311],[-0.5445531,44.0451191],[-0.5446211,44.0450931],[-0.5446501,44.0450751],[-0.5446871,44.0450431],[-0.5447191,44.0449971],[-0.5447231,44.0449891],[-0.5447311,44.0449521],[-0.5447311,44.0449101]]]]},"properties":{"leisure":"pitch","sport":"bullfighting;course_landaise","surface":"sand"}},
{"type":"Feature","geometry":{"type":"MultiPolygon","coordinates":[[[[-0.4624873,44.0642927],[-0.4624381,44.0642686],[-0.4623863,44.0643388],[-0.4624333,44.0643588],[-0.4624873,44.0642927]]]]},"properties":{"leisure":"pitch","sport":"boules"}},
{"type":"Feature","geometry":{"type":"MultiPolygon","coordinates":[[[[-0.461707,44.0627335],[-0.4614449,44.0626172],[-0.4614187,44.0626631],[-0.4614483,44.0626721],[-0.4614014,44.0627196],[-0.4613078,44.062863],[-0.4612945,44.0628587],[-0.4612773,44.0628772],[-0.4612291,44.0628578],[-0.4612386,44.0628406],[-0.461165,44.0628108],[-0.4612602,44.0628965],[-0.4612933,44.0629104],[-0.46134,44.0629153],[-0.461381,44.0629128],[-0.4614221,44.0629063],[-0.4614756,44.0628924],[-0.461544,44.0628629],[-0.461707,44.0627335]]]]},"properties":{"leisure":"park"}},
{"type":"Feature","geometry":{"type":"MultiPolygon","coordinates":[[[[-0.5027876,44.1259529],[-0.5022967,44.125915],[-0.5022724,44.1260778],[-0.5027632,44.1261157],[-0.5027876,44.1259529]]]]},"properties":{"leisure":"pitch","sport":"tennis"}},
{"type":"Feature","geometry":{"type":"MultiPolygon","coordinates":[[[[-0.4412468,44.0057051],[-0.4410258,44.0056454],[-0.4408642,44.0059555],[-0.4410852,44.0060151],[-0.4412468,44.0057051]]]]},"properties":{"leisure":"pitch"}},
{"type":"Feature","geometry":{"type":"MultiPolygon","coordinates":[[[[-0.5782122,44.0908432],[-0.578051,44.0905388],[-0.5778468,44.0905946],[-0.5780081,44.090899],[-0.5782122,44.0908432]]]]},"properties":{"leisure":"pitch","sport":"tennis"}},
{"type":"Feature","geometry":{"type":"MultiPolygon","coordinates":[[[[-0.5779488,44.0908573],[-0.5778388,44.0906009],[-0.5772185,44.0907382],[-0.5773285,44.0909946],[-0.5779488,44.0908573]]]]},"properties":{"leisure":"pitch","sport":"soccer"}},
{"type":"Feature","geometry":{"type":"MultiPolygon","coordinates":[[[[-0.5483792,44.0935231],[-0.5475511,44.0933415],[-0.5473418,44.0938337],[-0.5471454,44.0942959],[-0.5479735,44.0944775],[-0.5483792,44.0935231]]]]},"properties":{"leisure":"pitch","sport":"soccer"}},
{"type":"Feature","geometry":{"type":"MultiPolygon","coordinates":[[[[-0.5432938,44.1062034],[-0.5432173,44.1060291],[-0.543088,44.1060583],[-0.5431646,44.1062327],[-0.5432938,44.1062034]]]]},"properties":{"leisure":"playground"}},
{"type":"Feature","geometry":{"type":"MultiPolygon","coordinates":[[[[-0.5436629,44.1056091],[-0.5435635,44.1052651],[-0.5434025,44.1052891],[-0.5435018,44.105633],[-0.5436629,44.1056091]]]]},"properties":{"leisure":"pitch","sport":"pelota"}},
{"type":"Feature","geometry":{"type":"MultiPolygon","coordinates":[[[[-0.5492118,44.0961384],[-0.5491836,44.0956761],[-0.5491689,44.0956452],[-0.549189,44.0956491],[-0.5492011,44.0956048],[-0.5478747,44.0953313],[-0.5478519,44.0953842],[-0.5488604,44.0955826],[-0.5488095,44.0956106],[-0.5487786,44.0956433],[-0.5487612,44.0956828],[-0.5487598,44.0957204],[-0.5487947,44.0961702],[-0.5488189,44.0962164],[-0.548851,44.0962443],[-0.5488832,44.0962597],[-0.5489288,44.096278],[-0.5489744,44.0962848],[-0.5490267,44.096280899999999],[-0.5490763,44.0962703],[-0.54913,44.0962491],[-0.5491582,44.096228],[-0.5491877,44.0961991],[-0.5492064,44.0961702],[-0.5492118,44.0961384]],[[-0.5491678,44.0961206],[-0.5491662,44.0961528],[-0.5491515,44.0961808],[-0.54913,44.0962058],[-0.5491059,44.0962241],[-0.5490509,44.0962443],[-0.5490119999999999,44.0962501],[-0.5489677,44.0962482],[-0.5489315,44.0962385],[-0.548894,44.0962222],[-0.5488631,44.0962019],[-0.548847,44.0961769],[-0.5488373,44.0961331],[-0.5488072,44.0957247],[-0.5488162,44.0956905],[-0.5488417,44.0956607],[-0.5488658,44.0956375],[-0.5489127,44.0956135],[-0.5489798,44.0956038],[-0.5490361,44.0956115],[-0.5490777,44.0956347],[-0.5491126,44.0956655],[-0.5491377,44.0957121],[-0.5491678,44.0961206]]]]},"properties":{"access":"private","leisure":"track","sport":"athletics"}},
{"type":"Feature","geometry":{"type":"MultiPolygon","coordinates":[[[[-0.5491678,44.0961206],[-0.5491377,44.0957121],[-0.5488072,44.0957247],[-0.5488373,44.0961331],[-0.5491678,44.0961206]]]]},"properties":{"access":"private","leisure":"pitch","sport":"multi"}},
{"type":"Feature","geometry":{"type":"MultiPolygon","coordinates":[[[[-0.5487163,44.0957251],[-0.5486844,44.0956851],[-0.5486369,44.095654],[-0.5485784,44.0956349],[-0.5485145,44.0956296],[-0.5484515,44.0956387],[-0.5483954,44.0956612],[-0.5483517,44.095695],[-0.5483245,44.0957369],[-0.5484904,44.095773199999999],[-0.548493,44.0958032],[-0.5485587,44.0958003],[-0.5485561,44.0957703],[-0.5487163,44.0957251]]]]},"properties":{"access":"private","leisure":"pitch","sport":"athletics"}},
{"type":"Feature","geometry":{"type":"MultiPolygon","coordinates":[[[[-0.4000268,44.2021632],[-0.3995024,44.2021475],[-0.3994914,44.2023344],[-0.4000159,44.2023501],[-0.4000268,44.2021632]]]]},"properties":{"leisure":"pitch","sport":"tennis"}},
{"type":"Feature","geometry":{"type":"MultiPolygon","coordinates":[[[[-0.375469,43.9970615],[-0.3754529,43.9970335],[-0.3754127,43.9970191],[-0.3753886,43.9970191],[-0.375355,43.9970374],[-0.3753577,43.9971117],[-0.3753926,43.9971271],[-0.3754449,43.997104],[-0.375469,43.9970615]]]]},"properties":{"natural":"water","water":"pond"}},
{"type":"Feature","geometry":{"type":"MultiPolygon","coordinates":[[[[-0.402275,43.9970905],[-0.4022348,43.9970422],[-0.4021597,43.9970345],[-0.4020578,43.997075],[-0.4020664,43.9971247],[-0.4021677,43.9971754],[-0.4022616,43.9971619],[-0.402275,43.9970905]]]]},"properties":{"natural":"water","water":"pond"}},
{"type":"Feature","geometry":{"type":"MultiPolygon","coordinates":[[[[-0.4000783,43.9972236],[-0.4000649,43.9971368],[-0.400022,43.9971213],[-0.399861,43.9971117],[-0.3997913,43.9972062],[-0.399861,43.9972641],[-0.4000166,43.9972641],[-0.4000783,43.9972236]]]]},"properties":{"natural":"water","water":"pond"}},
{"type":"Feature","geometry":{"type":"MultiPolygon","coordinates":[[[[-0.3999361,43.9968686],[-0.3999281,43.996801],[-0.3997028,43.9967586],[-0.3995875,43.996803],[-0.3996089,43.9968763],[-0.3997189,43.996938],[-0.3998557,43.9969284],[-0.3999361,43.9968686]]]]},"properties":{"natural":"water","water":"pond"}},
{"type":"Feature","geometry":{"type":"MultiPolygon","coordinates":[[[[-0.3988498,44.0001699],[-0.3988445,44.0000753],[-0.3987613,44.0000155],[-0.3986004,43.999992399999999],[-0.3984877,44.0000541],[-0.3983027,44.000249],[-0.398308,44.0003223],[-0.398367,44.0003435],[-0.3984985,44.0003551],[-0.398646,44.0003358],[-0.3988498,44.0001699]]]]},"properties":{"natural":"water","water":"pond"}},
{"type":"Feature","geometry":{"type":"MultiPolygon","coordinates":[[[[-0.3979915,43.9997126],[-0.3979701,43.9996239],[-0.3978226,43.9995988],[-0.3977045,43.9996856],[-0.3977555,43.999757],[-0.3979245,43.9997898],[-0.3979915,43.9997126]]]]},"properties":{"natural":"water","water":"pond"}},
{"type":"Feature","geometry":{"type":"MultiPolygon","coordinates":[[[[-0.3971762,44.0002818],[-0.3970367,44.0000773],[-0.3967792,44.0000811],[-0.3966719,44.0001467],[-0.3966719,44.0002509],[-0.3970206,44.0004284],[-0.3971493,44.0003783],[-0.3971762,44.0002818]]]]},"properties":{"natural":"water","water":"pond"}},
{"type":"Feature","geometry":{"type":"MultiPolygon","coordinates":[[[[-0.5391286,44.0418016],[-0.5391155,44.0417813],[-0.5390983,44.0417856],[-0.5390649,44.041753],[-0.5390296,44.0417675],[-0.5390801,44.0418227],[-0.5391286,44.0418016]]]]},"properties":{"access":"private","leisure":"swimming_pool","location":"outdoor"}},
{"type":"Feature","geometry":{"type":"MultiPolygon","coordinates":[[[[-0.3986,44.2002743],[-0.3984872,44.1999038],[-0.3983534,44.1999226],[-0.398495,44.2002875],[-0.3986,44.2002743]]]]},"properties":{"natural":"water"}},
{"type":"Feature","geometry":{"type":"MultiPolygon","coordinates":[[[[-0.3994788,44.2011865],[-0.3994185,44.2010529],[-0.3994762,44.2009533],[-0.3993581,44.2007182],[-0.3992033,44.2005207],[-0.3988964,44.200406],[-0.3986787,44.2004041],[-0.3983298,44.2005057],[-0.3980359,44.2006881],[-0.3980858,44.2008592],[-0.3984047,44.2011385],[-0.3986078,44.201209],[-0.3991273,44.201305],[-0.3993162,44.2012711],[-0.3990223,44.2011507],[-0.3987679,44.2011695],[-0.3984935,44.2010644],[-0.3983044,44.2008774],[-0.3982403,44.2007597],[-0.3982878,44.2007031],[-0.3986393,44.2005809],[-0.3989122,44.2006524],[-0.3991378,44.2008517],[-0.3992296,44.2010059],[-0.3994158,44.2012053],[-0.3994788,44.2011865]]]]},"properties":{"natural":"water"}},
{"type":"Feature","geometry":{"type":"MultiPolygon","coordinates":[[[[-0.3797273,44.1991002],[-0.3797095,44.1989321],[-0.3795531,44.1987703],[-0.3790751,44.1987575],[-0.3787177,44.1990361],[-0.3787311,44.1993116],[-0.3790215,44.1994525],[-0.3795844,44.1993084],[-0.3797273,44.1991002]]]]},"properties":{"natural":"wood"}},
{"type":"Feature","geometry":{"type":"MultiPolygon","coordinates":[[[[-0.3798882,44.1991066],[-0.3798256,44.1988344],[-0.3796335,44.1987191],[-0.3793968,44.1986454],[-0.3791198,44.198671],[-0.3788473,44.1987223],[-0.3786239,44.1989337],[-0.3785078,44.1990361],[-0.3785256,44.1992123],[-0.3787758,44.199507],[-0.3791779,44.1995902],[-0.3797452,44.1994109],[-0.3798837,44.1992683],[-0.3798882,44.1991066]],[[-0.3797273,44.1991002],[-0.3795844,44.1993084],[-0.3790215,44.1994525],[-0.3787311,44.1993116],[-0.3787177,44.1990361],[-0.3790751,44.1987575],[-0.3795531,44.1987703],[-0.3797095,44.1989321],[-0.3797273,44.1991002]]]]},"properties":{"natural":"water"}},
{"type":"Feature","geometry":{"type":"MultiPolygon","coordinates":[[[[-0.3963084,44.2052618],[-0.396179,44.2051867],[-0.3955736,44.2050851],[-0.3954781,44.2050984],[-0.395401,44.2051403],[-0.3954904,44.2051646],[-0.3956013,44.2051315],[-0.3959895,44.2052231],[-0.3961759,44.2052452],[-0.3962144,44.2052883],[-0.3961975,44.2053711],[-0.3960773,44.2055136],[-0.3959217,44.2056163],[-0.3957769,44.2056549],[-0.3955643,44.205582],[-0.3954396,44.2054992],[-0.3954488,44.2053656],[-0.395458,44.2052331],[-0.3953995,44.2052209],[-0.3953595,44.2052287],[-0.3953179,44.2052894],[-0.3952994,44.2053733],[-0.3953271,44.2054871],[-0.3954812,44.205624],[-0.395703,44.2057223],[-0.3959094,44.2056936],[-0.39614509999999999,44.2055666],[-0.3962946,44.2053954],[-0.3963084,44.2052618]]]]},"properties":{"natural":"water"}},
{"type":"Feature","geometry":{"type":"MultiPolygon","coordinates":[[[[-0.3962144,44.2052883],[-0.3961759,44.2052452],[-0.3959895,44.2052231],[-0.3956013,44.2051315],[-0.3954904,44.2051646],[-0.395458,44.2052331],[-0.3954488,44.2053656],[-0.3954396,44.2054992],[-0.3955643,44.205582],[-0.3957769,44.2056549],[-0.3959217,44.2056163],[-0.3960773,44.2055136],[-0.3961975,44.2053711],[-0.3962144,44.2052883]]]]},"properties":{"natural":"wood"}},
{"type":"Feature","geometry":{"type":"MultiPolygon","coordinates":[[[[-0.3880493,44.2059223],[-0.3867484,44.2058217],[-0.3863239,44.2062855],[-0.3865465,44.2063542],[-0.3864472,44.2066585],[-0.3867553,44.2065382],[-0.3871216,44.2066953],[-0.387303,44.2065603],[-0.3875701,44.2067198],[-0.3879672,44.2066388],[-0.3880493,44.2059223]]]]},"properties":{"natural":"wetland"}},
{"type":"Feature","geometry":{"type":"MultiPolygon","coordinates":[[[[-0.4158868,44.20807],[-0.4156177,44.207874],[-0.4155555,44.2079197],[-0.4150375,44.2078455],[-0.4147859,44.2079516],[-0.414379,44.2079197],[-0.4139868,44.2075697],[-0.4137352,44.2076917],[-0.4137426,44.2079781],[-0.41375,44.2084289],[-0.4141126,44.2084873],[-0.414231,44.2084607],[-0.4147785,44.2086729],[-0.4150079,44.2086623],[-0.4151781,44.2083016],[-0.4155315,44.2080264],[-0.4158868,44.20807]]]]},"properties":{"natural":"water"}},
{"type":"Feature","geometry":{"type":"MultiPolygon","coordinates":[[[[-0.4153024,44.2069748],[-0.4149282,44.206857],[-0.4149395,44.2064058],[-0.4139472,44.206479],[-0.4137352,44.2076917],[-0.4139868,44.2075697],[-0.4148942,44.2075683],[-0.4153024,44.2069748]]]]},"properties":{"natural":"wetland"}},
{"type":"Feature","geometry":{"type":"MultiPolygon","coordinates":[[[[-0.3783806,44.1846783],[-0.3739851,44.1835629],[-0.3735371,44.1843509],[-0.3780002,44.1855269],[-0.3783806,44.1846783]]]]},"properties":{"natural":"heath"}},
{"type":"Feature","geometry":{"type":"MultiPolygon","coordinates":[[[[-0.3830634,44.1859148],[-0.3786764,44.1847874],[-0.3783045,44.1856057],[-0.3825731,44.1867209],[-0.3830634,44.1859148]]]]},"properties":{"natural":"heath"}},
{"type":"Feature","geometry":{"type":"MultiPolygon","coordinates":[[[[-0.3879068,44.1871998],[-0.3833592,44.1859936],[-0.3828943,44.1868058],[-0.3875095,44.188012],[-0.3879068,44.1871998]]]]},"properties":{"natural":"heath"}},
{"type":"Feature","geometry":{"type":"MultiPolygon","coordinates":[[[[-0.3889211,44.1874665],[-0.3882449,44.1872967],[-0.3877716,44.1880665],[-0.388583,44.1882605],[-0.3889211,44.1874665]]]]},"properties":{"natural":"heath"}},
{"type":"Feature","geometry":{"type":"MultiPolygon","coordinates":[[[[-0.4237002,44.0691558],[-0.4236854,44.0691447],[-0.4236085,44.0692067],[-0.423023,44.0689856],[-0.4229865,44.0689875],[-0.4229718,44.0689921],[-0.4227995,44.0690841],[-0.422703,44.0691002],[-0.4226684,44.0690962],[-0.4225824,44.0690807],[-0.4225377,44.0690581],[-0.4224014,44.0689604],[-0.4223672,44.0689449],[-0.4223383,44.06894],[-0.4222791,44.0689467],[-0.4221718,44.0689739],[-0.4219576,44.0690374],[-0.4216016,44.0691513],[-0.4216995,44.0692318],[-0.4220541,44.0691778],[-0.4221913,44.0691842],[-0.4224103,44.0692145],[-0.4225488,44.0692445],[-0.4226166,44.0692807],[-0.4226606,44.0693163],[-0.4227031,44.0693874],[-0.4227914,44.0694154],[-0.4228162,44.0694088],[-0.4228499,44.0693955],[-0.4228955,44.0693899],[-0.4229477,44.0693991],[-0.4229838,44.0694104],[-0.4230114,44.0694287],[-0.4230282,44.0694622],[-0.4230682,44.0695817],[-0.4230875,44.0695977],[-0.423111,44.0696086],[-0.4231332,44.0696138],[-0.4231709,44.0696117],[-0.4231968,44.0696036],[-0.4234134,44.069477],[-0.4235285,44.0694152],[-0.4235572,44.069396],[-0.4235692,44.0693824],[-0.423653,44.0692534],[-0.4236206,44.0692255],[-0.4236451,44.0691975],[-0.4237002,44.0691558]]]]},"properties":{"natural":"water","source":"cadastre-dgi-fr source : Direction Générale des Impôts - Cadastre. Mise à jour : 2023"}},
{"type":"Feature","geometry":{"type":"MultiPolygon","coordinates":[[[[-0.4158738,44.0592538],[-0.4157451,44.0591999],[-0.4144576,44.0590033],[-0.4130656,44.0588066],[-0.4121858,44.0587488],[-0.4120034,44.05877],[-0.4118344,44.0588876],[-0.4117942,44.0597376],[-0.4118344,44.0598301],[-0.4119551,44.059915],[-0.4121616,44.0599287],[-0.4122743,44.0599362],[-0.4129744,44.0599323],[-0.41394,44.0598147],[-0.4144979,44.0596991],[-0.4146829,44.059674],[-0.415265,44.0594446],[-0.4155225,44.0594003],[-0.4157826,44.0594215],[-0.4158738,44.0593598],[-0.4158738,44.0592538]]]]},"properties":{"leisure":"track"}},
{"type":"Feature","geometry":{"type":"MultiPolygon","coordinates":[[[[-0.5305268,43.9912435],[-0.5302918,43.9912266],[-0.5302748,43.9913486],[-0.5305098,43.9913655],[-0.5305268,43.9912435]]]]},"properties":{"leisure":"pitch","sport":"boules"}},
{"type":"Feature","geometry":{"type":"MultiPolygon","coordinates":[[[[-0.5305098,43.9913655],[-0.5302748,43.9913486],[-0.5302584,43.9914665],[-0.5304934,43.9914834],[-0.5305098,43.9913655]]]]},"properties":{"leisure":"pitch","sport":"boules"}},
{"type":"Feature","geometry":{"type":"MultiPolygon","coordinates":[[[[-0.5302371,43.9912018],[-0.5301145,43.9911944],[-0.5300838,43.9914562],[-0.5302065,43.9914636],[-0.5302371,43.9912018]]]]},"properties":{"leisure":"pitch","sport":"pelota"}},
{"type":"Feature","geometry":{"type":"MultiPolygon","coordinates":[[[[-0.5311984,43.9914419],[-0.5311658,43.9913205],[-0.530957,43.9913495],[-0.5309897,43.991471],[-0.5311984,43.9914419]]]]},"properties":{"leisure":"playground"}},
{"type":"Feature","geometry":{"type":"MultiPolygon","coordinates":[[[[-0.5316614,43.990868],[-0.5316189,43.9908654],[-0.5315914,43.9910994],[-0.5316339,43.991102],[-0.5316614,43.990868]]]]},"properties":{"area":"yes","leisure":"track","sport":"athletics"}},
{"type":"Feature","geometry":{"type":"MultiPolygon","coordinates":[[[[-0.5318441,43.9908763],[-0.5317014,43.9908652],[-0.5316726,43.9910568],[-0.5318153,43.991068],[-0.5318441,43.9908763]]]]},"properties":{"leisure":"pitch","sport":"multi"}},
{"type":"Feature","geometry":{"type":"MultiPolygon","coordinates":[[[[-0.5500239,44.0943842],[-0.5491009,44.0942145],[-0.5487524,44.0951929],[-0.5496754,44.0953625],[-0.5500239,44.0943842]]]]},"properties":{"leisure":"pitch","sport":"soccer"}},
{"type":"Feature","geometry":{"type":"MultiPolygon","coordinates":[[[[-0.530589,44.103745],[-0.5303025,44.1036299],[-0.5301952,44.1037609],[-0.5301523,44.1037455],[-0.5300075,44.1039304],[-0.5303615,44.1040575],[-0.530589,44.103745]]]]},"properties":{"access":"yes","addr:full":"1209 route de roquefort 40420 labrit","email":"mairie.labrit@coeurhautelande.fr","leisure":"swimming_pool","location":"outdoor","name":"bassin ludique de plein air","opening_hours":"Jul 01-Aug 31 14:00-20:30","phone":"+33 5 58510031","swimming_pool":"piscine_avec_pente_progressive_et_pataugeoire","website":"https://www.labrit.fr"}},
{"type":"Feature","geometry":{"type":"MultiPolygon","coordinates":[[[[-0.5307138,44.1040043],[-0.5305374,44.1039991],[-0.5305259,44.1042013],[-0.5307023,44.1042064],[-0.5307138,44.1040043]]]]},"properties":{"leisure":"pitch","name":"skate-park","sport":"skateboard"}},
{"type":"Feature","geometry":{"type":"MultiPolygon","coordinates":[[[[-0.5312113,44.1040868],[-0.5310643,44.1040428],[-0.5309388,44.1042591],[-0.5310859,44.1043031],[-0.5312113,44.1040868]]]]},"properties":{"access":"yes","leisure":"pitch","name":"city","sport":"basketball;football;tennis"}},
{"type":"Feature","geometry":{"type":"MultiPolygon","coordinates":[[[[-0.5756902,44.1044714],[-0.5751724,44.103846],[-0.5742047,44.1032901],[-0.572787,44.1028592],[-0.5727628,44.1029878],[-0.5726732,44.1030503],[-0.5724192,44.1031407],[-0.5723636,44.1032553],[-0.5723152,44.1034377],[-0.5722499,44.103568],[-0.5723466,44.1036792],[-0.5724652,44.1037574],[-0.5723853,44.1041066],[-0.5719353,44.104329],[-0.5718676,44.104461],[-0.5719208,44.1046452],[-0.572066,44.1046313],[-0.5721192,44.1045235],[-0.572366,44.1045444],[-0.5727579,44.1046903],[-0.5729321,44.1047598],[-0.5728934,44.1048745],[-0.5726757,44.1050934],[-0.5726999,44.1052358],[-0.5730337,44.1053227],[-0.5732611,44.1054512],[-0.5734402,44.1054721],[-0.5734257,44.1055416],[-0.5732079,44.1057222],[-0.5729466,44.1055728],[-0.5727966,44.1056701],[-0.5728982,44.1058577],[-0.5731402,44.1059515],[-0.573445,44.1060037],[-0.5737934,44.1059133],[-0.5740886,44.1058508],[-0.5743353,44.1057466],[-0.5744756,44.1055242],[-0.5747079,44.1055172],[-0.574795,44.105479],[-0.5748337,44.1053713],[-0.5743595,44.104659],[-0.5743716,44.1045948],[-0.574599,44.1047598],[-0.5746789,44.1048988],[-0.5748337,44.1050916],[-0.5749692,44.1052514],[-0.575124,44.1052775],[-0.5755837,44.1048501],[-0.5756902,44.1044714]]]]},"properties":{"natural":"water"}},
{"type":"Feature","geometry":{"type":"MultiPolygon","coordinates":[[[[-0.487299,44.1062931],[-0.4869182,44.1062488],[-0.4868753,44.1063143],[-0.4868055,44.1063779],[-0.4867304,44.1064222],[-0.4867653,44.1064318],[-0.486894,44.106453],[-0.486996,44.1064318],[-0.4870791,44.1064048],[-0.487299,44.1062931]]]]},"properties":{"intermittent":"yes","natural":"water","water":"basin"}},
{"type":"Feature","geometry":{"type":"MultiPolygon","coordinates":[[[[-0.4873178,44.1062469],[-0.4871542,44.106089],[-0.4870523,44.1060235],[-0.4869235,44.1060023],[-0.4868511,44.1059965],[-0.4868243,44.1060062],[-0.4868699,44.1060447],[-0.4869209,44.1061294],[-0.4869316,44.1062199],[-0.4873178,44.1062469]]]]},"properties":{"intermittent":"yes","natural":"water","water":"basin"}},
{"type":"Feature","geometry":{"type":"MultiPolygon","coordinates":[[[[-0.4868887,44.1062296],[-0.4868645,44.1061275],[-0.4868323,44.1060755],[-0.4868082,44.1060524],[-0.4867277,44.1060254],[-0.4867009,44.106037],[-0.4866312,44.1060813],[-0.486599,44.1061256],[-0.4865802,44.1062392],[-0.4865856,44.1063259],[-0.4866339,44.1063663],[-0.4866875,44.106374],[-0.4867572,44.1063605],[-0.4868484,44.1062931],[-0.4868887,44.1062296]]]]},"properties":{"intermittent":"yes","natural":"water","water":"basin"}},
{"type":"Feature","geometry":{"type":"MultiPolygon","coordinates":[[[[-0.4854054,44.1073177],[-0.4853947,44.1072908],[-0.4852364,44.1072619],[-0.4851908,44.1072888],[-0.4850835,44.107518],[-0.4851291,44.107572],[-0.4851935,44.107597],[-0.4852606,44.1076124],[-0.4852847,44.1075739],[-0.4854054,44.1073177]]]]},"properties":{"intermittent":"yes","natural":"water","water":"basin"}},
{"type":"Feature","geometry":{"type":"MultiPolygon","coordinates":[[[[-0.4817898,44.1056978],[-0.4812265,44.1056247],[-0.4811621,44.1061062],[-0.4811407,44.106291],[-0.4813552,44.1063796],[-0.4816181,44.106137],[-0.4817522,44.1058789],[-0.4817093,44.1058558],[-0.4817898,44.1056978]]]]},"properties":{"intermittent":"yes","natural":"water","water":"basin"}},
{"type":"Feature","geometry":{"type":"MultiPolygon","coordinates":[[[[-0.4810602,44.1055515],[-0.4807169,44.1054975],[-0.4804755,44.1054975],[-0.4803736,44.1060561],[-0.4809797,44.1060676],[-0.4810602,44.1055515]]]]},"properties":{"intermittent":"yes","natural":"water","water":"basin"}},
{"type":"Feature","geometry":{"type":"MultiPolygon","coordinates":[[[[-0.4803145,44.1056401],[-0.4803038,44.1055476],[-0.4802126,44.1054821],[-0.4795635,44.1052664],[-0.4793919,44.1055592],[-0.4793865,44.1057633],[-0.4801912,44.1060407],[-0.4802985,44.1057248],[-0.4802126,44.1056978],[-0.4801965,44.1056516],[-0.4803145,44.1056401]]]]},"properties":{"intermittent":"yes","natural":"water","water":"basin"}},
{"type":"Feature","geometry":{"type":"MultiPolygon","coordinates":[[[[-0.4813835,44.1051017],[-0.4810964,44.1050663],[-0.4810278,44.1053532],[-0.4813148,44.1053886],[-0.4813835,44.1051017]]]]},"properties":{"intermittent":"yes","natural":"water","water":"basin"}},
{"type":"Feature","geometry":{"type":"MultiPolygon","coordinates":[[[[-0.482385,44.1053744],[-0.4819596,44.1053253],[-0.4819274,44.1054696],[-0.4823527,44.1055187],[-0.482385,44.1053744]]]]},"properties":{"intermittent":"yes","natural":"water","water":"basin"}},
{"type":"Feature","geometry":{"type":"MultiPolygon","coordinates":[[[[-0.481894,44.1053194],[-0.4816923,44.1052956],[-0.4816606,44.1054336],[-0.4818623,44.1054575],[-0.481894,44.1053194]]]]},"properties":{"intermittent":"yes","natural":"water","water":"basin"}},
{"type":"Feature","geometry":{"type":"MultiPolygon","coordinates":[[[[-0.4816695,44.105116],[-0.4814732,44.1050921],[-0.4814005,44.1054009],[-0.4815967,44.1054247],[-0.4816695,44.105116]]]]},"properties":{"intermittent":"yes","natural":"water","water":"basin"}},
{"type":"Feature","geometry":{"type":"MultiPolygon","coordinates":[[[[-0.4879902,44.1091793],[-0.4879122,44.1091511],[-0.4878962,44.1091838],[-0.4879676,44.1092105],[-0.4879902,44.1091793]]]]},"properties":{"leisure":"swimming_pool"}},
{"type":"Feature","geometry":{"type":"MultiPolygon","coordinates":[[[[-0.5007739,44.1262765],[-0.5007723,44.1261594],[-0.5007122,44.1261597],[-0.5005325,44.1261484],[-0.5005298,44.1262765],[-0.5007739,44.1262765]]]]},"properties":{"leisure":"pitch"}},
{"type":"Feature","geometry":{"type":"MultiPolygon","coordinates":[[[[-0.4835289,44.0185392],[-0.4835266,44.0185169],[-0.4835147,44.0184964],[-0.4834932,44.0184827],[-0.4834647,44.0184793],[-0.4834266,44.0184793],[-0.4833909,44.0184793],[-0.4833575,44.0184793],[-0.483329,44.018481],[-0.483298,44.0184844],[-0.4832409,44.0184895],[-0.4832123,44.0184964],[-0.4831861,44.0185067],[-0.4831575,44.0185169],[-0.4831195,44.0185272],[-0.4830909,44.018534],[-0.4830576,44.018546],[-0.4830409,44.0185631],[-0.4830456,44.0185888],[-0.4830718,44.0186059],[-0.4831123,44.0186179],[-0.4831409,44.0186196],[-0.4831861,44.0186265],[-0.4832218,44.0186299],[-0.4832623,44.0186299],[-0.483298,44.0186282],[-0.4833409,44.0186299],[-0.4833742,44.0186231],[-0.4834123,44.0186179],[-0.4834742,44.0186008],[-0.4834956,44.0185871],[-0.4835194,44.0185649],[-0.4835289,44.0185392]]]]},"properties":{"natural":"water","water":"pond"}},
{"type":"Feature","geometry":{"type":"MultiPolygon","coordinates":[[[[-0.5361465,44.0442069],[-0.5360944,44.0442042],[-0.5360564,44.0442022],[-0.5360545,44.0442228],[-0.536145,44.0442252],[-0.5361465,44.0442069]]]]},"properties":{"leisure":"outdoor_seating"}},
{"type":"Feature","geometry":{"type":"MultiPolygon","coordinates":[[[[-0.5466444,44.1019904],[-0.5465683,44.101977],[-0.5465225,44.1021111],[-0.5465987,44.1021245],[-0.5466444,44.1019904]]]]},"properties":{"access":"private","leisure":"swimming_pool","location":"outdoor"}}
]}
