{"type":"FeatureCollection","features":[
{"type":"Feature","geometry":{"type":"Point","coordinates":[-1.6744076,43.3982346]},"properties":{"source":"PGS"}},
{"type":"Feature","geometry":{"type":"Point","coordinates":[-1.674546,43.3981673]},"properties":{"source":"PGS"}},
{"type":"Feature","geometry":{"type":"Point","coordinates":[-1.6746251,43.398219]},"properties":{"source":"PGS"}},
{"type":"Feature","geometry":{"type":"Point","coordinates":[-1.6746144,43.3983023]},"properties":{"source":"PGS"}},
{"type":"Feature","geometry":{"type":"Point","coordinates":[-1.6715773,43.3986993]},"properties":{"source":"PGS"}},
{"type":"Feature","geometry":{"type":"Point","coordinates":[-1.6715531,43.3985785]},"properties":{"source":"PGS"}},
{"type":"Feature","geometry":{"type":"Point","coordinates":[-1.6607379,43.3941126]},"properties":{"source":"PGS"}},
{"type":"Feature","geometry":{"type":"Point","coordinates":[-1.6564044,43.4044795]},"properties":{"source":"PGS"}},
{"type":"Feature","geometry":{"type":"Point","coordinates":[-1.6608004,43.4033737]},"properties":{"source":"PGS"}},
{"type":"Feature","geometry":{"type":"Point","coordinates":[-1.6612071,43.403256]},"properties":{"source":"PGS"}},
{"type":"Feature","geometry":{"type":"Point","coordinates":[-1.6613916,43.4031406]},"properties":{"source":"PGS"}},
{"type":"Feature","geometry":{"type":"Point","coordinates":[-1.6614409,43.4030221]},"properties":{"source":"PGS"}},
{"type":"Feature","geometry":{"type":"Point","coordinates":[-1.661432,43.402877]},"properties":{"source":"PGS"}},
{"type":"Feature","geometry":{"type":"Point","coordinates":[-1.6647332,43.3995991]},"properties":{"source":"PGS"}},
{"type":"Feature","geometry":{"type":"Point","coordinates":[-1.6644839,43.3987903]},"properties":{"source":"PGS"}},
{"type":"Feature","geometry":{"type":"Point","coordinates":[-1.6628879,43.3989268]},"properties":{"source":"PGS"}},
{"type":"Feature","geometry":{"type":"Point","coordinates":[-1.6625587,43.3989251]},"properties":{"source":"PGS"}},
{"type":"Feature","geometry":{"type":"Point","coordinates":[-1.6624221,43.398926]},"properties":{"source":"PGS"}},
{"type":"Feature","geometry":{"type":"Point","coordinates":[-1.6618223,43.398082]},"properties":{"source":"PGS"}},
{"type":"Feature","geometry":{"type":"Point","coordinates":[-1.661673,43.3979495]},"properties":{"source":"PGS"}},
{"type":"Feature","geometry":{"type":"Point","coordinates":[-1.6613064,43.3976039]},"properties":{"source":"PGS"}},
{"type":"Feature","geometry":{"type":"Point","coordinates":[-1.6608654,43.3974911]},"properties":{"source":"PGS"}},
{"type":"Feature","geometry":{"type":"Point","coordinates":[-1.6607264,43.3970182]},"properties":{"source":"PGS"}},
{"type":"Feature","geometry":{"type":"Point","coordinates":[-1.6607525,43.3969145]},"properties":{"source":"PGS"}},
{"type":"Feature","geometry":{"type":"Point","coordinates":[-1.6606828,43.3966863]},"properties":{"source":"PGS"}},
{"type":"Feature","geometry":{"type":"Point","coordinates":[-1.6605451,43.3962245]},"properties":{"source":"PGS"}},
{"type":"Feature","geometry":{"type":"Point","coordinates":[-1.6604584,43.3958073]},"properties":{"source":"PGS"}},
{"type":"Feature","geometry":{"type":"Point","coordinates":[-1.6606948,43.3943244]},"properties":{"source":"PGS"}},
{"type":"Feature","geometry":{"type":"Point","coordinates":[-1.6607345,43.3937736]},"properties":{"source":"PGS"}},
{"type":"Feature","geometry":{"type":"Point","coordinates":[-1.6608412,43.3927991]},"properties":{"source":"PGS"}},
{"type":"Feature","geometry":{"type":"Point","coordinates":[-1.6611712,43.3922566]},"properties":{"source":"PGS"}},
{"type":"Feature","geometry":{"type":"Point","coordinates":[-1.6616614,43.3916741]},"properties":{"source":"PGS"}},
{"type":"Feature","geometry":{"type":"Point","coordinates":[-1.6626887,43.390843]},"properties":{"source":"PGS"}},
{"type":"Feature","geometry":{"type":"Point","coordinates":[-1.6634929,43.3903123]},"properties":{"source":"PGS"}},
{"type":"Feature","geometry":{"type":"Point","coordinates":[-1.6678566,43.3879943]},"properties":{"source":"PGS"}},
{"type":"Feature","geometry":{"type":"Point","coordinates":[-1.6684601,43.3879222]},"properties":{"source":"PGS"}},
{"type":"Feature","geometry":{"type":"Point","coordinates":[-1.6687558,43.3879634]},"properties":{"source":"PGS"}},
{"type":"Feature","geometry":{"type":"Point","coordinates":[-1.6606932,43.3935308]},"properties":{"source":"PGS"}},
{"type":"Feature","geometry":{"type":"Point","coordinates":[-1.6650555,43.3893723]},"properties":{"source":"PGS"}},
{"type":"Feature","geometry":{"type":"Point","coordinates":[-1.6661562,43.3886624]},"properties":{"source":"PGS"}},
{"type":"Feature","geometry":{"type":"Point","coordinates":[-1.6646839,43.3996753]},"properties":{"source":"PGS"}},
{"type":"Feature","geometry":{"type":"Point","coordinates":[-1.6643381,43.4000474]},"properties":{"source":"PGS"}},
{"type":"Feature","geometry":{"type":"Point","coordinates":[-1.6633119,43.4003371]},"properties":{"source":"PGS"}},
{"type":"Feature","geometry":{"type":"Point","coordinates":[-1.6627465,43.4007894]},"properties":{"source":"PGS"}},
{"type":"Feature","geometry":{"type":"Point","coordinates":[-1.6625897,43.4010343]},"properties":{"source":"PGS"}},
{"type":"Feature","geometry":{"type":"Point","coordinates":[-1.6613812,43.4019436]},"properties":{"source":"PGS"}},
{"type":"Feature","geometry":{"type":"Point","coordinates":[-1.6611727,43.4024251]},"properties":{"source":"PGS"}},
{"type":"Feature","geometry":{"type":"Point","coordinates":[-1.6603069,43.4033495]},"properties":{"source":"PGS"}},
{"type":"Feature","geometry":{"type":"Point","coordinates":[-1.6579534,43.4036896]},"properties":{"source":"PGS"}},
{"type":"Feature","geometry":{"type":"Point","coordinates":[-1.6576066,43.4041536]},"properties":{"source":"PGS"}},
{"type":"Feature","geometry":{"type":"Point","coordinates":[-1.6569664,43.4041136]},"properties":{"source":"PGS"}},
{"type":"Feature","geometry":{"type":"Point","coordinates":[-1.667123,43.3882233]},"properties":{"source":"PGS"}},
{"type":"Feature","geometry":{"type":"Point","coordinates":[-1.6640967,43.3999896]},"properties":{"description":"Point de vue depuis la Pointe Sainte Barbe. Vue sur la côte nord de Saint Jean de Luz.","mapillary":"803268973561571","tourism":"viewpoint"}},
{"type":"Feature","geometry":{"type":"Point","coordinates":[-1.6644641,43.3992044]},"properties":{"description":"Vue sur la côte depuis la Pointe et sur la Baie de Saint Jean de Luz.","information":"map","map_type":"toposcope","mapillary":"896307747891392","name":"Pointe de Sainte Barbe","tourism":"viewpoint"}},
{"type":"Feature","geometry":{"type":"LineString","coordinates":[[-1.6745353,43.3983418],[-1.6745768,43.3983272],[-1.6746144,43.3983023],[-1.6746359,43.3982565],[-1.6746251,43.398219],[-1.674607,43.3981878],[-1.674546,43.3981673],[-1.6744997,43.3981693],[-1.6744541,43.3981839],[-1.6744233,43.3982083],[-1.6744076,43.3982346],[-1.6731596,43.3984034],[-1.6721722,43.3985352],[-1.6721622,43.3985069],[-1.6715531,43.3985785],[-1.6715773,43.3986993],[-1.6745353,43.3983418]]},"properties":{"description":"Construites sous Napoléon III suite à une tempête dévastatrice. Les trois digues protègent la baie des intempéries de l'Océan.","description:en":"The three dikes built under the reighn of Napoléon III to protect the city against bad weather.","man_made":"breakwater","mapillary":"1052402182249415","name":"Digue de l'Artha","natural":"coastline","source":"PGS"}},
{"type":"Feature","geometry":{"type":"LineString","coordinates":[[-1.6636119,43.4000723],[-1.6637295,43.4000217],[-1.6638303,43.4000077],[-1.663936,43.4000217],[-1.6640536,43.4000671],[-1.6641688,43.4000967],[-1.6641947,43.4000559],[-1.6643489,43.3999188],[-1.6643681,43.3998787],[-1.6644011,43.39987],[-1.6644809,43.399849],[-1.6645721,43.3998194],[-1.6646297,43.3997775],[-1.6646441,43.3997304],[-1.6646778,43.3996537]]},"properties":{"natural":"cliff"}},
{"type":"Feature","geometry":{"type":"LineString","coordinates":[[-1.6564044,43.4044795],[-1.6564346,43.4042498],[-1.6565052,43.4041288],[-1.6567399,43.4040679],[-1.6569664,43.4041136],[-1.6572522,43.4041585],[-1.6576066,43.4041536],[-1.6579534,43.4036896],[-1.6582452,43.4031657],[-1.6586995,43.4029751],[-1.6588184,43.4029253],[-1.6588546,43.4029101],[-1.6596632,43.4030854],[-1.6600048,43.4031595],[-1.6603069,43.4033495],[-1.6608004,43.4033737],[-1.6612071,43.403256],[-1.6613916,43.4031406],[-1.6614409,43.4030221],[-1.661432,43.402877],[-1.6611727,43.4024251],[-1.661305,43.4022047],[-1.6613812,43.4019436],[-1.6623079,43.401335],[-1.6625897,43.4010343],[-1.6628067,43.4009605],[-1.6627465,43.4007894],[-1.6629778,43.400561],[-1.6633119,43.4003371],[-1.6634485,43.4001549],[-1.6636723,43.400064],[-1.663982,43.4000059],[-1.6641947,43.4000559],[-1.6642533,43.4000833],[-1.6643381,43.4000474],[-1.6643489,43.3999188],[-1.6646207,43.399808],[-1.6646839,43.3996753],[-1.6647332,43.3995991],[-1.6648403,43.3995309],[-1.6650815,43.3995093],[-1.666954,43.3993279],[-1.6669326,43.3992533],[-1.6654553,43.399421],[-1.6653145,43.3994351],[-1.6652159,43.3994205],[-1.6651457,43.3993962],[-1.6651068,43.399393],[-1.6650832,43.3993948],[-1.6650652,43.399386],[-1.665037,43.3993812],[-1.6648211,43.3993833],[-1.6647998,43.3992178],[-1.6647342999999999,43.3991315],[-1.6647009,43.3990421],[-1.6646861,43.3990189],[-1.6646906,43.398985],[-1.664671,43.3989445],[-1.6646629,43.3989204],[-1.664602,43.3988201],[-1.6644839,43.3987903],[-1.6642457,43.3987869],[-1.6641173,43.3987623],[-1.6640251,43.3987631],[-1.6638931,43.3987843],[-1.6636631,43.3988468],[-1.6634541,43.3988904],[-1.6634239,43.3988776],[-1.6633899,43.3988759],[-1.663251,43.3988861],[-1.6632078,43.39892],[-1.6632043,43.3989345],[-1.6628879,43.3989268],[-1.6625587,43.3989251],[-1.6624221,43.398926],[-1.662345,43.3989192],[-1.662303,43.3988853],[-1.6619054,43.3985488],[-1.6619259,43.3985125],[-1.6619211,43.3984169],[-1.6618976,43.3983562],[-1.6619016,43.3982909],[-1.6618982,43.3982204],[-1.6618883,43.3981861],[-1.6618223,43.398082],[-1.661673,43.3979495],[-1.661497,43.3977694],[-1.6613064,43.3976039],[-1.6610676,43.3974705],[-1.6609401,43.3974683],[-1.6608654,43.3974911],[-1.6607264,43.3970182],[-1.6607525,43.3969145],[-1.6606828,43.3966863],[-1.6606018,43.3964598],[-1.6605451,43.3962245],[-1.6605,43.3960171],[-1.6604584,43.3958073],[-1.6604253,43.3955998],[-1.6603508,43.3950926],[-1.6605151,43.3950493],[-1.6606001,43.3948047],[-1.6606627,43.3945749],[-1.6606948,43.3943244],[-1.6607379,43.3941126],[-1.6611421,43.3940884],[-1.6611862,43.3941034],[-1.661311,43.3940965],[-1.6613472,43.3940712],[-1.6618622,43.3940449],[-1.6619507,43.3940371],[-1.6619802,43.3940254],[-1.6622752,43.3938325],[-1.6622967,43.3937974],[-1.6622859,43.3937623],[-1.6622699,43.3937389],[-1.6622457,43.3937155],[-1.6622055,43.3937116],[-1.6621733,43.3937116],[-1.6621331,43.3937253],[-1.6618943,43.3939241],[-1.6618648,43.3939416],[-1.6618273,43.3939552],[-1.6617602,43.3939903],[-1.6613391,43.3940137],[-1.6611541,43.3940274],[-1.6611192,43.394041],[-1.6607983,43.3940609],[-1.6607345,43.3937736],[-1.6606932,43.3935308],[-1.6606633,43.393293],[-1.6607146,43.3930269],[-1.6608412,43.3927991],[-1.6611712,43.3922566],[-1.6614207,43.3919583],[-1.6616614,43.3916741],[-1.6621834,43.3912189],[-1.6626887,43.390843],[-1.6630487,43.3906029],[-1.6634929,43.3903123],[-1.6639601,43.3900178],[-1.6645671,43.38965],[-1.6650555,43.3893723],[-1.6655103,43.3890559],[-1.6661562,43.3886624],[-1.6667207,43.3883846],[-1.667123,43.3882233],[-1.6678566,43.3879943],[-1.6682079,43.3879387],[-1.6684601,43.3879222],[-1.6686097,43.3879512],[-1.6688731,43.3884686],[-1.6688054,43.3887821],[-1.6687995,43.3888364],[-1.6688252,43.3888678],[-1.6688568,43.3888831],[-1.6689017,43.3888789],[-1.6689414,43.388861],[-1.6690657,43.3885726],[-1.6690704,43.3885301],[-1.6690552,43.3884856],[-1.6687558,43.3879634],[-1.6689633,43.3879039],[-1.6691568,43.3880067],[-1.6692479,43.3880584],[-1.6692695,43.388066],[-1.669301,43.388066],[-1.6694493,43.3882557],[-1.6695157,43.3882842],[-1.6695446,43.3882781]]},"properties":{"natural":"coastline","source":"PGS"}},
{"type":"Feature","geometry":{"type":"LineString","coordinates":[[3.3222444,42.3194537],[3.2641783,42.2281776],[3.210753,42.2315689],[3.1668077,42.2691805],[3.1077562,42.3159096],[3.0363451,42.3494112],[3.0129991,42.3920239],[2.9772935,42.4092636],[2.9168687,42.4153471],[2.8674303,42.3839094],[2.8124986,42.3159096],[2.8248582,42.2447864],[2.7507005,42.1959698],[2.5790392,42.2213998],[2.4815355,42.18783],[2.4444566,42.1298039],[2.2727953,42.0360354],[2.231806,41.9435952],[2.2309106,41.941617],[2.0180505,41.8756969],[1.8168633,41.7277683],[1.5257249,41.7323808],[1.242827,41.8869444],[1.1329637,41.930891],[0.8280931,41.8613802],[0.5836473,41.8593346],[0.3955064,41.9002338],[0.2828966,41.9860369],[0.2238451,42.0686662],[0.1043687,42.1277669],[-0.0672926,42.2020739],[-0.3186049,42.211229],[-0.5575575,42.2701967],[-0.7443251,42.3301246],[-0.9901442,42.3423063],[-1.2702956,42.368692],[-1.3444533,42.5105781],[-1.4584364,42.3889811],[-1.5779128,42.4072357],[-1.6932692,42.5227248],[-1.8305983,42.618803],[-1.838838,42.7550806],[-1.8098029,42.796553],[-1.8097616,42.7966121],[-1.7880263,42.8276396],[-1.8402113,42.9162074],[-1.8663039,42.9875729],[-1.9816603,43.0317579],[-2.0764174,43.1380729],[-2.0242323,43.2221915],[-1.9844069,43.3221815],[-1.7980603,43.3919094],[-1.7976393,43.3920768],[-1.7756667,43.3711167],[-1.6658034,43.3990619],[-1.395265,43.3531451],[-1.1975111,43.3711167],[-1.0258498,43.3201833],[-0.7800307,43.336167],[-0.5245985,43.3791023],[-0.3488173,43.2832049],[0.0274644,43.2191892],[0.2677904,43.1661253],[0.4682909,43.0949673],[0.8033739,43.1069998],[1.1906419,43.0969729],[1.5078722,43.0438028],[2.0860277,42.932297],[2.2521959,42.8185744],[2.6559435,42.7923785],[2.7960191,42.7369275],[2.7081285,42.6733499],[2.9154955,42.5459994],[3.1228624,42.5217127],[3.1791673,42.4457557],[3.1654344,42.3707212],[3.20114,42.3412912],[3.2036683,42.3416416],[3.2450853,42.3473813],[3.3222444,42.3194537]]},"properties":{"boundary":"region","name":"Pyrénées / Pirineos / Pirineus / Pirineu / Pirinioak / Pirenèus","name:af":"Pireneë","name:am":"ፒሬኔ ተራሮች","name:an":"Pireneu","name:ar":"البرانس","name:ba":"Пиреней тауҙары","name:be":"Пірэнеі","name:bg":"Пиренеи","name:bh":"पिरेनीज परबत","name:br":"Pireneoù","name:bs":"Pireneji","name:ca":"Pirineus","name:cs":"Pyreneje","name:cy":"Pyreneau","name:da":"Pyrenæerne","name:de":"Pyrenäen","name:el":"Πυρηναία","name:en":"Pyrenees","name:eo":"Pireneoj","name:es":"Pirineos","name:et":"Püreneed","name:eu":"Pirinioak","name:fa":"پیرنه","name:fi":"Pyreneet","name:fo":"Pyreneurnar","name:fr":"Pyrénées","name:fy":"Pyreneeën","name:ga":"Piréiní","name:gl":"Pireneos","name:he":"הרי הפירנאים","name:hi":"पिरिनी पर्वत शृंखला","name:hr":"Pireneji","name:hu":"Pireneusok","name:hy":"Պիրենեյներ","name:ia":"Pyreneos","name:id":"Pegunungan Pirenia","name:io":"Pirenei","name:is":"Pýreneafjöll","name:it":"Pirenei","name:ja":"ピレネー山脈","name:ka":"პირენეები","name:kk":"Пиреней таулары","name:ko":"피레네 산맥","name:ku":"Pîrenê","name:ky":"Пиреней тоолору","name:la":"Pyrenaei","name:lb":"Pyrenäen","name:li":"Pyreneje","name:lt":"Pirėnai","name:lv":"Pireneji","name:mk":"Пиринеи","name:mn":"Пиренейн уулс","name:mr":"पिरेनीज","name:ms":"Pyrenees","name:nl":"Pyreneeën","name:nn":"Pyreneane","name:no":"Pyreneene","name:oc":"Pirenèus","name:pa":"ਪੀਰੇਨੇ","name:pl":"Pireneje","name:pt":"Pireneus","name:qu":"Piriniyukuna","name:ro":"Munții Pirinei","name:ru":"Пиренеи","name:sk":"Pyreneje","name:sl":"Pireneji","name:sq":"Pirenetë","name:sr":"Пиринеји","name:sv":"Pyrenéerna","name:sw":"Pirenei","name:ta":"பிரனீசு மலைத்தொடர்","name:tg":"Кӯҳҳои Пиреней","name:th":"เทือกเขาพิเรนีส","name:tl":"Pirineos","name:tr":"Pireneler","name:tt":"Пиреней таулары","name:ug":"پىرېنېي تاغلىرى","name:uk":"Піренеї","name:ur":"کوہ پائرینیس","name:uz":"Pireney togʻlari","name:wa":"Pirinêyes","name:yi":"פירענעען","name:zh":"比利牛斯山","natural":"mountain_range","region:type":"mountain_area","source:name:oc":"ieo-bdtopoc","wikidata":"Q12431","wikipedia":"en:Pyrenees"}},
{"type":"Feature","geometry":{"type":"LineString","coordinates":[[-1.7251629,43.4113828],[-1.71251,43.4150979],[-1.712687,43.4132937],[-1.7147899,43.4122182],[-1.7142105,43.4091162],[-1.720798,43.4072611],[-1.7251629,43.4113828]]},"properties":{"description":"Haut-fond connu pour ses activités de plongée sous-marine et de surf extreme sur sa vague géante","name":"Belharra-Perdun","natural":"reef","reef":"rock","seamark:rock:water_level":"submerged","seamark:type":"rock","source":"knowledge","sport":"scuba_diving","tourism":"attraction"}},
{"type":"Feature","geometry":{"type":"MultiPolygon","coordinates":[[[[-1.6746359,43.3982565],[-1.6746251,43.398219],[-1.674607,43.3981878],[-1.674546,43.3981673],[-1.6744997,43.3981693],[-1.6744541,43.3981839],[-1.6744233,43.3982083],[-1.6744076,43.3982346],[-1.6731596,43.3984034],[-1.6721722,43.3985352],[-1.6721622,43.3985069],[-1.6715531,43.3985785],[-1.6715773,43.3986993],[-1.6745353,43.3983418],[-1.6745768,43.3983272],[-1.6746144,43.3983023],[-1.6746359,43.3982565]]]]},"properties":{"description":"Construites sous Napoléon III suite à une tempête dévastatrice. Les trois digues protègent la baie des intempéries de l'Océan.","description:en":"The three dikes built under the reighn of Napoléon III to protect the city against bad weather.","man_made":"breakwater","mapillary":"1052402182249415","name":"Digue de l'Artha","natural":"coastline","source":"PGS"}},
{"type":"Feature","geometry":{"type":"MultiPolygon","coordinates":[[[[-2.0764174,43.1380729],[-1.9816603,43.0317579],[-1.8663039,42.9875729],[-1.8402113,42.9162074],[-1.7880263,42.8276396],[-1.8097616,42.7966121],[-1.8098029,42.796553],[-1.838838,42.7550806],[-1.8305983,42.618803],[-1.6932692,42.5227248],[-1.5779128,42.4072357],[-1.4584364,42.3889811],[-1.3444533,42.5105781],[-1.2702956,42.368692],[-0.9901442,42.3423063],[-0.7443251,42.3301246],[-0.5575575,42.2701967],[-0.3186049,42.211229],[-0.0672926,42.2020739],[0.1043687,42.1277669],[0.2238451,42.0686662],[0.2828966,41.9860369],[0.3955064,41.9002338],[0.5836473,41.8593346],[0.8280931,41.8613802],[1.1329637,41.930891],[1.242827,41.8869444],[1.5257249,41.7323808],[1.8168633,41.7277683],[2.0180505,41.8756969],[2.2309106,41.941617],[2.231806,41.9435952],[2.2727953,42.0360354],[2.4444566,42.1298039],[2.4815355,42.18783],[2.5790392,42.2213998],[2.7507005,42.1959698],[2.8248582,42.2447864],[2.8124986,42.3159096],[2.8674303,42.3839094],[2.9168687,42.4153471],[2.9772935,42.4092636],[3.0129991,42.3920239],[3.0363451,42.3494112],[3.1077562,42.3159096],[3.1668077,42.2691805],[3.210753,42.2315689],[3.2641783,42.2281776],[3.3222444,42.3194537],[3.2450853,42.3473813],[3.2036683,42.3416416],[3.20114,42.3412912],[3.1654344,42.3707212],[3.1791673,42.4457557],[3.1228624,42.5217127],[2.9154955,42.5459994],[2.7081285,42.6733499],[2.7960191,42.7369275],[2.6559435,42.7923785],[2.2521959,42.8185744],[2.0860277,42.932297],[1.5078722,43.0438028],[1.1906419,43.0969729],[0.8033739,43.1069998],[0.4682909,43.0949673],[0.2677904,43.1661253],[0.0274644,43.2191892],[-0.3488173,43.2832049],[-0.5245985,43.3791023],[-0.7800307,43.336167],[-1.0258498,43.3201833],[-1.1975111,43.3711167],[-1.395265,43.3531451],[-1.6658034,43.3990619],[-1.7756667,43.3711167],[-1.7976393,43.3920768],[-1.7980603,43.3919094],[-1.9844069,43.3221815],[-2.0242323,43.2221915],[-2.0764174,43.1380729]]]]},"properties":{"boundary":"region","name":"Pyrénées / Pirineos / Pirineus / Pirineu / Pirinioak / Pirenèus","name:af":"Pireneë","name:am":"ፒሬኔ ተራሮች","name:an":"Pireneu","name:ar":"البرانس","name:ba":"Пиреней тауҙары","name:be":"Пірэнеі","name:bg":"Пиренеи","name:bh":"पिरेनीज परबत","name:br":"Pireneoù","name:bs":"Pireneji","name:ca":"Pirineus","name:cs":"Pyreneje","name:cy":"Pyreneau","name:da":"Pyrenæerne","name:de":"Pyrenäen","name:el":"Πυρηναία","name:en":"Pyrenees","name:eo":"Pireneoj","name:es":"Pirineos","name:et":"Püreneed","name:eu":"Pirinioak","name:fa":"پیرنه","name:fi":"Pyreneet","name:fo":"Pyreneurnar","name:fr":"Pyrénées","name:fy":"Pyreneeën","name:ga":"Piréiní","name:gl":"Pireneos","name:he":"הרי הפירנאים","name:hi":"पिरिनी पर्वत शृंखला","name:hr":"Pireneji","name:hu":"Pireneusok","name:hy":"Պիրենեյներ","name:ia":"Pyreneos","name:id":"Pegunungan Pirenia","name:io":"Pirenei","name:is":"Pýreneafjöll","name:it":"Pirenei","name:ja":"ピレネー山脈","name:ka":"პირენეები","name:kk":"Пиреней таулары","name:ko":"피레네 산맥","name:ku":"Pîrenê","name:ky":"Пиреней тоолору","name:la":"Pyrenaei","name:lb":"Pyrenäen","name:li":"Pyreneje","name:lt":"Pirėnai","name:lv":"Pireneji","name:mk":"Пиринеи","name:mn":"Пиренейн уулс","name:mr":"पिरेनीज","name:ms":"Pyrenees","name:nl":"Pyreneeën","name:nn":"Pyreneane","name:no":"Pyreneene","name:oc":"Pirenèus","name:pa":"ਪੀਰੇਨੇ","name:pl":"Pireneje","name:pt":"Pireneus","name:qu":"Piriniyukuna","name:ro":"Munții Pirinei","name:ru":"Пиренеи","name:sk":"Pyreneje","name:sl":"Pireneji","name:sq":"Pirenetë","name:sr":"Пиринеји","name:sv":"Pyrenéerna","name:sw":"Pirenei","name:ta":"பிரனீசு மலைத்தொடர்","name:tg":"Кӯҳҳои Пиреней","name:th":"เทือกเขาพิเรนีส","name:tl":"Pirineos","name:tr":"Pireneler","name:tt":"Пиреней таулары","name:ug":"پىرېنېي تاغلىرى","name:uk":"Піренеї","name:ur":"کوہ پائرینیس","name:uz":"Pireney togʻlari","name:wa":"Pirinêyes","name:yi":"פירענעען","name:zh":"比利牛斯山","natural":"mountain_range","region:type":"mountain_area","source:name:oc":"ieo-bdtopoc","wikidata":"Q12431","wikipedia":"en:Pyrenees"}},
{"type":"Feature","geometry":{"type":"MultiPolygon","coordinates":[[[[-1.7251629,43.4113828],[-1.720798,43.4072611],[-1.7142105,43.4091162],[-1.7147899,43.4122182],[-1.712687,43.4132937],[-1.71251,43.4150979],[-1.7251629,43.4113828]]]]},"properties":{"description":"Haut-fond connu pour ses activités de plongée sous-marine et de surf extreme sur sa vague géante","name":"Belharra-Perdun","natural":"reef","reef":"rock","seamark:rock:water_level":"submerged","seamark:type":"rock","source":"knowledge","sport":"scuba_diving","tourism":"attraction"}}
]}
