{"type":"FeatureCollection","features":[
{"type":"Feature","geometry":{"type":"Point","coordinates":[-0.3586155,43.4415545]},"properties":{"waterway":"weir"}},
{"type":"Feature","geometry":{"type":"Point","coordinates":[-0.2912882,43.4367262]},"properties":{"historic":"wayside_cross"}},
{"type":"Feature","geometry":{"type":"Point","coordinates":[-0.3005372,43.5112941]},"properties":{"addr:city":"Claracq","addr:postcode":"64330","addr:street":"Route du Château","email":"musee@cclb64.fr","museum":"archaeological","name":"Musée gallo-romain de Claracq","phone":"+33 9 67 13 86 69","ref:FR:CRTA":"PCUAQU064FS000O5","source":"Réseau SIRTAQUI - Comité Régional de Tourisme d'Aquitaine - www.sirtaqui-aquitaine.com - 08/2018","tourism":"museum","website":"https://www.musee-claracq.com/","wikidata":"Q43688730"}},
{"type":"Feature","geometry":{"type":"Point","coordinates":[-0.3690043,43.4943316]},"properties":{"historic":"wayside_cross"}},
{"type":"Feature","geometry":{"type":"Point","coordinates":[-0.3584806,43.4355546]},"properties":{"historic":"wayside_cross","name":"Croix de chemin"}},
{"type":"Feature","geometry":{"type":"Point","coordinates":[-0.35008,43.4765]},"properties":{"boules":"petanque","leisure":"pitch","source":"data.gouv.fr:Le ministère des droits des femmes, de la ville, de la jeunesse et des sports - 11/2015","sport":"boules"}},
{"type":"Feature","geometry":{"type":"Point","coordinates":[-0.272483,43.4119899]},"properties":{"information":"yes","name":"Les Fromages de Clarmontine","tourism":"information"}},
{"type":"Feature","geometry":{"type":"Point","coordinates":[-0.3453962,43.4343916]},"properties":{"tourism":"picnic_site"}},
{"type":"Feature","geometry":{"type":"Point","coordinates":[-0.3467249,43.4341637]},"properties":{"tourism":"picnic_site"}},
{"type":"Feature","geometry":{"type":"Point","coordinates":[-0.3002679,43.5089554]},"properties":{"information":"board","tourism":"information"}},
{"type":"Feature","geometry":{"type":"Point","coordinates":[-0.3028858,43.5088572]},"properties":{"information":"board","tourism":"information"}},
{"type":"Feature","geometry":{"type":"Point","coordinates":[-0.3034061,43.5088728]},"properties":{"tourism":"attraction","wheelchair":"no"}},
{"type":"Feature","geometry":{"type":"Point","coordinates":[-0.3027195,43.5087949]},"properties":{"tourism":"viewpoint"}},
{"type":"Feature","geometry":{"type":"Point","coordinates":[-0.3106193,43.5020782]},"properties":{"leisure":"picnic_table"}},
{"type":"Feature","geometry":{"type":"Point","coordinates":[-0.3669517,43.4643484]},"properties":{"natural":"tree"}},
{"type":"Feature","geometry":{"type":"Point","coordinates":[-0.366839,43.4643406]},"properties":{"natural":"tree"}},
{"type":"Feature","geometry":{"type":"Point","coordinates":[-0.366725,43.464325]},"properties":{"natural":"tree"}},
{"type":"Feature","geometry":{"type":"Point","coordinates":[-0.3415971,43.4160632]},"properties":{"leisure":"sports_centre","name":"Complexe sportif","source":"data.gouv.fr:Le ministère des droits des femmes, de la ville, de la jeunesse et des sports - 2014","sport":"multi","website":"http://www.navailles-angos.fr/la-mairie/equipements-municipaux"}},
{"type":"Feature","geometry":{"type":"Point","coordinates":[-0.3043041,43.5092735]},"properties":{"tourism":"information"}},
{"type":"Feature","geometry":{"type":"Point","coordinates":[-0.3056085,43.5054975]},"properties":{"natural":"spring"}},
{"type":"Feature","geometry":{"type":"Point","coordinates":[-0.2994243,43.5094488]},"properties":{"addr:city":"Claracq","addr:postcode":"64330","addr:street":"Rue du Château","museum":"archaeological","operator":"Musée gallo-romain de Claracq","operator:type":"public","tourism":"museum"}},
{"type":"Feature","geometry":{"type":"Point","coordinates":[-0.3284285,43.4939067]},"properties":{"leaf_cycle":"deciduous","leaf_type":"broadleaved","natural":"tree"}},
{"type":"Feature","geometry":{"type":"Point","coordinates":[-0.3681397,43.4938209]},"properties":{"information":"map","map_size":"village","map_type":"citymap","tourism":"information"}},
{"type":"Feature","geometry":{"type":"Point","coordinates":[-0.3670142,43.4930804]},"properties":{"historic":"wayside_cross"}},
{"type":"Feature","geometry":{"type":"Point","coordinates":[-0.2800944,43.4833448]},"properties":{"natural":"tree"}},
{"type":"Feature","geometry":{"type":"Point","coordinates":[-0.2801007,43.48344]},"properties":{"natural":"tree"}},
{"type":"Feature","geometry":{"type":"Point","coordinates":[-0.2801056,43.4835131]},"properties":{"natural":"tree"}},
{"type":"Feature","geometry":{"type":"Point","coordinates":[-0.2801118,43.4836055]},"properties":{"natural":"tree"}},
{"type":"Feature","geometry":{"type":"Point","coordinates":[-0.2800098,43.4836046]},"properties":{"natural":"tree"}},
{"type":"Feature","geometry":{"type":"Point","coordinates":[-0.2800037,43.4835122]},"properties":{"natural":"tree"}},
{"type":"Feature","geometry":{"type":"Point","coordinates":[-0.2799988,43.483439]},"properties":{"natural":"tree"}},
{"type":"Feature","geometry":{"type":"Point","coordinates":[-0.2799924,43.4833438]},"properties":{"natural":"tree"}},
{"type":"Feature","geometry":{"type":"Point","coordinates":[-0.280028,43.4832153]},"properties":{"natural":"tree"}},
{"type":"Feature","geometry":{"type":"Point","coordinates":[-0.2799837,43.4831579]},"properties":{"natural":"tree"}},
{"type":"Feature","geometry":{"type":"Point","coordinates":[-0.2801956,43.4831141]},"properties":{"natural":"tree"}},
{"type":"Feature","geometry":{"type":"Point","coordinates":[-0.2800535,43.4830382]},"properties":{"natural":"tree"}},
{"type":"Feature","geometry":{"type":"Point","coordinates":[-0.2801165,43.4829187]},"properties":{"natural":"tree"}},
{"type":"Feature","geometry":{"type":"Point","coordinates":[-0.2802372,43.4829158]},"properties":{"natural":"tree"}},
{"type":"Feature","geometry":{"type":"Point","coordinates":[-0.2799503,43.4829228]},"properties":{"natural":"tree"}},
{"type":"Feature","geometry":{"type":"Point","coordinates":[-0.2797786,43.482927]},"properties":{"natural":"tree"}},
{"type":"Feature","geometry":{"type":"Point","coordinates":[-0.2796283,43.4829307]},"properties":{"natural":"tree"}},
{"type":"Feature","geometry":{"type":"Point","coordinates":[-0.2795237,43.4829333]},"properties":{"natural":"tree"}},
{"type":"Feature","geometry":{"type":"Point","coordinates":[-0.3282532,43.4406729]},"properties":{"historic":"wayside_cross","source":"IGN - 2021-12"}},
{"type":"Feature","geometry":{"type":"Point","coordinates":[-0.354501,43.4388218]},"properties":{"information":"board","name":"Lac Balaing","tourism":"information"}},
{"type":"Feature","geometry":{"type":"Point","coordinates":[-0.3404945,43.4359353]},"properties":{"historic":"wayside_cross"}},
{"type":"Feature","geometry":{"type":"Point","coordinates":[-0.3359748,43.4166003]},"properties":{"information":"guidepost","tourism":"information"}},
{"type":"Feature","geometry":{"type":"Point","coordinates":[-0.3461011,43.3991824]},"properties":{"information":"guidepost","tourism":"information"}},
{"type":"Feature","geometry":{"type":"Point","coordinates":[-0.3589514,43.4356284]},"properties":{"natural":"tree"}},
{"type":"Feature","geometry":{"type":"Point","coordinates":[-0.3210432,43.4690602]},"properties":{"bench":"yes","covered":"no","leisure":"picnic_table","lit":"yes","material":"wood","survey:date":"2022-05-06"}},
{"type":"Feature","geometry":{"type":"Point","coordinates":[-0.3208525,43.4690361]},"properties":{"bench":"yes","covered":"no","leisure":"picnic_table","lit":"yes","material":"wood","survey:date":"2022-05-06"}},
{"type":"Feature","geometry":{"type":"Point","coordinates":[-0.321018,43.4692156]},"properties":{"bench":"yes","covered":"no","leisure":"picnic_table","lit":"yes","material":"wood","survey:date":"2022-05-06"}},
{"type":"Feature","geometry":{"type":"Point","coordinates":[-0.321123,43.4693153]},"properties":{"covered":"yes","leisure":"picnic_table","lit":"yes","material":"wood","survey:date":"2022-05-06"}},
{"type":"Feature","geometry":{"type":"Point","coordinates":[-0.3211988,43.4692791]},"properties":{"natural":"tree","survey:date":"2022-05-06"}},
{"type":"Feature","geometry":{"type":"Point","coordinates":[-0.3210429,43.4692648]},"properties":{"natural":"tree","survey:date":"2022-05-06"}},
{"type":"Feature","geometry":{"type":"Point","coordinates":[-0.3205971,43.4686027]},"properties":{"natural":"tree","survey:date":"2022-05-06"}},
{"type":"Feature","geometry":{"type":"Point","coordinates":[-0.3211514,43.4692209]},"properties":{"natural":"tree","survey:date":"2022-05-06"}},
{"type":"Feature","geometry":{"type":"Point","coordinates":[-0.3211068,43.469173]},"properties":{"natural":"tree","survey:date":"2022-05-06"}},
{"type":"Feature","geometry":{"type":"Point","coordinates":[-0.3208102,43.4690061]},"properties":{"natural":"tree","survey:date":"2022-05-06"}},
{"type":"Feature","geometry":{"type":"Point","coordinates":[-0.3210607,43.4691133]},"properties":{"natural":"tree","survey:date":"2022-05-06"}},
{"type":"Feature","geometry":{"type":"Point","coordinates":[-0.3209816,43.4690064]},"properties":{"natural":"tree","survey:date":"2022-05-06"}},
{"type":"Feature","geometry":{"type":"Point","coordinates":[-0.3209173,43.4691344]},"properties":{"natural":"tree","survey:date":"2022-05-06"}},
{"type":"Feature","geometry":{"type":"Point","coordinates":[-0.3209104,43.4689501]},"properties":{"natural":"tree","survey:date":"2022-05-06"}},
{"type":"Feature","geometry":{"type":"Point","coordinates":[-0.3208772,43.4690859]},"properties":{"natural":"tree","survey:date":"2022-05-06"}},
{"type":"Feature","geometry":{"type":"Point","coordinates":[-0.3207369,43.4687763]},"properties":{"natural":"tree","survey:date":"2022-05-06"}},
{"type":"Feature","geometry":{"type":"Point","coordinates":[-0.3209707,43.4691871]},"properties":{"natural":"tree","survey:date":"2022-05-06"}},
{"type":"Feature","geometry":{"type":"Point","coordinates":[-0.3210851,43.469303]},"properties":{"natural":"tree","survey:date":"2022-05-06"}},
{"type":"Feature","geometry":{"type":"Point","coordinates":[-0.3211244,43.4693433]},"properties":{"natural":"tree","survey:date":"2022-05-06"}},
{"type":"Feature","geometry":{"type":"Point","coordinates":[-0.320701,43.4687188]},"properties":{"natural":"tree","survey:date":"2022-05-06"}},
{"type":"Feature","geometry":{"type":"Point","coordinates":[-0.3206355,43.46878]},"properties":{"natural":"tree","survey:date":"2022-05-06"}},
{"type":"Feature","geometry":{"type":"Point","coordinates":[-0.3206444,43.4686622]},"properties":{"natural":"tree","survey:date":"2022-05-06"}},
{"type":"Feature","geometry":{"type":"Point","coordinates":[-0.3205911,43.4687344]},"properties":{"natural":"tree","survey:date":"2022-05-06"}},
{"type":"Feature","geometry":{"type":"Point","coordinates":[-0.3206191,43.4687559]},"properties":{"bench":"yes","covered":"no","leisure":"picnic_table","material":"wood","survey:date":"2022-05-06"}},
{"type":"Feature","geometry":{"type":"Point","coordinates":[-0.3205512,43.4686881]},"properties":{"natural":"tree","survey:date":"2022-05-06"}},
{"type":"Feature","geometry":{"type":"Point","coordinates":[-0.3205976,43.4686352]},"properties":{"bench":"yes","covered":"no","leisure":"picnic_table","lit":"yes","material":"wood","survey:date":"2022-05-06"}},
{"type":"Feature","geometry":{"type":"Point","coordinates":[-0.3207985,43.4687958]},"properties":{"board_type":"nature","information":"board","survey:date":"2022-05-06","tourism":"information"}},
{"type":"Feature","geometry":{"type":"Point","coordinates":[-0.3209232,43.4688979]},"properties":{"board_type":"map","information":"board","survey:date":"2022-05-06","tourism":"information"}},
{"type":"Feature","geometry":{"type":"Point","coordinates":[-0.3708072,43.4645177]},"properties":{"historic":"wayside_cross"}},
{"type":"Feature","geometry":{"type":"Point","coordinates":[-0.37077,43.4645683]},"properties":{"historic":"memorial","memorial":"war_memorial"}},
{"type":"Feature","geometry":{"type":"Point","coordinates":[-0.3707847,43.4642849]},"properties":{"natural":"tree"}},
{"type":"Feature","geometry":{"type":"Point","coordinates":[-0.3708098,43.4605264]},"properties":{"historic":"wayside_cross"}},
{"type":"Feature","geometry":{"type":"Point","coordinates":[-0.3475156,43.4517473]},"properties":{"natural":"tree"}},
{"type":"Feature","geometry":{"type":"Point","coordinates":[-0.3474518,43.4516961]},"properties":{"natural":"tree"}},
{"type":"Feature","geometry":{"type":"Point","coordinates":[-0.3467105,43.4450918]},"properties":{"bench":"yes","leisure":"picnic_table","material":"concrete"}},
{"type":"Feature","geometry":{"type":"Point","coordinates":[-0.3456729,43.4440611]},"properties":{"historic":"wayside_cross"}},
{"type":"Feature","geometry":{"type":"Point","coordinates":[-0.3269537,43.4396509]},"properties":{"board_type":"map","information":"board","name":"Astis","tourism":"information"}},
{"type":"Feature","geometry":{"type":"Point","coordinates":[-0.3004431,43.5089068]},"properties":{"historic":"memorial","memorial":"war_memorial","name":"Monument aux Morts","ref:FR:MemorialGenWeb":"15066"}},
{"type":"Feature","geometry":{"type":"Point","coordinates":[-0.3211819,43.488676]},"properties":{"historic":"memorial","memorial":"war_memorial","name":"Monument aux Morts","ref:FR:MemorialGenWeb":"15072"}},
{"type":"Feature","geometry":{"type":"Point","coordinates":[-0.3164752,43.4553506]},"properties":{"historic":"memorial","memorial":"war_memorial"}},
{"type":"Feature","geometry":{"type":"Point","coordinates":[-0.3180806,43.4545294]},"properties":{"natural":"tree"}},
{"type":"Feature","geometry":{"type":"Point","coordinates":[-0.31831,43.4543466]},"properties":{"natural":"tree"}},
{"type":"Feature","geometry":{"type":"Point","coordinates":[-0.3209478,43.4691189]},"properties":{"access":"yes","addr:city":"Miossens-Lanusse","addr:postcode":"64450","addr:street":"Aire du Béarn Vert et Or","capacity":"5","name":"Aire du Béarn et d'Or","operator":"ALIENOR","tourism":"picnic_site"}},
{"type":"Feature","geometry":{"type":"LineString","coordinates":[[-0.3444556,43.435508],[-0.3438273,43.4350563],[-0.3422081,43.4341936],[-0.3420836,43.4339263],[-0.3421319,43.4332748],[-0.342963,43.4338414],[-0.3438782,43.4339364],[-0.3447374,43.4340695],[-0.3453598,43.4343469],[-0.3453445,43.4344908],[-0.34487,43.4351223],[-0.3446872,43.4352925],[-0.3444556,43.435508]]},"properties":{"name":"Lac du Balaing","natural":"water"}},
{"type":"Feature","geometry":{"type":"LineString","coordinates":[[-0.2987879,43.3979237],[-0.2982406,43.3980294],[-0.2985816,43.3980644],[-0.2985587,43.398121],[-0.2983477,43.3981692],[-0.2982695,43.3984213],[-0.2983084,43.3984818],[-0.2982599,43.3985011],[-0.298242,43.3986492],[-0.2983316,43.3987851],[-0.298265,43.3989793],[-0.2981976,43.3990157],[-0.2982626,43.399176],[-0.2982038,43.3993429],[-0.2980759,43.3994569],[-0.2979847,43.3994953],[-0.2979074,43.3996069],[-0.2980166,43.3996835],[-0.2980421,43.3997558],[-0.2979624,43.3998174],[-0.2980668,43.4000014],[-0.2979505,43.4001179],[-0.2979066,43.4002288],[-0.2977975,43.4002713],[-0.2974873,43.4005823],[-0.29725,43.4009872],[-0.2972401,43.4011177],[-0.2971462,43.4012628],[-0.2970682,43.4012975],[-0.2945201,43.4007723],[-0.2940491,43.4006685],[-0.2942704,43.4001271],[-0.2945623,43.3999227],[-0.2949473,43.3993633],[-0.2954001,43.3991191],[-0.2955594,43.3988633],[-0.2959164,43.3986789],[-0.2957933,43.3981952],[-0.2955524,43.3978719],[-0.2951485,43.3975335],[-0.2946936,43.396905],[-0.2946843,43.3967158],[-0.2946794,43.3965259],[-0.2950251,43.3963845],[-0.2950625,43.3963236],[-0.2953577,43.3962085],[-0.2954895,43.3961944],[-0.295789,43.3960719],[-0.2957426,43.3959573],[-0.2959159,43.39602],[-0.2960346,43.3961745],[-0.2962783,43.3966492],[-0.2962779,43.3967747],[-0.2963611,43.3969143],[-0.2965363,43.3970487],[-0.2966307,43.3971517],[-0.296654,43.3972341],[-0.296974,43.3974032],[-0.2972696,43.3974736],[-0.2974948,43.3973453],[-0.2976047,43.3972616],[-0.2977437,43.3972036],[-0.2979825,43.3971931],[-0.2983068,43.3972954],[-0.2983763,43.3973852],[-0.2984713,43.3974894],[-0.298821,43.3974599],[-0.2989874,43.3975417],[-0.2990091,43.3975986],[-0.2988661,43.3976525],[-0.2987504,43.3977219],[-0.2987457,43.3977904],[-0.298814,43.3978213],[-0.2988331,43.3978655],[-0.2987879,43.3979237]]},"properties":{"name":"Lac d'Anos","natural":"water","water":"lake"}},
{"type":"Feature","geometry":{"type":"LineString","coordinates":[[-0.345647,43.4343064],[-0.3471091,43.4344057],[-0.3477944,43.4351606],[-0.3479396,43.4358441],[-0.3476797,43.4361048],[-0.3478077,43.4362195],[-0.3485138,43.4362452],[-0.3491045,43.436726],[-0.349657,43.4367883],[-0.3501972,43.4370064],[-0.3506212,43.4372319],[-0.3534269,43.4386743],[-0.3544718,43.4390678],[-0.35483,43.439376],[-0.3556009,43.4397096],[-0.357279,43.4409591],[-0.3579993,43.4413942],[-0.3586155,43.4415545],[-0.3572026,43.4431765],[-0.3562344,43.4442296],[-0.3560292,43.4441168],[-0.3551753,43.4436518],[-0.3542786,43.4431491],[-0.3537743,43.4426813],[-0.3531552,43.4423122],[-0.3516449,43.441915],[-0.3513185,43.4416324],[-0.3508537,43.4406941],[-0.3496143,43.4393121],[-0.3482323,43.4384493],[-0.3467909,43.4372147],[-0.3454916,43.4360799],[-0.344784,43.435462],[-0.3448654,43.4354206],[-0.345474,43.4351113],[-0.345647,43.4343064]]},"properties":{"name":"Retenue du Balaing","natural":"water"}},
{"type":"Feature","geometry":{"type":"LineString","coordinates":[[-0.3633193,43.4135554],[-0.3631867,43.4133023],[-0.3627142,43.4134363],[-0.3628436,43.4136882],[-0.3633193,43.4135554]]},"properties":{"building":"yes","leisure":"pitch","source":"cadastre-dgi-fr source : Direction Générale des Impôts - Cadastre. Mise à jour : 2010;Le ministère de la ville, de la jeunesse et des sports - 2021-04","sport":"equestrian","surface":"sand"}},
{"type":"Feature","geometry":{"type":"LineString","coordinates":[[-0.3451117,43.4094659],[-0.3455951,43.4095292],[-0.3456179,43.4094366],[-0.3451346,43.4093734],[-0.3451117,43.4094659]]},"properties":{"building":"yes","leisure":"horse_riding","name":"Centre équestre","source":"cadastre-dgi-fr source : Direction Générale des Impôts - Cadastre. Mise à jour : 2010","sport":"equestrian"}},
{"type":"Feature","geometry":{"type":"LineString","coordinates":[[-0.368888,43.409475],[-0.368913,43.409433],[-0.368816,43.409402],[-0.368791,43.409445],[-0.368888,43.409475]]},"properties":{"access":"private","leisure":"swimming_pool","source":"cadastre-dgi-fr source : Direction Générale des Impôts - Cadastre. Mise à jour : 2012"}},
{"type":"Feature","geometry":{"type":"LineString","coordinates":[[-0.372219,43.401404],[-0.372099,43.40138],[-0.372079,43.401422],[-0.372199,43.401449],[-0.372219,43.401404]]},"properties":{"access":"private","leisure":"swimming_pool","source":"cadastre-dgi-fr source : Direction Générale des Impôts - Cadastre. Mise à jour : 2012"}},
{"type":"Feature","geometry":{"type":"LineString","coordinates":[[-0.369419,43.412242],[-0.369352,43.412208],[-0.369288,43.412278],[-0.369352,43.412309],[-0.369419,43.412242]]},"properties":{"access":"private","leisure":"swimming_pool","source":"cadastre-dgi-fr source : Direction Générale des Impôts - Cadastre. Mise à jour : 2012"}},
{"type":"Feature","geometry":{"type":"LineString","coordinates":[[-0.3682715,43.4124004],[-0.3682137,43.4123673],[-0.3681282,43.4124462],[-0.368186,43.4124792],[-0.3682715,43.4124004]]},"properties":{"access":"private","leisure":"swimming_pool","source":"cadastre-dgi-fr source : Direction Générale des Impôts - Cadastre. Mise à jour : 2012"}},
{"type":"Feature","geometry":{"type":"LineString","coordinates":[[-0.36824,43.40987],[-0.368189,43.409842],[-0.36812,43.409909],[-0.368173,43.409937],[-0.36824,43.40987]]},"properties":{"access":"private","leisure":"swimming_pool","source":"cadastre-dgi-fr source : Direction Générale des Impôts - Cadastre. Mise à jour : 2012"}},
{"type":"Feature","geometry":{"type":"LineString","coordinates":[[-0.369279,43.412487],[-0.369182,43.412437],[-0.369139,43.412474],[-0.369238,43.412527],[-0.369279,43.412487]]},"properties":{"access":"private","leisure":"swimming_pool","source":"cadastre-dgi-fr source : Direction Générale des Impôts - Cadastre. Mise à jour : 2012"}},
{"type":"Feature","geometry":{"type":"LineString","coordinates":[[-0.372898,43.407448],[-0.372942,43.407479],[-0.373028,43.407415],[-0.372984,43.407383],[-0.372898,43.407448]]},"properties":{"access":"private","leisure":"swimming_pool","source":"cadastre-dgi-fr source : Direction Générale des Impôts - Cadastre. Mise à jour : 2012"}},
{"type":"Feature","geometry":{"type":"LineString","coordinates":[[-0.374664,43.399813],[-0.374663,43.39982],[-0.374661,43.399826],[-0.374663,43.399835],[-0.374668,43.399842],[-0.374678,43.399846],[-0.374692,43.399848],[-0.374702,43.399845],[-0.374713,43.399836],[-0.374715,43.399825],[-0.374711,43.399806],[-0.374706,43.399798],[-0.374696,43.399789],[-0.374688,43.399782],[-0.374677,43.39978],[-0.374668,43.399777],[-0.374657,43.399779],[-0.37465,43.399782],[-0.374647,43.399787],[-0.374647,43.399792],[-0.374648,43.399796],[-0.374652,43.399802],[-0.374657,43.399804],[-0.374661,43.399808],[-0.374664,43.399813]]},"properties":{"access":"private","leisure":"swimming_pool","source":"cadastre-dgi-fr source : Direction Générale des Impôts - Cadastre. Mise à jour : 2012"}},
{"type":"Feature","geometry":{"type":"LineString","coordinates":[[-0.371374,43.40191],[-0.371394,43.401878],[-0.371312,43.401851],[-0.371292,43.401883],[-0.371374,43.40191]]},"properties":{"access":"private","leisure":"swimming_pool","source":"cadastre-dgi-fr source : Direction Générale des Impôts - Cadastre. Mise à jour : 2012"}},
{"type":"Feature","geometry":{"type":"LineString","coordinates":[[-0.371288,43.411887],[-0.371422,43.411931],[-0.371452,43.411882],[-0.371318,43.411839],[-0.371288,43.411887]]},"properties":{"access":"private","leisure":"swimming_pool","source":"cadastre-dgi-fr source : Direction Générale des Impôts - Cadastre. Mise à jour : 2012"}},
{"type":"Feature","geometry":{"type":"LineString","coordinates":[[-0.365288,43.42251],[-0.365281,43.422512],[-0.365272,43.422517],[-0.365254,43.422534],[-0.365229,43.422555],[-0.365227,43.422561],[-0.365228,43.422566],[-0.365231,43.42257],[-0.365236,43.422574],[-0.365245,43.422576],[-0.365251,43.422576],[-0.365259,43.422574],[-0.365264,43.422572],[-0.365287,43.422552],[-0.365307,43.422535],[-0.36531,43.422528],[-0.365311,43.42252],[-0.365309,43.422515],[-0.365305,43.422512],[-0.365296,43.42251],[-0.365288,43.42251]]},"properties":{"natural":"water","source":"cadastre-dgi-fr source : Direction Générale des Impôts - Cadastre. Mise à jour : 2012"}},
{"type":"Feature","geometry":{"type":"LineString","coordinates":[[-0.370273,43.41052],[-0.370233,43.410473],[-0.370119,43.410513],[-0.370157,43.410564],[-0.370273,43.41052]]},"properties":{"access":"private","leisure":"swimming_pool","source":"cadastre-dgi-fr source : Direction Générale des Impôts - Cadastre. Mise à jour : 2012"}},
{"type":"Feature","geometry":{"type":"LineString","coordinates":[[-0.370106,43.413271],[-0.370137,43.413242],[-0.370052,43.413193],[-0.370021,43.413222],[-0.370106,43.413271]]},"properties":{"access":"private","leisure":"swimming_pool","source":"cadastre-dgi-fr source : Direction Générale des Impôts - Cadastre. Mise à jour : 2012"}},
{"type":"Feature","geometry":{"type":"LineString","coordinates":[[-0.368709,43.403009],[-0.36865,43.402984],[-0.368577,43.403069],[-0.368636,43.403095],[-0.368709,43.403009]]},"properties":{"access":"private","leisure":"swimming_pool","source":"cadastre-dgi-fr source : Direction Générale des Impôts - Cadastre. Mise à jour : 2012"}},
{"type":"Feature","geometry":{"type":"LineString","coordinates":[[-0.358034,43.407318],[-0.35812,43.407325],[-0.358124,43.407298],[-0.358039,43.407291],[-0.358034,43.407318]]},"properties":{"access":"private","leisure":"swimming_pool","source":"cadastre-dgi-fr source : Direction Générale des Impôts - Cadastre. Mise à jour : 2012"}},
{"type":"Feature","geometry":{"type":"LineString","coordinates":[[-0.368493,43.411441],[-0.368554,43.41143],[-0.368528,43.411352],[-0.368464,43.411362],[-0.368493,43.411441]]},"properties":{"access":"private","leisure":"swimming_pool","source":"cadastre-dgi-fr source : Direction Générale des Impôts - Cadastre. Mise à jour : 2012"}},
{"type":"Feature","geometry":{"type":"LineString","coordinates":[[-0.369065,43.406938],[-0.369021,43.406921],[-0.368976,43.406985],[-0.36902,43.407002],[-0.369065,43.406938]]},"properties":{"access":"private","leisure":"swimming_pool","source":"cadastre-dgi-fr source : Direction Générale des Impôts - Cadastre. Mise à jour : 2012"}},
{"type":"Feature","geometry":{"type":"LineString","coordinates":[[-0.369085,43.412723],[-0.368979,43.412663],[-0.368936,43.412704],[-0.369043,43.412764],[-0.369085,43.412723]]},"properties":{"access":"private","leisure":"swimming_pool","source":"cadastre-dgi-fr source : Direction Générale des Impôts - Cadastre. Mise à jour : 2012"}},
{"type":"Feature","geometry":{"type":"LineString","coordinates":[[-0.373893,43.40456],[-0.373734,43.404511],[-0.373702,43.404566],[-0.373858,43.404619],[-0.373893,43.40456]]},"properties":{"access":"private","leisure":"swimming_pool","source":"cadastre-dgi-fr source : Direction Générale des Impôts - Cadastre. Mise à jour : 2012"}},
{"type":"Feature","geometry":{"type":"LineString","coordinates":[[-0.3691675,43.4117678],[-0.3691685,43.4117318],[-0.3690695,43.4117298],[-0.3690695,43.4117668],[-0.3691675,43.4117678]]},"properties":{"access":"private","leisure":"swimming_pool","source":"cadastre-dgi-fr source : Direction Générale des Impôts - Cadastre. Mise à jour : 2012"}},
{"type":"Feature","geometry":{"type":"LineString","coordinates":[[-0.370377,43.412502],[-0.37026,43.412437],[-0.370215,43.412481],[-0.370332,43.412545],[-0.370377,43.412502]]},"properties":{"access":"private","leisure":"swimming_pool","source":"cadastre-dgi-fr source : Direction Générale des Impôts - Cadastre. Mise à jour : 2012"}},
{"type":"Feature","geometry":{"type":"LineString","coordinates":[[-0.372224,43.39992],[-0.372078,43.399907],[-0.372069,43.399972],[-0.372214,43.399984],[-0.372224,43.39992]]},"properties":{"access":"private","leisure":"swimming_pool","source":"cadastre-dgi-fr source : Direction Générale des Impôts - Cadastre. Mise à jour : 2012"}},
{"type":"Feature","geometry":{"type":"LineString","coordinates":[[-0.361609,43.406021],[-0.361529,43.405976],[-0.361493,43.406011],[-0.361574,43.406056],[-0.361609,43.406021]]},"properties":{"access":"private","leisure":"swimming_pool","source":"cadastre-dgi-fr source : Direction Générale des Impôts - Cadastre. Mise à jour : 2012"}},
{"type":"Feature","geometry":{"type":"LineString","coordinates":[[-0.3224498,43.4729444],[-0.3225759,43.4728763],[-0.3228575,43.4729133],[-0.3234503,43.4730612],[-0.3235201,43.473143],[-0.3235254,43.4731936],[-0.3234718,43.4732598],[-0.3233484,43.4732851],[-0.3231204,43.4732364],[-0.3229809,43.4731663],[-0.3226536,43.4731371],[-0.3224525,43.4730301],[-0.3224498,43.4729444]]},"properties":{"natural":"water","water":"basin"}},
{"type":"Feature","geometry":{"type":"LineString","coordinates":[[-0.3174608,43.4689978],[-0.3172749,43.4686316],[-0.3172029,43.4684513],[-0.3172579,43.4683824],[-0.3173565,43.4683577],[-0.317641,43.4683935],[-0.3180602,43.4685518],[-0.3184718,43.4688477],[-0.3188189,43.469207],[-0.3192361,43.4696117],[-0.3192172,43.4696612],[-0.3191603,43.4696791],[-0.3189099,43.4695167],[-0.3185476,43.4693433],[-0.3181285,43.4692497],[-0.3176638,43.4691781],[-0.3175538,43.4691037],[-0.3174608,43.4689978]]},"properties":{"natural":"water","water":"basin"}},
{"type":"Feature","geometry":{"type":"LineString","coordinates":[[-0.3168235,43.4675125],[-0.3169533,43.4675021],[-0.317068,43.4674792],[-0.3171327,43.4674505],[-0.3171531,43.4674081],[-0.3171517,43.4673831],[-0.3170416,43.4672426],[-0.3169714,43.4672052],[-0.316909,43.4671609],[-0.3168279,43.4671541],[-0.316793,43.4671461],[-0.3167783,43.4670835],[-0.3167521,43.4670339],[-0.3166971,43.4670198],[-0.3166225,43.4670293],[-0.3165986,43.467048],[-0.3165825,43.4670796],[-0.3165939,43.4671648],[-0.3167005,43.4674407],[-0.3167655,43.4674972],[-0.3168235,43.4675125]]},"properties":{"natural":"water","water":"basin"}},
{"type":"Feature","geometry":{"type":"LineString","coordinates":[[-0.2994577,43.4844261],[-0.2990205,43.4847646],[-0.2987714,43.4848018],[-0.2983977,43.4850056],[-0.2982097,43.4848886],[-0.2990986,43.4841745],[-0.2994577,43.4844261]]},"properties":{"natural":"water","water":"basin"}},
{"type":"Feature","geometry":{"type":"LineString","coordinates":[[-0.3720034,43.4319199],[-0.3718158,43.4321887],[-0.3713291,43.4325017],[-0.3711161,43.4321409],[-0.3716688,43.4318389],[-0.3720034,43.4319199]]},"properties":{"natural":"water"}},
{"type":"Feature","geometry":{"type":"LineString","coordinates":[[-0.2621654,43.4543438],[-0.2619131,43.4542051],[-0.2618072,43.4541107],[-0.2617359,43.4540067],[-0.2617378,43.4539605],[-0.2617552,43.4539123],[-0.2628973,43.4528704],[-0.2629377,43.452855],[-0.2629705,43.4528531],[-0.2633903,43.4530033],[-0.2634327,43.4530418],[-0.2634443,43.4530938],[-0.2634481,43.4532286],[-0.2634288,43.4532517],[-0.2624667,43.4541593],[-0.2622733,43.4543418],[-0.2622174,43.4543553],[-0.2621654,43.4543438]]},"properties":{"natural":"water","source":"Bing"}},
{"type":"Feature","geometry":{"type":"LineString","coordinates":[[-0.2770706,43.4489531],[-0.2771378,43.4488831],[-0.2771973,43.4488044],[-0.2772319,43.4487257],[-0.2772501,43.4486066],[-0.2772549,43.4483753],[-0.277229,43.4483062],[-0.2771877,43.4482649],[-0.277133,43.4482333],[-0.2765341,43.4480615],[-0.276487,43.4480605],[-0.2764659,43.448073],[-0.2764438,43.4481181],[-0.276465,43.4481786],[-0.2766157,43.4485817],[-0.2767347,43.4487986],[-0.2767942,43.4489291],[-0.276847,43.4489954],[-0.2768892,43.4490136],[-0.2769334,43.4490107],[-0.2769833,43.4489954],[-0.2770706,43.4489531]]},"properties":{"natural":"water","source":"Bing"}},
{"type":"Feature","geometry":{"type":"LineString","coordinates":[[-0.2652584,43.4606615],[-0.2646232,43.4607933],[-0.2645393,43.4607694],[-0.2644862,43.4607351],[-0.2644571,43.4606957],[-0.2643578,43.4604903],[-0.264291,43.4603961],[-0.2640085,43.4601136],[-0.2639897,43.4600725],[-0.2639897,43.46004],[-0.2640085,43.4600178],[-0.2642294,43.4599339],[-0.2642619,43.4598808],[-0.2642756,43.4598294],[-0.2642568,43.4597592],[-0.2642345,43.4597267],[-0.2636901,43.4591395],[-0.2636764,43.4590864],[-0.2636798,43.459035],[-0.2637072,43.4589922],[-0.2637757,43.4589597],[-0.264392,43.4588398],[-0.2644468,43.4588501],[-0.2644811,43.4588792],[-0.2644931,43.4588946],[-0.2645102,43.4589289],[-0.2645324,43.4590145],[-0.2646523,43.4593072],[-0.2651008,43.4601873],[-0.265284,43.4606127],[-0.265284,43.4606358],[-0.2652763,43.4606487],[-0.2652584,43.4606615]]},"properties":{"natural":"water","source":"Bing"}},
{"type":"Feature","geometry":{"type":"LineString","coordinates":[[-0.2620526,43.4429042],[-0.2619484,43.4426896],[-0.2624276,43.4425669],[-0.2625318,43.4427815],[-0.2620526,43.4429042]]},"properties":{"leisure":"pitch","source":"Bing","sport":"tennis"}},
{"type":"Feature","geometry":{"type":"LineString","coordinates":[[-0.260708,43.4439502],[-0.2603775,43.4430599],[-0.2595508,43.4432216],[-0.2598813,43.444112],[-0.260708,43.4439502]]},"properties":{"leisure":"pitch","source":"Bing","sport":"soccer"}},
{"type":"Feature","geometry":{"type":"LineString","coordinates":[[-0.2613608,43.4427489],[-0.2605203,43.4428982],[-0.2604894,43.4429157],[-0.2604814,43.4429381],[-0.2608234,43.4439819],[-0.2610007,43.4439504],[-0.2616577,43.4438379],[-0.2617215,43.4437765],[-0.261392,43.4427726],[-0.2613608,43.4427489]]},"properties":{"leisure":"pitch","source":"Bing","sport":"rugby_union"}},
{"type":"Feature","geometry":{"type":"LineString","coordinates":[[-0.3109541,43.5036454],[-0.3119076,43.5024768],[-0.3105842,43.5018985],[-0.3099636,43.5025871],[-0.3105472,43.5032429],[-0.3107938,43.5036782],[-0.3109541,43.5036454]]},"properties":{"historic":"archaeological_site","historic:civilization":"western_roman","name":"Villa gallo-romaine de Lalonquette","source":"Bing","website":"http://www.villa-gallo-romaine-de-lalonquette.fr/"}},
{"type":"Feature","geometry":{"type":"LineString","coordinates":[[-0.3573226,43.47242],[-0.3574391,43.471917],[-0.3575133,43.4715845],[-0.3575068,43.4714986],[-0.3574567,43.4714877],[-0.3572631,43.4715185],[-0.3566749,43.4715831],[-0.355733,43.4714032],[-0.3555178,43.4713878],[-0.3550525,43.4713545],[-0.3548445,43.4713396],[-0.3541963,43.4713456],[-0.3541968,43.4714249],[-0.3542223,43.4714822],[-0.3542761,43.4716035],[-0.354368,43.4717448],[-0.3545242,43.4718487],[-0.3551343,43.4720065],[-0.3554383,43.4721495],[-0.3556636,43.4722137],[-0.3560633,43.4723149],[-0.3567016,43.4724454],[-0.3572153,43.4725368],[-0.3572689,43.4724921],[-0.3573226,43.47242]]},"properties":{"natural":"water","source":"Bing ; cadastre-dgi-fr source : Direction Générale des Impôts - Cadastre. Mise à jour : 2013"}},
{"type":"Feature","geometry":{"type":"LineString","coordinates":[[-0.3423515,43.4742508],[-0.3418195,43.4737265],[-0.3407302,43.4743086],[-0.3412622,43.4748329],[-0.3423515,43.4742508]]},"properties":{"leisure":"pitch","source":"Bing ; cadastre-dgi-fr source : Direction Générale des Impôts - Cadastre. Mise à jour : 2013","sport":"rugby_union"}},
{"type":"Feature","geometry":{"type":"LineString","coordinates":[[-0.2726135,43.4909577],[-0.2727946,43.4906985],[-0.2727016,43.4905742],[-0.27208,43.4904606],[-0.2718744,43.4905209],[-0.2716639,43.4907802],[-0.2714633,43.4911139],[-0.2711745,43.4914513],[-0.2711794,43.4915614],[-0.271385,43.4916146],[-0.2716786,43.4914726],[-0.272217,43.4914264],[-0.2724813,43.4909435],[-0.2726135,43.4909577]]},"properties":{"natural":"water","source":"Bing ; cadastre-dgi-fr source : Direction Générale des Impôts - Cadastre. Mise à jour : 2013"}},
{"type":"Feature","geometry":{"type":"LineString","coordinates":[[-0.2795566,43.4631706],[-0.2797506,43.4630612],[-0.2797549,43.4626981],[-0.2796906,43.4626765],[-0.2793836,43.4627717],[-0.2793124,43.4628573],[-0.2793455,43.4630202],[-0.2793604,43.4630975],[-0.2794128,43.4631761],[-0.2794737,43.4631852],[-0.2795566,43.4631706]]},"properties":{"natural":"water","source":"Bing ; cadastre-dgi-fr source : Direction Générale des Impôts - Cadastre. Mise à jour : 2013"}},
{"type":"Feature","geometry":{"type":"LineString","coordinates":[[-0.2743673,43.4279583],[-0.2738249,43.4280191],[-0.273719,43.4279807],[-0.2736617,43.4278782],[-0.2733882,43.4277437],[-0.2731942,43.4275098],[-0.2728899,43.4273785],[-0.2728237,43.4272472],[-0.272934,43.4271127],[-0.2742218,43.4275579],[-0.2743056,43.4276155],[-0.2744159,43.4278974],[-0.2743673,43.4279583]]},"properties":{"natural":"water","source":"Bing ; cadastre-dgi-fr source : Direction Générale des Impôts - Cadastre. Mise à jour : 2013","water":"reservoir"}},
{"type":"Feature","geometry":{"type":"LineString","coordinates":[[-0.275173,43.4286286],[-0.2752073,43.4285516],[-0.2752977,43.4284236],[-0.2753274,43.4283614],[-0.2752135,43.4278563],[-0.2751652,43.4278212],[-0.2749157,43.4277906],[-0.2748907,43.4278053],[-0.2748892,43.4280873],[-0.2749266,43.4283987],[-0.2749765,43.4285437],[-0.2750732,43.4286207],[-0.275173,43.4286286]]},"properties":{"natural":"water","source":"Bing ; cadastre-dgi-fr source : Direction Générale des Impôts - Cadastre. Mise à jour : 2013"}},
{"type":"Feature","geometry":{"type":"LineString","coordinates":[[-0.27277,43.4262877],[-0.2728715,43.425708],[-0.2727259,43.4256343],[-0.2725142,43.4256663],[-0.2723025,43.4263101],[-0.2727039,43.4263133],[-0.27277,43.4262877]]},"properties":{"natural":"water","source":"Bing ; cadastre-dgi-fr source : Direction Générale des Impôts - Cadastre. Mise à jour : 2013"}},
{"type":"Feature","geometry":{"type":"LineString","coordinates":[[-0.2724447,43.4074427],[-0.2721225,43.4072277],[-0.2719721,43.4073467],[-0.2722943,43.4075617],[-0.2724447,43.4074427]]},"properties":{"leisure":"pitch","source":"Bing ; cadastre-dgi-fr source : Direction Générale des Impôts - Cadastre. Mise à jour : 2013","sport":"tennis"}},
{"type":"Feature","geometry":{"type":"LineString","coordinates":[[-0.3241076,43.4944884],[-0.3240352,43.494463],[-0.3239506,43.4945899],[-0.3240285,43.4946172],[-0.3240566,43.4945752],[-0.3240731,43.494581],[-0.3240955,43.4945888],[-0.3241247,43.494545],[-0.3240991,43.4945359],[-0.3240803,43.4945294],[-0.3241076,43.4944884]]},"properties":{"building":"yes","information":"office","name":"Office du Tourisme","source":"cadastre-dgi-fr source : Direction Générale des Finances Publiques - Cadastre. Mise à jour : 2013","tourism":"information"}},
{"type":"Feature","geometry":{"type":"LineString","coordinates":[[-0.345667,43.474516],[-0.346024,43.474829],[-0.346328,43.474651],[-0.345976,43.474336],[-0.345909,43.474372],[-0.345883,43.474347],[-0.345848,43.474363],[-0.34582,43.474338],[-0.345655,43.474433],[-0.345714,43.474492],[-0.345667,43.474516]]},"properties":{"building":"yes","leisure":"sports_centre","source":"data.gouv.fr:Le ministère des droits des femmes, de la ville, de la jeunesse et des sports - 11/2015","sport":"multi","surface":"concrete"}},
{"type":"Feature","geometry":{"type":"LineString","coordinates":[[-0.348458,43.4760556],[-0.348503,43.4760326],[-0.348433,43.4759686],[-0.3481487,43.4761309],[-0.348214,43.4761948],[-0.348322,43.4761306],[-0.348336,43.4761346],[-0.348375,43.4761146],[-0.348377,43.4761026],[-0.348458,43.4760556]]},"properties":{"amenity":"townhall","building":"yes","heritage":"3","heritage:operator":"mhs","historic":"castle","mhs:inscription_date":"1960-08-01","name":"Château de Fanget","ref:mhs":"PA00084534","source":"cadastre-dgi-fr source : Direction Générale des Finances Publiques - Cadastre. Mise à jour : 2013","source:heritage":"data.gouv.fr, Ministère de la Culture - 2016","start_date":"C17","wikidata":"Q22920864"}},
{"type":"Feature","geometry":{"type":"LineString","coordinates":[[-0.3458927,43.4748462],[-0.3457013,43.4749472],[-0.345443,43.4746894],[-0.3456345,43.4745884],[-0.3458927,43.4748462]]},"properties":{"leisure":"pitch","sport":"tennis"}},
{"type":"Feature","geometry":{"type":"LineString","coordinates":[[-0.3753263,43.4505902],[-0.3746404,43.4507107],[-0.3745439,43.4506717],[-0.3746021,43.4502903],[-0.3747898,43.4501735],[-0.3751653,43.4503915],[-0.3753263,43.4505902]]},"properties":{"natural":"water"}},
{"type":"Feature","geometry":{"type":"LineString","coordinates":[[-0.2796332,43.4675621],[-0.2792932,43.4670143],[-0.2795185,43.46659],[-0.2795148,43.4665893],[-0.2791645,43.4665277],[-0.2788265,43.4662006],[-0.2775283,43.466477],[-0.2775498,43.4670377],[-0.2770455,43.4671],[-0.2772118,43.4676528],[-0.2787782,43.4676528],[-0.2788523,43.468077],[-0.2790411,43.4684103],[-0.2794574,43.4683591],[-0.279411,43.4676328],[-0.2796332,43.4675621]]},"properties":{"natural":"heath"}},
{"type":"Feature","geometry":{"type":"LineString","coordinates":[[-0.2792932,43.4660507],[-0.2790947,43.46571],[-0.2790009,43.4656945],[-0.2788828,43.4657334],[-0.2791511,43.4660643],[-0.2792208,43.466078],[-0.2792932,43.4660507]]},"properties":{"natural":"water"}},
{"type":"Feature","geometry":{"type":"LineString","coordinates":[[-0.2766645,43.4631637],[-0.2765519,43.4628989],[-0.2760853,43.4631072],[-0.2757634,43.46308],[-0.2757257,43.463115],[-0.2763508,43.4632883],[-0.2764768,43.4632766],[-0.2766645,43.4631637]]},"properties":{"natural":"water"}},
{"type":"Feature","geometry":{"type":"LineString","coordinates":[[-0.3452025,43.4068696],[-0.3451118,43.4066211],[-0.3451783,43.4065773],[-0.3452883,43.4065871],[-0.3453902,43.4066377],[-0.3453956,43.4067371],[-0.3452749,43.4068404],[-0.3452025,43.4068696]]},"properties":{"natural":"water"}},
{"type":"Feature","geometry":{"type":"LineString","coordinates":[[-0.2705628,43.5106403],[-0.2706993,43.5105775],[-0.2708749,43.5105612],[-0.2709357,43.5107637],[-0.2706265,43.5108805],[-0.2705628,43.5106403]]},"properties":{"natural":"water"}},
{"type":"Feature","geometry":{"type":"LineString","coordinates":[[-0.3101642,43.4881461],[-0.309718,43.4882469],[-0.309457,43.4878377],[-0.3092845,43.4874865],[-0.3093223,43.4874071],[-0.3097306,43.4873216],[-0.3099285,43.4873674],[-0.3101852,43.4878957],[-0.3101642,43.4881461]]},"properties":{"natural":"water"}},
{"type":"Feature","geometry":{"type":"LineString","coordinates":[[-0.3254255,43.4896966],[-0.325668,43.4896732],[-0.3257186,43.4895986],[-0.3257202,43.489542899999999],[-0.3255498,43.4893937],[-0.3254501,43.4891877],[-0.3254409,43.4890775],[-0.3253856,43.4890385],[-0.3252705,43.4890664],[-0.3252352,43.4891198],[-0.3252567,43.4891766],[-0.3253242,43.489338],[-0.3253767,43.4896617],[-0.3254255,43.4896966]]},"properties":{"natural":"water"}},
{"type":"Feature","geometry":{"type":"LineString","coordinates":[[-0.3705206,43.4134693],[-0.3704929,43.413496],[-0.3704856,43.4134983],[-0.3704742,43.413496],[-0.3704636,43.4134895],[-0.3704603,43.4134829],[-0.3704587,43.4134776],[-0.3704921,43.4134463],[-0.370501,43.4134445],[-0.3705108,43.4134486],[-0.3705173,43.4134534],[-0.3705214,43.4134617],[-0.3705206,43.4134693]]},"properties":{"leisure":"swimming_pool"}},
{"type":"Feature","geometry":{"type":"LineString","coordinates":[[-0.3703192,43.4114987],[-0.3703232,43.4114383],[-0.3704292,43.4114431],[-0.3704412,43.411449],[-0.3704479,43.4114626],[-0.3704439,43.4114772],[-0.3704305,43.4114909],[-0.370346,43.4114899],[-0.3703447,43.4115006],[-0.3703192,43.4114987]]},"properties":{"leisure":"swimming_pool"}},
{"type":"Feature","geometry":{"type":"LineString","coordinates":[[-0.3681745,43.4114322],[-0.3681789,43.4114467],[-0.3681524,43.4114547],[-0.3681259,43.4114097],[-0.3682209,43.4113777],[-0.3682342,43.4114178],[-0.3681745,43.4114322]]},"properties":{"leisure":"swimming_pool"}},
{"type":"Feature","geometry":{"type":"LineString","coordinates":[[-0.3679293,43.4110583],[-0.3679735,43.4111],[-0.3680508,43.4110503],[-0.3680155,43.4110166],[-0.3679293,43.4110583]]},"properties":{"leisure":"swimming_pool"}},
{"type":"Feature","geometry":{"type":"LineString","coordinates":[[-0.3686316,43.4122432],[-0.3685772,43.4122099],[-0.3686624,43.4121365],[-0.3687168,43.4121698],[-0.3686316,43.4122432]]},"properties":{"leisure":"swimming_pool"}},
{"type":"Feature","geometry":{"type":"LineString","coordinates":[[-0.3715626,43.4017956],[-0.3715608,43.4018028],[-0.3715593,43.4018109],[-0.3715533,43.4018174],[-0.3715428,43.40182],[-0.3715317,43.4018179],[-0.3715245,43.4018148],[-0.3715194,43.40181],[-0.3715179,43.4018039],[-0.3715197,43.4017987],[-0.3715218,43.4017926],[-0.3715251,43.4017882],[-0.3715287,43.4017834],[-0.3715368,43.4017769],[-0.371544,43.4017736],[-0.3715494,43.4017721],[-0.3715548,43.4017699],[-0.371562,43.4017684],[-0.3715701,43.4017686],[-0.3715749,43.4017725],[-0.3715773,43.4017773],[-0.3715734,43.4017819],[-0.3715665,43.4017841],[-0.3715623,43.4017876],[-0.3715602,43.4017928],[-0.3715626,43.4017956]]},"properties":{"leisure":"swimming_pool"}},
{"type":"Feature","geometry":{"type":"LineString","coordinates":[[-0.3739203,43.4066615],[-0.3738105,43.4066867],[-0.3738066,43.4066785],[-0.3738012,43.4066791],[-0.3737949,43.4066789],[-0.3737904,43.4066767],[-0.3737865,43.4066721],[-0.3737862,43.4066669],[-0.3737907,43.4066625],[-0.3737946,43.4066599],[-0.3737994,43.4066573],[-0.3737958,43.4066501],[-0.373905,43.4066244],[-0.3739203,43.4066615]]},"properties":{"leisure":"swimming_pool"}},
{"type":"Feature","geometry":{"type":"LineString","coordinates":[[-0.3737806,43.4061718],[-0.3737925,43.4062037],[-0.3738004,43.4062045],[-0.3738038,43.4062095],[-0.3738197,43.406207],[-0.3738187,43.4061983],[-0.3738879,43.4061843],[-0.3738839,43.4061732],[-0.373879,43.4061721],[-0.373873,43.4061711],[-0.373872,43.4061678],[-0.3738745,43.4061632],[-0.37388,43.406161],[-0.3738745,43.4061499],[-0.3737806,43.4061718]]},"properties":{"leisure":"swimming_pool"}},
{"type":"Feature","geometry":{"type":"LineString","coordinates":[[-0.3690077,43.4081421],[-0.3689542,43.40813],[-0.3689894,43.4080478],[-0.3690428,43.4080599],[-0.3690077,43.4081421]]},"properties":{"leisure":"swimming_pool"}},
{"type":"Feature","geometry":{"type":"LineString","coordinates":[[-0.3314011,43.4997168],[-0.3311979,43.4987476],[-0.3303747,43.4988384],[-0.3305779,43.4998076],[-0.3314011,43.4997168]]},"properties":{"leisure":"pitch","sport":"soccer"}},
{"type":"Feature","geometry":{"type":"LineString","coordinates":[[-0.3315812,43.5080734],[-0.3317203,43.5080241],[-0.331764,43.5079009],[-0.33173,43.5078071],[-0.3315343,43.507698],[-0.3313725,43.5077554],[-0.3313434,43.5078446],[-0.3314874,43.5080698],[-0.3315812,43.5080734]]},"properties":{"natural":"water","water":"pond"}},
{"type":"Feature","geometry":{"type":"LineString","coordinates":[[-0.3191848,43.494667],[-0.3194051,43.4943115],[-0.3197026,43.4944853],[-0.3205872,43.4945329],[-0.3205215,43.4949589],[-0.3202897,43.4949841],[-0.3191848,43.494667]]},"properties":{"natural":"heath"}},
{"type":"Feature","geometry":{"type":"LineString","coordinates":[[-0.3377523,43.4238485],[-0.3380842,43.4237245],[-0.3382502,43.4236057],[-0.3384619,43.4234554],[-0.3380313,43.4235463],[-0.3376104,43.4236074],[-0.337531,43.4236703],[-0.3376849,43.4238258],[-0.3377523,43.4238485]]},"properties":{"natural":"water"}},
{"type":"Feature","geometry":{"type":"LineString","coordinates":[[-0.3417301,43.4156753],[-0.3416995,43.4156404],[-0.34187,43.4155616],[-0.3419005,43.4155965],[-0.3417301,43.4156753]]},"properties":{"boules":"petanque","leisure":"pitch","source":"data.gouv.fr:Le ministère des droits des femmes, de la ville, de la jeunesse et des sports - 2014","sport":"boules","surface":"sand"}},
{"type":"Feature","geometry":{"type":"LineString","coordinates":[[-0.3410268,43.416091],[-0.3408713,43.4160998],[-0.3408492,43.415893],[-0.3410047,43.4158842],[-0.3410268,43.416091]]},"properties":{"leisure":"pitch","source":"data.gouv.fr:Le ministère des droits des femmes, de la ville, de la jeunesse et des sports - 2014","sport":"multi"}},
{"type":"Feature","geometry":{"type":"LineString","coordinates":[[-0.2993184,43.4686793],[-0.299463,43.4689899],[-0.2996778,43.4689372],[-0.2995332,43.4686266],[-0.2993184,43.4686793]]},"properties":{"leisure":"pitch","lit":"no","sport":"tennis","surface":"asphalt"}},
{"type":"Feature","geometry":{"type":"LineString","coordinates":[[-0.281475,43.4139546],[-0.2818854,43.4137526],[-0.2814389,43.4132739],[-0.2810286,43.4134758],[-0.281475,43.4139546]]},"properties":{"leisure":"pitch","sport":"soccer"}},
{"type":"Feature","geometry":{"type":"LineString","coordinates":[[-0.2725342,43.4075016],[-0.2724003,43.4076079],[-0.27232460000000005,43.4075576],[-0.2724585,43.4074512],[-0.2725342,43.4075016]]},"properties":{"boules":"petanque","leisure":"pitch","source":"data.gouv.fr:Le ministère des droits des femmes, de la ville, de la jeunesse et des sports - 2014","sport":"boules"}},
{"type":"Feature","geometry":{"type":"LineString","coordinates":[[-0.2715844,43.4065251],[-0.2713767,43.406676],[-0.2712633,43.4065936],[-0.271471,43.4064427],[-0.2715844,43.4065251]]},"properties":{"leisure":"pitch","source":"data.gouv.fr:Le ministère des droits des femmes, de la ville, de la jeunesse et des sports - 2014","sport":"basketball","surface":"asphalt"}},
{"type":"Feature","geometry":{"type":"LineString","coordinates":[[-0.3670689,43.4934113],[-0.36720970000000005,43.4933408],[-0.3670349,43.4931572],[-0.3668941,43.4932277],[-0.3670689,43.4934113]]},"properties":{"leisure":"pitch","sport":"basketball","surface":"asphalt"}},
{"type":"Feature","geometry":{"type":"LineString","coordinates":[[-0.3712553,43.5133196],[-0.3713518,43.5132778],[-0.3714243,43.5132564],[-0.3714457,43.5132515],[-0.3714631,43.5131893],[-0.3714672,43.5131601],[-0.371549,43.5131397],[-0.3715208,43.5130755],[-0.3714243,43.5129996],[-0.3713129,43.5129471],[-0.3713089,43.5129967],[-0.371325,43.5130473],[-0.3712834,43.5130492],[-0.3712204,43.5129597],[-0.3711332,43.5128469],[-0.37103,43.5128265],[-0.3709857,43.5128479],[-0.3709562,43.5129033],[-0.3709026,43.512916],[-0.3709026,43.5129665],[-0.3709321,43.513021],[-0.3709871,43.5130726],[-0.3710434,43.5131416],[-0.3711346,43.513197],[-0.3711587,43.5132321],[-0.3711963,43.5132953],[-0.3712553,43.5133196]]},"properties":{"natural":"water"}},
{"type":"Feature","geometry":{"type":"LineString","coordinates":[[-0.281854,43.4497791],[-0.2815027,43.4499427],[-0.2812908,43.4487432],[-0.2811137,43.4470782],[-0.2808723,43.4466479],[-0.2814168,43.4465388],[-0.281854,43.4497791]]},"properties":{"aeroway":"airstrip","leisure":"sports_centre","local_ref":"LF6456","name":"Base ULM de Sévignacq","sport":"ultralight_aviation"}},
{"type":"Feature","geometry":{"type":"LineString","coordinates":[[-0.2838852,43.4963087],[-0.2841266,43.4959274],[-0.2907517,43.4936236],[-0.2908375,43.4935944],[-0.2909392,43.4935825],[-0.2915427,43.4934055],[-0.2916023,43.4934748],[-0.2916845,43.4935771],[-0.2838852,43.4963087]]},"properties":{"aeroway":"airstrip","leisure":"sports_centre","local_ref":"LF6429","name":"Base ULM de Claracq-Villa les Palmiers","sport":"ultralight_aviation"}},
{"type":"Feature","geometry":{"type":"LineString","coordinates":[[-0.3631326,43.4055159],[-0.3630397,43.4054569],[-0.363031,43.4054636],[-0.3630262,43.4054621],[-0.3630234,43.4054618],[-0.3630211,43.4054616],[-0.3630188,43.4054618],[-0.3630156,43.4054623],[-0.3630125,43.4054634],[-0.363009,43.4054653],[-0.3630065,43.4054671],[-0.3630051,43.405469],[-0.3630041,43.4054708],[-0.3630034,43.4054728],[-0.3630029,43.4054747],[-0.363003,43.4054768],[-0.3630036,43.4054793],[-0.3630047,43.4054813],[-0.363006,43.405483],[-0.3630071,43.4054838],[-0.362999,43.4054907],[-0.363092,43.4055497],[-0.3631326,43.4055159]]},"properties":{"access":"no","leisure":"swimming_pool"}},
{"type":"Feature","geometry":{"type":"LineString","coordinates":[[-0.3486498,43.4762674],[-0.3484951,43.4761257],[-0.3482317,43.4762772],[-0.3483864,43.4764189],[-0.3486498,43.4762674]]},"properties":{"leisure":"pitch","source":"data.gouv.fr:Le ministère des droits des femmes, de la ville, de la jeunesse et des sports - 11/2015","sport":"handball","surface":"asphalt"}},
{"type":"Feature","geometry":{"type":"LineString","coordinates":[[-0.2696995,43.4989353],[-0.2698597,43.4988808],[-0.2700877,43.4987835],[-0.270136,43.4987251],[-0.2701092,43.498694],[-0.2697793,43.4986298],[-0.2696827,43.498657],[-0.2696452,43.498838],[-0.2696452,43.4989313],[-0.2696995,43.4989353]]},"properties":{"natural":"water"}},
{"type":"Feature","geometry":{"type":"LineString","coordinates":[[-0.2998056,43.5107137],[-0.2996836,43.5107103],[-0.2996802,43.5107756],[-0.2998021,43.5107789],[-0.2998056,43.5107137]]},"properties":{"access":"private","leisure":"swimming_pool","source":"esri"}},
{"type":"Feature","geometry":{"type":"LineString","coordinates":[[-0.375069,43.403703],[-0.3749707,43.4036962],[-0.3749753,43.4036602],[-0.3750735,43.4036674],[-0.375069,43.403703]]},"properties":{"leisure":"swimming_pool"}},
{"type":"Feature","geometry":{"type":"LineString","coordinates":[[-0.3034115,43.5090906],[-0.3035617,43.5090673],[-0.3036052,43.5090294],[-0.3037602,43.5089467],[-0.3038353,43.5088689],[-0.303787,43.5087833],[-0.3037548,43.5087132],[-0.3036743,43.5086393],[-0.3035832,43.5085848],[-0.3034598,43.5085615],[-0.3033632,43.5085771],[-0.3032774,43.5085926],[-0.3031755,43.5086243],[-0.3031111,43.5087093],[-0.3030253,43.5087988],[-0.3030038,43.5088766],[-0.3030145,43.5089389],[-0.303095,43.5089973],[-0.3031862,43.5090284],[-0.3033096,43.5090751],[-0.3034115,43.5090906]]},"properties":{"historic":"archaeological_site","name":"Motte castrale"}},
{"type":"Feature","geometry":{"type":"LineString","coordinates":[[-0.3159557,43.4547904],[-0.3161217,43.4546931],[-0.3159261,43.4545173],[-0.3157601,43.4546146],[-0.3159557,43.4547904]]},"properties":{"leisure":"pitch","sport":"multi"}},
{"type":"Feature","geometry":{"type":"LineString","coordinates":[[-0.2803875,43.4836305],[-0.2803633,43.48329],[-0.2801473,43.4832981],[-0.2801715,43.4836386],[-0.2803538,43.4836318],[-0.2803875,43.4836305]]},"properties":{"leisure":"pitch","source":"Le ministère de la ville, de la jeunesse et des sports - 01/2018","sport":"pelota;tennis","surface":"asphalt"}},
{"type":"Feature","geometry":{"type":"LineString","coordinates":[[-0.2915219,43.4360369],[-0.2914502,43.4358782],[-0.2912879,43.4359157],[-0.2913375,43.4360808],[-0.2915219,43.4360369]]},"properties":{"boules":"petanque","leisure":"pitch","source":"Le ministère de la ville, de la jeunesse et des sports - 01/2018","sport":"boules"}},
{"type":"Feature","geometry":{"type":"LineString","coordinates":[[-0.3359215,43.5084739],[-0.3358395,43.5083781],[-0.3360533,43.5082818],[-0.3361353,43.5083776],[-0.3359215,43.5084739]]},"properties":{"access":"yes","leisure":"pitch","lit":"yes","sport":"multi"}},
{"type":"Feature","geometry":{"type":"LineString","coordinates":[[-0.3684281,43.4944212],[-0.3686024,43.4942623],[-0.3684373,43.494167],[-0.3682629,43.4943259],[-0.3684281,43.4944212]]},"properties":{"leisure":"pitch","sport":"boules"}},
{"type":"Feature","geometry":{"type":"LineString","coordinates":[[-0.3466923,43.4456011],[-0.3465313,43.4454872],[-0.3468277,43.4452663],[-0.3469887,43.4453802],[-0.3466923,43.4456011]]},"properties":{"leisure":"pitch","sport":"tennis"}},
{"type":"Feature","geometry":{"type":"LineString","coordinates":[[-0.3286269,43.3992149],[-0.3281696,43.3995374],[-0.3284821,43.3997118],[-0.3286698,43.3997216],[-0.328702,43.3997108],[-0.3289649,43.3995189],[-0.3289622,43.3995033],[-0.3288133,43.3993942],[-0.3286269,43.3992149]]},"properties":{"leisure":"park"}},
{"type":"Feature","geometry":{"type":"LineString","coordinates":[[-0.3647482,43.4143945],[-0.3648609,43.4141997],[-0.3650165,43.4138431],[-0.3650728,43.4136035],[-0.3650647,43.4128358],[-0.3643137,43.4122318],[-0.3639489,43.4121616],[-0.3636324,43.4121285],[-0.3635252,43.4118967],[-0.3631389,43.412072],[-0.3623852,43.4124578],[-0.3620365,43.4126838],[-0.3614008,43.4133775],[-0.3611112,43.4136288],[-0.3647482,43.4143945]]},"properties":{"leisure":"horse_riding","name":"Écuries des Pyrénées"}},
{"type":"Feature","geometry":{"type":"LineString","coordinates":[[-0.3629096,43.4133112],[-0.3628694,43.4133648],[-0.3627956,43.4134008],[-0.3626923,43.4134223],[-0.3626186,43.4134154],[-0.3625515,43.4133307],[-0.3624737,43.4131631],[-0.3625086,43.4131222],[-0.3625931,43.4130716],[-0.3627084,43.4130677],[-0.3627527,43.4130793],[-0.3628345,43.4131933],[-0.3629096,43.4133112]]},"properties":{"leisure":"pitch","source":"Le ministère de la ville, de la jeunesse et des sports - 2021-04","sport":"equestrian","surface":"sand"}},
{"type":"Feature","geometry":{"type":"LineString","coordinates":[[-0.3635761,43.4131368],[-0.3636177,43.4130862],[-0.3636472,43.4128465],[-0.3635788,43.4127764],[-0.3635037,43.4127618],[-0.3633776,43.4127871],[-0.3630155,43.412865],[-0.3629552,43.4129089],[-0.3629324,43.4129663],[-0.3629525,43.4130657],[-0.3629901,43.4131446],[-0.3630665,43.4131953],[-0.3632207,43.4131943],[-0.3634688,43.4131622],[-0.3635761,43.4131368]]},"properties":{"leisure":"pitch","source":"Le ministère de la ville, de la jeunesse et des sports - 2021-04","sport":"equestrian","surface":"sand"}},
{"type":"Feature","geometry":{"type":"LineString","coordinates":[[-0.3405963,43.4742439],[-0.3406942,43.4741952],[-0.3406915,43.4741709],[-0.3405601,43.4740444],[-0.3405333,43.4740347],[-0.340438,43.4740843],[-0.3404367,43.4741077],[-0.3405748,43.47424],[-0.3405963,43.4742439]]},"properties":{"leisure":"pitch","sport":"multi"}},
{"type":"Feature","geometry":{"type":"LineString","coordinates":[[-0.3206572,43.4042188],[-0.3208539,43.4040147],[-0.3208405,43.4039212],[-0.3206527,43.4039036],[-0.320591,43.4038393],[-0.3205508,43.4037516],[-0.3204569,43.4036659],[-0.3203711,43.4036698],[-0.3203282,43.4037419],[-0.320363,43.4038237],[-0.320347,43.4039095],[-0.3202638,43.4039835],[-0.3201002,43.4040654],[-0.3199688,43.4040634],[-0.3198615,43.4040459],[-0.3198507,43.4040926],[-0.320017,43.4041647],[-0.3202933,43.4042135],[-0.3203979,43.4042349],[-0.3205588,43.4042505],[-0.3206572,43.4042188]]},"properties":{"natural":"water"}},
{"type":"Feature","geometry":{"type":"LineString","coordinates":[[-0.3277733,43.440345],[-0.3278933,43.4402559],[-0.32778,43.4401754],[-0.3277733,43.4401707],[-0.3276533,43.4402598],[-0.3277733,43.440345]]},"properties":{"leisure":"pitch","sport":"basketball"}},
{"type":"Feature","geometry":{"type":"LineString","coordinates":[[-0.327487,43.4400928],[-0.327609,43.4399536],[-0.3276104,43.4399292],[-0.3275125,43.4398854],[-0.3274843,43.4398912],[-0.327369,43.4400354],[-0.3273743,43.44005],[-0.3274696,43.4400948],[-0.327487,43.4400928]]},"properties":{"leisure":"pitch","sport":"multi"}},
{"type":"Feature","geometry":{"type":"LineString","coordinates":[[-0.3267387,43.4401882],[-0.3266662,43.4401921],[-0.3265858,43.4401337],[-0.3265844,43.4400811],[-0.3265938,43.4400266],[-0.3267548,43.4398377],[-0.3267829,43.4398357],[-0.3268352,43.4398835],[-0.3267132,43.4400344],[-0.3267387,43.4401882]]},"properties":{"boules":"petanque","leisure":"pitch","source":"Le ministère de la ville, de la jeunesse et des sports - 2021-04","sport":"boules","surface":"sand"}},
{"type":"Feature","geometry":{"type":"LineString","coordinates":[[-0.3280827,43.440598],[-0.3281979,43.4405204],[-0.3279879,43.440356],[-0.3278727,43.4404335],[-0.3280827,43.440598]]},"properties":{"access":"private","leisure":"pitch","source":"Le ministère de la ville, de la jeunesse et des sports - 2021-04","sport":"handball","surface":"asphalt"}},
{"type":"Feature","geometry":{"type":"LineString","coordinates":[[-0.3664899,43.4644327],[-0.3665228,43.4644358],[-0.3668962,43.4644708],[-0.3669762,43.4643647],[-0.3666928,43.4643425],[-0.3666025,43.4642291],[-0.3665346,43.4643445],[-0.3664899,43.4644327]]},"properties":{"leisure":"pitch","sport":"boules"}},
{"type":"Feature","geometry":{"type":"LineString","coordinates":[[-0.3465746,43.4451565],[-0.346463,43.4450735],[-0.3465714,43.4449966],[-0.346683,43.4450796],[-0.3465746,43.4451565]]},"properties":{"leisure":"pitch","sport":"boules"}},
{"type":"Feature","geometry":{"type":"LineString","coordinates":[[-0.3275986,43.440276],[-0.3275228,43.4402413],[-0.3276895,43.4401105],[-0.327763,43.4401597],[-0.3275986,43.440276]]},"properties":{"leisure":"playground"}},
{"type":"Feature","geometry":{"type":"LineString","coordinates":[[-0.2939277,43.4618045],[-0.2944037,43.46161],[-0.2944176,43.4615843],[-0.2942311,43.4613606],[-0.2942096,43.4613204],[-0.2941326,43.461279],[-0.2939662,43.4610039],[-0.293826,43.4609156],[-0.2935102,43.4609134],[-0.2933561,43.4609469],[-0.2933361,43.4610185],[-0.2935518,43.4613416],[-0.2938938,43.4617889],[-0.2939277,43.4618045]]},"properties":{"natural":"water","water":"pond"}},
{"type":"Feature","geometry":{"type":"LineString","coordinates":[[-0.2943914,43.4621456],[-0.29449,43.4620751],[-0.2945547,43.4619331],[-0.2945393,43.4617732],[-0.2945084,43.4617252],[-0.2944792,43.461714],[-0.2941403,43.4617598],[-0.2941125,43.4617889],[-0.2939184,43.4618604],[-0.2938999,43.4619119],[-0.2939246,43.4619544],[-0.294168,43.4621512],[-0.2942804,43.4621612],[-0.2943914,43.4621456]]},"properties":{"natural":"water","water":"pond"}},
{"type":"Feature","geometry":{"type":"LineString","coordinates":[[-0.3707744,43.4116584],[-0.370688,43.4116561],[-0.3706883,43.4116242],[-0.3707752,43.4116263],[-0.3707744,43.4116584]]},"properties":{"leisure":"swimming_pool"}},
{"type":"Feature","geometry":{"type":"LineString","coordinates":[[-0.3714679,43.4115988],[-0.3713758,43.4115943],[-0.3713787,43.4115624],[-0.3714708,43.4115661],[-0.3714679,43.4115988]]},"properties":{"leisure":"swimming_pool"}},
{"type":"Feature","geometry":{"type":"LineString","coordinates":[[-0.2800712,43.4834409],[-0.2800614,43.4833342],[-0.2800058,43.4833369],[-0.2800157,43.4834436],[-0.2800712,43.4834409]]},"properties":{"boules":"petanque","leisure":"pitch","sport":"boules"}},
{"type":"Feature","geometry":{"type":"LineString","coordinates":[[-0.2800811,43.4835477],[-0.2800712,43.4834409],[-0.2800157,43.4834436],[-0.2800256,43.4835504],[-0.2800811,43.4835477]]},"properties":{"boules":"petanque","leisure":"pitch","sport":"boules"}},
{"type":"Feature","geometry":{"type":"LineString","coordinates":[[-0.280091,43.4836544],[-0.2800811,43.4835477],[-0.2800256,43.4835504],[-0.2800355,43.4836571],[-0.280091,43.4836544]]},"properties":{"boules":"petanque","leisure":"pitch","sport":"boules"}},
{"type":"Feature","geometry":{"type":"LineString","coordinates":[[-0.3517202,43.4115827],[-0.3516334,43.4116047],[-0.3515685,43.4114703],[-0.3516554,43.4114482],[-0.3517202,43.4115827]]},"properties":{"access":"yes","leisure":"pitch","sport":"boules","surface":"compacted"}},
{"type":"Feature","geometry":{"type":"LineString","coordinates":[[-0.261588,43.4448769],[-0.2610007,43.4439504],[-0.2601624,43.4442311],[-0.2607495,43.4451571],[-0.261588,43.4448769]]},"properties":{"leisure":"pitch","source":"Bing","sport":"rugby_union"}},
{"type":"Feature","geometry":{"type":"LineString","coordinates":[[-0.2624782,43.4445734],[-0.2619499,43.4437565],[-0.2611185,43.4440399],[-0.2616468,43.4448568],[-0.2624782,43.4445734]]},"properties":{"leisure":"pitch","sport":"soccer"}},
{"type":"Feature","geometry":{"type":"LineString","coordinates":[[-0.3621813,43.4692071],[-0.3620584,43.4691091],[-0.3616725,43.4693639],[-0.3617954,43.469462],[-0.3621813,43.4692071]]},"properties":{"natural":"water","water":"wastewater"}},
{"type":"Feature","geometry":{"type":"LineString","coordinates":[[-0.3620036,43.4690623],[-0.3618807,43.4689643],[-0.3614948,43.4692192],[-0.3616177,43.4693172],[-0.3620036,43.4690623]]},"properties":{"natural":"water","water":"wastewater"}},
{"type":"Feature","geometry":{"type":"LineString","coordinates":[[-0.3617428,43.4695069],[-0.3616199,43.4694089],[-0.3612339,43.4696637],[-0.3613568,43.4697617],[-0.3617428,43.4695069]]},"properties":{"natural":"water","water":"wastewater"}},
{"type":"Feature","geometry":{"type":"LineString","coordinates":[[-0.3615651,43.4693621],[-0.3614422,43.4692641],[-0.3610562,43.4695189],[-0.3611791,43.469617],[-0.3615651,43.4693621]]},"properties":{"natural":"water","water":"wastewater"}},
{"type":"Feature","geometry":{"type":"LineString","coordinates":[[-0.3612747,43.4698076],[-0.3611518,43.4697096],[-0.3607659,43.4699645],[-0.3608888,43.4700625],[-0.3612747,43.4698076]]},"properties":{"natural":"water","water":"wastewater"}},
{"type":"Feature","geometry":{"type":"LineString","coordinates":[[-0.361097,43.4696629],[-0.3609741,43.4695648],[-0.3605882,43.4698197],[-0.3607111,43.4699177],[-0.361097,43.4696629]]},"properties":{"natural":"water","water":"wastewater"}},
{"type":"Feature","geometry":{"type":"LineString","coordinates":[[-0.3606481,43.469962],[-0.3605252,43.469864],[-0.3601392,43.4701188],[-0.3602622,43.4702169],[-0.3606481,43.469962]]},"properties":{"natural":"water","water":"wastewater"}},
{"type":"Feature","geometry":{"type":"LineString","coordinates":[[-0.3608258,43.4701068],[-0.3607029,43.4700088],[-0.3603169,43.4702636],[-0.3604399,43.4703617],[-0.3608258,43.4701068]]},"properties":{"natural":"water","water":"wastewater"}},
{"type":"Feature","geometry":{"type":"LineString","coordinates":[[-0.340544,43.4020172],[-0.3404139,43.4020289],[-0.3403388,43.4020163],[-0.3403576,43.4019559],[-0.3404541,43.4018555],[-0.3405105,43.4018087],[-0.3405614,43.401799],[-0.3406352,43.4018302],[-0.3406701,43.4018857],[-0.3406459,43.4019218],[-0.340544,43.4020172]]},"properties":{"natural":"water"}},
{"type":"Feature","geometry":{"type":"LineString","coordinates":[[-0.371854,43.399174],[-0.371886,43.399172],[-0.371911,43.399149],[-0.372105,43.398998],[-0.372602,43.398617],[-0.373291,43.398091],[-0.373895,43.397624],[-0.374123,43.39745],[-0.374194,43.397396],[-0.374382,43.397252],[-0.374456,43.397195],[-0.374761,43.396962],[-0.3749121,43.3968602],[-0.3749151,43.3968552],[-0.3749091,43.3968382],[-0.3749041,43.3968342],[-0.3748961,43.3968372],[-0.373521,43.397884],[-0.372718,43.398501],[-0.37231,43.398817],[-0.372104,43.398978],[-0.371966,43.399086],[-0.37187,43.399159],[-0.371854,43.399174]]},"properties":{"natural":"water","source":"cadastre-dgi-fr source : Direction Générale des Impôts - Cadastre. Mise à jour : 2012","water":"stream"}},
{"type":"Feature","geometry":{"type":"LineString","coordinates":[[-0.3182293,43.4719792],[-0.3181542,43.4720045],[-0.3180738,43.4720152],[-0.3180188,43.4720142],[-0.3179947,43.4720006],[-0.3177412,43.4710721],[-0.3177466,43.4710157],[-0.3177921,43.4709874],[-0.3178485,43.4709816],[-0.3179625,43.4709845],[-0.3179839,43.4709972],[-0.3182293,43.4719792]]},"properties":{"natural":"water"}},
{"type":"Feature","geometry":{"type":"LineString","coordinates":[[-0.3712814,43.4038566],[-0.3713241,43.4038746],[-0.3713738,43.4038124],[-0.3713311,43.4037944],[-0.3712814,43.4038566]]},"properties":{"access":"private","leisure":"swimming_pool","source":"cadastre-dgi-fr source : Direction Générale des Impôts - Cadastre. Mise à jour : 2024"}},
{"type":"Feature","geometry":{"type":"LineString","coordinates":[[-0.3735827,43.4009607],[-0.3736195,43.4009641],[-0.3736301,43.4009015],[-0.3735934,43.4008982],[-0.3735827,43.4009607]]},"properties":{"access":"private","leisure":"swimming_pool","source":"cadastre-dgi-fr source : Direction Générale des Impôts - Cadastre. Mise à jour : 2024"}},
{"type":"Feature","geometry":{"type":"LineString","coordinates":[[-0.3035352,43.4374809],[-0.3033861,43.4374332],[-0.3034176,43.4373813],[-0.3035728,43.437431],[-0.3035652,43.4374435],[-0.303582,43.4374489],[-0.3035627,43.4374807],[-0.3035398,43.4374733],[-0.3035352,43.4374809]]},"properties":{"leisure":"swimming_pool"}},
{"type":"Feature","geometry":{"type":"LineString","coordinates":[[-0.3397374,43.4141845],[-0.3396954,43.4141945],[-0.3396659,43.4141293],[-0.3397079,43.4141193],[-0.3397374,43.4141845]]},"properties":{"leisure":"swimming_pool"}},
{"type":"Feature","geometry":{"type":"MultiPolygon","coordinates":[[[[-0.3453598,43.4343469],[-0.3447374,43.4340695],[-0.3438782,43.4339364],[-0.342963,43.4338414],[-0.3421319,43.4332748],[-0.3420836,43.4339263],[-0.3422081,43.4341936],[-0.3438273,43.4350563],[-0.3444556,43.435508],[-0.3446872,43.4352925],[-0.34487,43.4351223],[-0.3453445,43.4344908],[-0.3453598,43.4343469]]]]},"properties":{"name":"Lac du Balaing","natural":"water"}},
{"type":"Feature","geometry":{"type":"MultiPolygon","coordinates":[[[[-0.2990091,43.3975986],[-0.2989874,43.3975417],[-0.298821,43.3974599],[-0.2984713,43.3974894],[-0.2983763,43.3973852],[-0.2983068,43.3972954],[-0.2979825,43.3971931],[-0.2977437,43.3972036],[-0.2976047,43.3972616],[-0.2974948,43.3973453],[-0.2972696,43.3974736],[-0.296974,43.3974032],[-0.296654,43.3972341],[-0.2966307,43.3971517],[-0.2965363,43.3970487],[-0.2963611,43.3969143],[-0.2962779,43.3967747],[-0.2962783,43.3966492],[-0.2960346,43.3961745],[-0.2959159,43.39602],[-0.2957426,43.3959573],[-0.295789,43.3960719],[-0.2954895,43.3961944],[-0.2953577,43.3962085],[-0.2950625,43.3963236],[-0.2950251,43.3963845],[-0.2946794,43.3965259],[-0.2946843,43.3967158],[-0.2946936,43.396905],[-0.2951485,43.3975335],[-0.2955524,43.3978719],[-0.2957933,43.3981952],[-0.2959164,43.3986789],[-0.2955594,43.3988633],[-0.2954001,43.3991191],[-0.2949473,43.3993633],[-0.2945623,43.3999227],[-0.2942704,43.4001271],[-0.2940491,43.4006685],[-0.2945201,43.4007723],[-0.2970682,43.4012975],[-0.2971462,43.4012628],[-0.2972401,43.4011177],[-0.29725,43.4009872],[-0.2974873,43.4005823],[-0.2977975,43.4002713],[-0.2979066,43.4002288],[-0.2979505,43.4001179],[-0.2980668,43.4000014],[-0.2979624,43.3998174],[-0.2980421,43.3997558],[-0.2980166,43.3996835],[-0.2979074,43.3996069],[-0.2979847,43.3994953],[-0.2980759,43.3994569],[-0.2982038,43.3993429],[-0.2982626,43.399176],[-0.2981976,43.3990157],[-0.298265,43.3989793],[-0.2983316,43.3987851],[-0.298242,43.3986492],[-0.2982599,43.3985011],[-0.2983084,43.3984818],[-0.2982695,43.3984213],[-0.2983477,43.3981692],[-0.2985587,43.398121],[-0.2985816,43.3980644],[-0.2982406,43.3980294],[-0.2987879,43.3979237],[-0.2988331,43.3978655],[-0.298814,43.3978213],[-0.2987457,43.3977904],[-0.2987504,43.3977219],[-0.2988661,43.3976525],[-0.2990091,43.3975986]]]]},"properties":{"name":"Lac d'Anos","natural":"water","water":"lake"}},
{"type":"Feature","geometry":{"type":"MultiPolygon","coordinates":[[[[-0.3586155,43.4415545],[-0.3579993,43.4413942],[-0.357279,43.4409591],[-0.3556009,43.4397096],[-0.35483,43.439376],[-0.3544718,43.4390678],[-0.3534269,43.4386743],[-0.3506212,43.4372319],[-0.3501972,43.4370064],[-0.349657,43.4367883],[-0.3491045,43.436726],[-0.3485138,43.4362452],[-0.3478077,43.4362195],[-0.3476797,43.4361048],[-0.3479396,43.4358441],[-0.3477944,43.4351606],[-0.3471091,43.4344057],[-0.345647,43.4343064],[-0.345474,43.4351113],[-0.3448654,43.4354206],[-0.344784,43.435462],[-0.3454916,43.4360799],[-0.3467909,43.4372147],[-0.3482323,43.4384493],[-0.3496143,43.4393121],[-0.3508537,43.4406941],[-0.3513185,43.4416324],[-0.3516449,43.441915],[-0.3531552,43.4423122],[-0.3537743,43.4426813],[-0.3542786,43.4431491],[-0.3551753,43.4436518],[-0.3560292,43.4441168],[-0.3562344,43.4442296],[-0.3572026,43.4431765],[-0.3586155,43.4415545]]]]},"properties":{"name":"Retenue du Balaing","natural":"water"}},
{"type":"Feature","geometry":{"type":"MultiPolygon","coordinates":[[[[-0.3633193,43.4135554],[-0.3631867,43.4133023],[-0.3627142,43.4134363],[-0.3628436,43.4136882],[-0.3633193,43.4135554]]]]},"properties":{"building":"yes","leisure":"pitch","source":"cadastre-dgi-fr source : Direction Générale des Impôts - Cadastre. Mise à jour : 2010;Le ministère de la ville, de la jeunesse et des sports - 2021-04","sport":"equestrian","surface":"sand"}},
{"type":"Feature","geometry":{"type":"MultiPolygon","coordinates":[[[[-0.3456179,43.4094366],[-0.3451346,43.4093734],[-0.3451117,43.4094659],[-0.3455951,43.4095292],[-0.3456179,43.4094366]]]]},"properties":{"building":"yes","leisure":"horse_riding","name":"Centre équestre","source":"cadastre-dgi-fr source : Direction Générale des Impôts - Cadastre. Mise à jour : 2010","sport":"equestrian"}},
{"type":"Feature","geometry":{"type":"MultiPolygon","coordinates":[[[[-0.368913,43.409433],[-0.368816,43.409402],[-0.368791,43.409445],[-0.368888,43.409475],[-0.368913,43.409433]]]]},"properties":{"access":"private","leisure":"swimming_pool","source":"cadastre-dgi-fr source : Direction Générale des Impôts - Cadastre. Mise à jour : 2012"}},
{"type":"Feature","geometry":{"type":"MultiPolygon","coordinates":[[[[-0.372219,43.401404],[-0.372099,43.40138],[-0.372079,43.401422],[-0.372199,43.401449],[-0.372219,43.401404]]]]},"properties":{"access":"private","leisure":"swimming_pool","source":"cadastre-dgi-fr source : Direction Générale des Impôts - Cadastre. Mise à jour : 2012"}},
{"type":"Feature","geometry":{"type":"MultiPolygon","coordinates":[[[[-0.369419,43.412242],[-0.369352,43.412208],[-0.369288,43.412278],[-0.369352,43.412309],[-0.369419,43.412242]]]]},"properties":{"access":"private","leisure":"swimming_pool","source":"cadastre-dgi-fr source : Direction Générale des Impôts - Cadastre. Mise à jour : 2012"}},
{"type":"Feature","geometry":{"type":"MultiPolygon","coordinates":[[[[-0.3682715,43.4124004],[-0.3682137,43.4123673],[-0.3681282,43.4124462],[-0.368186,43.4124792],[-0.3682715,43.4124004]]]]},"properties":{"access":"private","leisure":"swimming_pool","source":"cadastre-dgi-fr source : Direction Générale des Impôts - Cadastre. Mise à jour : 2012"}},
{"type":"Feature","geometry":{"type":"MultiPolygon","coordinates":[[[[-0.36824,43.40987],[-0.368189,43.409842],[-0.36812,43.409909],[-0.368173,43.409937],[-0.36824,43.40987]]]]},"properties":{"access":"private","leisure":"swimming_pool","source":"cadastre-dgi-fr source : Direction Générale des Impôts - Cadastre. Mise à jour : 2012"}},
{"type":"Feature","geometry":{"type":"MultiPolygon","coordinates":[[[[-0.369279,43.412487],[-0.369182,43.412437],[-0.369139,43.412474],[-0.369238,43.412527],[-0.369279,43.412487]]]]},"properties":{"access":"private","leisure":"swimming_pool","source":"cadastre-dgi-fr source : Direction Générale des Impôts - Cadastre. Mise à jour : 2012"}},
{"type":"Feature","geometry":{"type":"MultiPolygon","coordinates":[[[[-0.373028,43.407415],[-0.372984,43.407383],[-0.372898,43.407448],[-0.372942,43.407479],[-0.373028,43.407415]]]]},"properties":{"access":"private","leisure":"swimming_pool","source":"cadastre-dgi-fr source : Direction Générale des Impôts - Cadastre. Mise à jour : 2012"}},
{"type":"Feature","geometry":{"type":"MultiPolygon","coordinates":[[[[-0.374715,43.399825],[-0.374711,43.399806],[-0.374706,43.399798],[-0.374696,43.399789],[-0.374688,43.399782],[-0.374677,43.39978],[-0.374668,43.399777],[-0.374657,43.399779],[-0.37465,43.399782],[-0.374647,43.399787],[-0.374647,43.399792],[-0.374648,43.399796],[-0.374652,43.399802],[-0.374657,43.399804],[-0.374661,43.399808],[-0.374664,43.399813],[-0.374663,43.39982],[-0.374661,43.399826],[-0.374663,43.399835],[-0.374668,43.399842],[-0.374678,43.399846],[-0.374692,43.399848],[-0.374702,43.399845],[-0.374713,43.399836],[-0.374715,43.399825]]]]},"properties":{"access":"private","leisure":"swimming_pool","source":"cadastre-dgi-fr source : Direction Générale des Impôts - Cadastre. Mise à jour : 2012"}},
{"type":"Feature","geometry":{"type":"MultiPolygon","coordinates":[[[[-0.371394,43.401878],[-0.371312,43.401851],[-0.371292,43.401883],[-0.371374,43.40191],[-0.371394,43.401878]]]]},"properties":{"access":"private","leisure":"swimming_pool","source":"cadastre-dgi-fr source : Direction Générale des Impôts - Cadastre. Mise à jour : 2012"}},
{"type":"Feature","geometry":{"type":"MultiPolygon","coordinates":[[[[-0.371452,43.411882],[-0.371318,43.411839],[-0.371288,43.411887],[-0.371422,43.411931],[-0.371452,43.411882]]]]},"properties":{"access":"private","leisure":"swimming_pool","source":"cadastre-dgi-fr source : Direction Générale des Impôts - Cadastre. Mise à jour : 2012"}},
{"type":"Feature","geometry":{"type":"MultiPolygon","coordinates":[[[[-0.365311,43.42252],[-0.365309,43.422515],[-0.365305,43.422512],[-0.365296,43.42251],[-0.365288,43.42251],[-0.365281,43.422512],[-0.365272,43.422517],[-0.365254,43.422534],[-0.365229,43.422555],[-0.365227,43.422561],[-0.365228,43.422566],[-0.365231,43.42257],[-0.365236,43.422574],[-0.365245,43.422576],[-0.365251,43.422576],[-0.365259,43.422574],[-0.365264,43.422572],[-0.365287,43.422552],[-0.365307,43.422535],[-0.36531,43.422528],[-0.365311,43.42252]]]]},"properties":{"natural":"water","source":"cadastre-dgi-fr source : Direction Générale des Impôts - Cadastre. Mise à jour : 2012"}},
{"type":"Feature","geometry":{"type":"MultiPolygon","coordinates":[[[[-0.370273,43.41052],[-0.370233,43.410473],[-0.370119,43.410513],[-0.370157,43.410564],[-0.370273,43.41052]]]]},"properties":{"access":"private","leisure":"swimming_pool","source":"cadastre-dgi-fr source : Direction Générale des Impôts - Cadastre. Mise à jour : 2012"}},
{"type":"Feature","geometry":{"type":"MultiPolygon","coordinates":[[[[-0.370137,43.413242],[-0.370052,43.413193],[-0.370021,43.413222],[-0.370106,43.413271],[-0.370137,43.413242]]]]},"properties":{"access":"private","leisure":"swimming_pool","source":"cadastre-dgi-fr source : Direction Générale des Impôts - Cadastre. Mise à jour : 2012"}},
{"type":"Feature","geometry":{"type":"MultiPolygon","coordinates":[[[[-0.368709,43.403009],[-0.36865,43.402984],[-0.368577,43.403069],[-0.368636,43.403095],[-0.368709,43.403009]]]]},"properties":{"access":"private","leisure":"swimming_pool","source":"cadastre-dgi-fr source : Direction Générale des Impôts - Cadastre. Mise à jour : 2012"}},
{"type":"Feature","geometry":{"type":"MultiPolygon","coordinates":[[[[-0.358124,43.407298],[-0.358039,43.407291],[-0.358034,43.407318],[-0.35812,43.407325],[-0.358124,43.407298]]]]},"properties":{"access":"private","leisure":"swimming_pool","source":"cadastre-dgi-fr source : Direction Générale des Impôts - Cadastre. Mise à jour : 2012"}},
{"type":"Feature","geometry":{"type":"MultiPolygon","coordinates":[[[[-0.368554,43.41143],[-0.368528,43.411352],[-0.368464,43.411362],[-0.368493,43.411441],[-0.368554,43.41143]]]]},"properties":{"access":"private","leisure":"swimming_pool","source":"cadastre-dgi-fr source : Direction Générale des Impôts - Cadastre. Mise à jour : 2012"}},
{"type":"Feature","geometry":{"type":"MultiPolygon","coordinates":[[[[-0.369065,43.406938],[-0.369021,43.406921],[-0.368976,43.406985],[-0.36902,43.407002],[-0.369065,43.406938]]]]},"properties":{"access":"private","leisure":"swimming_pool","source":"cadastre-dgi-fr source : Direction Générale des Impôts - Cadastre. Mise à jour : 2012"}},
{"type":"Feature","geometry":{"type":"MultiPolygon","coordinates":[[[[-0.369085,43.412723],[-0.368979,43.412663],[-0.368936,43.412704],[-0.369043,43.412764],[-0.369085,43.412723]]]]},"properties":{"access":"private","leisure":"swimming_pool","source":"cadastre-dgi-fr source : Direction Générale des Impôts - Cadastre. Mise à jour : 2012"}},
{"type":"Feature","geometry":{"type":"MultiPolygon","coordinates":[[[[-0.373893,43.40456],[-0.373734,43.404511],[-0.373702,43.404566],[-0.373858,43.404619],[-0.373893,43.40456]]]]},"properties":{"access":"private","leisure":"swimming_pool","source":"cadastre-dgi-fr source : Direction Générale des Impôts - Cadastre. Mise à jour : 2012"}},
{"type":"Feature","geometry":{"type":"MultiPolygon","coordinates":[[[[-0.3691685,43.4117318],[-0.3690695,43.4117298],[-0.3690695,43.4117668],[-0.3691675,43.4117678],[-0.3691685,43.4117318]]]]},"properties":{"access":"private","leisure":"swimming_pool","source":"cadastre-dgi-fr source : Direction Générale des Impôts - Cadastre. Mise à jour : 2012"}},
{"type":"Feature","geometry":{"type":"MultiPolygon","coordinates":[[[[-0.370377,43.412502],[-0.37026,43.412437],[-0.370215,43.412481],[-0.370332,43.412545],[-0.370377,43.412502]]]]},"properties":{"access":"private","leisure":"swimming_pool","source":"cadastre-dgi-fr source : Direction Générale des Impôts - Cadastre. Mise à jour : 2012"}},
{"type":"Feature","geometry":{"type":"MultiPolygon","coordinates":[[[[-0.372224,43.39992],[-0.372078,43.399907],[-0.372069,43.399972],[-0.372214,43.399984],[-0.372224,43.39992]]]]},"properties":{"access":"private","leisure":"swimming_pool","source":"cadastre-dgi-fr source : Direction Générale des Impôts - Cadastre. Mise à jour : 2012"}},
{"type":"Feature","geometry":{"type":"MultiPolygon","coordinates":[[[[-0.361609,43.406021],[-0.361529,43.405976],[-0.361493,43.406011],[-0.361574,43.406056],[-0.361609,43.406021]]]]},"properties":{"access":"private","leisure":"swimming_pool","source":"cadastre-dgi-fr source : Direction Générale des Impôts - Cadastre. Mise à jour : 2012"}},
{"type":"Feature","geometry":{"type":"MultiPolygon","coordinates":[[[[-0.3235254,43.4731936],[-0.3235201,43.473143],[-0.3234503,43.4730612],[-0.3228575,43.4729133],[-0.3225759,43.4728763],[-0.3224498,43.4729444],[-0.3224525,43.4730301],[-0.3226536,43.4731371],[-0.3229809,43.4731663],[-0.3231204,43.4732364],[-0.3233484,43.4732851],[-0.3234718,43.4732598],[-0.3235254,43.4731936]]]]},"properties":{"natural":"water","water":"basin"}},
{"type":"Feature","geometry":{"type":"MultiPolygon","coordinates":[[[[-0.3192361,43.4696117],[-0.3188189,43.469207],[-0.3184718,43.4688477],[-0.3180602,43.4685518],[-0.317641,43.4683935],[-0.3173565,43.4683577],[-0.3172579,43.4683824],[-0.3172029,43.4684513],[-0.3172749,43.4686316],[-0.3174608,43.4689978],[-0.3175538,43.4691037],[-0.3176638,43.4691781],[-0.3181285,43.4692497],[-0.3185476,43.4693433],[-0.3189099,43.4695167],[-0.3191603,43.4696791],[-0.3192172,43.4696612],[-0.3192361,43.4696117]]]]},"properties":{"natural":"water","water":"basin"}},
{"type":"Feature","geometry":{"type":"MultiPolygon","coordinates":[[[[-0.3171531,43.4674081],[-0.3171517,43.4673831],[-0.3170416,43.4672426],[-0.3169714,43.4672052],[-0.316909,43.4671609],[-0.3168279,43.4671541],[-0.316793,43.4671461],[-0.3167783,43.4670835],[-0.3167521,43.4670339],[-0.3166971,43.4670198],[-0.3166225,43.4670293],[-0.3165986,43.467048],[-0.3165825,43.4670796],[-0.3165939,43.4671648],[-0.3167005,43.4674407],[-0.3167655,43.4674972],[-0.3168235,43.4675125],[-0.3169533,43.4675021],[-0.317068,43.4674792],[-0.3171327,43.4674505],[-0.3171531,43.4674081]]]]},"properties":{"natural":"water","water":"basin"}},
{"type":"Feature","geometry":{"type":"MultiPolygon","coordinates":[[[[-0.2994577,43.4844261],[-0.2990986,43.4841745],[-0.2982097,43.4848886],[-0.2983977,43.4850056],[-0.2987714,43.4848018],[-0.2990205,43.4847646],[-0.2994577,43.4844261]]]]},"properties":{"natural":"water","water":"basin"}},
{"type":"Feature","geometry":{"type":"MultiPolygon","coordinates":[[[[-0.3720034,43.4319199],[-0.3716688,43.4318389],[-0.3711161,43.4321409],[-0.3713291,43.4325017],[-0.3718158,43.4321887],[-0.3720034,43.4319199]]]]},"properties":{"natural":"water"}},
{"type":"Feature","geometry":{"type":"MultiPolygon","coordinates":[[[[-0.2634481,43.4532286],[-0.2634443,43.4530938],[-0.2634327,43.4530418],[-0.2633903,43.4530033],[-0.2629705,43.4528531],[-0.2629377,43.452855],[-0.2628973,43.4528704],[-0.2617552,43.4539123],[-0.2617378,43.4539605],[-0.2617359,43.4540067],[-0.2618072,43.4541107],[-0.2619131,43.4542051],[-0.2621654,43.4543438],[-0.2622174,43.4543553],[-0.2622733,43.4543418],[-0.2624667,43.4541593],[-0.2634288,43.4532517],[-0.2634481,43.4532286]]]]},"properties":{"natural":"water","source":"Bing"}},
{"type":"Feature","geometry":{"type":"MultiPolygon","coordinates":[[[[-0.2772549,43.4483753],[-0.277229,43.4483062],[-0.2771877,43.4482649],[-0.277133,43.4482333],[-0.2765341,43.4480615],[-0.276487,43.4480605],[-0.2764659,43.448073],[-0.2764438,43.4481181],[-0.276465,43.4481786],[-0.2766157,43.4485817],[-0.2767347,43.4487986],[-0.2767942,43.4489291],[-0.276847,43.4489954],[-0.2768892,43.4490136],[-0.2769334,43.4490107],[-0.2769833,43.4489954],[-0.2770706,43.4489531],[-0.2771378,43.4488831],[-0.2771973,43.4488044],[-0.2772319,43.4487257],[-0.2772501,43.4486066],[-0.2772549,43.4483753]]]]},"properties":{"natural":"water","source":"Bing"}},
{"type":"Feature","geometry":{"type":"MultiPolygon","coordinates":[[[[-0.265284,43.4606127],[-0.2651008,43.4601873],[-0.2646523,43.4593072],[-0.2645324,43.4590145],[-0.2645102,43.4589289],[-0.2644931,43.4588946],[-0.2644811,43.4588792],[-0.2644468,43.4588501],[-0.264392,43.4588398],[-0.2637757,43.4589597],[-0.2637072,43.4589922],[-0.2636798,43.459035],[-0.2636764,43.4590864],[-0.2636901,43.4591395],[-0.2642345,43.4597267],[-0.2642568,43.4597592],[-0.2642756,43.4598294],[-0.2642619,43.4598808],[-0.2642294,43.4599339],[-0.2640085,43.4600178],[-0.2639897,43.46004],[-0.2639897,43.4600725],[-0.2640085,43.4601136],[-0.264291,43.4603961],[-0.2643578,43.4604903],[-0.2644571,43.4606957],[-0.2644862,43.4607351],[-0.2645393,43.4607694],[-0.2646232,43.4607933],[-0.2652584,43.4606615],[-0.2652763,43.4606487],[-0.265284,43.4606358],[-0.265284,43.4606127]]]]},"properties":{"natural":"water","source":"Bing"}},
{"type":"Feature","geometry":{"type":"MultiPolygon","coordinates":[[[[-0.2625318,43.4427815],[-0.2624276,43.4425669],[-0.2619484,43.4426896],[-0.2620526,43.4429042],[-0.2625318,43.4427815]]]]},"properties":{"leisure":"pitch","source":"Bing","sport":"tennis"}},
{"type":"Feature","geometry":{"type":"MultiPolygon","coordinates":[[[[-0.260708,43.4439502],[-0.2603775,43.4430599],[-0.2595508,43.4432216],[-0.2598813,43.444112],[-0.260708,43.4439502]]]]},"properties":{"leisure":"pitch","source":"Bing","sport":"soccer"}},
{"type":"Feature","geometry":{"type":"MultiPolygon","coordinates":[[[[-0.2617215,43.4437765],[-0.261392,43.4427726],[-0.2613608,43.4427489],[-0.2605203,43.4428982],[-0.2604894,43.4429157],[-0.2604814,43.4429381],[-0.2608234,43.4439819],[-0.2610007,43.4439504],[-0.2616577,43.4438379],[-0.2617215,43.4437765]]]]},"properties":{"leisure":"pitch","source":"Bing","sport":"rugby_union"}},
{"type":"Feature","geometry":{"type":"MultiPolygon","coordinates":[[[[-0.3119076,43.5024768],[-0.3105842,43.5018985],[-0.3099636,43.5025871],[-0.3105472,43.5032429],[-0.3107938,43.5036782],[-0.3109541,43.5036454],[-0.3119076,43.5024768]]]]},"properties":{"historic":"archaeological_site","historic:civilization":"western_roman","name":"Villa gallo-romaine de Lalonquette","source":"Bing","website":"http://www.villa-gallo-romaine-de-lalonquette.fr/"}},
{"type":"Feature","geometry":{"type":"MultiPolygon","coordinates":[[[[-0.3575133,43.4715845],[-0.3575068,43.4714986],[-0.3574567,43.4714877],[-0.3572631,43.4715185],[-0.3566749,43.4715831],[-0.355733,43.4714032],[-0.3555178,43.4713878],[-0.3550525,43.4713545],[-0.3548445,43.4713396],[-0.3541963,43.4713456],[-0.3541968,43.4714249],[-0.3542223,43.4714822],[-0.3542761,43.4716035],[-0.354368,43.4717448],[-0.3545242,43.4718487],[-0.3551343,43.4720065],[-0.3554383,43.4721495],[-0.3556636,43.4722137],[-0.3560633,43.4723149],[-0.3567016,43.4724454],[-0.3572153,43.4725368],[-0.3572689,43.4724921],[-0.3573226,43.47242],[-0.3574391,43.471917],[-0.3575133,43.4715845]]]]},"properties":{"natural":"water","source":"Bing ; cadastre-dgi-fr source : Direction Générale des Impôts - Cadastre. Mise à jour : 2013"}},
{"type":"Feature","geometry":{"type":"MultiPolygon","coordinates":[[[[-0.3423515,43.4742508],[-0.3418195,43.4737265],[-0.3407302,43.4743086],[-0.3412622,43.4748329],[-0.3423515,43.4742508]]]]},"properties":{"leisure":"pitch","source":"Bing ; cadastre-dgi-fr source : Direction Générale des Impôts - Cadastre. Mise à jour : 2013","sport":"rugby_union"}},
{"type":"Feature","geometry":{"type":"MultiPolygon","coordinates":[[[[-0.2727946,43.4906985],[-0.2727016,43.4905742],[-0.27208,43.4904606],[-0.2718744,43.4905209],[-0.2716639,43.4907802],[-0.2714633,43.4911139],[-0.2711745,43.4914513],[-0.2711794,43.4915614],[-0.271385,43.4916146],[-0.2716786,43.4914726],[-0.272217,43.4914264],[-0.2724813,43.4909435],[-0.2726135,43.4909577],[-0.2727946,43.4906985]]]]},"properties":{"natural":"water","source":"Bing ; cadastre-dgi-fr source : Direction Générale des Impôts - Cadastre. Mise à jour : 2013"}},
{"type":"Feature","geometry":{"type":"MultiPolygon","coordinates":[[[[-0.2797549,43.4626981],[-0.2796906,43.4626765],[-0.2793836,43.4627717],[-0.2793124,43.4628573],[-0.2793455,43.4630202],[-0.2793604,43.4630975],[-0.2794128,43.4631761],[-0.2794737,43.4631852],[-0.2795566,43.4631706],[-0.2797506,43.4630612],[-0.2797549,43.4626981]]]]},"properties":{"natural":"water","source":"Bing ; cadastre-dgi-fr source : Direction Générale des Impôts - Cadastre. Mise à jour : 2013"}},
{"type":"Feature","geometry":{"type":"MultiPolygon","coordinates":[[[[-0.2744159,43.4278974],[-0.2743056,43.4276155],[-0.2742218,43.4275579],[-0.272934,43.4271127],[-0.2728237,43.4272472],[-0.2728899,43.4273785],[-0.2731942,43.4275098],[-0.2733882,43.4277437],[-0.2736617,43.4278782],[-0.273719,43.4279807],[-0.2738249,43.4280191],[-0.2743673,43.4279583],[-0.2744159,43.4278974]]]]},"properties":{"natural":"water","source":"Bing ; cadastre-dgi-fr source : Direction Générale des Impôts - Cadastre. Mise à jour : 2013","water":"reservoir"}},
{"type":"Feature","geometry":{"type":"MultiPolygon","coordinates":[[[[-0.2753274,43.4283614],[-0.2752135,43.4278563],[-0.2751652,43.4278212],[-0.2749157,43.4277906],[-0.2748907,43.4278053],[-0.2748892,43.4280873],[-0.2749266,43.4283987],[-0.2749765,43.4285437],[-0.2750732,43.4286207],[-0.275173,43.4286286],[-0.2752073,43.4285516],[-0.2752977,43.4284236],[-0.2753274,43.4283614]]]]},"properties":{"natural":"water","source":"Bing ; cadastre-dgi-fr source : Direction Générale des Impôts - Cadastre. Mise à jour : 2013"}},
{"type":"Feature","geometry":{"type":"MultiPolygon","coordinates":[[[[-0.2728715,43.425708],[-0.2727259,43.4256343],[-0.2725142,43.4256663],[-0.2723025,43.4263101],[-0.2727039,43.4263133],[-0.27277,43.4262877],[-0.2728715,43.425708]]]]},"properties":{"natural":"water","source":"Bing ; cadastre-dgi-fr source : Direction Générale des Impôts - Cadastre. Mise à jour : 2013"}},
{"type":"Feature","geometry":{"type":"MultiPolygon","coordinates":[[[[-0.2724447,43.4074427],[-0.2721225,43.4072277],[-0.2719721,43.4073467],[-0.2722943,43.4075617],[-0.2724447,43.4074427]]]]},"properties":{"leisure":"pitch","source":"Bing ; cadastre-dgi-fr source : Direction Générale des Impôts - Cadastre. Mise à jour : 2013","sport":"tennis"}},
{"type":"Feature","geometry":{"type":"MultiPolygon","coordinates":[[[[-0.3241247,43.494545],[-0.3240991,43.4945359],[-0.3240803,43.4945294],[-0.3241076,43.4944884],[-0.3240352,43.494463],[-0.3239506,43.4945899],[-0.3240285,43.4946172],[-0.3240566,43.4945752],[-0.3240731,43.494581],[-0.3240955,43.4945888],[-0.3241247,43.494545]]]]},"properties":{"building":"yes","information":"office","name":"Office du Tourisme","source":"cadastre-dgi-fr source : Direction Générale des Finances Publiques - Cadastre. Mise à jour : 2013","tourism":"information"}},
{"type":"Feature","geometry":{"type":"MultiPolygon","coordinates":[[[[-0.346328,43.474651],[-0.345976,43.474336],[-0.345909,43.474372],[-0.345883,43.474347],[-0.345848,43.474363],[-0.34582,43.474338],[-0.345655,43.474433],[-0.345714,43.474492],[-0.345667,43.474516],[-0.346024,43.474829],[-0.346328,43.474651]]]]},"properties":{"building":"yes","leisure":"sports_centre","source":"data.gouv.fr:Le ministère des droits des femmes, de la ville, de la jeunesse et des sports - 11/2015","sport":"multi","surface":"concrete"}},
{"type":"Feature","geometry":{"type":"MultiPolygon","coordinates":[[[[-0.348503,43.4760326],[-0.348433,43.4759686],[-0.3481487,43.4761309],[-0.348214,43.4761948],[-0.348322,43.4761306],[-0.348336,43.4761346],[-0.348375,43.4761146],[-0.348377,43.4761026],[-0.348458,43.4760556],[-0.348503,43.4760326]]]]},"properties":{"amenity":"townhall","building":"yes","heritage":"3","heritage:operator":"mhs","historic":"castle","mhs:inscription_date":"1960-08-01","name":"Château de Fanget","ref:mhs":"PA00084534","source":"cadastre-dgi-fr source : Direction Générale des Finances Publiques - Cadastre. Mise à jour : 2013","source:heritage":"data.gouv.fr, Ministère de la Culture - 2016","start_date":"C17","wikidata":"Q22920864"}},
{"type":"Feature","geometry":{"type":"MultiPolygon","coordinates":[[[[-0.3458927,43.4748462],[-0.3456345,43.4745884],[-0.345443,43.4746894],[-0.3457013,43.4749472],[-0.3458927,43.4748462]]]]},"properties":{"leisure":"pitch","sport":"tennis"}},
{"type":"Feature","geometry":{"type":"MultiPolygon","coordinates":[[[[-0.3753263,43.4505902],[-0.3751653,43.4503915],[-0.3747898,43.4501735],[-0.3746021,43.4502903],[-0.3745439,43.4506717],[-0.3746404,43.4507107],[-0.3753263,43.4505902]]]]},"properties":{"natural":"water"}},
{"type":"Feature","geometry":{"type":"MultiPolygon","coordinates":[[[[-0.2796332,43.4675621],[-0.2792932,43.4670143],[-0.2795185,43.46659],[-0.2795148,43.4665893],[-0.2791645,43.4665277],[-0.2788265,43.4662006],[-0.2775283,43.466477],[-0.2775498,43.4670377],[-0.2770455,43.4671],[-0.2772118,43.4676528],[-0.2787782,43.4676528],[-0.2788523,43.468077],[-0.2790411,43.4684103],[-0.2794574,43.4683591],[-0.279411,43.4676328],[-0.2796332,43.4675621]]]]},"properties":{"natural":"heath"}},
{"type":"Feature","geometry":{"type":"MultiPolygon","coordinates":[[[[-0.2792932,43.4660507],[-0.2790947,43.46571],[-0.2790009,43.4656945],[-0.2788828,43.4657334],[-0.2791511,43.4660643],[-0.2792208,43.466078],[-0.2792932,43.4660507]]]]},"properties":{"natural":"water"}},
{"type":"Feature","geometry":{"type":"MultiPolygon","coordinates":[[[[-0.2766645,43.4631637],[-0.2765519,43.4628989],[-0.2760853,43.4631072],[-0.2757634,43.46308],[-0.2757257,43.463115],[-0.2763508,43.4632883],[-0.2764768,43.4632766],[-0.2766645,43.4631637]]]]},"properties":{"natural":"water"}},
{"type":"Feature","geometry":{"type":"MultiPolygon","coordinates":[[[[-0.3453956,43.4067371],[-0.3453902,43.4066377],[-0.3452883,43.4065871],[-0.3451783,43.4065773],[-0.3451118,43.4066211],[-0.3452025,43.4068696],[-0.3452749,43.4068404],[-0.3453956,43.4067371]]]]},"properties":{"natural":"water"}},
{"type":"Feature","geometry":{"type":"MultiPolygon","coordinates":[[[[-0.2709357,43.5107637],[-0.2708749,43.5105612],[-0.2706993,43.5105775],[-0.2705628,43.5106403],[-0.2706265,43.5108805],[-0.2709357,43.5107637]]]]},"properties":{"natural":"water"}},
{"type":"Feature","geometry":{"type":"MultiPolygon","coordinates":[[[[-0.3101852,43.4878957],[-0.3099285,43.4873674],[-0.3097306,43.4873216],[-0.3093223,43.4874071],[-0.3092845,43.4874865],[-0.309457,43.4878377],[-0.309718,43.4882469],[-0.3101642,43.4881461],[-0.3101852,43.4878957]]]]},"properties":{"natural":"water"}},
{"type":"Feature","geometry":{"type":"MultiPolygon","coordinates":[[[[-0.3257202,43.489542899999999],[-0.3255498,43.4893937],[-0.3254501,43.4891877],[-0.3254409,43.4890775],[-0.3253856,43.4890385],[-0.3252705,43.4890664],[-0.3252352,43.4891198],[-0.3252567,43.4891766],[-0.3253242,43.489338],[-0.3253767,43.4896617],[-0.3254255,43.4896966],[-0.325668,43.4896732],[-0.3257186,43.4895986],[-0.3257202,43.489542899999999]]]]},"properties":{"natural":"water"}},
{"type":"Feature","geometry":{"type":"MultiPolygon","coordinates":[[[[-0.3705214,43.4134617],[-0.3705173,43.4134534],[-0.3705108,43.4134486],[-0.370501,43.4134445],[-0.3704921,43.4134463],[-0.3704587,43.4134776],[-0.3704603,43.4134829],[-0.3704636,43.4134895],[-0.3704742,43.413496],[-0.3704856,43.4134983],[-0.3704929,43.413496],[-0.3705206,43.4134693],[-0.3705214,43.4134617]]]]},"properties":{"leisure":"swimming_pool"}},
{"type":"Feature","geometry":{"type":"MultiPolygon","coordinates":[[[[-0.3704479,43.4114626],[-0.3704412,43.411449],[-0.3704292,43.4114431],[-0.3703232,43.4114383],[-0.3703192,43.4114987],[-0.3703447,43.4115006],[-0.370346,43.4114899],[-0.3704305,43.4114909],[-0.3704439,43.4114772],[-0.3704479,43.4114626]]]]},"properties":{"leisure":"swimming_pool"}},
{"type":"Feature","geometry":{"type":"MultiPolygon","coordinates":[[[[-0.3682342,43.4114178],[-0.3682209,43.4113777],[-0.3681259,43.4114097],[-0.3681524,43.4114547],[-0.3681789,43.4114467],[-0.3681745,43.4114322],[-0.3682342,43.4114178]]]]},"properties":{"leisure":"swimming_pool"}},
{"type":"Feature","geometry":{"type":"MultiPolygon","coordinates":[[[[-0.3680508,43.4110503],[-0.3680155,43.4110166],[-0.3679293,43.4110583],[-0.3679735,43.4111],[-0.3680508,43.4110503]]]]},"properties":{"leisure":"swimming_pool"}},
{"type":"Feature","geometry":{"type":"MultiPolygon","coordinates":[[[[-0.3687168,43.4121698],[-0.3686624,43.4121365],[-0.3685772,43.4122099],[-0.3686316,43.4122432],[-0.3687168,43.4121698]]]]},"properties":{"leisure":"swimming_pool"}},
{"type":"Feature","geometry":{"type":"MultiPolygon","coordinates":[[[[-0.3715773,43.4017773],[-0.3715749,43.4017725],[-0.3715701,43.4017686],[-0.371562,43.4017684],[-0.3715548,43.4017699],[-0.3715494,43.4017721],[-0.371544,43.4017736],[-0.3715368,43.4017769],[-0.3715287,43.4017834],[-0.3715251,43.4017882],[-0.3715218,43.4017926],[-0.3715197,43.4017987],[-0.3715179,43.4018039],[-0.3715194,43.40181],[-0.3715245,43.4018148],[-0.3715317,43.4018179],[-0.3715428,43.40182],[-0.3715533,43.4018174],[-0.3715593,43.4018109],[-0.3715608,43.4018028],[-0.3715626,43.4017956],[-0.3715602,43.4017928],[-0.3715623,43.4017876],[-0.3715665,43.4017841],[-0.3715734,43.4017819],[-0.3715773,43.4017773]]]]},"properties":{"leisure":"swimming_pool"}},
{"type":"Feature","geometry":{"type":"MultiPolygon","coordinates":[[[[-0.3739203,43.4066615],[-0.373905,43.4066244],[-0.3737958,43.4066501],[-0.3737994,43.4066573],[-0.3737946,43.4066599],[-0.3737907,43.4066625],[-0.3737862,43.4066669],[-0.3737865,43.4066721],[-0.3737904,43.4066767],[-0.3737949,43.4066789],[-0.3738012,43.4066791],[-0.3738066,43.4066785],[-0.3738105,43.4066867],[-0.3739203,43.4066615]]]]},"properties":{"leisure":"swimming_pool"}},
{"type":"Feature","geometry":{"type":"MultiPolygon","coordinates":[[[[-0.3738879,43.4061843],[-0.3738839,43.4061732],[-0.373879,43.4061721],[-0.373873,43.4061711],[-0.373872,43.4061678],[-0.3738745,43.4061632],[-0.37388,43.406161],[-0.3738745,43.4061499],[-0.3737806,43.4061718],[-0.3737925,43.4062037],[-0.3738004,43.4062045],[-0.3738038,43.4062095],[-0.3738197,43.406207],[-0.3738187,43.4061983],[-0.3738879,43.4061843]]]]},"properties":{"leisure":"swimming_pool"}},
{"type":"Feature","geometry":{"type":"MultiPolygon","coordinates":[[[[-0.3690428,43.4080599],[-0.3689894,43.4080478],[-0.3689542,43.40813],[-0.3690077,43.4081421],[-0.3690428,43.4080599]]]]},"properties":{"leisure":"swimming_pool"}},
{"type":"Feature","geometry":{"type":"MultiPolygon","coordinates":[[[[-0.3314011,43.4997168],[-0.3311979,43.4987476],[-0.3303747,43.4988384],[-0.3305779,43.4998076],[-0.3314011,43.4997168]]]]},"properties":{"leisure":"pitch","sport":"soccer"}},
{"type":"Feature","geometry":{"type":"MultiPolygon","coordinates":[[[[-0.331764,43.5079009],[-0.33173,43.5078071],[-0.3315343,43.507698],[-0.3313725,43.5077554],[-0.3313434,43.5078446],[-0.3314874,43.5080698],[-0.3315812,43.5080734],[-0.3317203,43.5080241],[-0.331764,43.5079009]]]]},"properties":{"natural":"water","water":"pond"}},
{"type":"Feature","geometry":{"type":"MultiPolygon","coordinates":[[[[-0.3205872,43.4945329],[-0.3197026,43.4944853],[-0.3194051,43.4943115],[-0.3191848,43.494667],[-0.3202897,43.4949841],[-0.3205215,43.4949589],[-0.3205872,43.4945329]]]]},"properties":{"natural":"heath"}},
{"type":"Feature","geometry":{"type":"MultiPolygon","coordinates":[[[[-0.3384619,43.4234554],[-0.3380313,43.4235463],[-0.3376104,43.4236074],[-0.337531,43.4236703],[-0.3376849,43.4238258],[-0.3377523,43.4238485],[-0.3380842,43.4237245],[-0.3382502,43.4236057],[-0.3384619,43.4234554]]]]},"properties":{"natural":"water"}},
{"type":"Feature","geometry":{"type":"MultiPolygon","coordinates":[[[[-0.3419005,43.4155965],[-0.34187,43.4155616],[-0.3416995,43.4156404],[-0.3417301,43.4156753],[-0.3419005,43.4155965]]]]},"properties":{"boules":"petanque","leisure":"pitch","source":"data.gouv.fr:Le ministère des droits des femmes, de la ville, de la jeunesse et des sports - 2014","sport":"boules","surface":"sand"}},
{"type":"Feature","geometry":{"type":"MultiPolygon","coordinates":[[[[-0.3410268,43.416091],[-0.3410047,43.4158842],[-0.3408492,43.415893],[-0.3408713,43.4160998],[-0.3410268,43.416091]]]]},"properties":{"leisure":"pitch","source":"data.gouv.fr:Le ministère des droits des femmes, de la ville, de la jeunesse et des sports - 2014","sport":"multi"}},
{"type":"Feature","geometry":{"type":"MultiPolygon","coordinates":[[[[-0.2996778,43.4689372],[-0.2995332,43.4686266],[-0.2993184,43.4686793],[-0.299463,43.4689899],[-0.2996778,43.4689372]]]]},"properties":{"leisure":"pitch","lit":"no","sport":"tennis","surface":"asphalt"}},
{"type":"Feature","geometry":{"type":"MultiPolygon","coordinates":[[[[-0.2818854,43.4137526],[-0.2814389,43.4132739],[-0.2810286,43.4134758],[-0.281475,43.4139546],[-0.2818854,43.4137526]]]]},"properties":{"leisure":"pitch","sport":"soccer"}},
{"type":"Feature","geometry":{"type":"MultiPolygon","coordinates":[[[[-0.2725342,43.4075016],[-0.2724585,43.4074512],[-0.27232460000000005,43.4075576],[-0.2724003,43.4076079],[-0.2725342,43.4075016]]]]},"properties":{"boules":"petanque","leisure":"pitch","source":"data.gouv.fr:Le ministère des droits des femmes, de la ville, de la jeunesse et des sports - 2014","sport":"boules"}},
{"type":"Feature","geometry":{"type":"MultiPolygon","coordinates":[[[[-0.2715844,43.4065251],[-0.271471,43.4064427],[-0.2712633,43.4065936],[-0.2713767,43.406676],[-0.2715844,43.4065251]]]]},"properties":{"leisure":"pitch","source":"data.gouv.fr:Le ministère des droits des femmes, de la ville, de la jeunesse et des sports - 2014","sport":"basketball","surface":"asphalt"}},
{"type":"Feature","geometry":{"type":"MultiPolygon","coordinates":[[[[-0.36720970000000005,43.4933408],[-0.3670349,43.4931572],[-0.3668941,43.4932277],[-0.3670689,43.4934113],[-0.36720970000000005,43.4933408]]]]},"properties":{"leisure":"pitch","sport":"basketball","surface":"asphalt"}},
{"type":"Feature","geometry":{"type":"MultiPolygon","coordinates":[[[[-0.371549,43.5131397],[-0.3715208,43.5130755],[-0.3714243,43.5129996],[-0.3713129,43.5129471],[-0.3713089,43.5129967],[-0.371325,43.5130473],[-0.3712834,43.5130492],[-0.3712204,43.5129597],[-0.3711332,43.5128469],[-0.37103,43.5128265],[-0.3709857,43.5128479],[-0.3709562,43.5129033],[-0.3709026,43.512916],[-0.3709026,43.5129665],[-0.3709321,43.513021],[-0.3709871,43.5130726],[-0.3710434,43.5131416],[-0.3711346,43.513197],[-0.3711587,43.5132321],[-0.3711963,43.5132953],[-0.3712553,43.5133196],[-0.3713518,43.5132778],[-0.3714243,43.5132564],[-0.3714457,43.5132515],[-0.3714631,43.5131893],[-0.3714672,43.5131601],[-0.371549,43.5131397]]]]},"properties":{"natural":"water"}},
{"type":"Feature","geometry":{"type":"MultiPolygon","coordinates":[[[[-0.281854,43.4497791],[-0.2814168,43.4465388],[-0.2808723,43.4466479],[-0.2811137,43.4470782],[-0.2812908,43.4487432],[-0.2815027,43.4499427],[-0.281854,43.4497791]]]]},"properties":{"aeroway":"airstrip","leisure":"sports_centre","local_ref":"LF6456","name":"Base ULM de Sévignacq","sport":"ultralight_aviation"}},
{"type":"Feature","geometry":{"type":"MultiPolygon","coordinates":[[[[-0.2916845,43.4935771],[-0.2916023,43.4934748],[-0.2915427,43.4934055],[-0.2909392,43.4935825],[-0.2908375,43.4935944],[-0.2907517,43.4936236],[-0.2841266,43.4959274],[-0.2838852,43.4963087],[-0.2916845,43.4935771]]]]},"properties":{"aeroway":"airstrip","leisure":"sports_centre","local_ref":"LF6429","name":"Base ULM de Claracq-Villa les Palmiers","sport":"ultralight_aviation"}},
{"type":"Feature","geometry":{"type":"MultiPolygon","coordinates":[[[[-0.3631326,43.4055159],[-0.3630397,43.4054569],[-0.363031,43.4054636],[-0.3630262,43.4054621],[-0.3630234,43.4054618],[-0.3630211,43.4054616],[-0.3630188,43.4054618],[-0.3630156,43.4054623],[-0.3630125,43.4054634],[-0.363009,43.4054653],[-0.3630065,43.4054671],[-0.3630051,43.405469],[-0.3630041,43.4054708],[-0.3630034,43.4054728],[-0.3630029,43.4054747],[-0.363003,43.4054768],[-0.3630036,43.4054793],[-0.3630047,43.4054813],[-0.363006,43.405483],[-0.3630071,43.4054838],[-0.362999,43.4054907],[-0.363092,43.4055497],[-0.3631326,43.4055159]]]]},"properties":{"access":"no","leisure":"swimming_pool"}},
{"type":"Feature","geometry":{"type":"MultiPolygon","coordinates":[[[[-0.3486498,43.4762674],[-0.3484951,43.4761257],[-0.3482317,43.4762772],[-0.3483864,43.4764189],[-0.3486498,43.4762674]]]]},"properties":{"leisure":"pitch","source":"data.gouv.fr:Le ministère des droits des femmes, de la ville, de la jeunesse et des sports - 11/2015","sport":"handball","surface":"asphalt"}},
{"type":"Feature","geometry":{"type":"MultiPolygon","coordinates":[[[[-0.270136,43.4987251],[-0.2701092,43.498694],[-0.2697793,43.4986298],[-0.2696827,43.498657],[-0.2696452,43.498838],[-0.2696452,43.4989313],[-0.2696995,43.4989353],[-0.2698597,43.4988808],[-0.2700877,43.4987835],[-0.270136,43.4987251]]]]},"properties":{"natural":"water"}},
{"type":"Feature","geometry":{"type":"MultiPolygon","coordinates":[[[[-0.2998056,43.5107137],[-0.2996836,43.5107103],[-0.2996802,43.5107756],[-0.2998021,43.5107789],[-0.2998056,43.5107137]]]]},"properties":{"access":"private","leisure":"swimming_pool","source":"esri"}},
{"type":"Feature","geometry":{"type":"MultiPolygon","coordinates":[[[[-0.3750735,43.4036674],[-0.3749753,43.4036602],[-0.3749707,43.4036962],[-0.375069,43.403703],[-0.3750735,43.4036674]]]]},"properties":{"leisure":"swimming_pool"}},
{"type":"Feature","geometry":{"type":"MultiPolygon","coordinates":[[[[-0.3038353,43.5088689],[-0.303787,43.5087833],[-0.3037548,43.5087132],[-0.3036743,43.5086393],[-0.3035832,43.5085848],[-0.3034598,43.5085615],[-0.3033632,43.5085771],[-0.3032774,43.5085926],[-0.3031755,43.5086243],[-0.3031111,43.5087093],[-0.3030253,43.5087988],[-0.3030038,43.5088766],[-0.3030145,43.5089389],[-0.303095,43.5089973],[-0.3031862,43.5090284],[-0.3033096,43.5090751],[-0.3034115,43.5090906],[-0.3035617,43.5090673],[-0.3036052,43.5090294],[-0.3037602,43.5089467],[-0.3038353,43.5088689]]]]},"properties":{"historic":"archaeological_site","name":"Motte castrale"}},
{"type":"Feature","geometry":{"type":"MultiPolygon","coordinates":[[[[-0.3161217,43.4546931],[-0.3159261,43.4545173],[-0.3157601,43.4546146],[-0.3159557,43.4547904],[-0.3161217,43.4546931]]]]},"properties":{"leisure":"pitch","sport":"multi"}},
{"type":"Feature","geometry":{"type":"MultiPolygon","coordinates":[[[[-0.2803875,43.4836305],[-0.2803633,43.48329],[-0.2801473,43.4832981],[-0.2801715,43.4836386],[-0.2803538,43.4836318],[-0.2803875,43.4836305]]]]},"properties":{"leisure":"pitch","source":"Le ministère de la ville, de la jeunesse et des sports - 01/2018","sport":"pelota;tennis","surface":"asphalt"}},
{"type":"Feature","geometry":{"type":"MultiPolygon","coordinates":[[[[-0.2915219,43.4360369],[-0.2914502,43.4358782],[-0.2912879,43.4359157],[-0.2913375,43.4360808],[-0.2915219,43.4360369]]]]},"properties":{"boules":"petanque","leisure":"pitch","source":"Le ministère de la ville, de la jeunesse et des sports - 01/2018","sport":"boules"}},
{"type":"Feature","geometry":{"type":"MultiPolygon","coordinates":[[[[-0.3361353,43.5083776],[-0.3360533,43.5082818],[-0.3358395,43.5083781],[-0.3359215,43.5084739],[-0.3361353,43.5083776]]]]},"properties":{"access":"yes","leisure":"pitch","lit":"yes","sport":"multi"}},
{"type":"Feature","geometry":{"type":"MultiPolygon","coordinates":[[[[-0.3686024,43.4942623],[-0.3684373,43.494167],[-0.3682629,43.4943259],[-0.3684281,43.4944212],[-0.3686024,43.4942623]]]]},"properties":{"leisure":"pitch","sport":"boules"}},
{"type":"Feature","geometry":{"type":"MultiPolygon","coordinates":[[[[-0.3469887,43.4453802],[-0.3468277,43.4452663],[-0.3465313,43.4454872],[-0.3466923,43.4456011],[-0.3469887,43.4453802]]]]},"properties":{"leisure":"pitch","sport":"tennis"}},
{"type":"Feature","geometry":{"type":"MultiPolygon","coordinates":[[[[-0.3289649,43.3995189],[-0.3289622,43.3995033],[-0.3288133,43.3993942],[-0.3286269,43.3992149],[-0.3281696,43.3995374],[-0.3284821,43.3997118],[-0.3286698,43.3997216],[-0.328702,43.3997108],[-0.3289649,43.3995189]]]]},"properties":{"leisure":"park"}},
{"type":"Feature","geometry":{"type":"MultiPolygon","coordinates":[[[[-0.3650728,43.4136035],[-0.3650647,43.4128358],[-0.3643137,43.4122318],[-0.3639489,43.4121616],[-0.3636324,43.4121285],[-0.3635252,43.4118967],[-0.3631389,43.412072],[-0.3623852,43.4124578],[-0.3620365,43.4126838],[-0.3614008,43.4133775],[-0.3611112,43.4136288],[-0.3647482,43.4143945],[-0.3648609,43.4141997],[-0.3650165,43.4138431],[-0.3650728,43.4136035]]]]},"properties":{"leisure":"horse_riding","name":"Écuries des Pyrénées"}},
{"type":"Feature","geometry":{"type":"MultiPolygon","coordinates":[[[[-0.3629096,43.4133112],[-0.3628345,43.4131933],[-0.3627527,43.4130793],[-0.3627084,43.4130677],[-0.3625931,43.4130716],[-0.3625086,43.4131222],[-0.3624737,43.4131631],[-0.3625515,43.4133307],[-0.3626186,43.4134154],[-0.3626923,43.4134223],[-0.3627956,43.4134008],[-0.3628694,43.4133648],[-0.3629096,43.4133112]]]]},"properties":{"leisure":"pitch","source":"Le ministère de la ville, de la jeunesse et des sports - 2021-04","sport":"equestrian","surface":"sand"}},
{"type":"Feature","geometry":{"type":"MultiPolygon","coordinates":[[[[-0.3636472,43.4128465],[-0.3635788,43.4127764],[-0.3635037,43.4127618],[-0.3633776,43.4127871],[-0.3630155,43.412865],[-0.3629552,43.4129089],[-0.3629324,43.4129663],[-0.3629525,43.4130657],[-0.3629901,43.4131446],[-0.3630665,43.4131953],[-0.3632207,43.4131943],[-0.3634688,43.4131622],[-0.3635761,43.4131368],[-0.3636177,43.4130862],[-0.3636472,43.4128465]]]]},"properties":{"leisure":"pitch","source":"Le ministère de la ville, de la jeunesse et des sports - 2021-04","sport":"equestrian","surface":"sand"}},
{"type":"Feature","geometry":{"type":"MultiPolygon","coordinates":[[[[-0.3406942,43.4741952],[-0.3406915,43.4741709],[-0.3405601,43.4740444],[-0.3405333,43.4740347],[-0.340438,43.4740843],[-0.3404367,43.4741077],[-0.3405748,43.47424],[-0.3405963,43.4742439],[-0.3406942,43.4741952]]]]},"properties":{"leisure":"pitch","sport":"multi"}},
{"type":"Feature","geometry":{"type":"MultiPolygon","coordinates":[[[[-0.3208539,43.4040147],[-0.3208405,43.4039212],[-0.3206527,43.4039036],[-0.320591,43.4038393],[-0.3205508,43.4037516],[-0.3204569,43.4036659],[-0.3203711,43.4036698],[-0.3203282,43.4037419],[-0.320363,43.4038237],[-0.320347,43.4039095],[-0.3202638,43.4039835],[-0.3201002,43.4040654],[-0.3199688,43.4040634],[-0.3198615,43.4040459],[-0.3198507,43.4040926],[-0.320017,43.4041647],[-0.3202933,43.4042135],[-0.3203979,43.4042349],[-0.3205588,43.4042505],[-0.3206572,43.4042188],[-0.3208539,43.4040147]]]]},"properties":{"natural":"water"}},
{"type":"Feature","geometry":{"type":"MultiPolygon","coordinates":[[[[-0.3278933,43.4402559],[-0.32778,43.4401754],[-0.3277733,43.4401707],[-0.3276533,43.4402598],[-0.3277733,43.440345],[-0.3278933,43.4402559]]]]},"properties":{"leisure":"pitch","sport":"basketball"}},
{"type":"Feature","geometry":{"type":"MultiPolygon","coordinates":[[[[-0.3276104,43.4399292],[-0.3275125,43.4398854],[-0.3274843,43.4398912],[-0.327369,43.4400354],[-0.3273743,43.44005],[-0.3274696,43.4400948],[-0.327487,43.4400928],[-0.327609,43.4399536],[-0.3276104,43.4399292]]]]},"properties":{"leisure":"pitch","sport":"multi"}},
{"type":"Feature","geometry":{"type":"MultiPolygon","coordinates":[[[[-0.3268352,43.4398835],[-0.3267829,43.4398357],[-0.3267548,43.4398377],[-0.3265938,43.4400266],[-0.3265844,43.4400811],[-0.3265858,43.4401337],[-0.3266662,43.4401921],[-0.3267387,43.4401882],[-0.3267132,43.4400344],[-0.3268352,43.4398835]]]]},"properties":{"boules":"petanque","leisure":"pitch","source":"Le ministère de la ville, de la jeunesse et des sports - 2021-04","sport":"boules","surface":"sand"}},
{"type":"Feature","geometry":{"type":"MultiPolygon","coordinates":[[[[-0.3281979,43.4405204],[-0.3279879,43.440356],[-0.3278727,43.4404335],[-0.3280827,43.440598],[-0.3281979,43.4405204]]]]},"properties":{"access":"private","leisure":"pitch","source":"Le ministère de la ville, de la jeunesse et des sports - 2021-04","sport":"handball","surface":"asphalt"}},
{"type":"Feature","geometry":{"type":"MultiPolygon","coordinates":[[[[-0.3669762,43.4643647],[-0.3666928,43.4643425],[-0.3666025,43.4642291],[-0.3665346,43.4643445],[-0.3664899,43.4644327],[-0.3665228,43.4644358],[-0.3668962,43.4644708],[-0.3669762,43.4643647]]]]},"properties":{"leisure":"pitch","sport":"boules"}},
{"type":"Feature","geometry":{"type":"MultiPolygon","coordinates":[[[[-0.346683,43.4450796],[-0.3465714,43.4449966],[-0.346463,43.4450735],[-0.3465746,43.4451565],[-0.346683,43.4450796]]]]},"properties":{"leisure":"pitch","sport":"boules"}},
{"type":"Feature","geometry":{"type":"MultiPolygon","coordinates":[[[[-0.327763,43.4401597],[-0.3276895,43.4401105],[-0.3275228,43.4402413],[-0.3275986,43.440276],[-0.327763,43.4401597]]]]},"properties":{"leisure":"playground"}},
{"type":"Feature","geometry":{"type":"MultiPolygon","coordinates":[[[[-0.2944176,43.4615843],[-0.2942311,43.4613606],[-0.2942096,43.4613204],[-0.2941326,43.461279],[-0.2939662,43.4610039],[-0.293826,43.4609156],[-0.2935102,43.4609134],[-0.2933561,43.4609469],[-0.2933361,43.4610185],[-0.2935518,43.4613416],[-0.2938938,43.4617889],[-0.2939277,43.4618045],[-0.2944037,43.46161],[-0.2944176,43.4615843]]]]},"properties":{"natural":"water","water":"pond"}},
{"type":"Feature","geometry":{"type":"MultiPolygon","coordinates":[[[[-0.2945547,43.4619331],[-0.2945393,43.4617732],[-0.2945084,43.4617252],[-0.2944792,43.461714],[-0.2941403,43.4617598],[-0.2941125,43.4617889],[-0.2939184,43.4618604],[-0.2938999,43.4619119],[-0.2939246,43.4619544],[-0.294168,43.4621512],[-0.2942804,43.4621612],[-0.2943914,43.4621456],[-0.29449,43.4620751],[-0.2945547,43.4619331]]]]},"properties":{"natural":"water","water":"pond"}},
{"type":"Feature","geometry":{"type":"MultiPolygon","coordinates":[[[[-0.3707752,43.4116263],[-0.3706883,43.4116242],[-0.370688,43.4116561],[-0.3707744,43.4116584],[-0.3707752,43.4116263]]]]},"properties":{"leisure":"swimming_pool"}},
{"type":"Feature","geometry":{"type":"MultiPolygon","coordinates":[[[[-0.3714708,43.4115661],[-0.3713787,43.4115624],[-0.3713758,43.4115943],[-0.3714679,43.4115988],[-0.3714708,43.4115661]]]]},"properties":{"leisure":"swimming_pool"}},
{"type":"Feature","geometry":{"type":"MultiPolygon","coordinates":[[[[-0.2800712,43.4834409],[-0.2800614,43.4833342],[-0.2800058,43.4833369],[-0.2800157,43.4834436],[-0.2800712,43.4834409]]]]},"properties":{"boules":"petanque","leisure":"pitch","sport":"boules"}},
{"type":"Feature","geometry":{"type":"MultiPolygon","coordinates":[[[[-0.2800811,43.4835477],[-0.2800712,43.4834409],[-0.2800157,43.4834436],[-0.2800256,43.4835504],[-0.2800811,43.4835477]]]]},"properties":{"boules":"petanque","leisure":"pitch","sport":"boules"}},
{"type":"Feature","geometry":{"type":"MultiPolygon","coordinates":[[[[-0.280091,43.4836544],[-0.2800811,43.4835477],[-0.2800256,43.4835504],[-0.2800355,43.4836571],[-0.280091,43.4836544]]]]},"properties":{"boules":"petanque","leisure":"pitch","sport":"boules"}},
{"type":"Feature","geometry":{"type":"MultiPolygon","coordinates":[[[[-0.3517202,43.4115827],[-0.3516554,43.4114482],[-0.3515685,43.4114703],[-0.3516334,43.4116047],[-0.3517202,43.4115827]]]]},"properties":{"access":"yes","leisure":"pitch","sport":"boules","surface":"compacted"}},
{"type":"Feature","geometry":{"type":"MultiPolygon","coordinates":[[[[-0.261588,43.4448769],[-0.2610007,43.4439504],[-0.2601624,43.4442311],[-0.2607495,43.4451571],[-0.261588,43.4448769]]]]},"properties":{"leisure":"pitch","source":"Bing","sport":"rugby_union"}},
{"type":"Feature","geometry":{"type":"MultiPolygon","coordinates":[[[[-0.2624782,43.4445734],[-0.2619499,43.4437565],[-0.2611185,43.4440399],[-0.2616468,43.4448568],[-0.2624782,43.4445734]]]]},"properties":{"leisure":"pitch","sport":"soccer"}},
{"type":"Feature","geometry":{"type":"MultiPolygon","coordinates":[[[[-0.3621813,43.4692071],[-0.3620584,43.4691091],[-0.3616725,43.4693639],[-0.3617954,43.469462],[-0.3621813,43.4692071]]]]},"properties":{"natural":"water","water":"wastewater"}},
{"type":"Feature","geometry":{"type":"MultiPolygon","coordinates":[[[[-0.3620036,43.4690623],[-0.3618807,43.4689643],[-0.3614948,43.4692192],[-0.3616177,43.4693172],[-0.3620036,43.4690623]]]]},"properties":{"natural":"water","water":"wastewater"}},
{"type":"Feature","geometry":{"type":"MultiPolygon","coordinates":[[[[-0.3617428,43.4695069],[-0.3616199,43.4694089],[-0.3612339,43.4696637],[-0.3613568,43.4697617],[-0.3617428,43.4695069]]]]},"properties":{"natural":"water","water":"wastewater"}},
{"type":"Feature","geometry":{"type":"MultiPolygon","coordinates":[[[[-0.3615651,43.4693621],[-0.3614422,43.4692641],[-0.3610562,43.4695189],[-0.3611791,43.469617],[-0.3615651,43.4693621]]]]},"properties":{"natural":"water","water":"wastewater"}},
{"type":"Feature","geometry":{"type":"MultiPolygon","coordinates":[[[[-0.3612747,43.4698076],[-0.3611518,43.4697096],[-0.3607659,43.4699645],[-0.3608888,43.4700625],[-0.3612747,43.4698076]]]]},"properties":{"natural":"water","water":"wastewater"}},
{"type":"Feature","geometry":{"type":"MultiPolygon","coordinates":[[[[-0.361097,43.4696629],[-0.3609741,43.4695648],[-0.3605882,43.4698197],[-0.3607111,43.4699177],[-0.361097,43.4696629]]]]},"properties":{"natural":"water","water":"wastewater"}},
{"type":"Feature","geometry":{"type":"MultiPolygon","coordinates":[[[[-0.3606481,43.469962],[-0.3605252,43.469864],[-0.3601392,43.4701188],[-0.3602622,43.4702169],[-0.3606481,43.469962]]]]},"properties":{"natural":"water","water":"wastewater"}},
{"type":"Feature","geometry":{"type":"MultiPolygon","coordinates":[[[[-0.3608258,43.4701068],[-0.3607029,43.4700088],[-0.3603169,43.4702636],[-0.3604399,43.4703617],[-0.3608258,43.4701068]]]]},"properties":{"natural":"water","water":"wastewater"}},
{"type":"Feature","geometry":{"type":"MultiPolygon","coordinates":[[[[-0.3406701,43.4018857],[-0.3406352,43.4018302],[-0.3405614,43.401799],[-0.3405105,43.4018087],[-0.3404541,43.4018555],[-0.3403576,43.4019559],[-0.3403388,43.4020163],[-0.3404139,43.4020289],[-0.340544,43.4020172],[-0.3406459,43.4019218],[-0.3406701,43.4018857]]]]},"properties":{"natural":"water"}},
{"type":"Feature","geometry":{"type":"MultiPolygon","coordinates":[[[[-0.3749151,43.3968552],[-0.3749091,43.3968382],[-0.3749041,43.3968342],[-0.3748961,43.3968372],[-0.373521,43.397884],[-0.372718,43.398501],[-0.37231,43.398817],[-0.372104,43.398978],[-0.371966,43.399086],[-0.37187,43.399159],[-0.371854,43.399174],[-0.371886,43.399172],[-0.371911,43.399149],[-0.372105,43.398998],[-0.372602,43.398617],[-0.373291,43.398091],[-0.373895,43.397624],[-0.374123,43.39745],[-0.374194,43.397396],[-0.374382,43.397252],[-0.374456,43.397195],[-0.374761,43.396962],[-0.3749121,43.3968602],[-0.3749151,43.3968552]]]]},"properties":{"natural":"water","source":"cadastre-dgi-fr source : Direction Générale des Impôts - Cadastre. Mise à jour : 2012","water":"stream"}},
{"type":"Feature","geometry":{"type":"MultiPolygon","coordinates":[[[[-0.3182293,43.4719792],[-0.3179839,43.4709972],[-0.3179625,43.4709845],[-0.3178485,43.4709816],[-0.3177921,43.4709874],[-0.3177466,43.4710157],[-0.3177412,43.4710721],[-0.3179947,43.4720006],[-0.3180188,43.4720142],[-0.3180738,43.4720152],[-0.3181542,43.4720045],[-0.3182293,43.4719792]]]]},"properties":{"natural":"water"}},
{"type":"Feature","geometry":{"type":"MultiPolygon","coordinates":[[[[-0.3713738,43.4038124],[-0.3713311,43.4037944],[-0.3712814,43.4038566],[-0.3713241,43.4038746],[-0.3713738,43.4038124]]]]},"properties":{"access":"private","leisure":"swimming_pool","source":"cadastre-dgi-fr source : Direction Générale des Impôts - Cadastre. Mise à jour : 2024"}},
{"type":"Feature","geometry":{"type":"MultiPolygon","coordinates":[[[[-0.3736301,43.4009015],[-0.3735934,43.4008982],[-0.3735827,43.4009607],[-0.3736195,43.4009641],[-0.3736301,43.4009015]]]]},"properties":{"access":"private","leisure":"swimming_pool","source":"cadastre-dgi-fr source : Direction Générale des Impôts - Cadastre. Mise à jour : 2024"}},
{"type":"Feature","geometry":{"type":"MultiPolygon","coordinates":[[[[-0.303582,43.4374489],[-0.3035652,43.4374435],[-0.3035728,43.437431],[-0.3034176,43.4373813],[-0.3033861,43.4374332],[-0.3035352,43.4374809],[-0.3035398,43.4374733],[-0.3035627,43.4374807],[-0.303582,43.4374489]]]]},"properties":{"leisure":"swimming_pool"}},
{"type":"Feature","geometry":{"type":"MultiPolygon","coordinates":[[[[-0.3397374,43.4141845],[-0.3397079,43.4141193],[-0.3396659,43.4141293],[-0.3396954,43.4141945],[-0.3397374,43.4141845]]]]},"properties":{"leisure":"swimming_pool"}}
]}
