{"type":"FeatureCollection","features":[
{"type":"Feature","geometry":{"type":"LineString","coordinates":[[1.054682,50.4924668],[-5.5316217,49.4859736]]},"properties":{"alt_name:ar":"بحر المانش;المانش;القناة الإنجليزية","alt_name:gd":"Caolas nan Sasannach;Caolas na Frainge","alt_name:pl":"Kanał Angielski","alt_name:vi":"Eo biển Anh","gns:dsg":"CHN","gns:uni":"-2149742;9334951","int_name":"La Manche","name":"English Channel / La Manche","name:ang":"Sūþsǣ","name:ar":"قناة المانش","name:be":"Праліў Ла-Манш","name:br":"Mor Breizh","name:cs":"Lamanšský průliv","name:cy":"Môr Udd","name:de":"Ärmelkanal","name:en":"English Channel","name:eo":"Manika Markolo","name:es":"Canal de la Mancha","name:eu":"Mantxako kanala","name:fa":"کانال مانش","name:fi":"Englannin kanaali","name:fr":"La Manche","name:fy":"It Kanaal","name:gd":"Caolas Sasannach","name:hu":"Csatorna","name:ia":"Le Manica","name:is":"Ermarsund","name:it":"La Manica","name:kw":"Mor Bretannek","name:la":"Mare Britannicum","name:mi":"Te Hongere Ingarihi","name:mk":"Ламанш","name:nl":"Het Kanaal","name:pcd":"Manche","name:pl":"Kanał La Manche","name:pt":"Canal da Mancha","name:ru":"Ла-Манш","name:sk":"Lamanšský prieliv","name:uk":"Ла-Манш","name:ur":"رودبار انگلستان","name:vi":"Eo biển Măng-sơ","name:vls":"Iengels Kanoal","name:zh":"英吉利海峡 / 拉芒什海峡","name:zh-Hans":"英吉利海峡","name:zh-Hant":"拉芒什海峽","natural":"strait","short_name:en":"The Channel","short_name:vls":"'t Kanoal","source":"GNS","wikidata":"Q34640","wikipedia":"en:English Channel"}}
]}
