{"type":"FeatureCollection","features":[
{"type":"Feature","geometry":{"type":"Point","coordinates":[6.0249664,47.199126]},"properties":{"crossing":"marked","crossing:island":"no","crossing:markings":"zebra","highway":"crossing","tactile_paving":"yes"}},
{"type":"Feature","geometry":{"type":"Point","coordinates":[6.0349545000000008,47.2091027]},"properties":{"source":"cadastre-dgi-fr source : Direction Générale des Impôts - Cadastre ; mise à jour : 2008"}},
{"type":"Feature","geometry":{"type":"Point","coordinates":[6.035319,47.2084263]},"properties":{"source":"cadastre-dgi-fr source : Direction Générale des Impôts - Cadastre ; mise à jour : 2008"}},
{"type":"Feature","geometry":{"type":"Point","coordinates":[6.0351678,47.208236]},"properties":{"source":"cadastre-dgi-fr source : Direction Générale des Impôts - Cadastre ; mise à jour : 2008"}},
{"type":"Feature","geometry":{"type":"Point","coordinates":[6.0338366,47.2072892]},"properties":{"source":"cadastre-dgi-fr source : Direction Générale des Impôts - Cadastre ; mise à jour : 2008"}},
{"type":"Feature","geometry":{"type":"Point","coordinates":[6.0338157,47.2071343]},"properties":{"source":"cadastre-dgi-fr source : Direction Générale des Impôts - Cadastre ; mise à jour : 2008"}},
{"type":"Feature","geometry":{"type":"Point","coordinates":[6.0339547,47.207022]},"properties":{"source":"cadastre-dgi-fr source : Direction Générale des Impôts - Cadastre ; mise à jour : 2008"}},
{"type":"Feature","geometry":{"type":"Point","coordinates":[6.0341694,47.2070048]},"properties":{"source":"cadastre-dgi-fr source : Direction Générale des Impôts - Cadastre ; mise à jour : 2008"}},
{"type":"Feature","geometry":{"type":"Point","coordinates":[6.0351401,47.2074366]},"properties":{"source":"cadastre-dgi-fr source : Direction Générale des Impôts - Cadastre ; mise à jour : 2008"}},
{"type":"Feature","geometry":{"type":"Point","coordinates":[6.0112345,47.2050303]},"properties":{"image":"File:Beure - Cascade du Bout du Monde - gêlée - 2012.png","name":"Cascade du Bout du Monde","source":"cadastre-dgi-fr source : Direction Générale des Impôts - Cadastre ; mise à jour : 2009","survey:date":"2020-08-22","waterway":"waterfall","wikidata":"Q91200352","wikipedia":"fr:Cascade du Bout du Monde"}},
{"type":"Feature","geometry":{"type":"Point","coordinates":[6.0252003,47.1988929]},"properties":{"crossing":"marked","crossing:island":"no","crossing:markings":"zebra","highway":"crossing","tactile_paving":"yes"}},
{"type":"Feature","geometry":{"type":"Point","coordinates":[6.0245553,47.1992099]},"properties":{"source":"cadastre-dgi-fr source : Direction Générale des Impôts - Cadastre ; mise à jour : 2009"}},
{"type":"Feature","geometry":{"type":"Point","coordinates":[6.051625,47.1872141]},"properties":{"source":"cadastre-dgi-fr source : Direction Générale des Impôts - Cadastre ; mise à jour : 2009"}},
{"type":"Feature","geometry":{"type":"Point","coordinates":[6.051838,47.1872412]},"properties":{"source":"cadastre-dgi-fr source : Direction Générale des Impôts - Cadastre ; mise à jour : 2009"}},
{"type":"Feature","geometry":{"type":"Point","coordinates":[6.0485469,47.1851835]},"properties":{"source":"cadastre-dgi-fr source : Direction Générale des Impôts - Cadastre ; mise à jour : 2009"}},
{"type":"Feature","geometry":{"type":"Point","coordinates":[6.045589,47.1833328]},"properties":{"source":"cadastre-dgi-fr source : Direction Générale des Impôts - Cadastre ; mise à jour : 2009"}},
{"type":"Feature","geometry":{"type":"Point","coordinates":[6.0463887,47.1837331]},"properties":{"source":"cadastre-dgi-fr source : Direction Générale des Impôts - Cadastre ; mise à jour : 2009"}},
{"type":"Feature","geometry":{"type":"Point","coordinates":[6.0369067,47.1936861]},"properties":{"access":"private","email":"materiel@sgdf-franchecomte.fr","name":"Camp de Scout","operator":"Scouts et Guides de France - Territoire Franche-Comté","scout":"yes","tourism":"camp_site"}},
{"type":"Feature","geometry":{"type":"Point","coordinates":[6.0218552,47.1997394]},"properties":{"crossing:markings":"zebra","highway":"crossing"}},
{"type":"Feature","geometry":{"type":"Point","coordinates":[6.0234494,47.2000733]},"properties":{"crossing":"marked","crossing:markings":"zebra","highway":"crossing","tactile_paving":"yes"}},
{"type":"Feature","geometry":{"type":"Point","coordinates":[6.0191843,47.1994982]},"properties":{"highway":"crossing"}},
{"type":"Feature","geometry":{"type":"Point","coordinates":[6.0302215,47.1949955]},"properties":{"denomination":"catholic","description":"Vierge","historic":"wayside_cross"}},
{"type":"Feature","geometry":{"type":"Point","coordinates":[6.0186008,47.1996148]},"properties":{"denomination":"catholic","historic":"wayside_shrine","name":"Saint-Pierre","religion":"christian"}},
{"type":"Feature","geometry":{"type":"Point","coordinates":[6.0565348,47.1977925]},"properties":{"historic":"monument","name":"Monument Américain"}},
{"type":"Feature","geometry":{"type":"Point","coordinates":[6.0594754,47.2056444]},"properties":{"natural":"tree"}},
{"type":"Feature","geometry":{"type":"Point","coordinates":[6.0335486,47.196108]},"properties":{"natural":"tree"}},
{"type":"Feature","geometry":{"type":"Point","coordinates":[6.0415741,47.1977776]},"properties":{"natural":"tree"}},
{"type":"Feature","geometry":{"type":"Point","coordinates":[6.0417716,47.1980568]},"properties":{"natural":"tree"}},
{"type":"Feature","geometry":{"type":"Point","coordinates":[6.0308408,47.1934328]},"properties":{"natural":"tree"}},
{"type":"Feature","geometry":{"type":"Point","coordinates":[6.0404643,47.1825338]},"properties":{"natural":"tree"}},
{"type":"Feature","geometry":{"type":"Point","coordinates":[6.0546796,47.2021641]},"properties":{"natural":"tree"}},
{"type":"Feature","geometry":{"type":"Point","coordinates":[6.0242252,47.1993699]},"properties":{"crossing":"marked","crossing:island":"no","crossing:markings":"zebra","highway":"crossing","tactile_paving":"no"}},
{"type":"Feature","geometry":{"type":"Point","coordinates":[6.0616398,47.1609553]},"properties":{"barrier":"yes"}},
{"type":"Feature","geometry":{"type":"Point","coordinates":[6.0618091,47.1608344]},"properties":{"tourism":"picnic_site"}},
{"type":"Feature","geometry":{"type":"Point","coordinates":[6.0612114,47.1611643]},"properties":{"leisure":"picnic_table"}},
{"type":"Feature","geometry":{"type":"Point","coordinates":[6.0628299,47.1618177]},"properties":{"name":"La Grande Doline","natural":"sinkhole","tourism":"attraction"}},
{"type":"Feature","geometry":{"type":"Point","coordinates":[6.0605359,47.1624743]},"properties":{"name":"Puits Sylvain","natural":"cave_entrance"}},
{"type":"Feature","geometry":{"type":"Point","coordinates":[6.0610377,47.1643093]},"properties":{"name":"Puits Saint-Grosjean","natural":"cave_entrance"}},
{"type":"Feature","geometry":{"type":"Point","coordinates":[6.0626422,47.1643119]},"properties":{"name":"Puits Noir","natural":"cave_entrance"}},
{"type":"Feature","geometry":{"type":"Point","coordinates":[6.0623752,47.164331]},"properties":{"name":"Gouffre du Chat Sauvage","natural":"cave_entrance"}},
{"type":"Feature","geometry":{"type":"Point","coordinates":[6.0634494,47.1640108]},"properties":{"name":"Grotte du Porche Vert","natural":"cave_entrance"}},
{"type":"Feature","geometry":{"type":"Point","coordinates":[6.0679283,47.1640815]},"properties":{"name":"Grotte Maeva","natural":"cave_entrance"}},
{"type":"Feature","geometry":{"type":"Point","coordinates":[6.0485293,47.1988544]},"properties":{"natural":"tree"}},
{"type":"Feature","geometry":{"type":"Point","coordinates":[6.04878,47.1992395]},"properties":{"natural":"tree"}},
{"type":"Feature","geometry":{"type":"Point","coordinates":[6.0483306,47.1996798]},"properties":{"natural":"tree"}},
{"type":"Feature","geometry":{"type":"Point","coordinates":[6.0485553,47.2005074]},"properties":{"natural":"tree"}},
{"type":"Feature","geometry":{"type":"Point","coordinates":[6.0488354,47.2006291]},"properties":{"natural":"tree"}},
{"type":"Feature","geometry":{"type":"Point","coordinates":[6.0519303,47.2018248]},"properties":{"natural":"tree"}},
{"type":"Feature","geometry":{"type":"Point","coordinates":[6.0520924,47.2019511]},"properties":{"natural":"tree"}},
{"type":"Feature","geometry":{"type":"Point","coordinates":[6.0245138,47.2012036]},"properties":{"historic":"memorial","name":"Monument aux morts"}},
{"type":"Feature","geometry":{"type":"Point","coordinates":[6.0377067,47.2059185]},"properties":{"ele":"510","name":"Fort de Fontain","natural":"peak"}},
{"type":"Feature","geometry":{"type":"Point","coordinates":[6.0493447,47.1856163]},"properties":{"historic":"wayside_cross"}},
{"type":"Feature","geometry":{"type":"Point","coordinates":[6.0643392,47.1498846]},"properties":{"natural":"tree"}},
{"type":"Feature","geometry":{"type":"Point","coordinates":[6.0637866,47.1498573]},"properties":{"historic":"wayside_cross"}},
{"type":"Feature","geometry":{"type":"Point","coordinates":[6.0630624,47.1497899]},"properties":{"natural":"tree"}},
{"type":"Feature","geometry":{"type":"Point","coordinates":[6.0148076,47.1533094]},"properties":{"name":"Gouffre de la Carrière n°1","natural":"cave_entrance"}},
{"type":"Feature","geometry":{"type":"Point","coordinates":[6.0144634,47.1539414]},"properties":{"name":"Gouffre de la Carrière n°2","natural":"cave_entrance"}},
{"type":"Feature","geometry":{"type":"Point","coordinates":[6.026025,47.1979403]},"properties":{"crossing:markings":"zebra","highway":"crossing"}},
{"type":"Feature","geometry":{"type":"Point","coordinates":[6.0251695,47.1990227]},"properties":{"direction":"backward","highway":"give_way"}},
{"type":"Feature","geometry":{"type":"Point","coordinates":[6.0659237,47.1528213]},"properties":{"historic":"wayside_cross"}},
{"type":"Feature","geometry":{"type":"Point","coordinates":[6.0598306,47.1630257]},"properties":{"denomination":"catholic","historic":"wayside_shrine","religion":"christian"}},
{"type":"Feature","geometry":{"type":"Point","coordinates":[6.0331505,47.2044238]},"properties":{"historic":"boundary_stone"}},
{"type":"Feature","geometry":{"type":"Point","coordinates":[6.0389679,47.2055503]},"properties":{"historic":"boundary_stone"}},
{"type":"Feature","geometry":{"type":"Point","coordinates":[6.0412333,47.2064617]},"properties":{"historic":"boundary_stone"}},
{"type":"Feature","geometry":{"type":"Point","coordinates":[6.0687152,47.1510286]},"properties":{"historic":"memorial","memorial":"war_memorial","ref:FR:MemorialGenWeb":"5225"}},
{"type":"Feature","geometry":{"type":"Point","coordinates":[6.0628523,47.1620228]},"properties":{"tourism":"information"}},
{"type":"Feature","geometry":{"type":"Point","coordinates":[6.0635429,47.1631476]},"properties":{"tourism":"information"}},
{"type":"Feature","geometry":{"type":"Point","coordinates":[6.0639415,47.1640479]},"properties":{"tourism":"information"}},
{"type":"Feature","geometry":{"type":"Point","coordinates":[6.0609663,47.1613858]},"properties":{"tourism":"information"}},
{"type":"Feature","geometry":{"type":"Point","coordinates":[6.0627788,47.1619949]},"properties":{"tourism":"information"}},
{"type":"Feature","geometry":{"type":"Point","coordinates":[6.0632324,47.1622934]},"properties":{"tourism":"information"}},
{"type":"Feature","geometry":{"type":"Point","coordinates":[6.0634165,47.1624115]},"properties":{"tourism":"information"}},
{"type":"Feature","geometry":{"type":"Point","coordinates":[6.0628564,47.1640789]},"properties":{"tourism":"information"}},
{"type":"Feature","geometry":{"type":"Point","coordinates":[6.0616123,47.1643296]},"properties":{"tourism":"information"}},
{"type":"Feature","geometry":{"type":"Point","coordinates":[6.0607393,47.1635537]},"properties":{"tourism":"information"}},
{"type":"Feature","geometry":{"type":"Point","coordinates":[6.0607674,47.1636873]},"properties":{"tourism":"information"}},
{"type":"Feature","geometry":{"type":"Point","coordinates":[6.061755,47.1610129]},"properties":{"leisure":"picnic_table"}},
{"type":"Feature","geometry":{"type":"Point","coordinates":[6.0625058,47.1612656]},"properties":{"tourism":"information"}},
{"type":"Feature","geometry":{"type":"Point","coordinates":[6.0628906,47.1620705]},"properties":{"tourism":"information"}},
{"type":"Feature","geometry":{"type":"Point","coordinates":[6.063504,47.1640099]},"properties":{"tourism":"information"}},
{"type":"Feature","geometry":{"type":"Point","coordinates":[6.0604633,47.1619904]},"properties":{"tourism":"information"}},
{"type":"Feature","geometry":{"type":"Point","coordinates":[6.0612642,47.1611076]},"properties":{"leisure":"picnic_table"}},
{"type":"Feature","geometry":{"type":"Point","coordinates":[6.0621753,47.1610102]},"properties":{"tourism":"information"}},
{"type":"Feature","geometry":{"type":"Point","coordinates":[6.0621201,47.1643376]},"properties":{"tourism":"information"}},
{"type":"Feature","geometry":{"type":"Point","coordinates":[6.0633219,47.1623532]},"properties":{"tourism":"information"}},
{"type":"Feature","geometry":{"type":"Point","coordinates":[6.0638015,47.1626911]},"properties":{"tourism":"information"}},
{"type":"Feature","geometry":{"type":"Point","coordinates":[6.0620774,47.1642913]},"properties":{"tourism":"information"}},
{"type":"Feature","geometry":{"type":"Point","coordinates":[6.0605187,47.1618056]},"properties":{"tourism":"information"}},
{"type":"Feature","geometry":{"type":"Point","coordinates":[6.0631955,47.161847]},"properties":{"tourism":"information"}},
{"type":"Feature","geometry":{"type":"Point","coordinates":[6.0626655,47.1619959]},"properties":{"tourism":"information"}},
{"type":"Feature","geometry":{"type":"Point","coordinates":[6.0627032,47.1643204]},"properties":{"tourism":"information"}},
{"type":"Feature","geometry":{"type":"Point","coordinates":[6.0608028,47.1615784]},"properties":{"tourism":"information"}},
{"type":"Feature","geometry":{"type":"Point","coordinates":[6.0630897,47.1639075]},"properties":{"tourism":"information"}},
{"type":"Feature","geometry":{"type":"Point","coordinates":[6.0620175,47.1643097]},"properties":{"information":"map","tourism":"information"}},
{"type":"Feature","geometry":{"type":"Point","coordinates":[6.0605093,47.1624298]},"properties":{"tourism":"information"}},
{"type":"Feature","geometry":{"type":"Point","coordinates":[6.0612353,47.1611996]},"properties":{"tourism":"information"}},
{"type":"Feature","geometry":{"type":"Point","coordinates":[6.0629181,47.1621092]},"properties":{"tourism":"information"}},
{"type":"Feature","geometry":{"type":"Point","coordinates":[6.0604206,47.1624801]},"properties":{"tourism":"information"}},
{"type":"Feature","geometry":{"type":"Point","coordinates":[6.0606322,47.163053]},"properties":{"tourism":"information"}},
{"type":"Feature","geometry":{"type":"Point","coordinates":[6.0604581,47.162135]},"properties":{"tourism":"information"}},
{"type":"Feature","geometry":{"type":"Point","coordinates":[6.0630585,47.1619817]},"properties":{"tourism":"information"}},
{"type":"Feature","geometry":{"type":"Point","coordinates":[6.0626011,47.1619402]},"properties":{"tourism":"information"}},
{"type":"Feature","geometry":{"type":"Point","coordinates":[6.0625421,47.1612236]},"properties":{"tourism":"information"}},
{"type":"Feature","geometry":{"type":"Point","coordinates":[6.064026,47.1640731]},"properties":{"tourism":"information"}},
{"type":"Feature","geometry":{"type":"Point","coordinates":[6.0621724,47.1610534]},"properties":{"tourism":"information"}},
{"type":"Feature","geometry":{"type":"Point","coordinates":[6.0624336,47.161086]},"properties":{"tourism":"information"}},
{"type":"Feature","geometry":{"type":"Point","coordinates":[6.0620795,47.1642468]},"properties":{"tourism":"information"}},
{"type":"Feature","geometry":{"type":"Point","coordinates":[6.0620634,47.160995]},"properties":{"tourism":"information"}},
{"type":"Feature","geometry":{"type":"Point","coordinates":[6.0630014,47.1619932]},"properties":{"tourism":"information"}},
{"type":"Feature","geometry":{"type":"Point","coordinates":[6.0610699,47.1642446]},"properties":{"tourism":"information"}},
{"type":"Feature","geometry":{"type":"Point","coordinates":[6.0607626,47.1634437]},"properties":{"tourism":"information"}},
{"type":"Feature","geometry":{"type":"Point","coordinates":[6.0618132,47.1609728]},"properties":{"information":"map","tourism":"information"}},
{"type":"Feature","geometry":{"type":"Point","coordinates":[6.0626161,47.1614067]},"properties":{"tourism":"information"}},
{"type":"Feature","geometry":{"type":"Point","coordinates":[6.0624165,47.1643339]},"properties":{"tourism":"information"}},
{"type":"Feature","geometry":{"type":"Point","coordinates":[6.0638439,47.1626153]},"properties":{"tourism":"information"}},
{"type":"Feature","geometry":{"type":"Point","coordinates":[6.0607664,47.163823]},"properties":{"tourism":"information"}},
{"type":"Feature","geometry":{"type":"Point","coordinates":[6.0636429,47.1636833]},"properties":{"tourism":"information"}},
{"type":"Feature","geometry":{"type":"Point","coordinates":[6.0632356,47.1640234]},"properties":{"tourism":"information"}},
{"type":"Feature","geometry":{"type":"Point","coordinates":[6.0617375,47.1610423]},"properties":{"leisure":"picnic_table"}},
{"type":"Feature","geometry":{"type":"Point","coordinates":[6.0618067,47.1609586]},"properties":{"barrier":"cycle_barrier"}},
{"type":"Feature","geometry":{"type":"Point","coordinates":[6.0638535,47.1626052]},"properties":{"access":"customers","barrier":"wicket_gate"}},
{"type":"Feature","geometry":{"type":"Point","coordinates":[6.0612445,47.1643075]},"properties":{"tourism":"information"}},
{"type":"Feature","geometry":{"type":"Point","coordinates":[6.06391,47.1640745]},"properties":{"natural":"stone"}},
{"type":"Feature","geometry":{"type":"LineString","coordinates":[[6.0186959,47.1996268],[6.0187312,47.1996122],[6.0187717,47.1996063],[6.0188127,47.1996098],[6.0188498,47.1996222],[6.018879,47.1996424],[6.0188967,47.199668],[6.018901,47.1996961],[6.0188941,47.1997189],[6.0188783,47.1997396],[6.0188547,47.1997565]]},"properties":{"highway":"tertiary","junction":"roundabout"}},
{"type":"Feature","geometry":{"type":"LineString","coordinates":[[6.0329135,47.1941154],[6.0329008,47.1938134],[6.0331592,47.1930416],[6.033133,47.1928405],[6.032884,47.1919893],[6.032847,47.1917709],[6.0328369,47.1915717],[6.0328305,47.191392],[6.0330294,47.1909134],[6.0335404,47.1905088],[6.0338488,47.1904088],[6.0341541,47.1902569],[6.034253,47.19012],[6.0342362,47.1899804],[6.0340851,47.1897717],[6.0335372,47.1889726],[6.0327496,47.1881992],[6.0325921,47.1879962],[6.0325579,47.1878372],[6.0325855,47.1877246],[6.0326898,47.1875812],[6.0330113,47.1872913],[6.033223,47.1872115],[6.0334702,47.1872058],[6.0338349,47.1872726],[6.0340958,47.1872619],[6.0345931,47.1871773],[6.0357922,47.1870136],[6.0359457,47.1869556],[6.0360759,47.1868531],[6.0364514,47.1861083],[6.0366797,47.1851665],[6.0368447,47.1849052],[6.0372761,47.1844717],[6.0374837,47.184229],[6.0375932,47.1840628],[6.0378667,47.1837265],[6.0380989,47.1836015],[6.0384945,47.183538],[6.0388076,47.1834381],[6.0392627,47.1832576],[6.0422945,47.1820284],[6.0424197,47.1820008]]},"properties":{"highway":"unclassified","name":"Chemin des Rondey"}},
{"type":"Feature","geometry":{"type":"LineString","coordinates":[[6.0493676,47.1857091],[6.0494842,47.1858057],[6.0500478,47.1862009],[6.0506508,47.1865892],[6.0512402,47.1870245],[6.051457,47.1871543],[6.051625,47.1872141],[6.051838,47.1872412],[6.0520506,47.187249],[6.0523873,47.1871455],[6.0525732,47.1872601],[6.0527337,47.1873962],[6.0529428,47.1877495]]},"properties":{"highway":"unclassified","maxspeed":"80","name":"Chemin des Rochets","source":"cadastre-dgi-fr source : Direction Générale des Impôts - Cadastre;mise à jour : 2009"}},
{"type":"Feature","geometry":{"type":"LineString","coordinates":[[6.0540946,47.1873574],[6.0551233,47.1869121],[6.0556148,47.1864936],[6.0559912,47.1862107],[6.0563106,47.1860282],[6.0565112,47.1858571],[6.0566429,47.1857447],[6.0569044,47.1858214],[6.057314,47.1858198],[6.0577356,47.1857335],[6.0584468,47.185414],[6.0588944,47.185208],[6.0593536,47.1849967],[6.0598763,47.1846965],[6.0608681,47.1841667],[6.0619859,47.1835237],[6.0620676,47.183485],[6.0657896,47.1815376],[6.0661585,47.1809702],[6.0667322,47.1803208],[6.0675357,47.1797481],[6.0688814,47.1791233],[6.0691466,47.1790573],[6.0694173,47.1788711],[6.0694623,47.1788226],[6.0698468,47.1786856],[6.0701061,47.1786583],[6.0708486,47.1787685],[6.0725387,47.1787391],[6.0727665,47.1787418],[6.0733263,47.1789076],[6.0738374,47.1789708]]},"properties":{"highway":"unclassified","name":"Chemin du Liège","source":"cadastre-dgi-fr source : Direction Générale des Impôts - Cadastre ; mise à jour : 2009"}},
{"type":"Feature","geometry":{"type":"LineString","coordinates":[[6.0233492,47.1979753],[6.0233039,47.1980265],[6.0231583,47.1979661],[6.023202,47.1979166],[6.0233492,47.1979753]]},"properties":{"access":"private","leisure":"swimming_pool","source":"extraction vectorielle v1 cadastre-dgi-fr source : Direction Générale des Impôts - Cadas. Mise à jour : 2010"}},
{"type":"Feature","geometry":{"type":"LineString","coordinates":[[6.032257,47.2002181],[6.0322061,47.2002085],[6.0322343,47.2001392],[6.0322853,47.2001488],[6.032257,47.2002181]]},"properties":{"access":"private","leisure":"swimming_pool","source":"extraction vectorielle v1 cadastre-dgi-fr source : Direction Générale des Impôts - Cadas. Mise à jour : 2010"}},
{"type":"Feature","geometry":{"type":"LineString","coordinates":[[6.0360379,47.2041714],[6.0359926,47.2041769],[6.0359657,47.2041487],[6.0360711,47.2041356],[6.036079,47.2041673],[6.0360379,47.2041714]]},"properties":{"access":"private","leisure":"swimming_pool","source":"extraction vectorielle v1 cadastre-dgi-fr source : Direction Générale des Impôts - Cadas. Mise à jour : 2010"}},
{"type":"Feature","geometry":{"type":"LineString","coordinates":[[6.0209101,47.1997842],[6.0209086,47.199743],[6.0210182,47.1997411],[6.0210198,47.1997823],[6.0209101,47.1997842]]},"properties":{"access":"private","leisure":"swimming_pool","source":"extraction vectorielle v1 cadastre-dgi-fr source : Direction Générale des Impôts - Cadas. Mise à jour : 2010"}},
{"type":"Feature","geometry":{"type":"LineString","coordinates":[[6.0224178,47.2074169],[6.0225282,47.207401],[6.0226401,47.2073914],[6.0227524,47.2073881],[6.0227973,47.2073883],[6.0228556,47.2073681],[6.0229094,47.2073427],[6.0229481,47.207342],[6.0229855,47.2073357],[6.022999,47.2073317],[6.0230996,47.2072788],[6.0232055,47.2072311],[6.0233162,47.2071885],[6.0233426,47.2071792],[6.0233809,47.2071465],[6.0234118,47.2071101],[6.0234183,47.2071009],[6.0234723,47.2070665],[6.0235314,47.2070547],[6.0235874,47.2070369],[6.0236497,47.2070086],[6.0237066,47.2069755],[6.0237371,47.206954],[6.0237333,47.2069788],[6.0237207,47.2070017],[6.0237013,47.2070212],[6.023662,47.2070486],[6.0236168,47.2070717],[6.023567,47.2070897],[6.0235424,47.2070963],[6.0234729,47.2071451],[6.0234101,47.207198],[6.0233923,47.2072148],[6.023328,47.2072315],[6.0232608,47.2072423],[6.0232454,47.207244],[6.0231164,47.2072913],[6.023021,47.2073561],[6.0229123,47.2073686],[6.0228123,47.2074099],[6.0226801,47.2074227],[6.0225495,47.2074414],[6.0224768,47.207455],[6.0224178,47.2074169]]},"properties":{"natural":"water","source":"extraction vectorielle v1 cadastre-dgi-fr source : Direction Générale des Impôts - Cadas. Mise à jour : 2010","water":"stream"}},
{"type":"Feature","geometry":{"type":"LineString","coordinates":[[6.0349241,47.2038426],[6.0349086,47.203838],[6.0348973,47.203823],[6.0349073,47.2038001],[6.034935,47.203783],[6.0349423,47.2037888],[6.0350091,47.2038014],[6.0350453,47.2038337],[6.0350276,47.2038522],[6.0349995,47.2038546],[6.0349647,47.2038388],[6.0349241,47.2038426]]},"properties":{"access":"private","leisure":"swimming_pool","source":"extraction vectorielle v1 cadastre-dgi-fr source : Direction Générale des Impôts - Cadas. Mise à jour : 2010"}},
{"type":"Feature","geometry":{"type":"LineString","coordinates":[[6.0324319,47.2034719],[6.0323444,47.2034845],[6.0323265,47.203484],[6.0323116,47.2034734],[6.0323114,47.2034631],[6.0323271,47.203449],[6.0324255,47.2034354],[6.0324319,47.2034719]]},"properties":{"access":"private","leisure":"swimming_pool","source":"extraction vectorielle v1 cadastre-dgi-fr source : Direction Générale des Impôts - Cadas. Mise à jour : 2010"}},
{"type":"Feature","geometry":{"type":"LineString","coordinates":[[6.0271794,47.2025679],[6.0272097,47.2025351],[6.0273091,47.2025781],[6.0272713,47.2026087],[6.0271794,47.2025679]]},"properties":{"access":"private","leisure":"swimming_pool","source":"extraction vectorielle v1 cadastre-dgi-fr source : Direction Générale des Impôts - Cadas. Mise à jour : 2010"}},
{"type":"Feature","geometry":{"type":"LineString","coordinates":[[6.0375989,47.2044062],[6.0375723,47.2044425],[6.0374568,47.2044066],[6.0374796,47.2043717],[6.0375989,47.2044062]]},"properties":{"access":"private","leisure":"swimming_pool","source":"extraction vectorielle v1 cadastre-dgi-fr source : Direction Générale des Impôts - Cadas. Mise à jour : 2010"}},
{"type":"Feature","geometry":{"type":"LineString","coordinates":[[6.0240002,47.2022677],[6.0241326,47.2022952],[6.0241114,47.2023427],[6.0239789,47.2023149],[6.0240002,47.2022677]]},"properties":{"access":"private","leisure":"swimming_pool","source":"extraction vectorielle v1 cadastre-dgi-fr source : Direction Générale des Impôts - Cadas. Mise à jour : 2010"}},
{"type":"Feature","geometry":{"type":"LineString","coordinates":[[6.0202764,47.2066755],[6.0201989,47.2066492],[6.0202236,47.2065836],[6.0203303,47.2065129],[6.0203711,47.2064489],[6.0207012,47.2064133],[6.0211103,47.2061271],[6.021164,47.2061504],[6.0208851,47.2063302],[6.0207106,47.2064403],[6.020438,47.2064704],[6.0202982,47.2066083],[6.0202764,47.2066755]]},"properties":{"natural":"water","source":"extraction vectorielle v1 cadastre-dgi-fr source : Direction Générale des Impôts - Cadas. Mise à jour : 2010","water":"stream"}},
{"type":"Feature","geometry":{"type":"LineString","coordinates":[[6.0474563,47.1879378],[6.047562,47.187992],[6.0475228,47.1880283],[6.0474167,47.1879738],[6.0474563,47.1879378]]},"properties":{"access":"private","leisure":"swimming_pool","source":"extraction vectorielle v1 cadastre-dgi-fr source : Direction Générale des Impôts - Cadas. Mise à jour : 2010"}},
{"type":"Feature","geometry":{"type":"LineString","coordinates":[[6.0268331,47.2023023],[6.0268387,47.2023098],[6.0268408,47.2023161],[6.0268384,47.2023262],[6.0268301,47.2023347],[6.026785,47.2023595],[6.0267788,47.202364],[6.0267689,47.2023663],[6.0267602,47.2023655],[6.0267491,47.2023621],[6.0267362,47.2023571],[6.0267289,47.20235],[6.026727,47.2023401],[6.0267304,47.202332],[6.0267371,47.2023265],[6.026746,47.2023229],[6.0267577,47.2023216],[6.0267673,47.2023154],[6.0267721,47.2023086],[6.0267783,47.2023014],[6.0267858,47.2022969],[6.0267927,47.2022947],[6.0268021,47.2022931],[6.0268179,47.2022947],[6.0268259,47.2022975],[6.0268295,47.2022997],[6.0268331,47.2023023]]},"properties":{"access":"private","leisure":"swimming_pool","source":"extraction vectorielle v1 cadastre-dgi-fr source : Direction Générale des Impôts - Cadas. Mise à jour : 2010"}},
{"type":"Feature","geometry":{"type":"LineString","coordinates":[[6.0237233,47.1980408],[6.0238501,47.1980151],[6.0238666,47.198054],[6.0237398,47.1980793],[6.0237233,47.1980408]]},"properties":{"access":"private","leisure":"swimming_pool","source":"extraction vectorielle v1 cadastre-dgi-fr source : Direction Générale des Impôts - Cadas. Mise à jour : 2010"}},
{"type":"Feature","geometry":{"type":"LineString","coordinates":[[6.0228404,47.2005663],[6.0227787,47.2005504],[6.0227928,47.200525],[6.0228546,47.2005409],[6.0228404,47.2005663]]},"properties":{"access":"private","leisure":"swimming_pool","source":"extraction vectorielle v1 cadastre-dgi-fr source : Direction Générale des Impôts - Cadas. Mise à jour : 2010"}},
{"type":"Feature","geometry":{"type":"LineString","coordinates":[[6.021991,47.2012787],[6.0221213,47.201293],[6.0221109,47.2013375],[6.0219805,47.2013233],[6.021991,47.2012787]]},"properties":{"access":"private","leisure":"swimming_pool","source":"extraction vectorielle v1 cadastre-dgi-fr source : Direction Générale des Impôts - Cadas. Mise à jour : 2010"}},
{"type":"Feature","geometry":{"type":"LineString","coordinates":[[6.0316992,47.2032232],[6.0316827,47.2032169],[6.0316993,47.2031796],[6.0317356,47.2031836],[6.0317712,47.2031906],[6.0318053,47.2032004],[6.0318261,47.2032082],[6.0318049,47.203248],[6.0316992,47.2032232]]},"properties":{"access":"private","leisure":"swimming_pool","source":"extraction vectorielle v1 cadastre-dgi-fr source : Direction Générale des Impôts - Cadas. Mise à jour : 2010"}},
{"type":"Feature","geometry":{"type":"LineString","coordinates":[[6.0248859,47.2017886],[6.0248224,47.2018555],[6.0248077,47.2018576],[6.0247964,47.2018572],[6.0247861,47.2018528],[6.0247788,47.201847],[6.0247746,47.2018404],[6.024774,47.2018305],[6.0248451,47.2017743],[6.0248477,47.2017729],[6.0248536,47.2017704],[6.0248618,47.2017696],[6.0248732,47.2017713],[6.0248822,47.2017767],[6.0248861,47.2017842],[6.0248859,47.2017886]]},"properties":{"access":"private","leisure":"swimming_pool","source":"extraction vectorielle v1 cadastre-dgi-fr source : Direction Générale des Impôts - Cadas. Mise à jour : 2010"}},
{"type":"Feature","geometry":{"type":"LineString","coordinates":[[6.0370388,47.2051815],[6.0370268,47.2051768],[6.0370116,47.2051472],[6.0370077,47.2051467],[6.0369909,47.2051421],[6.0369766,47.2051348],[6.0369656,47.2051255],[6.0369628,47.2051069],[6.0369884,47.2050916],[6.0370041,47.2050918],[6.0370479,47.205105],[6.037088,47.2051382],[6.0370924,47.2051611],[6.0370805,47.2051897],[6.0370388,47.2051815]]},"properties":{"access":"private","leisure":"swimming_pool","source":"extraction vectorielle v1 cadastre-dgi-fr source : Direction Générale des Impôts - Cadas. Mise à jour : 2010"}},
{"type":"Feature","geometry":{"type":"LineString","coordinates":[[6.0348253,47.2043846],[6.0348451,47.2043877],[6.0348551,47.2044191],[6.0347909,47.2044364],[6.0347641,47.2044388],[6.0347375,47.2044382],[6.0347296,47.2044374],[6.0347209,47.204406],[6.0347734,47.2043896],[6.0348253,47.2043846]]},"properties":{"access":"private","leisure":"swimming_pool","source":"extraction vectorielle v1 cadastre-dgi-fr source : Direction Générale des Impôts - Cadas. Mise à jour : 2010"}},
{"type":"Feature","geometry":{"type":"LineString","coordinates":[[6.0218556,47.2004932],[6.0218254,47.2005226],[6.0217383,47.200484],[6.0217672,47.2004539],[6.0218556,47.2004932]]},"properties":{"access":"private","leisure":"swimming_pool","source":"extraction vectorielle v1 cadastre-dgi-fr source : Direction Générale des Impôts - Cadas. Mise à jour : 2010"}},
{"type":"Feature","geometry":{"type":"LineString","coordinates":[[6.0232337,47.2019449],[6.0232556,47.2019084],[6.0233585,47.2019367],[6.0233366,47.2019732],[6.0232337,47.2019449]]},"properties":{"access":"private","leisure":"swimming_pool","source":"extraction vectorielle v1 cadastre-dgi-fr source : Direction Générale des Impôts - Cadas. Mise à jour : 2010"}},
{"type":"Feature","geometry":{"type":"LineString","coordinates":[[6.0263624,47.1998521],[6.0263366,47.1998262],[6.0263566,47.1998107],[6.0263802,47.1997967],[6.0264065,47.1997851],[6.0264351,47.1997763],[6.0264649,47.1998032],[6.0264436,47.199819],[6.0264192,47.1998327],[6.0263915,47.1998437],[6.0263624,47.1998521]]},"properties":{"access":"private","leisure":"swimming_pool","source":"extraction vectorielle v1 cadastre-dgi-fr source : Direction Générale des Impôts - Cadas. Mise à jour : 2010"}},
{"type":"Feature","geometry":{"type":"LineString","coordinates":[[6.053105,47.1987274],[6.0532035,47.1987084],[6.0532976,47.1986673],[6.0533037,47.1986751],[6.0532606,47.1986969],[6.0532129,47.1987135],[6.0532065,47.1987153],[6.0531051,47.198736],[6.0530563,47.198758],[6.0529991,47.1988141],[6.0529495,47.1988733],[6.0529418,47.1988839],[6.0528982,47.198911],[6.0528311,47.1989314],[6.0527687,47.1989571],[6.0527138,47.1989861],[6.0525949,47.1990209],[6.0525143,47.199055],[6.0523425,47.1991522],[6.0522754,47.1991803],[6.0521039,47.1992288],[6.0519762,47.1992924],[6.0519158,47.1993307],[6.0519551,47.199296],[6.0520003000000008,47.1992655],[6.0520417,47.1992444],[6.0521122,47.1992146],[6.0522124,47.1991876],[6.0523058,47.1991565],[6.0523921,47.1991156],[6.052473,47.1990698],[6.052507,47.1990482],[6.0525872,47.1990151],[6.0526713,47.1989876],[6.0527111,47.1989769],[6.0527753,47.1989446],[6.0528446,47.1989174],[6.0528822,47.1989054],[6.0529387,47.1988753],[6.0530335,47.1987616],[6.053105,47.1987274]]},"properties":{"natural":"water","source":"extraction vectorielle v1 cadastre-dgi-fr source : Direction Générale des Impôts - Cadas. Mise à jour : 2010","water":"ditch"}},
{"type":"Feature","geometry":{"type":"LineString","coordinates":[[6.0201083,47.2006903],[6.0201344,47.2007063],[6.02013,47.2007197],[6.0201286,47.2007217],[6.0201162,47.2007357],[6.0201002,47.2007475],[6.0200813,47.2007573],[6.0200601,47.2007645],[6.0200329,47.2007476],[6.0200649,47.2007151],[6.0201083,47.2006903]]},"properties":{"access":"private","leisure":"swimming_pool","source":"extraction vectorielle v1 cadastre-dgi-fr source : Direction Générale des Impôts - Cadas. Mise à jour : 2010"}},
{"type":"Feature","geometry":{"type":"LineString","coordinates":[[6.067624,47.15385],[6.067631,47.153848],[6.067634,47.153848],[6.067639,47.153848],[6.067645,47.15385],[6.06765,47.153851],[6.067654,47.153854],[6.067658,47.153856],[6.067661,47.153859],[6.067663,47.153863],[6.067665,47.153866],[6.067666,47.15387],[6.067665,47.153874],[6.067663,47.153877],[6.067661,47.15388],[6.067596,47.153916],[6.06759,47.153917],[6.067585,47.153917],[6.06758,47.153917],[6.067574,47.153916],[6.067569,47.153914],[6.067564,47.153912],[6.067561,47.153909],[6.067558,47.153906],[6.067555,47.153902],[6.067555,47.153899],[6.067554,47.153895],[6.067556,47.153891],[6.067557,47.153889],[6.067624,47.15385]]},"properties":{"natural":"water","source":"cadastre-dgi-fr source : Direction Générale des Impôts - Cadastre. Mise à jour : 2010"}},
{"type":"Feature","geometry":{"type":"LineString","coordinates":[[6.067309,47.153657],[6.067395,47.153608],[6.067437,47.153641],[6.06735,47.15369],[6.067309,47.153657]]},"properties":{"natural":"water","source":"cadastre-dgi-fr source : Direction Générale des Impôts - Cadastre. Mise à jour : 2010"}},
{"type":"Feature","geometry":{"type":"LineString","coordinates":[[6.067764,47.177978],[6.067815,47.17791],[6.067862,47.177927],[6.067811,47.177994],[6.067764,47.177978]]},"properties":{"natural":"water","source":"cadastre-dgi-fr source : Direction Générale des Impôts - Cadastre. Mise à jour : 2010"}},
{"type":"Feature","geometry":{"type":"LineString","coordinates":[[6.050563,47.158585],[6.050584,47.1585],[6.050857,47.158536],[6.050834,47.158623],[6.050775,47.158616],[6.05074,47.158712],[6.050658,47.158701],[6.050666,47.158667],[6.05061,47.15866],[6.050627,47.15859],[6.050563,47.158585]]},"properties":{"building":"yes","historic":"manor","source":"cadastre-dgi-fr source : Direction Générale des Impôts - Cadastre. Mise à jour : 2010"}},
{"type":"Feature","geometry":{"type":"LineString","coordinates":[[6.066696,47.153827],[6.066838,47.15377],[6.066877,47.153811],[6.066733,47.15387],[6.066696,47.153827]]},"properties":{"natural":"water","source":"cadastre-dgi-fr source : Direction Générale des Impôts - Cadastre. Mise à jour : 2010"}},
{"type":"Feature","geometry":{"type":"LineString","coordinates":[[6.066232,47.149807],[6.066302,47.149857],[6.066261,47.149884],[6.066191,47.149834],[6.066232,47.149807]]},"properties":{"access":"private","leisure":"swimming_pool","source":"cadastre-dgi-fr source : Direction Générale des Impôts - Cadastre. Mise à jour : 2010"}},
{"type":"Feature","geometry":{"type":"LineString","coordinates":[[6.062057,47.155021],[6.062276,47.154915],[6.062307,47.154924],[6.062341,47.154959],[6.06211,47.155076],[6.062057,47.155021]]},"properties":{"natural":"water","source":"cadastre-dgi-fr source : Direction Générale des Impôts - Cadastre. Mise à jour : 2010"}},
{"type":"Feature","geometry":{"type":"LineString","coordinates":[[6.015336,47.201467],[6.015315,47.201392],[6.015307,47.201305],[6.015303,47.201266],[6.015295,47.201227],[6.015294,47.201223],[6.015285,47.201178],[6.015271,47.201134],[6.015254,47.200997],[6.015245,47.200944],[6.015233,47.200901],[6.015243,47.200903],[6.015248,47.200926],[6.015283,47.201137],[6.01531,47.201255],[6.015321,47.201384],[6.015328,47.201414],[6.015336,47.201446],[6.015349,47.201479],[6.015367,47.201467],[6.015368,47.20151],[6.015323,47.20158],[6.015309,47.201625],[6.015299,47.201711],[6.015294,47.20173],[6.015279,47.201802],[6.015269,47.201873],[6.015271,47.201881],[6.015278,47.201904],[6.015291,47.201925],[6.015279,47.201965],[6.015277,47.201968],[6.015252,47.202011],[6.015233,47.202055],[6.015219,47.202099],[6.015204,47.202124],[6.015147,47.202191],[6.015153,47.202203],[6.015163,47.202228],[6.015167,47.202253],[6.015157,47.202323],[6.015144,47.202376],[6.015124,47.202428],[6.015121,47.202525],[6.015014,47.202618],[6.014987,47.202621],[6.014967,47.202627],[6.014945,47.202631],[6.014936,47.202631],[6.014943,47.202626],[6.014965,47.202623],[6.014985,47.202617],[6.015013,47.202614],[6.015115,47.202522],[6.015116,47.202457],[6.015152,47.202319],[6.015155,47.202308],[6.01516,47.202276],[6.015158,47.202245],[6.015159,47.202238],[6.015156,47.202223],[6.015152,47.202219],[6.015145,47.202207],[6.015143,47.202194],[6.015147,47.202181],[6.015205,47.202114],[6.015213,47.202098],[6.015235,47.202033],[6.015242,47.202022],[6.015263,47.201986],[6.015279,47.201948],[6.015282,47.201938],[6.015282,47.201925],[6.015277,47.201912],[6.01527,47.201904],[6.015264,47.201891],[6.015264,47.201877],[6.015271,47.201819],[6.015272,47.20181],[6.015279,47.201764],[6.015292,47.201719],[6.015296,47.201695],[6.015301,47.201647],[6.01531,47.201599],[6.015316,47.201585],[6.015334,47.201552],[6.015357,47.201521],[6.015358,47.201513],[6.015336,47.201467]]},"properties":{"natural":"water","source":"cadastre-dgi-fr source : Direction Générale des Impôts - Cadastre. Mise à jour : 2010","water":"stream"}},
{"type":"Feature","geometry":{"type":"LineString","coordinates":[[6.012525,47.205178],[6.012624,47.205289],[6.012645,47.205309],[6.012618,47.2053],[6.012579,47.205315],[6.012573,47.205298],[6.01255,47.205261],[6.012521,47.205225],[6.012488,47.205191],[6.012448,47.205153],[6.012409,47.205109],[6.012373,47.205063],[6.012344,47.205015],[6.012348,47.205012],[6.012393,47.205004],[6.012412,47.205038],[6.012525,47.205178]]},"properties":{"natural":"water","source":"cadastre-dgi-fr source : Direction Générale des Impôts - Cadastre. Mise à jour : 2010","water":"stream"}},
{"type":"Feature","geometry":{"type":"LineString","coordinates":[[6.013359,47.201796],[6.013207,47.201743],[6.013071,47.201713],[6.013065,47.201712],[6.013056,47.201707],[6.01305,47.201696],[6.013063,47.201666],[6.01306,47.201687],[6.01306,47.201688],[6.01306,47.201695],[6.013065,47.201702],[6.013075,47.201707],[6.013212,47.201737],[6.013443,47.201817],[6.013588,47.201866],[6.013762,47.201941],[6.013922,47.202056],[6.013939,47.20207],[6.014082,47.202163],[6.014125,47.202204],[6.014133,47.202213],[6.014171,47.202249],[6.014212,47.202283],[6.014257,47.202315],[6.014338,47.202368],[6.014367,47.202381],[6.014424,47.202403],[6.014483,47.202422],[6.014607,47.20245],[6.014623,47.202456],[6.014638,47.202465],[6.014649,47.202476],[6.014707,47.202544],[6.014737,47.202559],[6.014806,47.202584],[6.014848,47.202592],[6.014852,47.202593],[6.014884,47.202605],[6.014913,47.20262],[6.014921,47.202623],[6.014936,47.202626],[6.014943,47.202626],[6.014936,47.202631],[6.014917,47.202645],[6.014918,47.20263],[6.014887,47.202613],[6.014856,47.202602],[6.014823,47.202594],[6.014808,47.202592],[6.014727,47.202564],[6.014706,47.20255],[6.014694,47.202542],[6.014637,47.202474],[6.014634,47.202472],[6.014621,47.202463],[6.014605,47.202458],[6.014472,47.202427],[6.014432,47.202415],[6.01438,47.202396],[6.014329,47.202373],[6.014252,47.202321],[6.014211,47.202291],[6.014164,47.202251],[6.01412,47.202209],[6.01406,47.202153],[6.014044,47.202144],[6.013978,47.202103],[6.013915,47.202059],[6.013747,47.201942],[6.013682,47.201913],[6.013565,47.201866],[6.013426,47.201819],[6.013359,47.201796]]},"properties":{"natural":"water","source":"cadastre-dgi-fr source : Direction Générale des Impôts - Cadastre. Mise à jour : 2010","water":"stream"}},
{"type":"Feature","geometry":{"type":"LineString","coordinates":[[6.0113148,47.2049755],[6.0113047,47.2049923],[6.0112827,47.2050225],[6.011239,47.2050377],[6.0112345,47.2050303],[6.011229,47.2050203],[6.011284,47.204964],[6.011282,47.204936],[6.011285,47.204921],[6.011289,47.204902],[6.011296,47.204858],[6.011309,47.204815],[6.011314,47.204802],[6.011329,47.204787],[6.011347,47.204773],[6.01137,47.204762],[6.011395,47.204755],[6.011397,47.204755],[6.011425,47.204754],[6.01151,47.204755],[6.011545,47.204749],[6.011582,47.204738],[6.011611,47.204716],[6.011636,47.204705],[6.011663,47.204698],[6.011692,47.204694],[6.011715,47.204694],[6.011745,47.204695],[6.011773,47.204699],[6.011786,47.204703],[6.011845,47.204732],[6.011908,47.204744],[6.011971,47.204753],[6.011985,47.204755],[6.01213,47.204787],[6.012277,47.204789],[6.012321,47.204797],[6.01234,47.204804],[6.012356,47.204813],[6.012367,47.204826],[6.012374,47.20484],[6.012375,47.204845],[6.012386,47.204951],[6.012389,47.204975],[6.012386,47.204981],[6.01234,47.20499],[6.012333,47.204987],[6.012318,47.204865],[6.012306,47.204851],[6.01229,47.204838],[6.012275,47.20483],[6.012252,47.204829],[6.012228,47.204832],[6.012218,47.204835],[6.012153,47.204828],[6.012086,47.204821],[6.01202,47.20481],[6.011969,47.204799],[6.011881,47.204781],[6.011778,47.204752],[6.011745,47.204748],[6.011713,47.204749],[6.011683,47.204754],[6.011665,47.204758],[6.011609,47.204787],[6.011584,47.204795],[6.011556,47.2048],[6.011528,47.204801],[6.011525,47.204801],[6.011489,47.2048],[6.011453,47.204802],[6.011418,47.204808],[6.011405,47.204811],[6.011387,47.204818],[6.011372,47.204829],[6.011362,47.204841],[6.01136,47.204845],[6.011347,47.204919],[6.011342,47.204934],[6.0113337,47.204946],[6.0113303,47.2049582],[6.0113148,47.2049755]]},"properties":{"natural":"water","source":"cadastre-dgi-fr source : Direction Générale des Impôts - Cadastre. Mise à jour : 2010","water":"stream"}},
{"type":"Feature","geometry":{"type":"LineString","coordinates":[[6.0217954,47.1954954],[6.0220133,47.1954113],[6.02225,47.1956948],[6.0220322,47.1957788],[6.0217954,47.1954954]]},"properties":{"access":"yes","leisure":"pitch","sport":"tennis"}},
{"type":"Feature","geometry":{"type":"LineString","coordinates":[[6.0215861,47.1955761],[6.0217954,47.1954954],[6.0220322,47.1957788],[6.0218229,47.1958595],[6.0215861,47.1955761]]},"properties":{"access":"yes","leisure":"pitch","sport":"tennis"}},
{"type":"Feature","geometry":{"type":"LineString","coordinates":[[6.0212019,47.1965729],[6.0219759,47.1962695],[6.0213093,47.1954843],[6.0205353,47.1957878],[6.0212019,47.1965729]]},"properties":{"access":"yes","leisure":"pitch","lit":"yes","sport":"soccer","surface":"grass"}},
{"type":"Feature","geometry":{"type":"LineString","coordinates":[[6.0529428,47.1877495],[6.0540946,47.1873574]]},"properties":{"highway":"unclassified","name":"Chemin du Liège"}},
{"type":"Feature","geometry":{"type":"LineString","coordinates":[[6.0251752,47.1990577],[6.0251695,47.1990227],[6.0251715,47.1989498],[6.0252003,47.1988929],[6.0255463,47.1984309],[6.0257272,47.1982307],[6.026025,47.1979403],[6.0260978,47.1978693],[6.0261049,47.1978644],[6.0263082,47.1977225],[6.0264409,47.19763],[6.0264999,47.1975577],[6.0265026,47.1974735],[6.0264444,47.1973872],[6.0263501,47.1972927],[6.0262776,47.1971984],[6.0261707,47.1969427],[6.0261731,47.1968395]]},"properties":{"highway":"tertiary","lanes":"2","name":"Rue de la Motte Féodale","ref":"D 111","surface":"asphalt"}},
{"type":"Feature","geometry":{"type":"LineString","coordinates":[[6.0292387,47.2003106],[6.0294432,47.2003164],[6.0294575,47.2000856],[6.0292529,47.2000798],[6.0292387,47.2003106]]},"properties":{"leisure":"pitch","sport":"multi"}},
{"type":"Feature","geometry":{"type":"LineString","coordinates":[[6.0273041,47.1998274],[6.0274374,47.1998772],[6.0272875,47.2000628],[6.0271541,47.200013],[6.0273041,47.1998274]]},"properties":{"leisure":"pitch","name":"tennis désafecté","sport":"tennis"}},
{"type":"Feature","geometry":{"type":"LineString","coordinates":[[6.0154744,47.1539144],[6.0154041,47.1541148],[6.0153134,47.1541256],[6.0149462,47.1540269],[6.0148736,47.1540501],[6.014851,47.1541256],[6.0147444,47.1543352],[6.0146719,47.1543738],[6.0145676,47.1545942],[6.0144361,47.1548008],[6.014384,47.1549241],[6.0142978,47.1549842],[6.0141958,47.1550151],[6.0141369,47.1549919],[6.0140802,47.1550027],[6.0139213,47.1549522]]},"properties":{"natural":"cliff"}},
{"type":"Feature","geometry":{"type":"LineString","coordinates":[[6.0152788,47.1531417],[6.0150975,47.1532033],[6.0150113,47.1532326],[6.01483,47.1532804],[6.0145579,47.1534068],[6.0143301,47.1534649],[6.0141782,47.1534642],[6.0140388,47.1534241],[6.0138937,47.1534094],[6.0138189,47.1534955],[6.0137148,47.1535075],[6.0136346,47.1536568],[6.0135048,47.1537789],[6.0133557,47.1538966],[6.0133445,47.1539228],[6.0133012,47.1539479],[6.0130848,47.1541266],[6.0130319,47.154211599999999],[6.0129133,47.1544994],[6.0128652,47.1545081],[6.0128283,47.1546734],[6.0127963,47.1547104],[6.0129021,47.15502]]},"properties":{"natural":"cliff"}},
{"type":"Feature","geometry":{"type":"LineString","coordinates":[[6.0144189,47.1542929],[6.0142618,47.1545327],[6.0141624,47.1546134],[6.0140438,47.154729],[6.0139213,47.1549522],[6.0138931,47.1550036],[6.0137809,47.1551693],[6.0138098,47.1552631],[6.0136976,47.1554222],[6.0137104,47.1554571],[6.013627,47.1555988],[6.013627,47.1557514],[6.0135244,47.1559781],[6.0135533,47.1560174],[6.0135244,47.1562332],[6.0135405,47.1563269],[6.0135693,47.1564599],[6.0136847,47.1566081],[6.0137681,47.1566866],[6.0139669,47.1567695],[6.0141076,47.1568347],[6.0142073,47.1568902],[6.0143955,47.1568917],[6.0146993,47.1568147],[6.0149146,47.1567838],[6.0149531,47.1567561],[6.0151141,47.1567299],[6.015173,47.1566744],[6.015232,47.1566174],[6.0153272,47.1566004],[6.0154156,47.1565048]]},"properties":{"natural":"cliff"}},
{"type":"Feature","geometry":{"type":"LineString","coordinates":[[6.0130362999999999,47.1553041],[6.0129978,47.155318],[6.0129139,47.1554043],[6.0128958,47.1554706],[6.0129139,47.1555338],[6.012855,47.1555492],[6.0128391,47.1556093],[6.0128912,47.1556371],[6.012864,47.155691],[6.0128142,47.1557157],[6.0128255,47.1557558],[6.012796,47.1558621],[6.0127484,47.1558976],[6.0127484,47.1559592],[6.0128051,47.1559854],[6.0128278,47.1560764],[6.0128006,47.1561242],[6.012855,47.1561581],[6.0128754,47.1561982],[6.0128571,47.1562339],[6.0128603,47.1563233],[6.0127994,47.1564214],[6.0126872,47.1565304],[6.0127417,47.1566045],[6.0129212,47.1565827],[6.0131488,47.1566176],[6.0133412,47.1567048],[6.0135399,47.1568356],[6.0137387,47.1570318],[6.0138862,47.1570667],[6.0140625,47.1570493],[6.0143093,47.1569904]]},"properties":{"natural":"cliff"}},
{"type":"Feature","geometry":{"type":"LineString","coordinates":[[6.0198862,47.1994509],[6.0200301,47.1994481]]},"properties":{"highway":"tertiary","lanes":"2","name":"Rue de la Fontaine","ref":"D 111","surface":"asphalt"}},
{"type":"Feature","geometry":{"type":"LineString","coordinates":[[6.0188498,47.1996222],[6.0189419,47.1996081],[6.0190218,47.1995863],[6.0191843,47.1994982]]},"properties":{"highway":"tertiary","lanes":"1","name":"Rue de la Fontaine","oneway":"yes","ref":"D 111","surface":"asphalt"}},
{"type":"Feature","geometry":{"type":"LineString","coordinates":[[6.022612,47.1965502],[6.0221373,47.196864],[6.0227278,47.1972763],[6.0232025,47.1969625],[6.022612,47.1965502]]},"properties":{"access":"yes","leisure":"pitch","lit":"yes","sport":"soccer","surface":"fine_gravel"}},
{"type":"Feature","geometry":{"type":"LineString","coordinates":[[6.0506129,47.1923737],[6.0507309,47.1923737],[6.0507148,47.1922862],[6.0506075,47.1922898],[6.0506129,47.1923737]]},"properties":{"natural":"water","water":"reservoir"}},
{"type":"Feature","geometry":{"type":"LineString","coordinates":[[6.0502803,47.1925997],[6.0510581,47.1925413],[6.0510367,47.1923882],[6.0503769,47.1924648],[6.0502803,47.1925997]]},"properties":{"natural":"water","water":"reservoir"}},
{"type":"Feature","geometry":{"type":"LineString","coordinates":[[6.0507899,47.1923554],[6.0507336,47.1922865],[6.0508806,47.1922754],[6.050894,47.192354],[6.0507899,47.1923554]]},"properties":{"natural":"water","water":"reservoir"}},
{"type":"Feature","geometry":{"type":"LineString","coordinates":[[6.0670572,47.1552601],[6.0669794,47.1552245],[6.0668641,47.1552537],[6.0667729,47.1552683],[6.0667782,47.1553029],[6.0668641,47.1553193],[6.0668158,47.1553503],[6.0667487,47.1553266],[6.0667219,47.1552883],[6.0667004,47.1552281],[6.0667594,47.1551461],[6.0668694,47.1550895],[6.0669311,47.1550841],[6.0670116,47.1551205],[6.0670518,47.1551825],[6.0670826,47.1552468],[6.0670572,47.1552601]]},"properties":{"natural":"water","water":"reservoir"}},
{"type":"Feature","geometry":{"type":"LineString","coordinates":[[6.0191843,47.1994982],[6.0192821,47.1994671],[6.0194286,47.1994396],[6.0197631,47.1994363],[6.0198862,47.1994509]]},"properties":{"highway":"tertiary","lanes":"1","name":"Rue de la Fontaine","oneway":"yes","ref":"D 111","surface":"asphalt"}},
{"type":"Feature","geometry":{"type":"LineString","coordinates":[[6.0474216,47.2015059],[6.0472048,47.2017603],[6.047031,47.201693],[6.0468053,47.2016897],[6.0466306,47.201687],[6.0465866,47.2017917],[6.046305,47.2020084],[6.0461186,47.2019957],[6.0462677,47.2018817],[6.0460627,47.2017889],[6.0460503,47.2016116],[6.0458142,47.2014723],[6.0455098,47.2016201],[6.0453483,47.2017931],[6.0452563,47.2017506],[6.0456312,47.2011241],[6.0458698,47.2011292],[6.0458346,47.2007906],[6.0459255,47.2004713],[6.0458397,47.2003137],[6.0457132,47.2002859],[6.0456384,47.2005869],[6.0452122,47.2005559],[6.0451829,47.2004071],[6.0452268,47.2001576],[6.0453808,47.199965],[6.0455302,47.1998754],[6.0458116,47.1998067],[6.0460183,47.1998306],[6.0462821,47.1998575],[6.0465019,47.1997798],[6.0466267,47.1998173],[6.0464187,47.1999452],[6.0461553,47.2001174],[6.0461404,47.200374],[6.0461901,47.2005428],[6.0461345,47.2009472],[6.0465526,47.2010714],[6.0470099,47.2010552],[6.0472762,47.2011065],[6.0473744,47.2012275],[6.0474216,47.2015059]]},"properties":{"natural":"scrub"}},
{"type":"Feature","geometry":{"type":"LineString","coordinates":[[6.0220923,47.204004],[6.021786,47.2033914],[6.0213316,47.2026109]]},"properties":{"highway":"unclassified","name":"Chemin des Mercureaux"}},
{"type":"Feature","geometry":{"type":"LineString","coordinates":[[6.0213316,47.2026109],[6.0202926,47.2014081],[6.0197413,47.2007984],[6.0191858,47.2000437],[6.0190977,47.1999183],[6.0190614,47.1998187]]},"properties":{"highway":"unclassified","name":"Chemin des Mercureaux"}},
{"type":"Feature","geometry":{"type":"LineString","coordinates":[[6.0637664,47.1626119],[6.0638535,47.1626052],[6.0640689,47.1626326],[6.0643955,47.1626621],[6.0644359,47.1626572],[6.0645967,47.1625266],[6.0648536,47.1624515],[6.0649819,47.1622693],[6.0650302,47.1620686],[6.0653467,47.1620541],[6.0656203,47.1621088],[6.0659927,47.1620395],[6.0666069,47.1618352],[6.0667893,47.1616528],[6.0669208,47.1615872],[6.0671166,47.1615452],[6.0673472,47.1615288],[6.0675403,47.1615106],[6.0678622,47.1615616],[6.0681921,47.1615781],[6.0683155,47.1620012],[6.0683048,47.1620686],[6.0682672,47.1621106],[6.0681787,47.1621635],[6.0680312,47.1621853],[6.0679266,47.1621999],[6.0677714,47.1623203],[6.0676154,47.1625902],[6.0675461,47.1628455],[6.0675461,47.1629696],[6.0673959,47.1631665],[6.0674281,47.1633708],[6.0677499,47.1636042],[6.0679808,47.1637127],[6.068049,47.1637766],[6.068152,47.1637988],[6.0682568,47.1638927],[6.0683168,47.1639012],[6.0683305,47.1639461],[6.0679323,47.1639689],[6.0678787,47.1641367],[6.067707,47.1640565],[6.0674066,47.1639616],[6.0670526,47.163947],[6.0668875,47.1639686],[6.0664947,47.16402],[6.0662801,47.1641732],[6.0659368,47.1641805],[6.06569,47.1641148],[6.0654647,47.1641805],[6.0646922,47.1641513],[6.0642523,47.1641732],[6.0641293,47.1641535],[6.0639798,47.1640945]]},"properties":{"access":"private","highway":"path","name":"Sentier karstique du Grand Bois (boucle Est)","tourism":"attraction"}},
{"type":"Feature","geometry":{"type":"LineString","coordinates":[[6.0340576,47.2096],[6.0340263,47.2095482],[6.0340025,47.2094894],[6.0339966,47.2094212],[6.0340257,47.2093385],[6.0340875,47.2092626],[6.0341709,47.209208],[6.0342746,47.2091561],[6.0344034,47.2091096],[6.0345047,47.2090885],[6.0346051,47.2090803],[6.0347029,47.2090823],[6.0349545000000008,47.2091027],[6.0350381,47.2090961],[6.0351098,47.2090786],[6.0351675,47.2090547],[6.0352445,47.209004],[6.035305,47.2089485],[6.0353393,47.2088908],[6.0353497,47.2088322],[6.0353512,47.2085719],[6.0353422,47.2085016],[6.0353347,47.2084644],[6.035319,47.2084263],[6.0352936,47.2083822],[6.0352597,47.2083369],[6.0351678,47.208236],[6.0350559,47.2081348],[6.0346685,47.207841],[6.0338366,47.2072892],[6.0338036,47.2072199],[6.0338157,47.2071343],[6.0339547,47.207022],[6.0340604,47.206995],[6.0341694,47.2070048],[6.0345863,47.2072262],[6.0351401,47.2074366],[6.0352847,47.2074707],[6.035408,47.2074206],[6.0353838,47.2073217],[6.0352429,47.207136],[6.0344216,47.2064172],[6.0340543,47.2060838],[6.0338946,47.2059417],[6.0336918,47.2059305],[6.0330968,47.2059097],[6.0327324,47.2059147],[6.0324685,47.2059705],[6.0313464,47.2063188],[6.0309303,47.206465],[6.0308,47.2065278],[6.0306831,47.2066091],[6.0302612,47.2070038],[6.030101,47.2071007],[6.0298554,47.2071851],[6.0287172,47.2073897],[6.028515,47.207416],[6.0283064,47.2074127],[6.0277691,47.2073431],[6.02748,47.2072434],[6.0259758,47.2065568],[6.0241496,47.2055866],[6.0235284,47.2052576],[6.0222075,47.2041162],[6.0220923,47.204004]]},"properties":{"highway":"unclassified","name":"Chemin des Mercureaux","surface":"asphalt"}},
{"type":"Feature","geometry":{"type":"LineString","coordinates":[[6.0670941,47.1994268],[6.067319,47.1994691],[6.0674299,47.1994723],[6.0675503,47.1994756],[6.0676025,47.1994594],[6.0676675,47.1994174],[6.067669,47.1993647],[6.0677102,47.1993141],[6.0677862,47.1992711],[6.0678353,47.1992291],[6.0678639,47.1991753],[6.0678544,47.1991172],[6.0677752,47.1990343],[6.0676865,47.1989612],[6.0676009,47.1989009],[6.0675297,47.1988697],[6.067422,47.1990182],[6.0672636,47.1992194],[6.0671622,47.19934],[6.0670941,47.1994268]]},"properties":{"natural":"water","water":"pond"}},
{"type":"Feature","geometry":{"type":"LineString","coordinates":[[6.0691014,47.1496003],[6.0692744,47.1496615],[6.0694729,47.1496897],[6.0695386,47.1496605],[6.0695834,47.1496314],[6.0696097,47.1494687],[6.0695676,47.1493703],[6.0694971,47.149332],[6.0693371,47.1493226],[6.0692585,47.149343],[6.0692302,47.1493878],[6.0692727,47.1494652],[6.0692558,47.1495085],[6.0691244,47.1495765],[6.0691014,47.1496003]]},"properties":{"natural":"water"}},
{"type":"Feature","geometry":{"type":"LineString","coordinates":[[6.0692503,47.1497453],[6.0694568,47.1497772],[6.0694327,47.1498438],[6.069261,47.149987],[6.0691604,47.149946],[6.0691215,47.1497918],[6.0692503,47.1497453]]},"properties":{"natural":"water"}},
{"type":"Feature","geometry":{"type":"LineString","coordinates":[[6.0673025,47.1609732],[6.0675394,47.1610531],[6.067642,47.1610893],[6.0677713,47.1609956],[6.0678424,47.1609087],[6.0676934,47.1607972],[6.0676378,47.1607525],[6.0676083,47.1607306],[6.067442,47.1608291],[6.0673079,47.160913],[6.0673025,47.1609732]]},"properties":{"description":"Zone de campement pour le chantier d'entretien annuel du sentier karstique.","name":"Camp du sentier karstique","tourism":"camp_site"}},
{"type":"Feature","geometry":{"type":"LineString","coordinates":[[6.0683762,47.1488999],[6.068017,47.149045],[6.0680497,47.1491993],[6.0677697,47.149206],[6.0675614,47.1490493],[6.0675262,47.1491663],[6.0678582,47.1496183],[6.0681641,47.149571],[6.0682851,47.1498081],[6.0687899,47.1498087],[6.0685154,47.1495764],[6.0682768,47.1492883],[6.0686101,47.1491443],[6.0683762,47.1488999]]},"properties":{"natural":"scrub"}},
{"type":"Feature","geometry":{"type":"LineString","coordinates":[[6.0631267,47.150129],[6.063462,47.1499904]]},"properties":{"natural":"tree_row"}},
{"type":"Feature","geometry":{"type":"LineString","coordinates":[[6.0698418,47.1568773],[6.0697708,47.1567825],[6.0696769,47.1567606],[6.0696192,47.1566922],[6.0695079,47.1566557],[6.0694744,47.1565736],[6.0694757,47.1565198],[6.0694422,47.156498],[6.0694542,47.1564268],[6.0695347,47.1563967],[6.0696071,47.1564095],[6.0696138,47.1564578],[6.0697238,47.1565299],[6.0698646,47.1566129],[6.0699035,47.1566621],[6.0699451,47.1567232],[6.0699679,47.156798],[6.0699934,47.1568244],[6.069937,47.1568773],[6.0698915,47.1568874],[6.0698418,47.1568773]]},"properties":{"natural":"wood"}},
{"type":"Feature","geometry":{"type":"LineString","coordinates":[[6.062048,47.1643258],[6.0619997,47.1643411],[6.0616991,47.1643583],[6.0612305,47.1643291],[6.0611574,47.1643624],[6.0610535,47.1643868],[6.0609592,47.164356],[6.0609583,47.164314],[6.0610537,47.1642259],[6.0610119,47.1639679],[6.0607916,47.1638266],[6.0607534,47.1636794],[6.0607193,47.1634234],[6.0606887,47.1632411],[6.0606227,47.1630806],[6.0605798,47.1628836],[6.0604403,47.1627086],[6.0604172,47.1625639],[6.0604856,47.1624481],[6.0605154,47.1619499],[6.0607514,47.1615779],[6.060966,47.1614757],[6.0611913,47.1612642],[6.0614381,47.1610234],[6.0615129,47.1609815],[6.0616398,47.1609553],[6.0616834,47.160969],[6.0618067,47.1609586],[6.0618813,47.1609523]]},"properties":{"highway":"path","name":"Sentier karstique du Grand Bois (boucle Ouest)","tourism":"attraction"}},
{"type":"Feature","geometry":{"type":"LineString","coordinates":[[6.0716427,47.2051294],[6.0706514,47.2060942],[6.0699598,47.206773],[6.0692917,47.2074239]]},"properties":{"cycleway":"lane","highway":"tertiary","lanes":"1","maxspeed":"80","name":"Grande Rue","oneway":"no","ref":"D 246","source:ref":"Route500","surface":"asphalt"}},
{"type":"Feature","geometry":{"type":"LineString","coordinates":[[6.069427,47.151444],[6.0696666,47.1513593],[6.0692892,47.150943],[6.069217,47.150978],[6.0691372,47.1510042],[6.069071,47.151026],[6.069157,47.151151],[6.069212,47.151288],[6.0691475,47.1513],[6.0691886,47.1513603],[6.06935,47.151315],[6.069371,47.15135],[6.06938,47.151349],[6.069394,47.151348],[6.069402,47.151349],[6.069415,47.151354],[6.069426,47.151361],[6.069435,47.151368],[6.069439,47.151378],[6.069438,47.151389],[6.069432,47.151398],[6.069422,47.151407],[6.069409,47.151412],[6.069427,47.151444]]},"properties":{"leisure":"park","name":"Parc derrière l'église","operator":"Commune de Merey-sous-Montrond"}},
{"type":"Feature","geometry":{"type":"LineString","coordinates":[[6.0666817,47.1482255],[6.0664898,47.1485015],[6.0663536,47.1485633],[6.0663202,47.1485522],[6.0661303,47.1486447],[6.0661421,47.1486571],[6.0661092,47.1486744],[6.0660863,47.148708],[6.0661004,47.1487442],[6.0661835,47.148712],[6.0661467,47.1486749],[6.0663496,47.1485818],[6.0663864,47.1486189],[6.0666914,47.1484734],[6.0667215,47.1484385],[6.0667339,47.148394],[6.0667463,47.1483494],[6.0667427,47.1483025],[6.0666817,47.1482255]]},"properties":{"leisure":"park","name":"Parc de l'école","operator":"Commune de Merey-sous-Montrond"}},
{"type":"Feature","geometry":{"type":"LineString","coordinates":[[6.0236023,47.1999853],[6.023597,47.1998519],[6.0236204,47.199802],[6.0236764,47.1997644],[6.0238674,47.1996769],[6.0239642,47.1996289],[6.0240703,47.1995407],[6.0241502,47.1994393],[6.0242252,47.1993699],[6.0243464,47.1993059],[6.0245553,47.1992099],[6.0249664,47.199126],[6.0251012,47.1990834],[6.0251752,47.1990577]]},"properties":{"highway":"tertiary","lanes":"2","name":"Rue de la Fontaine","ref":"D 111","surface":"asphalt"}},
{"type":"Feature","geometry":{"type":"LineString","coordinates":[[6.0261731,47.1968395],[6.0261577,47.1966725],[6.0260432,47.1964113],[6.0260612,47.1962637],[6.0262118,47.1960977],[6.0263618,47.1960048],[6.0270357,47.195791],[6.0272752,47.195692],[6.0274674,47.1955826],[6.0276454,47.1954035],[6.0277534,47.1952848],[6.0278741,47.1952308],[6.0280106,47.195266],[6.0281998,47.1954162],[6.0285876,47.195663],[6.0287329,47.1956814],[6.0288367,47.1956508],[6.0289437,47.1955583],[6.0292088,47.1950133],[6.0293426,47.1947382],[6.0294203,47.1946569],[6.0295597,47.1945963],[6.0297111,47.1945793],[6.0299549,47.1945862],[6.0302002,47.194645],[6.0312127,47.1949918],[6.0314211,47.1950238],[6.0316288,47.195012],[6.0317949,47.1949486],[6.031954,47.1948584],[6.032227,47.1945374],[6.0326719,47.194218],[6.0329135,47.1941154]]},"properties":{"highway":"tertiary","name":"Route de la Forêt","ref":"D 111","surface":"asphalt"}},
{"type":"Feature","geometry":{"type":"LineString","coordinates":[[6.0424197,47.1820008],[6.0451979,47.1831754],[6.045589,47.1833328],[6.0463887,47.1837331],[6.0466989,47.1839235],[6.0470629,47.1841717],[6.0472661,47.1842928],[6.0485469,47.1851835],[6.0493676,47.1857091]]},"properties":{"highway":"unclassified","name":"Chemin du Bas de la Forêt"}},
{"type":"Feature","geometry":{"type":"LineString","coordinates":[[6.0208962,47.1964868],[6.021033,47.1964344],[6.0209804,47.1963758],[6.0208494,47.1964217],[6.0208962,47.1964868]]},"properties":{"access":"yes","leisure":"pitch","sport":"skateboard","surface":"asphalt"}},
{"type":"Feature","geometry":{"type":"LineString","coordinates":[[6.0208962,47.1964868],[6.0210314,47.1966497],[6.0211683,47.1965973],[6.021033,47.1964344],[6.0208962,47.1964868]]},"properties":{"access":"yes","leisure":"pitch","sport":"soccer","surface":"artificial_turf"}},
{"type":"Feature","geometry":{"type":"LineString","coordinates":[[6.0214238,47.1967027],[6.0215653,47.1966515],[6.0214946,47.1965614],[6.0213531,47.1966126],[6.0214238,47.1967027]]},"properties":{"access":"yes","leisure":"playground"}},
{"type":"Feature","geometry":{"type":"LineString","coordinates":[[6.0216938,47.1965274],[6.0218941,47.1964537],[6.0218509,47.1963996],[6.0216507,47.1964734],[6.0216938,47.1965274]]},"properties":{"access":"yes","boules":"petanque","leisure":"pitch","sport":"boules"}},
{"type":"Feature","geometry":{"type":"LineString","coordinates":[[6.0228511,47.1947243],[6.0222019,47.1940939],[6.0228713,47.19408],[6.0225388,47.1938033],[6.0224582,47.1937048],[6.0232016,47.1943144],[6.0232861,47.1947335],[6.0228749,47.195304899999999],[6.0227551,47.1954433],[6.0226203,47.195401],[6.022717,47.1952222],[6.0227463,47.1950805],[6.0227257,47.1949444],[6.0226535,47.1948508],[6.0228511,47.1947243]]},"properties":{"natural":"scrub"}},
{"type":"Feature","geometry":{"type":"LineString","coordinates":[[6.0535377,47.1755533],[6.0533982,47.1754098],[6.0538532,47.1752055],[6.0539927,47.175349],[6.0535377,47.1755533]]},"properties":{"leisure":"pitch","sport":"equestrian"}},
{"type":"Feature","geometry":{"type":"LineString","coordinates":[[6.0539854,47.1755617],[6.053958,47.1755792],[6.0539239,47.1755899],[6.0538866,47.1755928],[6.0538498,47.1755876],[6.0538155,47.1755737],[6.0537899,47.1755529],[6.053776,47.1755274],[6.0537755,47.1755002],[6.0537883,47.1754745],[6.0538131,47.1754531],[6.0538469,47.1754386],[6.0538859,47.1754327],[6.0539256,47.1754359],[6.0539614,47.1754479],[6.0539879,47.175466],[6.0540046,47.1754889],[6.05401,47.1755141],[6.0540033,47.1755393],[6.0539854,47.1755617]]},"properties":{"leisure":"pitch","sport":"equestrian"}},
{"type":"Feature","geometry":{"type":"LineString","coordinates":[[6.0121854,47.1500208],[6.0124842,47.1493076],[6.0134857,47.1493733],[6.0130645,47.1502085],[6.0121854,47.1500208]]},"properties":{"natural":"scrub"}},
{"type":"Feature","geometry":{"type":"LineString","coordinates":[[6.038251,47.1821417],[6.0361486,47.1816678]]},"properties":{"natural":"tree_row"}},
{"type":"Feature","geometry":{"type":"LineString","coordinates":[[6.0461431,47.1805811],[6.0461236,47.1806018],[6.046095,47.1806167],[6.0460605,47.1806242],[6.0460244,47.1806233],[6.0459909,47.1806141],[6.045966,47.1805994],[6.045949,47.1805801],[6.0459417,47.1805582],[6.0459448,47.1805358],[6.045958,47.1805152],[6.04598,47.1804984],[6.0460086,47.1804871],[6.0460409,47.1804824],[6.0460738,47.1804848],[6.0461039,47.180494],[6.0461302,47.1805108],[6.0461466,47.1805327],[6.0461511,47.1805571],[6.0461431,47.1805811]]},"properties":{"natural":"water","water":"wastewater"}},
{"type":"Feature","geometry":{"type":"LineString","coordinates":[[6.0515218,47.1995268],[6.0514142,47.1993619],[6.0513728,47.1992401],[6.0514004,47.199197],[6.0514611,47.1991764],[6.0516293,47.1991783],[6.0518168,47.1993226],[6.0518334,47.1993488],[6.0518251,47.1993769],[6.0516872,47.1994724],[6.0515824,47.1995249],[6.0515218,47.1995268]]},"properties":{"natural":"water"}},
{"type":"Feature","geometry":{"type":"LineString","coordinates":[[6.0489149,47.1996699],[6.0490277,47.1995469],[6.0489388,47.1995092],[6.048826,47.1996322],[6.0489149,47.1996699]]},"properties":{"access":"private","leisure":"swimming_pool"}},
{"type":"Feature","geometry":{"type":"LineString","coordinates":[[6.0666909,47.2064221],[6.0665751,47.2063772],[6.0664427,47.2062591],[6.0663765,47.2062179],[6.0663848,47.2061786],[6.0664326,47.2061678],[6.0666164,47.2062535],[6.066724,47.2063266],[6.0667516,47.2063565],[6.066735,47.2063903],[6.0666909,47.2064221]]},"properties":{"natural":"water"}},
{"type":"Feature","geometry":{"type":"LineString","coordinates":[[6.0200301,47.1994481],[6.0203563,47.199446],[6.0206097,47.1994606],[6.0216857,47.1997024],[6.0218552,47.1997394],[6.0221732,47.1998206],[6.0222864,47.1998619],[6.0226033,47.1999776],[6.0227843,47.2000419],[6.0229387,47.2000807],[6.0231984,47.2000963],[6.0234494,47.2000733],[6.0235068,47.2000572],[6.0235681,47.2000292],[6.0236023,47.1999853]]},"properties":{"highway":"tertiary","lanes":"2","name":"Rue de la Fontaine","ref":"D 111","surface":"asphalt"}},
{"type":"Feature","geometry":{"type":"LineString","coordinates":[[6.0665902,47.1484871],[6.0665721,47.1484657],[6.0666324,47.148431],[6.0665949,47.1484091],[6.0666217,47.1483914],[6.0666552,47.1484101],[6.0667048,47.1484105],[6.0666941,47.1484456],[6.0666566,47.1484734],[6.0665902,47.1484871]]},"properties":{"leisure":"playground"}},
{"type":"Feature","geometry":{"type":"LineString","coordinates":[[6.0220025,47.1681447],[6.0219471,47.1677289],[6.0211253,47.1678271],[6.021681,47.1680534],[6.0220025,47.1681447]]},"properties":{"leisure":"garden"}},
{"type":"Feature","geometry":{"type":"LineString","coordinates":[[6.0122487,47.2053072],[6.012259,47.2052991],[6.0122598,47.2052877],[6.0122482,47.2052798],[6.0122254999999999,47.2052785],[6.0122108,47.2052778],[6.0122007,47.2052719],[6.0121946,47.2052688],[6.012173,47.205267],[6.0121638,47.2052738],[6.0121563,47.2052851],[6.0121592,47.2052968],[6.0121644,47.2053052],[6.0121803,47.2053095],[6.0122487,47.2053072]]},"properties":{"access":"private","leisure":"swimming_pool","location":"outdoor"}},
{"type":"Feature","geometry":{"type":"LineString","coordinates":[[6.0122483,47.2055863],[6.0122603,47.2055458],[6.0121229,47.2055287],[6.0121147,47.2055561],[6.0121322,47.2055721],[6.0122483,47.2055863]]},"properties":{"leisure":"swimming_pool"}},
{"type":"Feature","geometry":{"type":"LineString","coordinates":[[6.0135201,47.2057038],[6.0135428,47.2057204],[6.0135704,47.2057297],[6.0136006,47.2057375],[6.0136181,47.2057201],[6.0135973,47.2057057],[6.0135713,47.2056941],[6.0135378,47.2056849],[6.0135201,47.2057038]]},"properties":{"leisure":"swimming_pool"}},
{"type":"Feature","geometry":{"type":"LineString","coordinates":[[6.0520002,47.2068709],[6.0530572,47.2056833],[6.0502765,47.2047],[6.0494308,47.2057274],[6.0520002,47.2068709]]},"properties":{"access":"yes","addr:town":"Fontain","ele":"408","free_flying:hanggliding":"yes","free_flying:official":"yes","free_flying:paragliding":"yes","leisure":"pitch","name":"Fontain - pente-ecole sud-ouest","name:signed":"no","network":"FFVL","official_name":"Fontain - pente-ecole sud-ouest","operator":"Besancon vol libre","operator:website":"https://besancon-vol-libre.fr/","postal_code":"25660","source":"FFVL","source:updated":"2023-07-13","source_ref":"https://federation.ffvl.fr/terrain/1612","sport":"free_flying","status":"active","website":"https://federation.ffvl.fr/terrain/1612"}},
{"type":"Feature","geometry":{"type":"LineString","coordinates":[[6.0188547,47.1997565],[6.0188192,47.19977],[6.0187793,47.199775],[6.0187391,47.199771],[6.018703,47.1997584],[6.0186748,47.1997385],[6.0186579,47.1997142],[6.018653,47.1996876],[6.0186607,47.1996612],[6.0186751,47.1996425],[6.0186959,47.1996268]]},"properties":{"highway":"tertiary","junction":"roundabout"}},
{"type":"Feature","geometry":{"type":"LineString","coordinates":[[6.0618813,47.1609523],[6.0620186,47.1609505],[6.0621653,47.1610347],[6.0623223,47.1611236],[6.0623797,47.1610671],[6.0624405,47.1610714],[6.0624908,47.1610989],[6.0625229,47.1611667],[6.0625108,47.161246],[6.062581,47.1612975],[6.0625879,47.1614162],[6.0627415,47.1615183],[6.062937,47.1616548],[6.0630994,47.1618253],[6.0631067,47.1619291],[6.0630449,47.1619771],[6.0629859,47.1620436],[6.0629141,47.1620463],[6.0628404,47.1620358],[6.0627932,47.1619957],[6.0627347,47.1619116],[6.0626949,47.1618915],[6.0626603,47.1618931],[6.0626357,47.1619239],[6.0626485,47.1619609],[6.0627207,47.1620232],[6.0628126,47.1620742],[6.0628775,47.1621698],[6.0629106,47.1621719],[6.0629727,47.1621555],[6.0630451,47.1621335],[6.0632098,47.1621915],[6.0632245,47.1622044],[6.0633053,47.1623694],[6.0634366,47.1624023],[6.0637664,47.1626119],[6.0637823,47.1627086],[6.0637567,47.1628805],[6.0636942,47.1629893],[6.0635149,47.1631256],[6.0634537,47.1633253],[6.0634658,47.1634234],[6.0636106,47.1636554],[6.0636486,47.163764],[6.0639389,47.1639397],[6.0639886,47.1640444],[6.0639798,47.1640945],[6.0639654,47.1641178],[6.0639186,47.1641193],[6.0638309,47.1640833],[6.0636037,47.1640295],[6.063536,47.1640277],[6.0634646,47.164059]]},"properties":{"highway":"path","name":"Sentier karstique du Grand Bois (boucle Ouest)","tourism":"attraction"}},
{"type":"Feature","geometry":{"type":"LineString","coordinates":[[6.0626826,47.1643254],[6.0626118,47.1643336]]},"properties":{"bridge":"yes","highway":"path","layer":"1","name":"Sentier karstique du Grand Bois (boucle Ouest)","tourism":"attraction"}},
{"type":"Feature","geometry":{"type":"LineString","coordinates":[[6.0633765,47.1640969],[6.0633412,47.1641681],[6.0632799,47.1641758],[6.063233,47.164149],[6.0632298,47.1640727],[6.0631931,47.1640054],[6.0631029,47.1639602],[6.0630383,47.1639438],[6.0628959,47.1640882],[6.0627369,47.1643029],[6.0626826,47.1643254]]},"properties":{"highway":"path","name":"Sentier karstique du Grand Bois (boucle Ouest)","tourism":"attraction"}},
{"type":"Feature","geometry":{"type":"LineString","coordinates":[[6.0634646,47.164059],[6.0634019,47.1640485],[6.0633765,47.1640969]]},"properties":{"highway":"path","layer":"-1","name":"Sentier karstique du Grand Bois (boucle Ouest)","tourism":"attraction","tunnel":"yes"}},
{"type":"Feature","geometry":{"type":"LineString","coordinates":[[6.0626118,47.1643336],[6.0624573,47.1643425],[6.0624039,47.1643635],[6.062309,47.1644762],[6.0622555,47.1644875],[6.0622302,47.1644731],[6.0621521,47.1643674],[6.062048,47.1643258]]},"properties":{"highway":"path","name":"Sentier karstique du Grand Bois (boucle Ouest)","tourism":"attraction"}},
{"type":"Feature","geometry":{"type":"LineString","coordinates":[[6.0027852,47.2040803],[6.0029794,47.2041816],[6.0035033,47.2047594],[6.0028276,47.2052272],[6.0037883,47.205673],[6.0044723,47.2059155],[6.00455,47.2057457],[6.0047659,47.2057621],[6.0047882,47.20599],[6.0055926,47.2061796],[6.0060428,47.2061423],[6.0067369,47.2059492],[6.0069608,47.205973],[6.0072863,47.2059344],[6.0071753,47.2057573],[6.0072067,47.2054455],[6.0075181,47.2052646],[6.0074156,47.205143],[6.0077755,47.2047983],[6.0079298,47.2048025],[6.007992,47.2045976],[6.0081781,47.2046224],[6.0084421,47.2043322],[6.008814,47.2044761],[6.0088767,47.204402],[6.0091282,47.2046402],[6.009195,47.2050027],[6.0092259,47.2051062],[6.0097873,47.205028],[6.0100044,47.2050835],[6.0103371,47.2051636],[6.0107207,47.2052281],[6.010766,47.2052547],[6.0107503,47.2053003],[6.011045,47.2052492],[6.0112614,47.2052371],[6.0113251,47.2050437],[6.0113639,47.2049375],[6.0113318,47.2044444],[6.0124472,47.2024239],[6.0110895,47.2021483],[6.0108385,47.2020623],[6.0106771,47.2021235],[6.0104262,47.2020617],[6.0098875,47.2018493],[6.0097473,47.2017206],[6.009363,47.2015797],[6.0086278,47.2010921],[6.0086628,47.2009553],[6.0068578,47.1997843],[6.0067434,47.1999828],[6.0073937,47.2003963],[6.0073412,47.2007234],[6.0072691,47.2008163],[6.0071772,47.2008253],[6.00683,47.2004676],[6.0067047,47.2003288],[6.0065515,47.2002058],[6.0062223,47.2001721],[6.0060157,47.1999103],[6.0059024,47.199852],[6.0060797,47.1996469],[6.0061683,47.1994439],[6.0059878,47.1993056],[6.0057908,47.1992409],[6.0055052,47.1990915],[6.005485,47.1989999],[6.0049778,47.1989137],[6.0047656,47.1990443],[6.0045582,47.1990644],[6.0043372,47.1989839],[6.0042456,47.1990406],[6.004643,47.1994278],[6.0048212,47.1996729],[6.0049975,47.1999438],[6.0051511,47.2000772],[6.0055139,47.2003262],[6.0056351,47.2005608],[6.0060522,47.2012174],[6.0061412,47.2014368],[6.006159,47.2015353],[6.0061056,47.2017427],[6.0060644,47.2019253],[6.006099,47.2021623],[6.0061687,47.202392],[6.0062848,47.2023467],[6.0063239,47.2021382],[6.0068344,47.2020087],[6.006905,47.2021419],[6.0073226,47.2020344],[6.0075227,47.2022694],[6.0071545,47.2024121],[6.0073128,47.2026032],[6.0068433,47.2028202],[6.0063154,47.2028554],[6.0062604,47.2028547],[6.006276,47.2028997],[6.0063524,47.2029749],[6.0064502,47.2030467],[6.0069617,47.2033258],[6.0071528,47.2035072],[6.0072388,47.2036448],[6.0072527,47.2037365],[6.0072334,47.2038309],[6.0070651,47.2041434],[6.0068351,47.2044101],[6.0065719,47.2046204],[6.0062051,47.2047627],[6.0056116,47.2048942],[6.0047068,47.2047593],[6.003992,47.2045108],[6.0031262,47.2042267],[6.0027852,47.2040803]]},"properties":{"natural":"wood","source":"Union européenne - SOeS, CORINE Land Cover, 2006."}},
{"type":"Feature","geometry":{"type":"LineString","coordinates":[[6.0190614,47.1998187],[6.0188547,47.1997565]]},"properties":{"highway":"unclassified","name":"Chemin des Mercureaux"}},
{"type":"Feature","geometry":{"type":"MultiPolygon","coordinates":[[[[6.0231583,47.1979661],[6.023202,47.1979166],[6.0233492,47.1979753],[6.0233039,47.1980265],[6.0231583,47.1979661]]]]},"properties":{"access":"private","leisure":"swimming_pool","source":"extraction vectorielle v1 cadastre-dgi-fr source : Direction Générale des Impôts - Cadas. Mise à jour : 2010"}},
{"type":"Feature","geometry":{"type":"MultiPolygon","coordinates":[[[[6.0322061,47.2002085],[6.0322343,47.2001392],[6.0322853,47.2001488],[6.032257,47.2002181],[6.0322061,47.2002085]]]]},"properties":{"access":"private","leisure":"swimming_pool","source":"extraction vectorielle v1 cadastre-dgi-fr source : Direction Générale des Impôts - Cadas. Mise à jour : 2010"}},
{"type":"Feature","geometry":{"type":"MultiPolygon","coordinates":[[[[6.0359657,47.2041487],[6.0360711,47.2041356],[6.036079,47.2041673],[6.0360379,47.2041714],[6.0359926,47.2041769],[6.0359657,47.2041487]]]]},"properties":{"access":"private","leisure":"swimming_pool","source":"extraction vectorielle v1 cadastre-dgi-fr source : Direction Générale des Impôts - Cadas. Mise à jour : 2010"}},
{"type":"Feature","geometry":{"type":"MultiPolygon","coordinates":[[[[6.0209086,47.199743],[6.0210182,47.1997411],[6.0210198,47.1997823],[6.0209101,47.1997842],[6.0209086,47.199743]]]]},"properties":{"access":"private","leisure":"swimming_pool","source":"extraction vectorielle v1 cadastre-dgi-fr source : Direction Générale des Impôts - Cadas. Mise à jour : 2010"}},
{"type":"Feature","geometry":{"type":"MultiPolygon","coordinates":[[[[6.0224178,47.2074169],[6.0225282,47.207401],[6.0226401,47.2073914],[6.0227524,47.2073881],[6.0227973,47.2073883],[6.0228556,47.2073681],[6.0229094,47.2073427],[6.0229481,47.207342],[6.0229855,47.2073357],[6.022999,47.2073317],[6.0230996,47.2072788],[6.0232055,47.2072311],[6.0233162,47.2071885],[6.0233426,47.2071792],[6.0233809,47.2071465],[6.0234118,47.2071101],[6.0234183,47.2071009],[6.0234723,47.2070665],[6.0235314,47.2070547],[6.0235874,47.2070369],[6.0236497,47.2070086],[6.0237066,47.2069755],[6.0237371,47.206954],[6.0237333,47.2069788],[6.0237207,47.2070017],[6.0237013,47.2070212],[6.023662,47.2070486],[6.0236168,47.2070717],[6.023567,47.2070897],[6.0235424,47.2070963],[6.0234729,47.2071451],[6.0234101,47.207198],[6.0233923,47.2072148],[6.023328,47.2072315],[6.0232608,47.2072423],[6.0232454,47.207244],[6.0231164,47.2072913],[6.023021,47.2073561],[6.0229123,47.2073686],[6.0228123,47.2074099],[6.0226801,47.2074227],[6.0225495,47.2074414],[6.0224768,47.207455],[6.0224178,47.2074169]]]]},"properties":{"natural":"water","source":"extraction vectorielle v1 cadastre-dgi-fr source : Direction Générale des Impôts - Cadas. Mise à jour : 2010","water":"stream"}},
{"type":"Feature","geometry":{"type":"MultiPolygon","coordinates":[[[[6.0348973,47.203823],[6.0349073,47.2038001],[6.034935,47.203783],[6.0349423,47.2037888],[6.0350091,47.2038014],[6.0350453,47.2038337],[6.0350276,47.2038522],[6.0349995,47.2038546],[6.0349647,47.2038388],[6.0349241,47.2038426],[6.0349086,47.203838],[6.0348973,47.203823]]]]},"properties":{"access":"private","leisure":"swimming_pool","source":"extraction vectorielle v1 cadastre-dgi-fr source : Direction Générale des Impôts - Cadas. Mise à jour : 2010"}},
{"type":"Feature","geometry":{"type":"MultiPolygon","coordinates":[[[[6.0323114,47.2034631],[6.0323271,47.203449],[6.0324255,47.2034354],[6.0324319,47.2034719],[6.0323444,47.2034845],[6.0323265,47.203484],[6.0323116,47.2034734],[6.0323114,47.2034631]]]]},"properties":{"access":"private","leisure":"swimming_pool","source":"extraction vectorielle v1 cadastre-dgi-fr source : Direction Générale des Impôts - Cadas. Mise à jour : 2010"}},
{"type":"Feature","geometry":{"type":"MultiPolygon","coordinates":[[[[6.0271794,47.2025679],[6.0272097,47.2025351],[6.0273091,47.2025781],[6.0272713,47.2026087],[6.0271794,47.2025679]]]]},"properties":{"access":"private","leisure":"swimming_pool","source":"extraction vectorielle v1 cadastre-dgi-fr source : Direction Générale des Impôts - Cadas. Mise à jour : 2010"}},
{"type":"Feature","geometry":{"type":"MultiPolygon","coordinates":[[[[6.0374568,47.2044066],[6.0374796,47.2043717],[6.0375989,47.2044062],[6.0375723,47.2044425],[6.0374568,47.2044066]]]]},"properties":{"access":"private","leisure":"swimming_pool","source":"extraction vectorielle v1 cadastre-dgi-fr source : Direction Générale des Impôts - Cadas. Mise à jour : 2010"}},
{"type":"Feature","geometry":{"type":"MultiPolygon","coordinates":[[[[6.0239789,47.2023149],[6.0240002,47.2022677],[6.0241326,47.2022952],[6.0241114,47.2023427],[6.0239789,47.2023149]]]]},"properties":{"access":"private","leisure":"swimming_pool","source":"extraction vectorielle v1 cadastre-dgi-fr source : Direction Générale des Impôts - Cadas. Mise à jour : 2010"}},
{"type":"Feature","geometry":{"type":"MultiPolygon","coordinates":[[[[6.0201989,47.2066492],[6.0202236,47.2065836],[6.0203303,47.2065129],[6.0203711,47.2064489],[6.0207012,47.2064133],[6.0211103,47.2061271],[6.021164,47.2061504],[6.0208851,47.2063302],[6.0207106,47.2064403],[6.020438,47.2064704],[6.0202982,47.2066083],[6.0202764,47.2066755],[6.0201989,47.2066492]]]]},"properties":{"natural":"water","source":"extraction vectorielle v1 cadastre-dgi-fr source : Direction Générale des Impôts - Cadas. Mise à jour : 2010","water":"stream"}},
{"type":"Feature","geometry":{"type":"MultiPolygon","coordinates":[[[[6.0474167,47.1879738],[6.0474563,47.1879378],[6.047562,47.187992],[6.0475228,47.1880283],[6.0474167,47.1879738]]]]},"properties":{"access":"private","leisure":"swimming_pool","source":"extraction vectorielle v1 cadastre-dgi-fr source : Direction Générale des Impôts - Cadas. Mise à jour : 2010"}},
{"type":"Feature","geometry":{"type":"MultiPolygon","coordinates":[[[[6.026727,47.2023401],[6.0267304,47.202332],[6.0267371,47.2023265],[6.026746,47.2023229],[6.0267577,47.2023216],[6.0267673,47.2023154],[6.0267721,47.2023086],[6.0267783,47.2023014],[6.0267858,47.2022969],[6.0267927,47.2022947],[6.0268021,47.2022931],[6.0268179,47.2022947],[6.0268259,47.2022975],[6.0268295,47.2022997],[6.0268331,47.2023023],[6.0268387,47.2023098],[6.0268408,47.2023161],[6.0268384,47.2023262],[6.0268301,47.2023347],[6.026785,47.2023595],[6.0267788,47.202364],[6.0267689,47.2023663],[6.0267602,47.2023655],[6.0267491,47.2023621],[6.0267362,47.2023571],[6.0267289,47.20235],[6.026727,47.2023401]]]]},"properties":{"access":"private","leisure":"swimming_pool","source":"extraction vectorielle v1 cadastre-dgi-fr source : Direction Générale des Impôts - Cadas. Mise à jour : 2010"}},
{"type":"Feature","geometry":{"type":"MultiPolygon","coordinates":[[[[6.0237233,47.1980408],[6.0238501,47.1980151],[6.0238666,47.198054],[6.0237398,47.1980793],[6.0237233,47.1980408]]]]},"properties":{"access":"private","leisure":"swimming_pool","source":"extraction vectorielle v1 cadastre-dgi-fr source : Direction Générale des Impôts - Cadas. Mise à jour : 2010"}},
{"type":"Feature","geometry":{"type":"MultiPolygon","coordinates":[[[[6.0227787,47.2005504],[6.0227928,47.200525],[6.0228546,47.2005409],[6.0228404,47.2005663],[6.0227787,47.2005504]]]]},"properties":{"access":"private","leisure":"swimming_pool","source":"extraction vectorielle v1 cadastre-dgi-fr source : Direction Générale des Impôts - Cadas. Mise à jour : 2010"}},
{"type":"Feature","geometry":{"type":"MultiPolygon","coordinates":[[[[6.0219805,47.2013233],[6.021991,47.2012787],[6.0221213,47.201293],[6.0221109,47.2013375],[6.0219805,47.2013233]]]]},"properties":{"access":"private","leisure":"swimming_pool","source":"extraction vectorielle v1 cadastre-dgi-fr source : Direction Générale des Impôts - Cadas. Mise à jour : 2010"}},
{"type":"Feature","geometry":{"type":"MultiPolygon","coordinates":[[[[6.0316827,47.2032169],[6.0316993,47.2031796],[6.0317356,47.2031836],[6.0317712,47.2031906],[6.0318053,47.2032004],[6.0318261,47.2032082],[6.0318049,47.203248],[6.0316992,47.2032232],[6.0316827,47.2032169]]]]},"properties":{"access":"private","leisure":"swimming_pool","source":"extraction vectorielle v1 cadastre-dgi-fr source : Direction Générale des Impôts - Cadas. Mise à jour : 2010"}},
{"type":"Feature","geometry":{"type":"MultiPolygon","coordinates":[[[[6.024774,47.2018305],[6.0248451,47.2017743],[6.0248477,47.2017729],[6.0248536,47.2017704],[6.0248618,47.2017696],[6.0248732,47.2017713],[6.0248822,47.2017767],[6.0248861,47.2017842],[6.0248859,47.2017886],[6.0248224,47.2018555],[6.0248077,47.2018576],[6.0247964,47.2018572],[6.0247861,47.2018528],[6.0247788,47.201847],[6.0247746,47.2018404],[6.024774,47.2018305]]]]},"properties":{"access":"private","leisure":"swimming_pool","source":"extraction vectorielle v1 cadastre-dgi-fr source : Direction Générale des Impôts - Cadas. Mise à jour : 2010"}},
{"type":"Feature","geometry":{"type":"MultiPolygon","coordinates":[[[[6.0369628,47.2051069],[6.0369884,47.2050916],[6.0370041,47.2050918],[6.0370479,47.205105],[6.037088,47.2051382],[6.0370924,47.2051611],[6.0370805,47.2051897],[6.0370388,47.2051815],[6.0370268,47.2051768],[6.0370116,47.2051472],[6.0370077,47.2051467],[6.0369909,47.2051421],[6.0369766,47.2051348],[6.0369656,47.2051255],[6.0369628,47.2051069]]]]},"properties":{"access":"private","leisure":"swimming_pool","source":"extraction vectorielle v1 cadastre-dgi-fr source : Direction Générale des Impôts - Cadas. Mise à jour : 2010"}},
{"type":"Feature","geometry":{"type":"MultiPolygon","coordinates":[[[[6.0347209,47.204406],[6.0347734,47.2043896],[6.0348253,47.2043846],[6.0348451,47.2043877],[6.0348551,47.2044191],[6.0347909,47.2044364],[6.0347641,47.2044388],[6.0347375,47.2044382],[6.0347296,47.2044374],[6.0347209,47.204406]]]]},"properties":{"access":"private","leisure":"swimming_pool","source":"extraction vectorielle v1 cadastre-dgi-fr source : Direction Générale des Impôts - Cadas. Mise à jour : 2010"}},
{"type":"Feature","geometry":{"type":"MultiPolygon","coordinates":[[[[6.0217383,47.200484],[6.0217672,47.2004539],[6.0218556,47.2004932],[6.0218254,47.2005226],[6.0217383,47.200484]]]]},"properties":{"access":"private","leisure":"swimming_pool","source":"extraction vectorielle v1 cadastre-dgi-fr source : Direction Générale des Impôts - Cadas. Mise à jour : 2010"}},
{"type":"Feature","geometry":{"type":"MultiPolygon","coordinates":[[[[6.0232337,47.2019449],[6.0232556,47.2019084],[6.0233585,47.2019367],[6.0233366,47.2019732],[6.0232337,47.2019449]]]]},"properties":{"access":"private","leisure":"swimming_pool","source":"extraction vectorielle v1 cadastre-dgi-fr source : Direction Générale des Impôts - Cadas. Mise à jour : 2010"}},
{"type":"Feature","geometry":{"type":"MultiPolygon","coordinates":[[[[6.0263366,47.1998262],[6.0263566,47.1998107],[6.0263802,47.1997967],[6.0264065,47.1997851],[6.0264351,47.1997763],[6.0264649,47.1998032],[6.0264436,47.199819],[6.0264192,47.1998327],[6.0263915,47.1998437],[6.0263624,47.1998521],[6.0263366,47.1998262]]]]},"properties":{"access":"private","leisure":"swimming_pool","source":"extraction vectorielle v1 cadastre-dgi-fr source : Direction Générale des Impôts - Cadas. Mise à jour : 2010"}},
{"type":"Feature","geometry":{"type":"MultiPolygon","coordinates":[[[[6.0519158,47.1993307],[6.0519551,47.199296],[6.0520003000000008,47.1992655],[6.0520417,47.1992444],[6.0521122,47.1992146],[6.0522124,47.1991876],[6.0523058,47.1991565],[6.0523921,47.1991156],[6.052473,47.1990698],[6.052507,47.1990482],[6.0525872,47.1990151],[6.0526713,47.1989876],[6.0527111,47.1989769],[6.0527753,47.1989446],[6.0528446,47.1989174],[6.0528822,47.1989054],[6.0529387,47.1988753],[6.0530335,47.1987616],[6.053105,47.1987274],[6.0532035,47.1987084],[6.0532976,47.1986673],[6.0533037,47.1986751],[6.0532606,47.1986969],[6.0532129,47.1987135],[6.0532065,47.1987153],[6.0531051,47.198736],[6.0530563,47.198758],[6.0529991,47.1988141],[6.0529495,47.1988733],[6.0529418,47.1988839],[6.0528982,47.198911],[6.0528311,47.1989314],[6.0527687,47.1989571],[6.0527138,47.1989861],[6.0525949,47.1990209],[6.0525143,47.199055],[6.0523425,47.1991522],[6.0522754,47.1991803],[6.0521039,47.1992288],[6.0519762,47.1992924],[6.0519158,47.1993307]]]]},"properties":{"natural":"water","source":"extraction vectorielle v1 cadastre-dgi-fr source : Direction Générale des Impôts - Cadas. Mise à jour : 2010","water":"ditch"}},
{"type":"Feature","geometry":{"type":"MultiPolygon","coordinates":[[[[6.0200329,47.2007476],[6.0200649,47.2007151],[6.0201083,47.2006903],[6.0201344,47.2007063],[6.02013,47.2007197],[6.0201286,47.2007217],[6.0201162,47.2007357],[6.0201002,47.2007475],[6.0200813,47.2007573],[6.0200601,47.2007645],[6.0200329,47.2007476]]]]},"properties":{"access":"private","leisure":"swimming_pool","source":"extraction vectorielle v1 cadastre-dgi-fr source : Direction Générale des Impôts - Cadas. Mise à jour : 2010"}},
{"type":"Feature","geometry":{"type":"MultiPolygon","coordinates":[[[[6.067554,47.153895],[6.067556,47.153891],[6.067557,47.153889],[6.067624,47.15385],[6.067631,47.153848],[6.067634,47.153848],[6.067639,47.153848],[6.067645,47.15385],[6.06765,47.153851],[6.067654,47.153854],[6.067658,47.153856],[6.067661,47.153859],[6.067663,47.153863],[6.067665,47.153866],[6.067666,47.15387],[6.067665,47.153874],[6.067663,47.153877],[6.067661,47.15388],[6.067596,47.153916],[6.06759,47.153917],[6.067585,47.153917],[6.06758,47.153917],[6.067574,47.153916],[6.067569,47.153914],[6.067564,47.153912],[6.067561,47.153909],[6.067558,47.153906],[6.067555,47.153902],[6.067555,47.153899],[6.067554,47.153895]]]]},"properties":{"natural":"water","source":"cadastre-dgi-fr source : Direction Générale des Impôts - Cadastre. Mise à jour : 2010"}},
{"type":"Feature","geometry":{"type":"MultiPolygon","coordinates":[[[[6.067309,47.153657],[6.067395,47.153608],[6.067437,47.153641],[6.06735,47.15369],[6.067309,47.153657]]]]},"properties":{"natural":"water","source":"cadastre-dgi-fr source : Direction Générale des Impôts - Cadastre. Mise à jour : 2010"}},
{"type":"Feature","geometry":{"type":"MultiPolygon","coordinates":[[[[6.067764,47.177978],[6.067815,47.17791],[6.067862,47.177927],[6.067811,47.177994],[6.067764,47.177978]]]]},"properties":{"natural":"water","source":"cadastre-dgi-fr source : Direction Générale des Impôts - Cadastre. Mise à jour : 2010"}},
{"type":"Feature","geometry":{"type":"MultiPolygon","coordinates":[[[[6.050563,47.158585],[6.050584,47.1585],[6.050857,47.158536],[6.050834,47.158623],[6.050775,47.158616],[6.05074,47.158712],[6.050658,47.158701],[6.050666,47.158667],[6.05061,47.15866],[6.050627,47.15859],[6.050563,47.158585]]]]},"properties":{"building":"yes","historic":"manor","source":"cadastre-dgi-fr source : Direction Générale des Impôts - Cadastre. Mise à jour : 2010"}},
{"type":"Feature","geometry":{"type":"MultiPolygon","coordinates":[[[[6.066696,47.153827],[6.066838,47.15377],[6.066877,47.153811],[6.066733,47.15387],[6.066696,47.153827]]]]},"properties":{"natural":"water","source":"cadastre-dgi-fr source : Direction Générale des Impôts - Cadastre. Mise à jour : 2010"}},
{"type":"Feature","geometry":{"type":"MultiPolygon","coordinates":[[[[6.066191,47.149834],[6.066232,47.149807],[6.066302,47.149857],[6.066261,47.149884],[6.066191,47.149834]]]]},"properties":{"access":"private","leisure":"swimming_pool","source":"cadastre-dgi-fr source : Direction Générale des Impôts - Cadastre. Mise à jour : 2010"}},
{"type":"Feature","geometry":{"type":"MultiPolygon","coordinates":[[[[6.062057,47.155021],[6.062276,47.154915],[6.062307,47.154924],[6.062341,47.154959],[6.06211,47.155076],[6.062057,47.155021]]]]},"properties":{"natural":"water","source":"cadastre-dgi-fr source : Direction Générale des Impôts - Cadastre. Mise à jour : 2010"}},
{"type":"Feature","geometry":{"type":"MultiPolygon","coordinates":[[[[6.014936,47.202631],[6.014943,47.202626],[6.014965,47.202623],[6.014985,47.202617],[6.015013,47.202614],[6.015115,47.202522],[6.015116,47.202457],[6.015152,47.202319],[6.015155,47.202308],[6.01516,47.202276],[6.015158,47.202245],[6.015159,47.202238],[6.015156,47.202223],[6.015152,47.202219],[6.015145,47.202207],[6.015143,47.202194],[6.015147,47.202181],[6.015205,47.202114],[6.015213,47.202098],[6.015235,47.202033],[6.015242,47.202022],[6.015263,47.201986],[6.015279,47.201948],[6.015282,47.201938],[6.015282,47.201925],[6.015277,47.201912],[6.01527,47.201904],[6.015264,47.201891],[6.015264,47.201877],[6.015271,47.201819],[6.015272,47.20181],[6.015279,47.201764],[6.015292,47.201719],[6.015296,47.201695],[6.015301,47.201647],[6.01531,47.201599],[6.015316,47.201585],[6.015334,47.201552],[6.015357,47.201521],[6.015358,47.201513],[6.015336,47.201467],[6.015315,47.201392],[6.015307,47.201305],[6.015303,47.201266],[6.015295,47.201227],[6.015294,47.201223],[6.015285,47.201178],[6.015271,47.201134],[6.015254,47.200997],[6.015245,47.200944],[6.015233,47.200901],[6.015243,47.200903],[6.015248,47.200926],[6.015283,47.201137],[6.01531,47.201255],[6.015321,47.201384],[6.015328,47.201414],[6.015336,47.201446],[6.015349,47.201479],[6.015367,47.201467],[6.015368,47.20151],[6.015323,47.20158],[6.015309,47.201625],[6.015299,47.201711],[6.015294,47.20173],[6.015279,47.201802],[6.015269,47.201873],[6.015271,47.201881],[6.015278,47.201904],[6.015291,47.201925],[6.015279,47.201965],[6.015277,47.201968],[6.015252,47.202011],[6.015233,47.202055],[6.015219,47.202099],[6.015204,47.202124],[6.015147,47.202191],[6.015153,47.202203],[6.015163,47.202228],[6.015167,47.202253],[6.015157,47.202323],[6.015144,47.202376],[6.015124,47.202428],[6.015121,47.202525],[6.015014,47.202618],[6.014987,47.202621],[6.014967,47.202627],[6.014945,47.202631],[6.014936,47.202631]]]]},"properties":{"natural":"water","source":"cadastre-dgi-fr source : Direction Générale des Impôts - Cadastre. Mise à jour : 2010","water":"stream"}},
{"type":"Feature","geometry":{"type":"MultiPolygon","coordinates":[[[[6.012344,47.205015],[6.012348,47.205012],[6.012393,47.205004],[6.012412,47.205038],[6.012525,47.205178],[6.012624,47.205289],[6.012645,47.205309],[6.012618,47.2053],[6.012579,47.205315],[6.012573,47.205298],[6.01255,47.205261],[6.012521,47.205225],[6.012488,47.205191],[6.012448,47.205153],[6.012409,47.205109],[6.012373,47.205063],[6.012344,47.205015]]]]},"properties":{"natural":"water","source":"cadastre-dgi-fr source : Direction Générale des Impôts - Cadastre. Mise à jour : 2010","water":"stream"}},
{"type":"Feature","geometry":{"type":"MultiPolygon","coordinates":[[[[6.01305,47.201696],[6.013063,47.201666],[6.01306,47.201687],[6.01306,47.201688],[6.01306,47.201695],[6.013065,47.201702],[6.013075,47.201707],[6.013212,47.201737],[6.013443,47.201817],[6.013588,47.201866],[6.013762,47.201941],[6.013922,47.202056],[6.013939,47.20207],[6.014082,47.202163],[6.014125,47.202204],[6.014133,47.202213],[6.014171,47.202249],[6.014212,47.202283],[6.014257,47.202315],[6.014338,47.202368],[6.014367,47.202381],[6.014424,47.202403],[6.014483,47.202422],[6.014607,47.20245],[6.014623,47.202456],[6.014638,47.202465],[6.014649,47.202476],[6.014707,47.202544],[6.014737,47.202559],[6.014806,47.202584],[6.014848,47.202592],[6.014852,47.202593],[6.014884,47.202605],[6.014913,47.20262],[6.014921,47.202623],[6.014936,47.202626],[6.014943,47.202626],[6.014936,47.202631],[6.014917,47.202645],[6.014918,47.20263],[6.014887,47.202613],[6.014856,47.202602],[6.014823,47.202594],[6.014808,47.202592],[6.014727,47.202564],[6.014706,47.20255],[6.014694,47.202542],[6.014637,47.202474],[6.014634,47.202472],[6.014621,47.202463],[6.014605,47.202458],[6.014472,47.202427],[6.014432,47.202415],[6.01438,47.202396],[6.014329,47.202373],[6.014252,47.202321],[6.014211,47.202291],[6.014164,47.202251],[6.01412,47.202209],[6.01406,47.202153],[6.014044,47.202144],[6.013978,47.202103],[6.013915,47.202059],[6.013747,47.201942],[6.013682,47.201913],[6.013565,47.201866],[6.013426,47.201819],[6.013359,47.201796],[6.013207,47.201743],[6.013071,47.201713],[6.013065,47.201712],[6.013056,47.201707],[6.01305,47.201696]]]]},"properties":{"natural":"water","source":"cadastre-dgi-fr source : Direction Générale des Impôts - Cadastre. Mise à jour : 2010","water":"stream"}},
{"type":"Feature","geometry":{"type":"MultiPolygon","coordinates":[[[[6.011229,47.2050203],[6.011284,47.204964],[6.011282,47.204936],[6.011285,47.204921],[6.011289,47.204902],[6.011296,47.204858],[6.011309,47.204815],[6.011314,47.204802],[6.011329,47.204787],[6.011347,47.204773],[6.01137,47.204762],[6.011395,47.204755],[6.011397,47.204755],[6.011425,47.204754],[6.01151,47.204755],[6.011545,47.204749],[6.011582,47.204738],[6.011611,47.204716],[6.011636,47.204705],[6.011663,47.204698],[6.011692,47.204694],[6.011715,47.204694],[6.011745,47.204695],[6.011773,47.204699],[6.011786,47.204703],[6.011845,47.204732],[6.011908,47.204744],[6.011971,47.204753],[6.011985,47.204755],[6.01213,47.204787],[6.012277,47.204789],[6.012321,47.204797],[6.01234,47.204804],[6.012356,47.204813],[6.012367,47.204826],[6.012374,47.20484],[6.012375,47.204845],[6.012386,47.204951],[6.012389,47.204975],[6.012386,47.204981],[6.01234,47.20499],[6.012333,47.204987],[6.012318,47.204865],[6.012306,47.204851],[6.01229,47.204838],[6.012275,47.20483],[6.012252,47.204829],[6.012228,47.204832],[6.012218,47.204835],[6.012153,47.204828],[6.012086,47.204821],[6.01202,47.20481],[6.011969,47.204799],[6.011881,47.204781],[6.011778,47.204752],[6.011745,47.204748],[6.011713,47.204749],[6.011683,47.204754],[6.011665,47.204758],[6.011609,47.204787],[6.011584,47.204795],[6.011556,47.2048],[6.011528,47.204801],[6.011525,47.204801],[6.011489,47.2048],[6.011453,47.204802],[6.011418,47.204808],[6.011405,47.204811],[6.011387,47.204818],[6.011372,47.204829],[6.011362,47.204841],[6.01136,47.204845],[6.011347,47.204919],[6.011342,47.204934],[6.0113337,47.204946],[6.0113303,47.2049582],[6.0113148,47.2049755],[6.0113047,47.2049923],[6.0112827,47.2050225],[6.011239,47.2050377],[6.0112345,47.2050303],[6.011229,47.2050203]]]]},"properties":{"natural":"water","source":"cadastre-dgi-fr source : Direction Générale des Impôts - Cadastre. Mise à jour : 2010","water":"stream"}},
{"type":"Feature","geometry":{"type":"MultiPolygon","coordinates":[[[[6.0217954,47.1954954],[6.0220133,47.1954113],[6.02225,47.1956948],[6.0220322,47.1957788],[6.0217954,47.1954954]]]]},"properties":{"access":"yes","leisure":"pitch","sport":"tennis"}},
{"type":"Feature","geometry":{"type":"MultiPolygon","coordinates":[[[[6.0215861,47.1955761],[6.0217954,47.1954954],[6.0220322,47.1957788],[6.0218229,47.1958595],[6.0215861,47.1955761]]]]},"properties":{"access":"yes","leisure":"pitch","sport":"tennis"}},
{"type":"Feature","geometry":{"type":"MultiPolygon","coordinates":[[[[6.0205353,47.1957878],[6.0213093,47.1954843],[6.0219759,47.1962695],[6.0212019,47.1965729],[6.0205353,47.1957878]]]]},"properties":{"access":"yes","leisure":"pitch","lit":"yes","sport":"soccer","surface":"grass"}},
{"type":"Feature","geometry":{"type":"MultiPolygon","coordinates":[[[[6.0292387,47.2003106],[6.0292529,47.2000798],[6.0294575,47.2000856],[6.0294432,47.2003164],[6.0292387,47.2003106]]]]},"properties":{"leisure":"pitch","sport":"multi"}},
{"type":"Feature","geometry":{"type":"MultiPolygon","coordinates":[[[[6.0271541,47.200013],[6.0273041,47.1998274],[6.0274374,47.1998772],[6.0272875,47.2000628],[6.0271541,47.200013]]]]},"properties":{"leisure":"pitch","name":"tennis désafecté","sport":"tennis"}},
{"type":"Feature","geometry":{"type":"MultiPolygon","coordinates":[[[[6.0221373,47.196864],[6.022612,47.1965502],[6.0232025,47.1969625],[6.0227278,47.1972763],[6.0221373,47.196864]]]]},"properties":{"access":"yes","leisure":"pitch","lit":"yes","sport":"soccer","surface":"fine_gravel"}},
{"type":"Feature","geometry":{"type":"MultiPolygon","coordinates":[[[[6.0506075,47.1922898],[6.0507148,47.1922862],[6.0507309,47.1923737],[6.0506129,47.1923737],[6.0506075,47.1922898]]]]},"properties":{"natural":"water","water":"reservoir"}},
{"type":"Feature","geometry":{"type":"MultiPolygon","coordinates":[[[[6.0502803,47.1925997],[6.0503769,47.1924648],[6.0510367,47.1923882],[6.0510581,47.1925413],[6.0502803,47.1925997]]]]},"properties":{"natural":"water","water":"reservoir"}},
{"type":"Feature","geometry":{"type":"MultiPolygon","coordinates":[[[[6.0507336,47.1922865],[6.0508806,47.1922754],[6.050894,47.192354],[6.0507899,47.1923554],[6.0507336,47.1922865]]]]},"properties":{"natural":"water","water":"reservoir"}},
{"type":"Feature","geometry":{"type":"MultiPolygon","coordinates":[[[[6.0667004,47.1552281],[6.0667594,47.1551461],[6.0668694,47.1550895],[6.0669311,47.1550841],[6.0670116,47.1551205],[6.0670518,47.1551825],[6.0670826,47.1552468],[6.0670572,47.1552601],[6.0669794,47.1552245],[6.0668641,47.1552537],[6.0667729,47.1552683],[6.0667782,47.1553029],[6.0668641,47.1553193],[6.0668158,47.1553503],[6.0667487,47.1553266],[6.0667219,47.1552883],[6.0667004,47.1552281]]]]},"properties":{"natural":"water","water":"reservoir"}},
{"type":"Feature","geometry":{"type":"MultiPolygon","coordinates":[[[[6.0451829,47.2004071],[6.0452268,47.2001576],[6.0453808,47.199965],[6.0455302,47.1998754],[6.0458116,47.1998067],[6.0460183,47.1998306],[6.0462821,47.1998575],[6.0465019,47.1997798],[6.0466267,47.1998173],[6.0464187,47.1999452],[6.0461553,47.2001174],[6.0461404,47.200374],[6.0461901,47.2005428],[6.0461345,47.2009472],[6.0465526,47.2010714],[6.0470099,47.2010552],[6.0472762,47.2011065],[6.0473744,47.2012275],[6.0474216,47.2015059],[6.0472048,47.2017603],[6.047031,47.201693],[6.0468053,47.2016897],[6.0466306,47.201687],[6.0465866,47.2017917],[6.046305,47.2020084],[6.0461186,47.2019957],[6.0462677,47.2018817],[6.0460627,47.2017889],[6.0460503,47.2016116],[6.0458142,47.2014723],[6.0455098,47.2016201],[6.0453483,47.2017931],[6.0452563,47.2017506],[6.0456312,47.2011241],[6.0458698,47.2011292],[6.0458346,47.2007906],[6.0459255,47.2004713],[6.0458397,47.2003137],[6.0457132,47.2002859],[6.0456384,47.2005869],[6.0452122,47.2005559],[6.0451829,47.2004071]]]]},"properties":{"natural":"scrub"}},
{"type":"Feature","geometry":{"type":"MultiPolygon","coordinates":[[[[6.0670941,47.1994268],[6.0671622,47.19934],[6.0672636,47.1992194],[6.067422,47.1990182],[6.0675297,47.1988697],[6.0676009,47.1989009],[6.0676865,47.1989612],[6.0677752,47.1990343],[6.0678544,47.1991172],[6.0678639,47.1991753],[6.0678353,47.1992291],[6.0677862,47.1992711],[6.0677102,47.1993141],[6.067669,47.1993647],[6.0676675,47.1994174],[6.0676025,47.1994594],[6.0675503,47.1994756],[6.0674299,47.1994723],[6.067319,47.1994691],[6.0670941,47.1994268]]]]},"properties":{"natural":"water","water":"pond"}},
{"type":"Feature","geometry":{"type":"MultiPolygon","coordinates":[[[[6.0691014,47.1496003],[6.0691244,47.1495765],[6.0692558,47.1495085],[6.0692727,47.1494652],[6.0692302,47.1493878],[6.0692585,47.149343],[6.0693371,47.1493226],[6.0694971,47.149332],[6.0695676,47.1493703],[6.0696097,47.1494687],[6.0695834,47.1496314],[6.0695386,47.1496605],[6.0694729,47.1496897],[6.0692744,47.1496615],[6.0691014,47.1496003]]]]},"properties":{"natural":"water"}},
{"type":"Feature","geometry":{"type":"MultiPolygon","coordinates":[[[[6.0691215,47.1497918],[6.0692503,47.1497453],[6.0694568,47.1497772],[6.0694327,47.1498438],[6.069261,47.149987],[6.0691604,47.149946],[6.0691215,47.1497918]]]]},"properties":{"natural":"water"}},
{"type":"Feature","geometry":{"type":"MultiPolygon","coordinates":[[[[6.0673025,47.1609732],[6.0673079,47.160913],[6.067442,47.1608291],[6.0676083,47.1607306],[6.0676378,47.1607525],[6.0676934,47.1607972],[6.0678424,47.1609087],[6.0677713,47.1609956],[6.067642,47.1610893],[6.0675394,47.1610531],[6.0673025,47.1609732]]]]},"properties":{"description":"Zone de campement pour le chantier d'entretien annuel du sentier karstique.","name":"Camp du sentier karstique","tourism":"camp_site"}},
{"type":"Feature","geometry":{"type":"MultiPolygon","coordinates":[[[[6.0675262,47.1491663],[6.0675614,47.1490493],[6.0677697,47.149206],[6.0680497,47.1491993],[6.068017,47.149045],[6.0683762,47.1488999],[6.0686101,47.1491443],[6.0682768,47.1492883],[6.0685154,47.1495764],[6.0687899,47.1498087],[6.0682851,47.1498081],[6.0681641,47.149571],[6.0678582,47.1496183],[6.0675262,47.1491663]]]]},"properties":{"natural":"scrub"}},
{"type":"Feature","geometry":{"type":"MultiPolygon","coordinates":[[[[6.0694422,47.156498],[6.0694542,47.1564268],[6.0695347,47.1563967],[6.0696071,47.1564095],[6.0696138,47.1564578],[6.0697238,47.1565299],[6.0698646,47.1566129],[6.0699035,47.1566621],[6.0699451,47.1567232],[6.0699679,47.156798],[6.0699934,47.1568244],[6.069937,47.1568773],[6.0698915,47.1568874],[6.0698418,47.1568773],[6.0697708,47.1567825],[6.0696769,47.1567606],[6.0696192,47.1566922],[6.0695079,47.1566557],[6.0694744,47.1565736],[6.0694757,47.1565198],[6.0694422,47.156498]]]]},"properties":{"natural":"wood"}},
{"type":"Feature","geometry":{"type":"MultiPolygon","coordinates":[[[[6.069071,47.151026],[6.0691372,47.1510042],[6.069217,47.150978],[6.0692892,47.150943],[6.0696666,47.1513593],[6.069427,47.151444],[6.069409,47.151412],[6.069422,47.151407],[6.069432,47.151398],[6.069438,47.151389],[6.069439,47.151378],[6.069435,47.151368],[6.069426,47.151361],[6.069415,47.151354],[6.069402,47.151349],[6.069394,47.151348],[6.06938,47.151349],[6.069371,47.15135],[6.06935,47.151315],[6.0691886,47.1513603],[6.0691475,47.1513],[6.069212,47.151288],[6.069157,47.151151],[6.069071,47.151026]]]]},"properties":{"leisure":"park","name":"Parc derrière l'église","operator":"Commune de Merey-sous-Montrond"}},
{"type":"Feature","geometry":{"type":"MultiPolygon","coordinates":[[[[6.0660863,47.148708],[6.0661092,47.1486744],[6.0661421,47.1486571],[6.0661303,47.1486447],[6.0663202,47.1485522],[6.0663536,47.1485633],[6.0664898,47.1485015],[6.0666817,47.1482255],[6.0667427,47.1483025],[6.0667463,47.1483494],[6.0667339,47.148394],[6.0667215,47.1484385],[6.0666914,47.1484734],[6.0663864,47.1486189],[6.0663496,47.1485818],[6.0661467,47.1486749],[6.0661835,47.148712],[6.0661004,47.1487442],[6.0660863,47.148708]]]]},"properties":{"leisure":"park","name":"Parc de l'école","operator":"Commune de Merey-sous-Montrond"}},
{"type":"Feature","geometry":{"type":"MultiPolygon","coordinates":[[[[6.0208494,47.1964217],[6.0209804,47.1963758],[6.021033,47.1964344],[6.0208962,47.1964868],[6.0208494,47.1964217]]]]},"properties":{"access":"yes","leisure":"pitch","sport":"skateboard","surface":"asphalt"}},
{"type":"Feature","geometry":{"type":"MultiPolygon","coordinates":[[[[6.0208962,47.1964868],[6.021033,47.1964344],[6.0211683,47.1965973],[6.0210314,47.1966497],[6.0208962,47.1964868]]]]},"properties":{"access":"yes","leisure":"pitch","sport":"soccer","surface":"artificial_turf"}},
{"type":"Feature","geometry":{"type":"MultiPolygon","coordinates":[[[[6.0213531,47.1966126],[6.0214946,47.1965614],[6.0215653,47.1966515],[6.0214238,47.1967027],[6.0213531,47.1966126]]]]},"properties":{"access":"yes","leisure":"playground"}},
{"type":"Feature","geometry":{"type":"MultiPolygon","coordinates":[[[[6.0216507,47.1964734],[6.0218509,47.1963996],[6.0218941,47.1964537],[6.0216938,47.1965274],[6.0216507,47.1964734]]]]},"properties":{"access":"yes","boules":"petanque","leisure":"pitch","sport":"boules"}},
{"type":"Feature","geometry":{"type":"MultiPolygon","coordinates":[[[[6.0222019,47.1940939],[6.0228713,47.19408],[6.0225388,47.1938033],[6.0224582,47.1937048],[6.0232016,47.1943144],[6.0232861,47.1947335],[6.0228749,47.195304899999999],[6.0227551,47.1954433],[6.0226203,47.195401],[6.022717,47.1952222],[6.0227463,47.1950805],[6.0227257,47.1949444],[6.0226535,47.1948508],[6.0228511,47.1947243],[6.0222019,47.1940939]]]]},"properties":{"natural":"scrub"}},
{"type":"Feature","geometry":{"type":"MultiPolygon","coordinates":[[[[6.0533982,47.1754098],[6.0538532,47.1752055],[6.0539927,47.175349],[6.0535377,47.1755533],[6.0533982,47.1754098]]]]},"properties":{"leisure":"pitch","sport":"equestrian"}},
{"type":"Feature","geometry":{"type":"MultiPolygon","coordinates":[[[[6.0537755,47.1755002],[6.0537883,47.1754745],[6.0538131,47.1754531],[6.0538469,47.1754386],[6.0538859,47.1754327],[6.0539256,47.1754359],[6.0539614,47.1754479],[6.0539879,47.175466],[6.0540046,47.1754889],[6.05401,47.1755141],[6.0540033,47.1755393],[6.0539854,47.1755617],[6.053958,47.1755792],[6.0539239,47.1755899],[6.0538866,47.1755928],[6.0538498,47.1755876],[6.0538155,47.1755737],[6.0537899,47.1755529],[6.053776,47.1755274],[6.0537755,47.1755002]]]]},"properties":{"leisure":"pitch","sport":"equestrian"}},
{"type":"Feature","geometry":{"type":"MultiPolygon","coordinates":[[[[6.0121854,47.1500208],[6.0124842,47.1493076],[6.0134857,47.1493733],[6.0130645,47.1502085],[6.0121854,47.1500208]]]]},"properties":{"natural":"scrub"}},
{"type":"Feature","geometry":{"type":"MultiPolygon","coordinates":[[[[6.0459417,47.1805582],[6.0459448,47.1805358],[6.045958,47.1805152],[6.04598,47.1804984],[6.0460086,47.1804871],[6.0460409,47.1804824],[6.0460738,47.1804848],[6.0461039,47.180494],[6.0461302,47.1805108],[6.0461466,47.1805327],[6.0461511,47.1805571],[6.0461431,47.1805811],[6.0461236,47.1806018],[6.046095,47.1806167],[6.0460605,47.1806242],[6.0460244,47.1806233],[6.0459909,47.1806141],[6.045966,47.1805994],[6.045949,47.1805801],[6.0459417,47.1805582]]]]},"properties":{"natural":"water","water":"wastewater"}},
{"type":"Feature","geometry":{"type":"MultiPolygon","coordinates":[[[[6.0513728,47.1992401],[6.0514004,47.199197],[6.0514611,47.1991764],[6.0516293,47.1991783],[6.0518168,47.1993226],[6.0518334,47.1993488],[6.0518251,47.1993769],[6.0516872,47.1994724],[6.0515824,47.1995249],[6.0515218,47.1995268],[6.0514142,47.1993619],[6.0513728,47.1992401]]]]},"properties":{"natural":"water"}},
{"type":"Feature","geometry":{"type":"MultiPolygon","coordinates":[[[[6.048826,47.1996322],[6.0489388,47.1995092],[6.0490277,47.1995469],[6.0489149,47.1996699],[6.048826,47.1996322]]]]},"properties":{"access":"private","leisure":"swimming_pool"}},
{"type":"Feature","geometry":{"type":"MultiPolygon","coordinates":[[[[6.0663765,47.2062179],[6.0663848,47.2061786],[6.0664326,47.2061678],[6.0666164,47.2062535],[6.066724,47.2063266],[6.0667516,47.2063565],[6.066735,47.2063903],[6.0666909,47.2064221],[6.0665751,47.2063772],[6.0664427,47.2062591],[6.0663765,47.2062179]]]]},"properties":{"natural":"water"}},
{"type":"Feature","geometry":{"type":"MultiPolygon","coordinates":[[[[6.0665721,47.1484657],[6.0666324,47.148431],[6.0665949,47.1484091],[6.0666217,47.1483914],[6.0666552,47.1484101],[6.0667048,47.1484105],[6.0666941,47.1484456],[6.0666566,47.1484734],[6.0665902,47.1484871],[6.0665721,47.1484657]]]]},"properties":{"leisure":"playground"}},
{"type":"Feature","geometry":{"type":"MultiPolygon","coordinates":[[[[6.0211253,47.1678271],[6.0219471,47.1677289],[6.0220025,47.1681447],[6.021681,47.1680534],[6.0211253,47.1678271]]]]},"properties":{"leisure":"garden"}},
{"type":"Feature","geometry":{"type":"MultiPolygon","coordinates":[[[[6.0121563,47.2052851],[6.0121638,47.2052738],[6.012173,47.205267],[6.0121946,47.2052688],[6.0122007,47.2052719],[6.0122108,47.2052778],[6.0122254999999999,47.2052785],[6.0122482,47.2052798],[6.0122598,47.2052877],[6.012259,47.2052991],[6.0122487,47.2053072],[6.0121803,47.2053095],[6.0121644,47.2053052],[6.0121592,47.2052968],[6.0121563,47.2052851]]]]},"properties":{"access":"private","leisure":"swimming_pool","location":"outdoor"}},
{"type":"Feature","geometry":{"type":"MultiPolygon","coordinates":[[[[6.0121147,47.2055561],[6.0121229,47.2055287],[6.0122603,47.2055458],[6.0122483,47.2055863],[6.0121322,47.2055721],[6.0121147,47.2055561]]]]},"properties":{"leisure":"swimming_pool"}},
{"type":"Feature","geometry":{"type":"MultiPolygon","coordinates":[[[[6.0135201,47.2057038],[6.0135378,47.2056849],[6.0135713,47.2056941],[6.0135973,47.2057057],[6.0136181,47.2057201],[6.0136006,47.2057375],[6.0135704,47.2057297],[6.0135428,47.2057204],[6.0135201,47.2057038]]]]},"properties":{"leisure":"swimming_pool"}},
{"type":"Feature","geometry":{"type":"MultiPolygon","coordinates":[[[[6.0494308,47.2057274],[6.0502765,47.2047],[6.0530572,47.2056833],[6.0520002,47.2068709],[6.0494308,47.2057274]]]]},"properties":{"access":"yes","addr:town":"Fontain","ele":"408","free_flying:hanggliding":"yes","free_flying:official":"yes","free_flying:paragliding":"yes","leisure":"pitch","name":"Fontain - pente-ecole sud-ouest","name:signed":"no","network":"FFVL","official_name":"Fontain - pente-ecole sud-ouest","operator":"Besancon vol libre","operator:website":"https://besancon-vol-libre.fr/","postal_code":"25660","source":"FFVL","source:updated":"2023-07-13","source_ref":"https://federation.ffvl.fr/terrain/1612","sport":"free_flying","status":"active","website":"https://federation.ffvl.fr/terrain/1612"}},
{"type":"Feature","geometry":{"type":"MultiPolygon","coordinates":[[[[6.0027852,47.2040803],[6.0031262,47.2042267],[6.003992,47.2045108],[6.0047068,47.2047593],[6.0056116,47.2048942],[6.0062051,47.2047627],[6.0065719,47.2046204],[6.0068351,47.2044101],[6.0070651,47.2041434],[6.0072334,47.2038309],[6.0072527,47.2037365],[6.0072388,47.2036448],[6.0071528,47.2035072],[6.0069617,47.2033258],[6.0064502,47.2030467],[6.0063524,47.2029749],[6.006276,47.2028997],[6.0062604,47.2028547],[6.0063154,47.2028554],[6.0068433,47.2028202],[6.0073128,47.2026032],[6.0071545,47.2024121],[6.0075227,47.2022694],[6.0073226,47.2020344],[6.006905,47.2021419],[6.0068344,47.2020087],[6.0063239,47.2021382],[6.0062848,47.2023467],[6.0061687,47.202392],[6.006099,47.2021623],[6.0060644,47.2019253],[6.0061056,47.2017427],[6.006159,47.2015353],[6.0061412,47.2014368],[6.0060522,47.2012174],[6.0056351,47.2005608],[6.0055139,47.2003262],[6.0051511,47.2000772],[6.0049975,47.1999438],[6.0048212,47.1996729],[6.004643,47.1994278],[6.0042456,47.1990406],[6.0043372,47.1989839],[6.0045582,47.1990644],[6.0047656,47.1990443],[6.0049778,47.1989137],[6.005485,47.1989999],[6.0055052,47.1990915],[6.0057908,47.1992409],[6.0059878,47.1993056],[6.0061683,47.1994439],[6.0060797,47.1996469],[6.0059024,47.199852],[6.0060157,47.1999103],[6.0062223,47.2001721],[6.0065515,47.2002058],[6.0067047,47.2003288],[6.00683,47.2004676],[6.0071772,47.2008253],[6.0072691,47.2008163],[6.0073412,47.2007234],[6.0073937,47.2003963],[6.0067434,47.1999828],[6.0068578,47.1997843],[6.0086628,47.2009553],[6.0086278,47.2010921],[6.009363,47.2015797],[6.0097473,47.2017206],[6.0098875,47.2018493],[6.0104262,47.2020617],[6.0106771,47.2021235],[6.0108385,47.2020623],[6.0110895,47.2021483],[6.0124472,47.2024239],[6.0113318,47.2044444],[6.0113639,47.2049375],[6.0113251,47.2050437],[6.0112614,47.2052371],[6.011045,47.2052492],[6.0107503,47.2053003],[6.010766,47.2052547],[6.0107207,47.2052281],[6.0103371,47.2051636],[6.0100044,47.2050835],[6.0097873,47.205028],[6.0092259,47.2051062],[6.009195,47.2050027],[6.0091282,47.2046402],[6.0088767,47.204402],[6.008814,47.2044761],[6.0084421,47.2043322],[6.0081781,47.2046224],[6.007992,47.2045976],[6.0079298,47.2048025],[6.0077755,47.2047983],[6.0074156,47.205143],[6.0075181,47.2052646],[6.0072067,47.2054455],[6.0071753,47.2057573],[6.0072863,47.2059344],[6.0069608,47.205973],[6.0067369,47.2059492],[6.0060428,47.2061423],[6.0055926,47.2061796],[6.0047882,47.20599],[6.0047659,47.2057621],[6.00455,47.2057457],[6.0044723,47.2059155],[6.0037883,47.205673],[6.0028276,47.2052272],[6.0035033,47.2047594],[6.0029794,47.2041816],[6.0027852,47.2040803]]]]},"properties":{"natural":"wood","source":"Union européenne - SOeS, CORINE Land Cover, 2006."}}
]}
