{"type":"FeatureCollection","features":[
{"type":"Feature","geometry":{"type":"Point","coordinates":[3.0909163,42.5222194]},"properties":{"ele":"54","hiking":"yes","information":"guidepost","name":"Colline Pams","source":"cadastre-dgi-fr source : Direction Générale des Impôts - Cadastre ; mise à jour : 2008","tourism":"information"}},
{"type":"Feature","geometry":{"type":"Point","coordinates":[3.0865909,42.5274336]},"properties":{"description":"Clocher : Dôme : Sommet - Point vu en place en 2002","ele":"30.9","historic":"monument","name":"Le Clocher","note":"Ne pas déplacer ce point, cf. - Do not move this node, see - http://wiki.openstreetmap.org/wiki/WikiProject_France/Repères_Géodésiques#Permanence_des_rep.C3.A8res","ref":"66053B -","source":"©IGN 2010 dans le cadre de la cartographie réglementaire","url":"http://ancien-geodesie.ign.fr/fiche_point.asp?num_site=66053B&no_ptg=01&numero_f50=2549"}},
{"type":"Feature","geometry":{"type":"Point","coordinates":[3.0855102,42.5259194]},"properties":{"source":"cadastre-dgi-fr source : Direction Générale des Impôts - Cadastre. Mise à jour : 2010"}},
{"type":"Feature","geometry":{"type":"Point","coordinates":[3.0849481,42.5261292]},"properties":{"source":"cadastre-dgi-fr source : Direction Générale des Impôts - Cadastre. Mise à jour : 2010"}},
{"type":"Feature","geometry":{"type":"Point","coordinates":[3.0855786,42.5257833]},"properties":{"source":"cadastre-dgi-fr source : Direction Générale des Impôts - Cadastre. Mise à jour : 2010"}},
{"type":"Feature","geometry":{"type":"Point","coordinates":[3.0847863,42.5260941]},"properties":{"source":"cadastre-dgi-fr source : Direction Générale des Impôts - Cadastre. Mise à jour : 2010"}},
{"type":"Feature","geometry":{"type":"Point","coordinates":[3.0855304,42.5258495]},"properties":{"source":"cadastre-dgi-fr source : Direction Générale des Impôts - Cadastre. Mise à jour : 2010"}},
{"type":"Feature","geometry":{"type":"Point","coordinates":[3.0855793,42.5258532]},"properties":{"source":"cadastre-dgi-fr source : Direction Générale des Impôts - Cadastre. Mise à jour : 2010"}},
{"type":"Feature","geometry":{"type":"Point","coordinates":[3.0851116,42.5259601]},"properties":{"source":"cadastre-dgi-fr source : Direction Générale des Impôts - Cadastre. Mise à jour : 2010"}},
{"type":"Feature","geometry":{"type":"Point","coordinates":[3.0855664,42.5258661]},"properties":{"source":"cadastre-dgi-fr source : Direction Générale des Impôts - Cadastre. Mise à jour : 2010"}},
{"type":"Feature","geometry":{"type":"Point","coordinates":[3.0854969,42.5259218]},"properties":{"source":"cadastre-dgi-fr source : Direction Générale des Impôts - Cadastre. Mise à jour : 2010"}},
{"type":"Feature","geometry":{"type":"Point","coordinates":[3.0855597,42.5258726]},"properties":{"source":"cadastre-dgi-fr source : Direction Générale des Impôts - Cadastre. Mise à jour : 2010"}},
{"type":"Feature","geometry":{"type":"Point","coordinates":[3.0851732,42.5260164]},"properties":{"source":"cadastre-dgi-fr source : Direction Générale des Impôts - Cadastre. Mise à jour : 2010"}},
{"type":"Feature","geometry":{"type":"Point","coordinates":[3.0854558,42.5258112]},"properties":{"source":"cadastre-dgi-fr source : Direction Générale des Impôts - Cadastre. Mise à jour : 2010"}},
{"type":"Feature","geometry":{"type":"Point","coordinates":[3.0854319,42.5258774]},"properties":{"source":"cadastre-dgi-fr source : Direction Générale des Impôts - Cadastre. Mise à jour : 2010"}},
{"type":"Feature","geometry":{"type":"Point","coordinates":[3.0848576,42.5261843]},"properties":{"source":"cadastre-dgi-fr source : Direction Générale des Impôts - Cadastre. Mise à jour : 2010"}},
{"type":"Feature","geometry":{"type":"Point","coordinates":[3.0855716,42.5257765]},"properties":{"source":"cadastre-dgi-fr source : Direction Générale des Impôts - Cadastre. Mise à jour : 2010"}},
{"type":"Feature","geometry":{"type":"Point","coordinates":[3.0854792,42.5258669]},"properties":{"source":"cadastre-dgi-fr source : Direction Générale des Impôts - Cadastre. Mise à jour : 2010"}},
{"type":"Feature","geometry":{"type":"Point","coordinates":[3.0855007,42.5257997]},"properties":{"source":"cadastre-dgi-fr source : Direction Générale des Impôts - Cadastre. Mise à jour : 2010"}},
{"type":"Feature","geometry":{"type":"Point","coordinates":[3.0855244,42.5258573]},"properties":{"source":"cadastre-dgi-fr source : Direction Générale des Impôts - Cadastre. Mise à jour : 2010"}},
{"type":"Feature","geometry":{"type":"Point","coordinates":[3.0854827,42.5257763]},"properties":{"source":"cadastre-dgi-fr source : Direction Générale des Impôts - Cadastre. Mise à jour : 2010"}},
{"type":"Feature","geometry":{"type":"Point","coordinates":[3.09915,42.5197493]},"properties":{"historic":"wayside_cross","name":"La Croix Blanche"}},
{"type":"Feature","geometry":{"type":"Point","coordinates":[3.0874815,42.5283769]},"properties":{"historic":"wayside_cross","religion":"christian"}},
{"type":"Feature","geometry":{"type":"Point","coordinates":[3.082721,42.5243395]},"properties":{"name":"Les Suites","tourism":"hotel"}},
{"type":"Feature","geometry":{"type":"Point","coordinates":[3.0894087,42.5240834]},"properties":{"name":"Le Bon Port","stars":"2","tourism":"hotel"}},
{"type":"Feature","geometry":{"type":"Point","coordinates":[3.0823575,42.524282]},"properties":{"historic":"wayside_cross"}},
{"type":"Feature","geometry":{"type":"Point","coordinates":[3.0825051,42.5260536]},"properties":{"name":"Casa Païral","phone":"+33468820581","rooms":"27","stars":"3","tourism":"hotel"}},
{"type":"Feature","geometry":{"type":"Point","coordinates":[3.0826445,42.5258638]},"properties":{"name":"Princes de Catalogne","tourism":"hotel"}},
{"type":"Feature","geometry":{"type":"Point","coordinates":[3.1165662,42.5198378]},"properties":{"name":"Anse Cristina","name:ca":"Ansa Cristina","natural":"bay"}},
{"type":"Feature","geometry":{"type":"Point","coordinates":[3.1181423,42.5212292]},"properties":{"name":"Anse de l'Espelugas","name:ca":"Ansa de l'Espeluga","natural":"bay"}},
{"type":"Feature","geometry":{"type":"Point","coordinates":[3.08389,42.5265119]},"properties":{"amenity":"restaurant","bar":"yes","name":"Les Templiers","tourism":"hotel","website":"https://www.hotel-templiers.com/"}},
{"type":"Feature","geometry":{"type":"Point","coordinates":[3.0848461,42.5255481]},"properties":{"access":"yes","fixme":"vérifier landuse (appartient au Conseil Général ou armée?), et heritage - il y a eu confusion avec le Fort-Saint-Elme, corrigé la référence de data.gouv.fr pour chateau de collioure","heritage":"2","heritage:operator":"mhs","historic":"castle","historic:civilization":"medieval","mhs:inscription_date":"1922-11-14","name":"Château Royal de Collioure","name:ca":"Castell Reial de Cotlliure","ref:mhs":"PA00103998","source":"data.gouv.fr:Ministère de la Culture - 08/2011","source:heritage":"Ministère de la Culture - 06/2019","website":"https://www.collioure.com/decouvrir/les-incontournables/le-chateau-royal","wheelchair":"no","wikidata":"Q2356811","wikipedia":"fr:Château royal de Collioure"}},
{"type":"Feature","geometry":{"type":"Point","coordinates":[3.0845367,42.5263116]},"properties":{"board_type":"notice","check_date":"2021-08-14","description":"Informations sur la zone militaire CNEC 1er Choc","information":"board","tourism":"information"}},
{"type":"Feature","geometry":{"type":"Point","coordinates":[3.0847931,42.5268434]},"properties":{"information":"office","name":"Office du Tourisme","tourism":"information"}},
{"type":"Feature","geometry":{"type":"Point","coordinates":[3.0845854,42.5267243]},"properties":{"genus":"Platanus","natural":"tree"}},
{"type":"Feature","geometry":{"type":"Point","coordinates":[3.0846139,42.5268975]},"properties":{"genus":"Platanus","natural":"tree"}},
{"type":"Feature","geometry":{"type":"Point","coordinates":[3.0821792,42.5261355]},"properties":{"description":"Maison où Antonio Machado a passé les derniers jours de sa vie et y est décédé, lors de son exil d'Espagne, ainsi que sa mère le 22 fèvrier 1939.","description:es":"Hotel en el que se alojó y falleció Antonio Machado desde su llegada el 28 de enero de 1939.","fixme":"Est-ce réellement un musée ?","historic":"yes","name":"Hôtel Bougnol-Quintana","tourism":"museum"}},
{"type":"Feature","geometry":{"type":"Point","coordinates":[3.0854739,42.524068]},"properties":{"name":"Point de vue n°7 - Sur le clocher de Collioure","tourism":"viewpoint","wheelchair":"yes"}},
{"type":"Feature","geometry":{"type":"Point","coordinates":[3.084666,42.5265497]},"properties":{"name":"Point Info","tourism":"information"}},
{"type":"Feature","geometry":{"type":"Point","coordinates":[3.0874959,42.5239531]},"properties":{"addr:city":"Collioure","addr:postcode":"66190","addr:street":"rue Jean Bart","email":"hotelboramar.collioure@orange.fr","internet_access":"wlan","internet_access:fee":"customers","name":"Hôtel Boramar","phone":"+33 4 68 82 07 06","tourism":"hotel","website":"https://www.hotel-boramar.fr/"}},
{"type":"Feature","geometry":{"type":"Point","coordinates":[3.0837637,42.5240757]},"properties":{"description":"Sculpture de Gherban Alexandre, 1986","name":"Stelle Paysanne","tourism":"artwork"}},
{"type":"Feature","geometry":{"type":"Point","coordinates":[3.0857403,42.5239722]},"properties":{"name":"André Derain - Bateaux à Collioure","tourism":"artwork"}},
{"type":"Feature","geometry":{"type":"Point","coordinates":[3.0859531,42.5239106]},"properties":{"name":"Henri Matisse - La Plage Rouge","tourism":"artwork"}},
{"type":"Feature","geometry":{"type":"Point","coordinates":[3.0854165,42.5239828]},"properties":{"name":"Meule à moulin","tourism":"artwork"}},
{"type":"Feature","geometry":{"type":"Point","coordinates":[3.0868828,42.5235901]},"properties":{"name":"Statue de la vierge","tourism":"artwork"}},
{"type":"Feature","geometry":{"type":"Point","coordinates":[3.0860385,42.5237621]},"properties":{"amenity":"atm","brand":"Banque Populaire","brand:wikidata":"Q846647","operator":"Banque Populaire","operator:wikidata":"Q846647"}},
{"type":"Feature","geometry":{"type":"Point","coordinates":[3.0823021,42.52614]},"properties":{"description":"Panneau indiquant la maison où Antonio Machado a passé ses derniers jours, sur le mur en coin de rue. Il fait référence à une maison en face, le numéro 2 de la rue Machado","information":"board","tourism":"information"}},
{"type":"Feature","geometry":{"type":"Point","coordinates":[3.0822618,42.5243487]},"properties":{"direction_east":"Fort Saint-Elme","information":"guidepost","motor_vehicle":"yes","tourism":"information"}},
{"type":"Feature","geometry":{"type":"Point","coordinates":[3.0832475,42.5264019]},"properties":{"name":"La Frégate","tourism":"hotel"}},
{"type":"Feature","geometry":{"type":"Point","coordinates":[3.0872469,42.5237108]},"properties":{"name":"L'Amphytrion","stars":"2","tourism":"hotel"}},
{"type":"Feature","geometry":{"type":"Point","coordinates":[3.084083,42.5266184]},"properties":{"name":"Les Templiers","tourism":"hotel"}},
{"type":"Feature","geometry":{"type":"Point","coordinates":[3.0837159,42.5237653]},"properties":{"leaf_type":"broadleaved","natural":"tree"}},
{"type":"Feature","geometry":{"type":"Point","coordinates":[3.0881882,42.5262306]},"properties":{"name":"Ansa de la Baleta","natural":"bay"}},
{"type":"Feature","geometry":{"type":"Point","coordinates":[3.0947059,42.524839]},"properties":{"name":"Ansa dels Reguers","natural":"bay"}},
{"type":"Feature","geometry":{"type":"Point","coordinates":[3.1095064,42.5237122]},"properties":{"name":"Anse de la Mauresque","name:ca":"Ansa de la Moresca","natural":"bay"}},
{"type":"Feature","geometry":{"type":"Point","coordinates":[3.0860846,42.5236005]},"properties":{"denomination":"catholic","historic":"wayside_shrine","religion":"christian"}},
{"type":"Feature","geometry":{"type":"Point","coordinates":[3.1236201,42.5197585]},"properties":{"hiking":"yes","information":"guidepost","name":"Sentier Littoral","tourism":"information"}},
{"type":"Feature","geometry":{"type":"Point","coordinates":[3.085476,42.5276587]},"properties":{"name":"Casa Finote","tourism":"guest_house"}},
{"type":"Feature","geometry":{"type":"Point","coordinates":[3.0824931,42.5253709]},"properties":{"name":"Le Mas des Citronniers","stars":"3","tourism":"hotel"}},
{"type":"Feature","geometry":{"type":"Point","coordinates":[3.0826506,42.525491]},"properties":{"name":"La Bona Casa","name:ca":"La Bona Casa","phone":"+33468820662","tourism":"hotel"}},
{"type":"Feature","geometry":{"type":"Point","coordinates":[3.0895624,42.5230866]},"properties":{"covered":"no","leisure":"picnic_table"}},
{"type":"Feature","geometry":{"type":"Point","coordinates":[3.0883491,42.5243104]},"properties":{"tourism":"viewpoint"}},
{"type":"Feature","geometry":{"type":"Point","coordinates":[3.0824762,42.5277083]},"properties":{"information":"guidepost","tourism":"information"}},
{"type":"Feature","geometry":{"type":"Point","coordinates":[3.1009643,42.5228856]},"properties":{"air_conditioning":"yes","brand":"Ibis Styles","brand:wikidata":"Q3147425","brand:wikipedia":"en:Ibis Styles","name":"Ibis Styles Port-Vendres","tourism":"hotel"}},
{"type":"Feature","geometry":{"type":"Point","coordinates":[3.0836553,42.5243184]},"properties":{"artwork_type":"sculpture","material":"metal","source":"survey 2021","tourism":"artwork"}},
{"type":"Feature","geometry":{"type":"Point","coordinates":[3.1197266,42.5208754]},"properties":{"hiking":"yes","information":"guidepost","name":"Ansa de l'Espelugas","tourism":"information"}},
{"type":"Feature","geometry":{"type":"Point","coordinates":[3.1230034,42.5197255]},"properties":{"ele":"60","hiking":"yes","information":"guidepost","tourism":"information"}},
{"type":"Feature","geometry":{"type":"Point","coordinates":[3.0848795,42.5265721]},"properties":{"natural":"tree"}},
{"type":"Feature","geometry":{"type":"Point","coordinates":[3.0849131,42.5267211]},"properties":{"natural":"tree"}},
{"type":"Feature","geometry":{"type":"Point","coordinates":[3.0849327,42.5266119]},"properties":{"tourism":"viewpoint"}},
{"type":"Feature","geometry":{"type":"Point","coordinates":[3.0850097,42.5269677]},"properties":{"natural":"tree"}},
{"type":"Feature","geometry":{"type":"Point","coordinates":[3.084958,42.5268551]},"properties":{"natural":"tree"}},
{"type":"Feature","geometry":{"type":"Point","coordinates":[3.0850867,42.5271307]},"properties":{"natural":"tree"}},
{"type":"Feature","geometry":{"type":"Point","coordinates":[3.0860513,42.5276154]},"properties":{"natural":"tree"}},
{"type":"Feature","geometry":{"type":"Point","coordinates":[3.0861965,42.5276806]},"properties":{"natural":"tree"}},
{"type":"Feature","geometry":{"type":"Point","coordinates":[3.0870239,42.5273263]},"properties":{"direction":"360","name":"Collioure","tourism":"viewpoint"}},
{"type":"Feature","geometry":{"type":"Point","coordinates":[3.0873976,42.5282765]},"properties":{"direction":"360","name":"Chapelle Saint-Vincent","tourism":"viewpoint"}},
{"type":"Feature","geometry":{"type":"Point","coordinates":[3.0831697,42.5263091]},"properties":{"natural":"tree"}},
{"type":"Feature","geometry":{"type":"Point","coordinates":[3.0843925,42.5257485]},"properties":{"natural":"tree"}},
{"type":"Feature","geometry":{"type":"Point","coordinates":[3.0833048,42.526338]},"properties":{"natural":"tree"}},
{"type":"Feature","geometry":{"type":"Point","coordinates":[3.0826224,42.5262896]},"properties":{"natural":"tree"}},
{"type":"Feature","geometry":{"type":"Point","coordinates":[3.0827342,42.5263142]},"properties":{"natural":"tree"}},
{"type":"Feature","geometry":{"type":"Point","coordinates":[3.0827547,42.5263559]},"properties":{"historic":"memorial","memorial":"war_memorial"}},
{"type":"Feature","geometry":{"type":"Point","coordinates":[3.0832698,42.526739]},"properties":{"natural":"tree"}},
{"type":"Feature","geometry":{"type":"Point","coordinates":[3.0826077,42.5265558]},"properties":{"natural":"tree"}},
{"type":"Feature","geometry":{"type":"Point","coordinates":[3.0821653,42.5264532]},"properties":{"natural":"tree"}},
{"type":"Feature","geometry":{"type":"Point","coordinates":[3.0821065,42.5263575]},"properties":{"artwork_type":"bust","tourism":"artwork"}},
{"type":"Feature","geometry":{"type":"Point","coordinates":[3.0831786,42.5259796]},"properties":{"natural":"tree"}},
{"type":"Feature","geometry":{"type":"Point","coordinates":[3.0832698,42.5260191]},"properties":{"natural":"tree"}},
{"type":"Feature","geometry":{"type":"Point","coordinates":[3.0833704,42.5260478]},"properties":{"natural":"tree"}},
{"type":"Feature","geometry":{"type":"Point","coordinates":[3.0831591,42.5254601]},"properties":{"natural":"tree"}},
{"type":"Feature","geometry":{"type":"Point","coordinates":[3.0841549,42.5261872]},"properties":{"natural":"tree"}},
{"type":"Feature","geometry":{"type":"Point","coordinates":[3.0843333,42.5262613]},"properties":{"natural":"tree"}},
{"type":"Feature","geometry":{"type":"Point","coordinates":[3.0843674,42.5261743]},"properties":{"natural":"tree"}},
{"type":"Feature","geometry":{"type":"Point","coordinates":[3.0846626,42.5240819]},"properties":{"natural":"tree"}},
{"type":"Feature","geometry":{"type":"Point","coordinates":[3.0845103,42.5240943]},"properties":{"natural":"tree"}},
{"type":"Feature","geometry":{"type":"Point","coordinates":[3.0840791,42.5240506]},"properties":{"natural":"tree"}},
{"type":"Feature","geometry":{"type":"Point","coordinates":[3.0838636,42.5241011]},"properties":{"natural":"tree"}},
{"type":"Feature","geometry":{"type":"Point","coordinates":[3.0839204,42.5240174]},"properties":{"natural":"tree"}},
{"type":"Feature","geometry":{"type":"Point","coordinates":[3.0859789,42.5237685]},"properties":{"natural":"tree"}},
{"type":"Feature","geometry":{"type":"Point","coordinates":[3.0861932,42.5238745]},"properties":{"natural":"tree"}},
{"type":"Feature","geometry":{"type":"Point","coordinates":[3.0860793,42.5239002]},"properties":{"natural":"tree"}},
{"type":"Feature","geometry":{"type":"Point","coordinates":[3.0858433,42.5239511]},"properties":{"natural":"tree"}},
{"type":"Feature","geometry":{"type":"Point","coordinates":[3.0869879,42.5238241]},"properties":{"natural":"tree"}},
{"type":"Feature","geometry":{"type":"Point","coordinates":[3.0872293,42.5239091]},"properties":{"natural":"tree"}},
{"type":"Feature","geometry":{"type":"Point","coordinates":[3.0874184,42.5240277]},"properties":{"natural":"tree"}},
{"type":"Feature","geometry":{"type":"Point","coordinates":[3.0872797,42.5236103]},"properties":{"natural":"tree"}},
{"type":"Feature","geometry":{"type":"Point","coordinates":[3.0877747,42.5237088]},"properties":{"natural":"tree"}},
{"type":"Feature","geometry":{"type":"Point","coordinates":[3.1028486,42.5223189]},"properties":{"historic":"cannon"}},
{"type":"Feature","geometry":{"type":"Point","coordinates":[3.0960555,42.5250111]},"properties":{"tourism":"viewpoint"}},
{"type":"Feature","geometry":{"type":"Point","coordinates":[3.0992834,42.5195835]},"properties":{"bicycle":"yes","ele":"82","hiking":"yes","information":"guidepost","mtb":"yes","name":"Creu Blanca","tourism":"information"}},
{"type":"Feature","geometry":{"type":"Point","coordinates":[3.1229691,42.5216304]},"properties":{"access":"yes","historic":"wreck","name":"Pythéas","scuba_diving:divespot":"yes","seamark:type":"wreck","seamark:wreck:category":"non-dangerous","sport":"scuba_diving","wreck:clearance":"4.6","wreck:date_commissioned":"1856","wreck:date_sunk":"1897-10-19","wreck:depth":"16","wreck:visible_at_high_tide":"no","wreck:visible_at_low_tide":"no"}},
{"type":"Feature","geometry":{"type":"Point","coordinates":[3.111401,42.5214302]},"properties":{"hiking":"yes","information":"map","map_type":"topo","tourism":"information"}},
{"type":"Feature","geometry":{"type":"Point","coordinates":[3.0948924,42.5237001]},"properties":{"name":"Purple tree","tourism":"artwork"}},
{"type":"Feature","geometry":{"type":"Point","coordinates":[3.0887679,42.5241817]},"properties":{"information":"guidepost","name":"Collioure","tourism":"information"}},
{"type":"Feature","geometry":{"type":"Point","coordinates":[3.0879094,42.5238006]},"properties":{"historic":"citywalls","name":"Cloitre"}},
{"type":"Feature","geometry":{"type":"Point","coordinates":[3.0853507,42.5240216]},"properties":{"natural":"tree"}},
{"type":"Feature","geometry":{"type":"Point","coordinates":[3.0852634,42.5241724]},"properties":{"natural":"tree"}},
{"type":"Feature","geometry":{"type":"Point","coordinates":[3.085256,42.5240863]},"properties":{"natural":"tree"}},
{"type":"Feature","geometry":{"type":"Point","coordinates":[3.1090683,42.5217559]},"properties":{"ele":"49","name":"la Miranda","natural":"peak"}},
{"type":"Feature","geometry":{"type":"LineString","coordinates":[[3.1314208,42.517982],[3.1314393,42.5180137],[3.1314355,42.5180478],[3.1314214,42.5180897],[3.1313864,42.5181318],[3.1313428,42.5181615],[3.1313139,42.5181958],[3.1312919,42.5182735],[3.1312672,42.5183108],[3.1312234,42.5183204],[3.1311609,42.5183488],[3.131107,42.5183925],[3.1310575,42.5184487],[3.1308537,42.5184005],[3.1307431,42.5184277],[3.1306574,42.5184469],[3.1306174,42.5184255],[3.1305916,42.518373],[3.1305826,42.5183296],[3.1305262,42.5183393],[3.1303592,42.5183839],[3.1302323,42.5184437],[3.1301424,42.5184567],[3.1300964,42.5184664],[3.1300486,42.5184961],[3.1300087,42.5184871],[3.1299927,42.5183803],[3.130081,42.518248],[3.1300766,42.5182279],[3.1300617,42.518211],[3.1300093,42.5182129],[3.1299259,42.5182383],[3.1297287,42.5183729],[3.1296869,42.5183825],[3.1295848,42.518422],[3.1295022,42.5185078],[3.1294455,42.5184989],[3.1293395,42.5185632],[3.1293442,42.5186049],[3.1292591,42.5186644],[3.1291821,42.5186975],[3.1290027,42.5187515],[3.1289048,42.5187971],[3.1288218,42.5188581],[3.1287844,42.5188754],[3.1286737,42.5189041],[3.1285803,42.5189683],[3.1285661,42.5189978],[3.1285369,42.519012],[3.1284909,42.5190185],[3.1284142,42.5190795],[3.1283685,42.5191077],[3.128308,42.519122],[3.128237,42.519138],[3.1281686,42.5191943],[3.1281229,42.5192272],[3.128056,42.5192323],[3.1279852,42.5192669],[3.1279856,42.5192963],[3.1280179,42.5193612],[3.1279698,42.5193739],[3.1279348,42.5194175],[3.1279166,42.5194688],[3.1278916,42.5194783],[3.1278474,42.51946],[3.1277973,42.5194758],[3.1277406,42.5194623],[3.127686,42.5194472],[3.1276358,42.5194584],[3.1275485,42.5195055],[3.1273811,42.5196327],[3.1273037,42.5196701],[3.1272356,42.5197021],[3.1272295,42.519709],[3.1271603,42.5197333],[3.1270403,42.5197687],[3.1270187,42.5197827],[3.1269991,42.5197951],[3.126983,42.5198344],[3.1269614,42.5198484],[3.1269293,42.5198547],[3.1267956,42.5198641],[3.1267293,42.5198746],[3.1266703,42.5198888],[3.1265639,42.5199272],[3.1265028,42.5199384],[3.1264145,42.5199359],[3.1262929,42.5199253],[3.126184,42.5199314],[3.126096,42.5199451],[3.1259761,42.5199905],[3.1259243,42.5200026],[3.1258648,42.5199974],[3.1257804,42.5199803],[3.125762,42.5199832],[3.1256633,42.5199942],[3.1255885,42.5199925],[3.1255414,42.5199928],[3.1255045,42.520005],[3.1254716,42.5200281],[3.1254304999999999,42.5200684],[3.1253739,42.5201064],[3.1253394,42.5201221],[3.1252363,42.5201502],[3.1251649,42.5201741],[3.1251204,42.5201967],[3.1250441,42.5202617],[3.1250219,42.5202785],[3.1249912,42.5202924],[3.1249406,42.5203167],[3.1249465,42.5203515],[3.1249814,42.5203695],[3.1250108,42.5203767],[3.1250658,42.5203872],[3.1251044,42.5203886],[3.125133,42.5203953],[3.125172,42.5204287],[3.1251568,42.5204425],[3.1251306,42.5204484],[3.1249758,42.5204706],[3.1248943,42.5204699],[3.1246879,42.5204712],[3.1246397,42.5204794],[3.1245834,42.5204818],[3.1245123,42.5204754],[3.1244208,42.5204542],[3.124382,42.5204545],[3.1243417,42.5204548],[3.124315,42.5204579],[3.1243152,42.5204798],[3.1243385,42.5205143],[3.1244008,42.5205664],[3.1244805,42.5206085],[3.1245531,42.5206288],[3.1246673,42.5206469],[3.1248328,42.5206893],[3.1248571,42.520704],[3.1248723,42.5207337],[3.1248727,42.5207674],[3.124861,42.5207953],[3.1248357,42.5208064],[3.1247981,42.5208066],[3.1247566,42.5208069],[3.124726,42.5208309],[3.1246933,42.5208917],[3.1246019,42.5208715],[3.124565,42.5209223],[3.1244949,42.5208941],[3.1244299,42.520952],[3.1242673,42.5208143],[3.1241779,42.5207455],[3.1240458,42.5206909],[3.1240068,42.5206813],[3.12398,42.5206835],[3.1239484,42.5207313],[3.1239516,42.520768],[3.1239627,42.5207947],[3.1240087,42.5208281],[3.1240762,42.5208653],[3.1241116,42.5209087],[3.1241515,42.5209877],[3.1241719,42.5210084],[3.1242042,42.5210211],[3.1242487,42.5210337],[3.1242609,42.5210494],[3.1242291,42.5210784],[3.124193,42.5210827],[3.1240841,42.5210606],[3.1240398,42.521058],[3.1240039,42.521079],[3.123968,42.5211041],[3.1239398,42.5211033],[3.1238941,42.5210927],[3.1238605,42.521085],[3.1238364,42.5210921],[3.1238286,42.521111],[3.1238961,42.5211453],[3.1238977,42.5211601],[3.1238484,42.5211843],[3.1237761,42.5211927],[3.123689,42.5211953],[3.1233663,42.5211307],[3.1232981,42.5211215],[3.1232406,42.5211336],[3.123178,42.5211514],[3.1230727,42.5211235],[3.1230211,42.5211159],[3.1229828,42.5211368],[3.1229509,42.5211576],[3.122923,42.5211594],[3.1227833,42.521135],[3.1227599,42.5211479],[3.1227199,42.5212084],[3.1226858,42.5212245],[3.1226345,42.5212376],[3.1225918,42.5212538],[3.122573,42.5212904],[3.1225713,42.5213269],[3.1226146,42.5213583],[3.1226728,42.5213785],[3.122778,42.5213857],[3.1228255,42.5214171],[3.1228885,42.5214737],[3.1228932,42.5215102],[3.1228741,42.5215246],[3.1228357,42.5215423],[3.122806,42.5215647],[3.1228085,42.5215901],[3.1227875,42.5216267],[3.1227533,42.5216349],[3.1226847,42.5216354],[3.1225905,42.5216472],[3.1224258,42.52168],[3.1223336,42.5216807],[3.1221917,42.5216516],[3.1218408,42.521543],[3.1216083,42.5214748],[3.1215396,42.5214737],[3.1214882,42.5214757],[3.1214778,42.5215011],[3.1215169,42.5215373],[3.1215645,42.5215735],[3.1216743,42.521606],[3.1218401,42.521662],[3.1218728,42.5216966],[3.1218363,42.5216969],[3.121684,42.5216964],[3.1214244,42.5216808],[3.1213191,42.5216656],[3.1211361,42.5216167],[3.1209604,42.5216729],[3.1207981,42.5216946],[3.1204995,42.5215937],[3.120313,42.5215366],[3.120253,42.5215679],[3.1202542,42.5216607],[3.1201666,42.5217128],[3.1200459,42.5217171],[3.1200049,42.5217792],[3.1198002,42.5217463],[3.11968,42.5217918],[3.1193115,42.5217304],[3.1191511,42.5218436],[3.119035,42.521931],[3.1190836,42.5220056],[3.1192698,42.5220421],[3.1193262,42.5220898],[3.1192993,42.522169],[3.11916,42.5221734],[3.1190886,42.5221354],[3.1185513,42.5225281],[3.1184369,42.5226393],[3.1183496,42.5226511],[3.1182272,42.5227576],[3.1182601,42.5228177],[3.1182358,42.5229014],[3.118175,42.5229338],[3.1180548,42.522953],[3.117966,42.5229986],[3.1176338,42.5231821],[3.1173878,42.5231767],[3.1173041,42.5230898],[3.1172453,42.5230237],[3.1172692,42.5229462],[3.1172942,42.5228938],[3.1173505,42.5228484],[3.1173867,42.5228019],[3.1174816,42.5227429],[3.1175205,42.5227642],[3.1187899,42.5218822],[3.1188565,42.5218669],[3.1189117,42.5218771],[3.1193987,42.5215533],[3.1194392,42.5214607],[3.1194635,42.5213336],[3.1194406,42.5211722],[3.1193896,42.5210438],[3.1193182,42.520952],[3.1191767,42.5208626],[3.1191328,42.5208879],[3.1190412,42.5208404],[3.1190874,42.520794],[3.1188695,42.5206224],[3.1185405,42.5205074],[3.1184396,42.5205524],[3.1183107,42.5206302],[3.1182773,42.5206612],[3.1182389,42.5207134],[3.1181898,42.520733],[3.1181302,42.5207469],[3.1181803,42.5208042],[3.1181598,42.5208274],[3.1179378,42.5207444],[3.1180254,42.5206822],[3.1179726,42.5206249],[3.1178732,42.5205737],[3.1176537,42.5204848],[3.1175961,42.5204506],[3.1175957,42.5204218],[3.1176187,42.5203928],[3.1176338,42.5203503],[3.1176123,42.5202947],[3.1175805,42.5202469],[3.1175689,42.5201566],[3.1175315,42.5200799],[3.1174076,42.5199443],[3.1173092,42.519768],[3.1172613,42.5196838],[3.1173445,42.5196832],[3.1173492,42.5196466],[3.1172355,42.5194955],[3.1171493,42.519379],[3.1169644,42.5192794],[3.1166973,42.5191691],[3.1164645,42.5191968],[3.1163421,42.5191859],[3.1162223,42.5192094],[3.1160872,42.5193602],[3.1160162,42.5193824],[3.1159853,42.5193512],[3.1160109,42.5192752],[3.1160312,42.5192347],[3.1160278,42.5191751],[3.1160071,42.5191567],[3.1158829,42.5190359],[3.115726,42.518892],[3.1156656,42.5188655],[3.1155498,42.5189043],[3.1152642,42.5191231],[3.1151919,42.5192617],[3.1151328,42.5193179],[3.1149904,42.5193612],[3.1149333,42.5193712],[3.1148965,42.5193349],[3.1148849,42.5192427],[3.1148586,42.5192198],[3.1147492,42.5191994],[3.1144589,42.5191932],[3.1142799,42.5191748],[3.114241,42.5191518],[3.1141896,42.5191022],[3.1141793,42.5190451],[3.1141607,42.5187254],[3.1140777,42.5186546],[3.1140744,42.5185885],[3.1140403,42.5185619],[3.1138474,42.5185829],[3.1138444,42.5185419],[3.1139989,42.5185408],[3.1140325,42.5185227],[3.1140419,42.5184994],[3.1140223,42.5184745],[3.1140023,42.5184246],[3.1139748,42.5183552],[3.1139499,42.5182964],[3.1138915,42.5182557],[3.1138517,42.5181702],[3.1134974,42.5180334],[3.1132125,42.5180486],[3.1130327,42.5180851],[3.112936,42.5181048],[3.1130015,42.5182329],[3.1126621,42.5183568],[3.1127512,42.5184899],[3.1126419,42.5185329],[3.1120963,42.5178646],[3.111935,42.5179211],[3.1118625,42.517833],[3.1117751,42.5178462],[3.111732,42.5177553],[3.1117991,42.5177301],[3.111788,42.517713],[3.1093159,42.5182239],[3.1070513,42.5159831],[3.1066396,42.5161866],[3.1057021,42.5166742],[3.1076221,42.5187812],[3.1079037,42.519057],[3.1079457,42.5191347],[3.1079466,42.5192097],[3.1079416,42.519279],[3.1078712,42.5194181],[3.1078232,42.519479],[3.1077706,42.5194866],[3.1077203,42.5194893],[3.1072983,42.5201688],[3.1076886,42.520603],[3.1086955,42.5200633],[3.1111451,42.5197108],[3.1115574,42.5197162],[3.1117448,42.5198419],[3.1123679,42.5200146],[3.112411,42.5199782],[3.1124537,42.5200055],[3.1122547,42.5201932],[3.1129773,42.520642],[3.1134004,42.5204613],[3.1137276,42.5206553],[3.1136573,42.5207146],[3.1138242,42.52084],[3.1138097,42.5209631],[3.1138199,42.5209901],[3.1138639,42.5209916],[3.1138796,42.5210354],[3.1139081,42.5211034],[3.1139095,42.5212125],[3.1139576,42.5213655],[3.1139586,42.5214473],[3.1136921,42.5215037],[3.1137022,42.5215752],[3.1139967,42.5215458],[3.1139927,42.5215902],[3.1138414,42.5216492],[3.1138332,42.521731],[3.1138249,42.5218026],[3.1137605,42.5218065],[3.11365,42.5218175],[3.1135496,42.5218932],[3.1134894,42.5218663],[3.1134794,42.5218016],[3.1133874,42.5218193],[3.1132919,42.521912],[3.1131917,42.5220013],[3.1129375,42.522066],[3.1128852,42.5220874],[3.1128735,42.5221204],[3.112892,42.5221442],[3.1129671,42.5221602],[3.1130218,42.5221658],[3.1130341,42.5221822],[3.1129922,42.5222259],[3.112942,42.5222562],[3.1129237,42.5222533],[3.1129072,42.522225],[3.1128708,42.5222267],[3.1128432,42.5222853],[3.1128088,42.52229],[3.1127806,42.5222992],[3.112777,42.5223382],[3.1127795,42.5223726],[3.1127492,42.5223803],[3.1127049,42.5223941],[3.1126849,42.5224167],[3.1125858,42.5226302],[3.1125677,42.5226487],[3.1125441,42.5226431],[3.112507,42.5226047],[3.112483,42.5225671],[3.1124594,42.5225605],[3.1124452,42.5225732],[3.1124666,42.5226127],[3.1124919,42.5226502],[3.1124924,42.522685],[3.1124729,42.5226977],[3.1124142,42.522703],[3.1123643,42.5226888],[3.1122854,42.5226507],[3.1122488,42.52265],[3.1122246,42.5227033],[3.1122277,42.5227381],[3.1122296,42.5227855],[3.1122052,42.5228253],[3.1121679,42.5228671],[3.1121039,42.5228715],[3.112101,42.5228483],[3.1121174,42.5228085],[3.1121095,42.5228008],[3.11209,42.5228058],[3.1120761,42.5228475],[3.1120296,42.5228884],[3.1119751,42.5229255],[3.1119282,42.5229336],[3.1118771,42.5229311],[3.1118625,42.5229109],[3.1118607,42.5228741],[3.1118759,42.5228344],[3.1118404,42.5228133],[3.1118239,42.5228541],[3.1118297,42.5229033]]},"properties":{"natural":"coastline","source":"cadastre-dgi-fr source : Direction Générale des Impôts - Cadastre. Mise à jour : 2008"}},
{"type":"Feature","geometry":{"type":"LineString","coordinates":[[3.1118297,42.5229033],[3.1118033,42.5229799],[3.1117623,42.5230508],[3.111687,42.5230881],[3.1116074,42.5231022],[3.1114478,42.5230946],[3.1113878,42.5231008],[3.1113412,42.5231427],[3.1113192,42.5231583],[3.1112903,42.5231469],[3.1112626,42.5231287],[3.1112207,42.5231252],[3.1110392,42.52314],[3.1109959,42.5231287],[3.1109563,42.523098],[3.1109441,42.5230642],[3.1109477,42.5230362],[3.1109318,42.5230237],[3.1108229,42.5230902],[3.1107549,42.5230907],[3.1107024,42.5230736],[3.1106667,42.5230449],[3.1106249,42.5230452],[3.110604,42.5230511],[3.1105789,42.5230242],[3.1105527,42.5230254],[3.1105151,42.5230469],[3.1104628,42.5230463],[3.1104522,42.5230328],[3.110423,42.5230021],[3.1103981,42.5229965],[3.1103694,42.5230005],[3.1103397,42.5230278],[3.1102683,42.5230689],[3.1102266,42.5230828],[3.110101,42.523074],[3.110058,42.5230859],[3.1099527,42.5231311],[3.1098654,42.5231529],[3.1098172,42.5231599],[3.1097477,42.5231574],[3.1096494,42.5231339],[3.1094362,42.5230795],[3.1093627,42.5230785],[3.1093037,42.5231],[3.109269,42.5230988],[3.1091478,42.5230452],[3.1089897,42.5229828],[3.1088353,42.5228887],[3.1087882,42.5228785],[3.1087317,42.5229287],[3.1086667,42.5229579],[3.1086238,42.5229582],[3.1085845,42.5229252],[3.1085534,42.5228877],[3.1085086,42.5229001],[3.1081552,42.523053],[3.1081363,42.5230903],[3.1081628,42.5231416],[3.1082874,42.5232836],[3.108313,42.5233196],[3.1083158,42.5233323],[3.1083017,42.5233627],[3.1082636,42.5233904],[3.1082161,42.5233986],[3.1081448,42.5234098],[3.1081397,42.5234245],[3.1081507,42.5234558],[3.1081893,42.5234761],[3.1082675,42.5234902],[3.1083632,42.5235189],[3.1084191,42.5235459],[3.1084565,42.5235779],[3.1085408,42.5236537],[3.1085572,42.5236956],[3.1085629,42.5237289],[3.1085442,42.5238151],[3.1085312,42.5239385],[3.1085369,42.5239727],[3.108569,42.5239999],[3.1086015,42.5239974],[3.1086919,42.5239992],[3.1088698,42.5240991],[3.108931,42.5241389],[3.1089363,42.5241614],[3.1089409,42.5242221],[3.1089817,42.5242499],[3.1090301,42.5242702],[3.109091,42.5242847],[3.1091466,42.5242853],[3.1091771,42.5242963],[3.1092353,42.5242996],[3.1094768,42.5242895],[3.1095413,42.5242928],[3.1096759,42.5243358],[3.109708,42.524373],[3.1097214,42.524431],[3.109836,42.5244928],[3.1098861,42.5245552],[3.1099047,42.5246215],[3.1099163,42.524642],[3.1098379,42.5246378],[3.1097823,42.5246438],[3.1096977,42.5246547],[3.1096637,42.5246699],[3.1095999,42.5248247],[3.1096505,42.5249226],[3.109656,42.5249591],[3.1096462,42.5249825],[3.1096628,42.5250947],[3.1096669,42.5251218],[3.1096417,42.5251285],[3.1095885,42.5251214],[3.1095084,42.5250892],[3.1094231,42.5250439],[3.1093244,42.5250108],[3.1092779,42.5249952],[3.1092257,42.5249264],[3.1090889,42.5247028],[3.109078,42.5246912],[3.1090632,42.524698],[3.1090668,42.5247898],[3.1090993,42.5248897],[3.1090954,42.5249195],[3.1091045,42.5249656],[3.1091048,42.5249902],[3.1090767,42.5249993],[3.1090297,42.5249983],[3.1089876,42.5249809],[3.1089566,42.5249691],[3.1089284,42.5249649],[3.1089001,42.5249562],[3.108858,42.5249464],[3.1088272,42.5249422],[3.1087996,42.524919],[3.1087616,42.5248902],[3.1087094,42.5248855],[3.1086838,42.5248888],[3.1086729,42.524911],[3.1086802,42.5249489],[3.1086925,42.5249747],[3.1086763,42.5249995],[3.1086305,42.5250072],[3.108571,42.525014],[3.1084964,42.5250017],[3.1084079,42.5249675],[3.1082867,42.5248922],[3.1081977,42.5248175],[3.1081665,42.5248022],[3.1081342,42.5247978],[3.1081107,42.5248016],[3.1080923,42.5248174],[3.1080852,42.5248458],[3.1080892,42.524869700000007],[3.1081021,42.524909],[3.1081063,42.5249457],[3.1081141,42.5249759],[3.1081305,42.5249997],[3.1081893,42.5250369],[3.1082218,42.5250605],[3.1082482,42.5250869],[3.1082662,42.5251317],[3.1082667,42.5251758],[3.1082459,42.5251979],[3.1082125,42.5252018],[3.1081638,42.5251811],[3.108156,42.5251518],[3.1081281,42.5251043],[3.1079816,42.5249897],[3.1079042,42.5249544],[3.107877,42.5249565],[3.1078549,42.5249759],[3.1078335,42.5251467],[3.1077668,42.5252701],[3.1077109,42.5253594],[3.1076862,42.5253688],[3.1075982,42.5253703],[3.1075761,42.5253879],[3.1075234,42.5254378],[3.1074953,42.5254738],[3.1074411,42.5255053],[3.1073411,42.5255427],[3.1072383,42.5255544],[3.1071661,42.5255283],[3.1070763,42.5254941],[3.1070187,42.5254468],[3.1069449,42.5253978],[3.1069038,42.5253898],[3.1068754,42.5253982],[3.1068485,42.525425],[3.1068281,42.5254802],[3.1068307,42.5256482],[3.1067894,42.5257546],[3.1067554,42.5258279],[3.1066745,42.5258614],[3.1065776,42.5258678],[3.1064711,42.5258686],[3.1063893,42.5258362],[3.1063325,42.5257893],[3.1062927,42.5257136],[3.1062936,42.5256247],[3.1062896,42.5255512],[3.1062536,42.5254668],[3.1062049,42.5254075],[3.1061347,42.5253684],[3.1060976,42.5253623],[3.1060661,42.5253721],[3.1060294,42.5254038],[3.1059071,42.525557],[3.1058563,42.5255832],[3.1058039,42.5255827],[3.1056607,42.5255318],[3.1055714,42.525484],[3.1055027,42.5254451],[3.1053486,42.5253342],[3.1049794,42.5250412],[3.104952,42.5250313],[3.1049412,42.5250374],[3.1049338,42.525099],[3.1049711,42.5251401],[3.1050344,42.5251861],[3.1050774,42.5252423],[3.1050943,42.5252876],[3.1050824,42.5253108],[3.105043,42.5253293],[3.1049845,42.5253347],[3.1049176,42.5253352],[3.1048438,42.5253206],[3.1048203,42.5252955],[3.1047971,42.5252947],[3.1047947,42.5253209],[3.1047926,42.5253683],[3.1047769,42.5254239],[3.1047174,42.5254627],[3.10464,42.5254914],[3.1045896,42.5254948],[3.104553,42.5255082],[3.1044999,42.5255207],[3.1044508,42.52552],[3.1044261,42.5255101],[3.1043227,42.525419],[3.1043023,42.5254201],[3.1042822,42.5254475],[3.1042607,42.5254799],[3.1042294,42.5254812],[3.1041816,42.5254775],[3.1041514,42.5254605],[3.1041241,42.5254597],[3.1040738,42.5254752],[3.1040307,42.5254854],[3.1039995,42.5254926],[3.1039865,42.5255081],[3.1039886,42.5256034],[3.1039785,42.5256259],[3.1039342,42.5256395],[3.1038925,42.5256377],[3.1038715,42.5256252],[3.1038085,42.5255878],[3.1037648,42.5255762],[3.103646,42.5255476],[3.1035901,42.5255403],[3.1034946,42.5255578],[3.1034101,42.525538],[3.1033615,42.5255194],[3.1033589,42.5255342],[3.1035273,42.5256738],[3.1035495,42.5257017],[3.1035506,42.5257206],[3.1035299,42.5257285],[3.1035023,42.5257181],[3.1034346,42.5256787],[3.1033708,42.5256518],[3.103308,42.5256298],[3.1031951,42.5254645],[3.1031927,42.5254211],[3.1031847,42.5253876],[3.1031597,42.5253632],[3.1031339,42.5253459],[3.1031338,42.5253312],[3.1031897,42.5252477],[3.1032006,42.5252033],[3.1032,42.5251605],[3.1032167,42.5251266],[3.1031777,42.5251234],[3.1031211,42.5251533],[3.1030945,42.5251521],[3.1030658,42.5251347],[3.1030521,42.5251046],[3.1030527,42.5250702],[3.1030411,42.5250562],[3.1030164,42.5250585],[3.1029995,42.5250755],[3.1029906,42.5251184],[3.1029494,42.5252409],[3.1028895,42.5253094],[3.1028688,42.5253285],[3.1028374,42.5253196],[3.1027997,42.5252742],[3.1027835,42.5251921],[3.1027708,42.5251613],[3.1027432,42.5251538],[3.1027105,42.5251231],[3.102713,42.5250964],[3.1027672,42.5250236],[3.1028228,42.5249548],[3.1028415,42.5249163],[3.1028433,42.5248804],[3.1028341,42.5248679],[3.1027991,42.5248698],[3.1027623,42.5249043],[3.1027044,42.5249614],[3.1026807,42.5249649],[3.1026682,42.5249558],[3.1026657,42.5249383],[3.102691,42.5248898],[3.1027444,42.524826],[3.1027767,42.5247932],[3.1027785,42.5247523],[3.1027601,42.5247307],[3.1027045,42.524706],[3.1026706,42.5246988],[3.102658,42.524688],[3.1026612,42.5246729],[3.1026848,42.5246661],[3.1027841,42.5246596],[3.1028043,42.5246511],[3.1028162,42.5246118],[3.102809,42.5245809],[3.1028627,42.5245413],[3.1028861,42.5245195],[3.1028833,42.5244711],[3.1028713,42.5244186],[3.1028553,42.5244012],[3.1028361,42.5243971],[3.102786,42.5244509],[3.1027668,42.5244519],[3.1027441,42.5244114],[3.1027089,42.5244006],[3.1026579,42.5243901],[3.1025305,42.5243186],[3.1023365,42.5242576],[3.1022246,42.5242482],[3.1020963,42.5242524],[3.1019679,42.5242671],[3.1018894,42.5242771],[3.1018249,42.5243257],[3.1018,42.5243283],[3.1017684,42.5243408],[3.1017767,42.5244012],[3.1017701,42.5244762],[3.1017693,42.5245355],[3.1017351,42.5245794],[3.1016929,42.5246432],[3.1016375,42.5246797],[3.1016196,42.5247192],[3.1016087,42.5247711],[3.1016099,42.5247973],[3.1016002,42.5248059],[3.1015816,42.5248073],[3.1015744,42.5247962],[3.1015645,42.5247852],[3.1015512,42.5247866],[3.1015417,42.5248024],[3.1015192,42.5248471],[3.1014787,42.524869700000007],[3.1014566,42.5248784],[3.1014364,42.5248884],[3.1014311,42.5248936],[3.1014418,42.5248988],[3.1014622,42.5249026],[3.101457,42.5249118],[3.1013997,42.5249378],[3.1013503,42.5249559],[3.1013379,42.5249553],[3.1013369,42.5249461],[3.1013553,42.5249335],[3.1013756,42.5249203],[3.1013727,42.5249072],[3.1013303,42.5249108],[3.1012708,42.5249133],[3.1012471,42.5249032],[3.1012371,42.5248746],[3.1012394,42.5248377],[3.1012512,42.5247884],[3.1012634,42.5247658],[3.1012936,42.524745],[3.1013128,42.5247285],[3.1013112,42.5247111],[3.1012985,42.5246958],[3.1012833,42.5246918],[3.1012789,42.5246775],[3.1012787,42.5246632],[3.1012647,42.5246489],[3.1012539,42.5246695],[3.1012263,42.524683],[3.1012095,42.5246698],[3.1011996,42.5246473],[3.1011869,42.524633],[3.101169,42.5246383],[3.1011237,42.5247872],[3.1010911,42.5248335],[3.1010496,42.5248451],[3.1009746,42.5248272],[3.1008938,42.5247929],[3.1008726,42.5247582],[3.1008442,42.524701],[3.1008176,42.5246786],[3.1007762,42.5246963],[3.1007446,42.524714],[3.1007209,42.5247008],[3.1006856,42.524701],[3.1006133,42.5246701],[3.1005161,42.524599],[3.1004659,42.5244828],[3.1004419,42.5243922],[3.1003887,42.5243548],[3.1003504,42.5243366],[3.1003246,42.5243158],[3.1003366,42.5242669],[3.1003882,42.5242584],[3.1004068,42.5242223],[3.1004328,42.5242004],[3.1004308,42.5241396],[3.1003869,42.5241531],[3.1003148,42.5241852],[3.1002851,42.5242061],[3.1002454,42.524233],[3.1002135,42.5242424],[3.1001986,42.524194],[3.1001693,42.5241638],[3.1001676,42.5241163],[3.1001332,42.5241205],[3.1000915,42.5241057],[3.1000927,42.524058],[3.1000294,42.5240597],[3.0999592,42.5240286],[3.0999169,42.5239436],[3.099908,42.5238869],[3.1000176,42.5238146],[3.0999888,42.5237922],[3.0998886,42.5238471],[3.0998281,42.5238195],[3.0997912,42.5237656],[3.0998423,42.5237147],[3.0998139,42.5236968],[3.0997112000000004,42.5237395],[3.0996666,42.5237276],[3.0996761,42.5236936],[3.0997449,42.5236293],[3.0997351,42.5236172],[3.0997262,42.523588],[3.0996868,42.523568],[3.099629,42.523543600000007],[3.0995558,42.5235331],[3.0994762,42.5235303],[3.0994238,42.5235243]]},"properties":{"natural":"coastline","source":"cadastre-dgi-fr source : Direction Générale des Impôts - Cadastre. Mise à jour : 2008"}},
{"type":"Feature","geometry":{"type":"LineString","coordinates":[[3.0994238,42.5235243],[3.0992281,42.5235821],[3.0990252,42.5236856],[3.098968,42.5237556],[3.0989288,42.523818],[3.0989455,42.5238712],[3.0990155,42.5240306],[3.0990063,42.5240914],[3.0989592,42.5241687],[3.0989557,42.5242072],[3.0989662,42.5242457],[3.0989666,42.5242812],[3.098955,42.5243168],[3.0990002,42.5244083],[3.0990288,42.524454],[3.0990689,42.5244537],[3.0991187,42.5244371],[3.0991703,42.5244056],[3.0992142,42.524392],[3.0992503,42.5243992],[3.0992926,42.5244211],[3.0993352,42.5244652],[3.0993258,42.5245127],[3.0992289,42.524611],[3.0990785,42.5247453],[3.0990529,42.524781],[3.0989895,42.5248274],[3.0988647,42.5249363],[3.0987612,42.5249844],[3.0986915,42.5250086],[3.0985856,42.5250241],[3.0984778,42.5250485],[3.0984062,42.5250831],[3.0983325,42.5251147],[3.0982404,42.5251138],[3.0981658,42.5250684],[3.0980893,42.5250334],[3.098091,42.5250067],[3.0980947,42.5249889],[3.0980306,42.5249835],[3.0979962,42.5249556],[3.0978762,42.5249608],[3.0977626,42.5250016],[3.0976929,42.5250302],[3.0976296,42.5250854],[3.097468,42.5252879],[3.0974341,42.5253029],[3.0974003,42.5253165],[3.0973565,42.525336],[3.0973186,42.5253481],[3.0972745,42.5253469],[3.0971982,42.5253238],[3.0971761,42.5253195],[3.0971562,42.525324],[3.0970983,42.5253422],[3.0970563,42.5253425],[3.097044,42.5253174],[3.0970217,42.5252968],[3.0969979,42.5253177],[3.0969738,42.5253105],[3.0969319,42.5253152],[3.0968984,42.5253348],[3.0968467,42.5253393],[3.0966999,42.5252924],[3.0966481,42.5252873],[3.096534,42.5253373],[3.0964933,42.5253335],[3.0964467,42.5253078],[3.0962932,42.5253089],[3.0961786,42.5253192],[3.0961596,42.5252783],[3.0961533,42.5252141],[3.0961236,42.525206],[3.0960808,42.5251844],[3.0960565,42.5251682],[3.0960398,42.5251656],[3.0959052,42.5253485],[3.0958575,42.5253762],[3.0957384,42.5254714],[3.0957168,42.525518],[3.0956764,42.5255429],[3.0956376,42.5255432],[3.0956132,42.5255201],[3.0956072,42.5254777],[3.095651,42.525435],[3.0957392,42.5253838],[3.0957591,42.5253495],[3.0957662,42.5253262],[3.095764,42.5252988],[3.095747,42.5252702],[3.0957355,42.5252388],[3.0957406,42.5252018],[3.0958524,42.5251162],[3.0958888,42.5250695],[3.0958993,42.5250201],[3.095882,42.5249724],[3.0958873,42.5249532],[3.095924,42.5249283],[3.0959921,42.5248977],[3.096014,42.5248716],[3.0960302,42.5248414],[3.0960206,42.52481],[3.0959866,42.5247541],[3.0960116,42.5246828],[3.0960334,42.5246498],[3.0960976,42.5246069],[3.0961579,42.5245449],[3.0962252,42.5244569],[3.0962856,42.5244018],[3.096322,42.5243523],[3.0963137,42.5242812],[3.096285,42.5242075],[3.0962037,42.5240999],[3.096132,42.5240615],[3.0960693,42.5240619],[3.0960135,42.5240761],[3.0959546,42.5241129],[3.0959108,42.5241345],[3.0958496,42.5241274],[3.0958138,42.5241126],[3.0958169,42.5240875],[3.0958215,42.5240423],[3.0958292,42.5239808],[3.0958083,42.5239383],[3.0957657,42.523926],[3.0957277,42.5238905],[3.0957015,42.523834],[3.0956663,42.5237803],[3.0955837,42.5237195],[3.0955131,42.5236897],[3.0953901,42.5236659],[3.0953058,42.5236637],[3.0952625,42.5236791],[3.0951599,42.5237488],[3.0951166,42.5237623],[3.0950591,42.5237684],[3.0948441,42.5237284],[3.0948082,42.5237272],[3.0947645,42.5237452],[3.094684,42.5238566],[3.0946743,42.5238832],[3.0946866,42.5239053],[3.0946929,42.5239289],[3.0946831,42.5239467],[3.0946652,42.5239483],[3.0946392,42.5239499],[3.0946254,42.5239618],[3.0946158,42.5239899],[3.0946023,42.5240299],[3.0945249,42.5240703],[3.0943046,42.5241782],[3.0941773,42.5242189],[3.0941558,42.5242515],[3.0941239,42.5242606],[3.0941058,42.5242445],[3.0940887,42.524156],[3.0940805,42.5241354],[3.094098,42.5241013],[3.0941237,42.524079],[3.0941035,42.5240628],[3.0940817,42.5240763],[3.0940206,42.5241358],[3.0937905,42.5242928],[3.0937266,42.5243566]]},"properties":{"natural":"coastline"}},
{"type":"Feature","geometry":{"type":"LineString","coordinates":[[3.0823732,42.5314512],[3.0824085,42.5314484],[3.0824405,42.5314545],[3.0824621,42.5314563],[3.0824767,42.5314543],[3.0824948,42.5314548],[3.082524,42.5314476],[3.082543,42.53145],[3.08255,42.5314583],[3.082557,42.5314671],[3.0825699,42.5314658],[3.0826186,42.5314544],[3.0826729,42.5314319],[3.082708,42.5314333],[3.0827149,42.5314433],[3.0827253,42.5314575],[3.0827119,42.5314718],[3.0827245,42.5314826],[3.0827473,42.5314958],[3.0827984,42.5315114],[3.0828369,42.5315178],[3.0828912,42.531515],[3.0829172,42.5315148],[3.0829276,42.5315314],[3.0829142,42.5315433],[3.0828657,42.5315603],[3.0828219,42.5315824],[3.0828255,42.5315999],[3.08288,42.5316138],[3.0828948,42.5316237],[3.0828961,42.5316363],[3.082859,42.5316566],[3.0828455,42.5316625],[3.0828445,42.5316709],[3.0828752,42.5316875],[3.0828709,42.5317009],[3.0829426,42.5317389],[3.0827912,42.5318462],[3.0827073,42.5318325],[3.0826544,42.5318546],[3.0825937,42.5318935],[3.0825273,42.5319183],[3.0824339,42.5319607],[3.0824239,42.53198],[3.0823687,42.5320013],[3.0823463,42.5320207],[3.0823422,42.5320542],[3.0823266,42.5320686],[3.0822704,42.5320129],[3.0822771,42.5320019],[3.0822848,42.5319835],[3.0822913,42.5319642],[3.0822558,42.5319243],[3.0821906,42.5318711],[3.0820974,42.5318391],[3.082059,42.5318394],[3.0820353,42.5318487],[3.0819969,42.5318523],[3.0819811,42.53186],[3.0819757,42.5318776],[3.0819827,42.5318976],[3.0820407,42.531919],[3.082041,42.5319433],[3.0820459,42.53197],[3.0820348,42.5319919],[3.082027,42.5320045],[3.0819795,42.5320291],[3.0819043,42.5321131],[3.0817984,42.5320823],[3.0817146,42.532058],[3.0817159,42.5320449],[3.0817361,42.5320242],[3.0817504,42.5319948],[3.0817517,42.5319797],[3.0817297,42.5319787],[3.0817137,42.5319875],[3.0816588,42.5320529],[3.0816138,42.5320912],[3.081563,42.5321273],[3.0815426,42.5321339],[3.081525,42.5321405],[3.0815252,42.5321568],[3.0815401,42.5321697],[3.081624,42.5322027],[3.0816344,42.5322157],[3.0816376,42.5322341],[3.0816131,42.53227],[3.0815987,42.5322929],[3.0815974,42.5323081],[3.0816108,42.532321],[3.0816476,42.5323316],[3.0817034,42.532342],[3.0817228,42.5323679],[3.0817026,42.5324006],[3.0816852,42.5324126],[3.0816661,42.5324084],[3.0816366,42.5323924],[3.081603,42.5324002],[3.0814733,42.532465],[3.0814353,42.5324739],[3.0814045,42.5324752],[3.081378,42.532458],[3.0813555,42.532417],[3.0813222,42.532337],[3.0812932,42.5322375],[3.0812774,42.5322668],[3.0812595,42.5323602],[3.08126,42.5323981],[3.0812647,42.5324285],[3.0812768,42.5324587],[3.0813241,42.532492],[3.0813039,42.5325138],[3.0812618,42.5325477],[3.081202,42.5325741],[3.0811377,42.5325876],[3.081088,42.5325955],[3.0810425,42.5325958],[3.0810162,42.5326046],[3.0810058,42.5325895],[3.0810216,42.5325656],[3.0810871,42.532525],[3.0810663,42.5325024],[3.081142,42.532464],[3.0811697,42.5324443],[3.0811956,42.5324072],[3.0811964,42.5323541],[3.081212,42.5323106],[3.0812393,42.5322682],[3.081239,42.5322433],[3.0812315,42.5322238],[3.0812049,42.5322077],[3.0811888,42.5322143],[3.0811803,42.5322371],[3.081169,42.5322697],[3.0811415,42.5323024],[3.081095,42.5323331],[3.0810687,42.532343],[3.0810295,42.5323682],[3.0809947,42.5323977],[3.0809173,42.5324275],[3.0808589,42.5324463],[3.0808183,42.532477],[3.0807924,42.5325183],[3.0807749,42.5325282],[3.0807546,42.5325468],[3.080758,42.5325793],[3.0807394,42.5326162],[3.0807147,42.5326338],[3.0806855,42.5326426],[3.0806622,42.5326612],[3.0806333,42.532695],[3.0806114,42.5326984],[3.0805615,42.5326977],[3.0805221,42.5327055],[3.0804681,42.5327286],[3.0804505,42.5327244],[3.0804445,42.5327114],[3.0804776,42.5326635],[3.0804921,42.5326558],[3.0805242,42.5326383],[3.0805474,42.5326186],[3.0805616,42.5325817],[3.080551,42.5325568],[3.0805832,42.532549],[3.0806124,42.5325401],[3.0806312,42.5325216],[3.0806659,42.5324845],[3.0806773,42.5324584],[3.0806727,42.5324422],[3.0807032,42.5324192],[3.080706,42.5324051],[3.0807159,42.5323779],[3.080751,42.5323712],[3.0807862,42.532372],[3.0808714,42.5322641],[3.080896,42.532238],[3.0808899,42.5322228],[3.0808503,42.5322198],[3.0808108,42.5322244],[3.0807846,42.532242],[3.0807601,42.5322703],[3.0807368,42.5322889],[3.0807032,42.5322945],[3.0806651,42.5322926],[3.0806461,42.5322993],[3.0806084,42.5323299],[3.0805357,42.5323791],[3.0802861,42.5324943],[3.0797149,42.53237],[3.0801859,42.5325527],[3.0800309,42.5326441],[3.079996,42.5326584],[3.0799385,42.5326707],[3.0798969,42.5326786],[3.0798687,42.532697],[3.0798417,42.5327294],[3.0798117,42.532752],[3.0797834,42.5327585],[3.0797701,42.5327586],[3.0797636,42.5327691],[3.0797761,42.532788],[3.0797773,42.5328082],[3.0797587,42.5328315],[3.0797137,42.5328649],[3.0796842,42.5328766],[3.0796791,42.5328876],[3.0796955,42.5328941],[3.0796882,42.5329041],[3.0796556,42.5329098],[3.0795785,42.5329262],[3.0795549,42.5329374],[3.079519,42.5329766],[3.0795029,42.5329992],[3.079474,42.5330066],[3.0794294,42.5330063],[3.0793233,42.5330191],[3.0793145,42.5330285],[3.0793089,42.5330522],[3.0791529,42.5331284],[3.0791148,42.533154],[3.0791151,42.533174],[3.0791168,42.5332034],[3.0790518,42.5332365],[3.0790217,42.5332209],[3.078992,42.533239],[3.0789663,42.5332308],[3.0789422,42.5332404],[3.0788672,42.5332778],[3.0787865,42.5333172],[3.078697,42.5333326],[3.0785846,42.5333396],[3.0784994,42.533356],[3.0784981,42.5333697],[3.0783722,42.5334369],[3.0783037,42.5334194],[3.0782679,42.5334039],[3.0781803,42.5333392],[3.0781458,42.533311],[3.0781197,42.5332733],[3.0780979,42.5332447],[3.0780662,42.5332031],[3.078046,42.5331863],[3.0780275,42.5331833],[3.0780076,42.5331898],[3.0780079,42.5332087],[3.0780383,42.5332496],[3.0780701,42.5332946],[3.0780963,42.5333408],[3.078134,42.5333932],[3.0781773,42.5334445],[3.0781164,42.5334712],[3.0780723,42.533499],[3.0780326,42.5335288],[3.0778948,42.5335413],[3.0777017,42.5335787],[3.0771654,42.5337548],[3.0770448,42.5338121],[3.076999,42.5338348],[3.0769277,42.5338568],[3.0768445,42.5338959],[3.0766717,42.5339401],[3.0765485,42.5339795],[3.0764784,42.5339988],[3.0764314,42.5340224],[3.0764038,42.5340486],[3.0764032,42.5340751],[3.0763836,42.5341045],[3.0763367,42.5341084],[3.0763388,42.5340849],[3.0763255,42.534085],[3.0763061,42.5340896],[3.0762723,42.5340979],[3.0762624,42.5340881],[3.0762744,42.5340306],[3.0762113,42.5340252],[3.0762816,42.5339068],[3.0763346,42.5337988]]},"properties":{"natural":"coastline"}},
{"type":"Feature","geometry":{"type":"LineString","coordinates":[[3.0937266,42.5243566],[3.0936829,42.5243731],[3.0935722,42.52438],[3.0935272,42.5243765],[3.0935302,42.5243595],[3.0936325,42.5242691],[3.0936468,42.5242474],[3.0936259,42.5242413],[3.0935937,42.524257],[3.0935418,42.524289],[3.0934875,42.5242879],[3.0934396,42.5243052],[3.0933856,42.5243303],[3.0933584,42.5243305],[3.0933312,42.5243206],[3.0932856,42.5242676],[3.0932542,42.5242616],[3.0932157,42.5242804],[3.0931767,42.5243333],[3.0931884,42.5243548],[3.0932209,42.5243639],[3.0932503,42.5243737],[3.0932578,42.5243845],[3.0932392,42.5244001],[3.0931095,42.5244798],[3.0930452,42.5245127],[3.0930422,42.5245258],[3.0930652,42.5245257],[3.0931078,42.5245076],[3.0931599,42.5244941],[3.0932442,42.5244665],[3.0932858,42.5244569],[3.0933223,42.5244521],[3.0933495,42.5244527],[3.0933539,42.5244712],[3.0933302,42.5244976],[3.093175,42.5246054],[3.0931445,42.5246418],[3.0931106,42.5246759],[3.0930519,42.5246775],[3.0929653,42.5246733],[3.0929129,42.5246652],[3.0928574,42.5246655],[3.0928347,42.5246729],[3.0928382,42.5246922],[3.0928823,42.5246931],[3.0929052,42.5246978],[3.0929152,42.5247147],[3.0929039,42.5247304],[3.0928748,42.5247475],[3.0928177,42.5247564],[3.0927639,42.5247567],[3.0927379,42.5247666],[3.0927413,42.5247786],[3.0927841,42.5248085],[3.0928119,42.5248132],[3.0928607,42.5247959],[3.0928804,42.5248067],[3.0928725,42.5248236],[3.0928385,42.524848],[3.0927634,42.5248485],[3.0926935,42.5248756],[3.0926562,42.5248939],[3.0926313,42.5248603],[3.0926112,42.5248194],[3.0925575,42.524833],[3.092555,42.5248946],[3.0925328,42.5249467],[3.0924436,42.5249992],[3.0923438,42.525111],[3.0922494,42.525186],[3.0922246,42.5251888],[3.0922119,42.5251692],[3.0922029,42.5251548],[3.0921799,42.5251668],[3.0921609,42.5252116],[3.0921528,42.5252694],[3.0921281,42.5252841],[3.0920659,42.5252792],[3.091998,42.5252468],[3.091959,42.5252563],[3.0919238,42.5252815],[3.0919155,42.5253341],[3.0919179,42.525384],[3.0919043,42.5254301],[3.091882,42.5254907],[3.0918064,42.5255595],[3.0917325,42.5256293],[3.0917636,42.5256642],[3.0916385,42.5258125],[3.0916024,42.52582],[3.0915901,42.5258448],[3.0915653,42.5258676],[3.0915443,42.5258595],[3.0914969,42.5258557],[3.0914553,42.5258746],[3.0914399,42.5258737],[3.0914271,42.5258531],[3.0913964,42.5258502],[3.0913628,42.5258412],[3.0913641,42.5258298],[3.0913569,42.5258154],[3.0913416,42.5258197],[3.0913026,42.5258199],[3.0912789,42.5258201],[3.091261,42.5258377],[3.0912403,42.5258544],[3.0912179,42.5258463],[3.0912176,42.5258257],[3.0912478,42.5257852],[3.0912475,42.5257605],[3.0912418,42.5257492],[3.0911919,42.5257753],[3.0912005,42.5257917],[3.091201,42.5258361],[3.0911594,42.5258508],[3.0911293,42.5257891],[3.0911174,42.5258397],[3.0910952,42.5258492],[3.0910797,42.5258338],[3.0910507,42.5258557],[3.0910009,42.5258458],[3.0909378,42.5258276],[3.0909108,42.525851],[3.0908672,42.5258855],[3.0907852,42.5258721],[3.0907518,42.52588],[3.0907054,42.5258602],[3.0906718,42.5258589],[3.0906362,42.5258638],[3.0905774,42.5258548],[3.0905624,42.5258332],[3.0905617,42.5257727],[3.0905487,42.5257418],[3.0904941,42.5257344],[3.0904687,42.5257129],[3.0904683,42.5256865],[3.0904678,42.5256446],[3.0905235,42.5255682],[3.0905838,42.5255275],[3.0906065,42.525501],[3.0906001,42.5254855],[3.0905645,42.5254935],[3.0905104,42.5255249],[3.0904476,42.5255393],[3.0903559,42.5255864],[3.0902907,42.5255667],[3.0901959,42.5255363],[3.0901268,42.5255399],[3.0900622,42.5255776],[3.0899742,42.5255844],[3.0898337,42.5255807],[3.0897704,42.5255547],[3.0897153,42.5255085],[3.0896079,42.5254736],[3.0895552,42.5254507],[3.0895528,42.5254274],[3.0895712,42.5253839],[3.0895604,42.5253591],[3.0895352,42.5253577],[3.089487,42.5253596],[3.0894511,42.5253366],[3.0894692,42.525276],[3.0894917,42.5252308],[3.0895355,42.525215],[3.0896212,42.5251881],[3.0896272,42.5251648],[3.0895784,42.5251217],[3.0895406,42.5251157],[3.0894883,42.5251238],[3.0894756,42.5251131],[3.0894754,42.525096],[3.0894598,42.5250278],[3.0894554,42.5250108],[3.0894527,42.5249627],[3.0894107,42.5249537],[3.0893581,42.5249401],[3.089341,42.524917],[3.0893595,42.5248843],[3.0893781,42.5248593],[3.0893694,42.5248376],[3.0893588,42.5248253],[3.0893669,42.524802],[3.0894002,42.5247847],[3.0893957,42.5247568],[3.0893384,42.5247033],[3.089246,42.5246554],[3.089133,42.524631],[3.089015,42.524626],[3.0889155,42.5246325],[3.0888867,42.5246291],[3.0888359,42.5246411],[3.0888342,42.5246369],[3.0888002,42.5246371],[3.0887531,42.524651],[3.0886325,42.5246441],[3.0885225,42.5246526],[3.0884908,42.5246334],[3.0884565,42.5246181],[3.088394,42.5246476],[3.0883389,42.5246422],[3.0883358,42.5246073],[3.0883199,42.5245938],[3.0882911,42.524594],[3.0881376,42.524692],[3.0880464,42.5247372],[3.0879599,42.5247378],[3.087934,42.5247651],[3.087953,42.5248135],[3.0879192,42.524835],[3.0878194,42.524826],[3.0875886,42.5248101],[3.0875231,42.5248202],[3.0874165,42.5248888],[3.0872662,42.5250295],[3.0872291,42.5250006],[3.0873487,42.5249184],[3.0873563,42.5248931],[3.0873348,42.5248564],[3.0873318,42.5248235],[3.0873911,42.5247416],[3.0873253,42.5247227],[3.0872318,42.5247892],[3.0871926,42.5248011],[3.0872293,42.5245915],[3.0872448,42.524572],[3.0874227,42.524468],[3.0874456,42.5243832],[3.0874636,42.5243389],[3.0874695,42.5243059],[3.0874795,42.5242611],[3.087477,42.5242109],[3.0874539,42.5241768],[3.0873562,42.5241237],[3.0871546,42.5240549],[3.0869864,42.5240192],[3.0869091,42.5240107],[3.0867528,42.5239936],[3.0863675,42.5240039],[3.0860507,42.5240313],[3.0858258,42.5240754],[3.0855002,42.5242502],[3.0853306,42.5243153],[3.0852474,42.5243683],[3.0851671,42.5244483],[3.085114,42.5246077],[3.0852212,42.524797],[3.0852401,42.5248395],[3.0852196,42.5248784],[3.0851629,42.5249564],[3.0851743,42.52503],[3.08551,42.5256489],[3.085567,42.525687],[3.0856762,42.5256092],[3.0857073,42.525598],[3.0857357,42.5256066],[3.0857434,42.5256242],[3.0856267,42.5257009],[3.0856642,42.525712],[3.085711,42.5257335],[3.0857441,42.5257588],[3.0857878,42.5258412],[3.0857886,42.5259019],[3.085766,42.5259361],[3.08572,42.5259388],[3.0857105,42.5259681],[3.0859049,42.5260081],[3.0858857,42.5260495],[3.0856155,42.5259857],[3.084976,42.5263546],[3.0846221,42.5263463],[3.0846232,42.526314],[3.0846555,42.5263125],[3.0846607,42.5263016],[3.0846328,42.5262163],[3.0845157,42.5262356],[3.0845524,42.5263154],[3.0845798,42.5263148],[3.0845789,42.5263453],[3.0844298,42.5263433],[3.0844251,42.5264536],[3.0845383,42.5264597],[3.0849497,42.5264724],[3.0849727,42.526622],[3.0856809,42.5264957],[3.0857075,42.5265247],[3.0858781,42.5265016],[3.0859991,42.5264522],[3.0861095,42.5263494],[3.0861801,42.5262104],[3.0862506,42.5260665],[3.0862667,42.5260324],[3.0862994,42.5260249],[3.0863454,42.5260246],[3.0863756,42.5260705],[3.0863896,42.5261458],[3.0863513,42.5262335],[3.0862343,42.5264126],[3.0861275,42.5265009],[3.086016,42.5265656],[3.0859118,42.526609],[3.085727,42.5266507],[3.0855891,42.5266673],[3.0855664,42.5267978],[3.085573,42.5268859],[3.0855878,42.5270148],[3.0856193,42.5271384],[3.0856776,42.5272629],[3.0857339,42.5273608],[3.0857977,42.5274472],[3.0858432,42.5274991],[3.085907,42.5275485],[3.0859827,42.5275925],[3.0860484,42.5275426],[3.0862434,42.5276318],[3.0864248,42.5275412],[3.0864446,42.5275617],[3.0865494,42.5275114],[3.0865486,42.5274788],[3.0865413,42.5274751],[3.0865333,42.5274697],[3.086525,42.5274629],[3.0865187,42.5274538],[3.086514,42.5274429],[3.086513,42.5274317]]},"properties":{"natural":"coastline"}},
{"type":"Feature","geometry":{"type":"LineString","coordinates":[[3.0851125,42.5247393],[3.0851351,42.5247892],[3.0850759,42.5249674],[3.085377,42.5255683],[3.0854639,42.5256834],[3.0855725,42.5257592],[3.0856544,42.5257337],[3.0857557,42.5258375],[3.0856969,42.5259315],[3.0855911,42.5259632],[3.0855043,42.5259551],[3.0853496,42.5260424],[3.0852907,42.5259943],[3.0849677,42.5261486],[3.084856,42.5262151],[3.0847187,42.5262946],[3.0846904,42.5263096],[3.0846901,42.5263137],[3.0846771,42.5263191],[3.0846668,42.526315],[3.0846658,42.5263086],[3.0846694,42.5263038],[3.0845936,42.5260752],[3.0845486,42.5260657],[3.0844789,42.5260549],[3.0844764,42.5260464],[3.084284,42.5260062],[3.084278,42.526011],[3.084271,42.526011],[3.0842637,42.52601],[3.084259,42.5260069],[3.084259,42.5260011],[3.08426,42.5259967],[3.0842802,42.5259799],[3.0842627,42.5259679],[3.084195,42.5259276],[3.0841832,42.5259227]]},"properties":{"barrier":"city_wall","name":"Château Royal","source":"cadastre-dgi-fr source : Direction Générale des Impôts - Cadastre. Mise à jour : 2010","tourism":"attraction","wheelchair":"no"}},
{"type":"Feature","geometry":{"type":"LineString","coordinates":[[3.0861088,42.5237311],[3.0861062,42.5237431],[3.0860982,42.5237537],[3.0860858,42.5237616],[3.0860704,42.5237659],[3.086054,42.5237661],[3.0860385,42.5237621],[3.0860258,42.5237544],[3.0860174,42.523744],[3.0860143,42.5237321],[3.0860169,42.5237201],[3.0860249,42.5237095],[3.0860374,42.5237016],[3.0860527,42.5236973],[3.0860691,42.5236971],[3.0860846,42.5237011],[3.0860973,42.5237087],[3.0861057,42.5237192],[3.0861088,42.5237311]]},"properties":{"building":"yes","height":"10","historic":"monument","man_made":"tower","name":"La Tour d'Avall","name:ca":"La Torre d'Avall","source":"cadastre-dgi-fr source : Direction Générale des Impôts - Cadastre. Mise à jour : 2010"}},
{"type":"Feature","geometry":{"type":"LineString","coordinates":[[3.0851116,42.5259601],[3.0847863,42.5260941],[3.0848576,42.5261843],[3.0849481,42.5261292],[3.0851732,42.5260164],[3.0851116,42.5259601]]},"properties":{"source":"cadastre-dgi-fr source : Direction Générale des Impôts - Cadastre. Mise à jour : 2010"}},
{"type":"Feature","geometry":{"type":"LineString","coordinates":[[3.0855725,42.5257592],[3.0856544,42.5257337],[3.0857557,42.5258375],[3.0856969,42.5259315],[3.0855911,42.5259632],[3.0855043,42.5259551],[3.0855042,42.5259459],[3.0855195,42.5259412],[3.0855891,42.5259492],[3.0856759,42.5259247],[3.0856845,42.5258813],[3.085582,42.5258641],[3.0855611,42.5258875],[3.0855142,42.5259283],[3.0854826,42.5259344],[3.0854123,42.5258836],[3.0853651,42.5258961],[3.085337,42.5258303],[3.0854132,42.5258126],[3.0853162,42.5256885],[3.0852449,42.5256302],[3.0851229,42.5257128],[3.0852372,42.5258101],[3.0852732,42.5258538],[3.0851897,42.5258908],[3.085128,42.525839],[3.0848676,42.5259545],[3.0848523,42.5259413],[3.0848329,42.5258959],[3.0846219,42.525856],[3.0845654,42.5258754],[3.0845171,42.5258642],[3.0844998,42.5259012],[3.0845068,42.5259171],[3.0845165,42.5259215],[3.0845528,42.5259269],[3.084581,42.5258896],[3.0848237,42.5259373],[3.0848457,42.5259674],[3.0848094,42.52598],[3.0848102,42.5260526],[3.0849386,42.526001],[3.0849419,42.5260054],[3.0851132,42.525932],[3.0851385,42.5259313],[3.0851532,42.5259553],[3.0852068,42.5260035],[3.0853016,42.525962],[3.0853789,42.5260247],[3.0853496,42.5260424],[3.0852907,42.5259943],[3.0849677,42.5261486],[3.084856,42.5262151],[3.084849,42.5262155],[3.0848407,42.5262152],[3.0848327,42.5262118],[3.0847477,42.5261022],[3.084744,42.5260954],[3.0847474,42.5260924],[3.084753,42.5260887],[3.0847543,42.5260819],[3.0847493,42.5260714],[3.084748,42.5260534],[3.0847716,42.5260445],[3.0847712,42.5260371],[3.0845306,42.5259816],[3.0845611,42.5259456],[3.0845099,42.5259317],[3.0844969,42.5259256],[3.0844869,42.5259144],[3.0844815,42.5259019],[3.0845051,42.5258486],[3.0845534,42.5258642],[3.0845886,42.5258496],[3.0845507,42.5258387],[3.084622,42.5256867],[3.0846286,42.5256602],[3.0845677,42.5256467],[3.0845647,42.5256378],[3.0845866,42.5255737],[3.084548,42.5255673],[3.0845243,42.5255541],[3.0845033,42.5255402],[3.0844877,42.525511],[3.0844803,42.5254957],[3.0844826,42.5254822],[3.0845385,42.5254645],[3.0845928,42.5254631],[3.084639,42.5254868],[3.0846866,42.525501],[3.0847608,42.5254256],[3.0848754,42.5253214],[3.0849582,42.5252446],[3.0849811,42.5252239],[3.0849774,42.5251988],[3.0849771,42.5251845],[3.0849667,42.5251696],[3.0849444,42.5251496],[3.0849321,42.5251425],[3.0849074,42.5251289],[3.085026,42.5249375],[3.0850429,42.524927],[3.0851508,42.525196],[3.0851219,42.5252055],[3.0851085,42.5251987],[3.0850361,42.5250131],[3.0850321,42.5250108],[3.0850271,42.5250108],[3.0849557,42.5251181],[3.0849993000000004,42.5251455],[3.0850037,42.5251638],[3.0850274,42.5252239],[3.0849922,42.5252826],[3.0848881,42.5253801],[3.0847436,42.5255149],[3.0847446,42.5255193],[3.0847413,42.5255379],[3.0846417,42.525518],[3.0846367,42.5255085],[3.0845998,42.5254902],[3.0845505,42.5254953],[3.0845402,42.5255048],[3.0845352,42.525513],[3.0845349,42.5255208],[3.0845383,42.5255276],[3.0845539,42.5255394],[3.0845702,42.5255486],[3.0846128,42.5255543],[3.0846218,42.5255628],[3.0846242,42.5255713],[3.0846222,42.5255805],[3.0846096,42.5256256],[3.0847125,42.5256489],[3.084669,42.5257545],[3.0846186,42.5258448],[3.0846771,42.5258546],[3.0847163,42.5257731],[3.0848824,42.5258144],[3.0850244,42.5257613],[3.0852319,42.5256234],[3.0851906,42.5255939],[3.0850098,42.5252799],[3.0850367,42.5252524],[3.085035,42.5252381],[3.0851302,42.525214],[3.0851973,42.5253764],[3.0851987,42.5254056],[3.085185,42.5254087],[3.0852641,42.5255484],[3.085381,42.5256403],[3.0854714,42.5257552],[3.0855725,42.5257592]]},"properties":{"source":"cadastre-dgi-fr source : Direction Générale des Impôts - Cadastre. Mise à jour : 2010"}},
{"type":"Feature","geometry":{"type":"LineString","coordinates":[[3.0894946,42.5245265],[3.0892726,42.5245087],[3.0892739,42.5244897],[3.08919,42.5244844],[3.0891232,42.5244847],[3.0891221,42.5244708],[3.0891018,42.5244705],[3.0891019,42.5244861],[3.0890509,42.5244862],[3.0890469,42.5244702],[3.0890187,42.5244753],[3.089012,42.5244485],[3.0890416,42.5244404],[3.0890406,42.5244326],[3.0891823,42.5244294],[3.0891867,42.5243856],[3.0891882,42.5243703],[3.0892518,42.5243625],[3.0894654,42.5243732],[3.0894602,42.5244326],[3.0895051,42.5244346],[3.0894946,42.5245265]]},"properties":{"building":"yes","email":"contact@relaisdes3mas.com","name":"Relais des 3 Mas","phone":"+33468820507","source":"cadastre-dgi-fr source : Direction Générale des Impôts - Cadastre. Mise à jour : 2010","stars":"4","tourism":"hotel","website":"https://www.relaisdestroismas.com/"}},
{"type":"Feature","geometry":{"type":"LineString","coordinates":[[3.0854827,42.5257763],[3.0855007,42.5257997],[3.0854558,42.5258112],[3.0854792,42.5258669],[3.0854319,42.5258774],[3.0854969,42.5259218],[3.0855102,42.5259194],[3.0855597,42.5258726],[3.0855244,42.5258573],[3.0855304,42.5258495],[3.0855664,42.5258661],[3.0855793,42.5258532],[3.0855786,42.5257833],[3.0855716,42.5257765],[3.0854827,42.5257763]]},"properties":{"source":"cadastre-dgi-fr source : Direction Générale des Impôts - Cadastre. Mise à jour : 2010"}},
{"type":"Feature","geometry":{"type":"LineString","coordinates":[[3.0881549,42.5236247],[3.0881153,42.5236481],[3.0881023,42.5236349],[3.0880119,42.5236903],[3.0879672,42.5236482],[3.0880022,42.5236292],[3.0879728,42.5236],[3.0879625,42.5236051],[3.0879215,42.5235699],[3.0879348,42.5235587],[3.0879228,42.5235458],[3.0879355,42.5235291],[3.0879714,42.5235077],[3.0879904,42.5235247],[3.088019,42.5235104],[3.0881153,42.5235982],[3.0881252,42.5235941],[3.0881549,42.5236247]]},"properties":{"building":"yes","fee":"yes","name":"Le musée d’Art Moderne de Collioure","name:ca":"Museu d'Art Modern Cotlliure","official_name":"Musée municipal Jean Peské","opening_hours":"Mo-Su 10:00-12:00,14:00-18:00","phone":"+33 4 68 82 10 19","ref:FR:museofile":"M0489","source":"cadastre-dgi-fr source : Direction Générale des Impôts - Cadastre. Mise à jour : 2010","tourism":"museum","website":"http://villedecollioure.wixsite.com/museedartmoderne","wikidata":"Q11938071","wikipedia":"ca:Museu de Cotlliure"}},
{"type":"Feature","geometry":{"type":"LineString","coordinates":[[3.086513,42.5274317],[3.0865146,42.5274215],[3.0865229,42.5274107],[3.0865312,42.5274005],[3.0865412,42.5273944],[3.0865572,42.5273869],[3.0865741,42.5273828],[3.0865944,42.5273841],[3.0866118,42.5273889],[3.0866251,42.5273957],[3.0866361,42.5274024],[3.0866424,42.5274089],[3.0866477,42.527418],[3.0866514,42.5274289],[3.0866504,42.5274387],[3.0866471,42.527452],[3.0866411,42.5274621],[3.0866328,42.52747],[3.0866252,42.5274751],[3.0866155,42.5274798],[3.0866219,42.5274873],[3.0866,42.5275043],[3.0866476,42.5275614],[3.0866596,42.5275508],[3.0870215,42.5273043],[3.087057,42.5273324],[3.0868893,42.5274329],[3.087016,42.5275648],[3.0871334,42.5276864],[3.0872668,42.5278006],[3.0874123,42.527891],[3.0875458,42.5279577],[3.0876987,42.5280076],[3.0877972,42.5279869],[3.0879743,42.5279137],[3.0881171,42.5278287],[3.0882734,42.5277085],[3.0882321,42.5276655],[3.0883037,42.5276257],[3.0882417,42.5275617],[3.088266,42.5275485],[3.0883212,42.5276105],[3.0884003,42.52762],[3.088526,42.5276635],[3.0885916,42.5276862],[3.0886134,42.527686],[3.0886486,42.5276717],[3.088647,42.5276526],[3.0886426,42.5276255],[3.0886546,42.5276073],[3.0886858,42.527598],[3.0887225,42.5275947],[3.088792,42.5276424],[3.0887968,42.5276817],[3.0887697,42.5277307],[3.0887277,42.5277703],[3.0886645,42.527821],[3.0886348,42.5278212],[3.0885816,42.5278184],[3.088569,42.5278374],[3.0885694,42.5278673],[3.0885165,42.5278849],[3.0884824,42.5278804],[3.0884332,42.5278556],[3.0883487,42.5279018],[3.0883386,42.527949],[3.0883331,42.5280199],[3.0883654,42.5280928],[3.0883657,42.5281186],[3.0883409,42.5281425],[3.0883187,42.528154],[3.0882825,42.5281532],[3.0882535,42.5281761],[3.0882386,42.5282195],[3.0882459,42.5282391],[3.0882641,42.5282452],[3.0882865,42.5282543],[3.0882867,42.5282687],[3.0882813,42.5282853],[3.0882385,42.5283227],[3.0882149,42.528329],[3.0881898,42.5283292],[3.0881745,42.5283355],[3.0881096,42.5283865],[3.0880173,42.5283696],[3.087985,42.5283461],[3.0879416,42.5283319],[3.0879275,42.5283186],[3.0879299,42.5282887],[3.087885,42.5282663],[3.087868,42.5282447],[3.0878496,42.5282283],[3.0878288,42.5282388],[3.0878319,42.5282604],[3.0878729,42.5283066],[3.0878711,42.528385],[3.0878867,42.5284066],[3.0879469,42.5284247],[3.0879625,42.5284442],[3.0879643,42.5284772],[3.0878888,42.5285788],[3.0878584,42.5285966],[3.0878215,42.5286587],[3.0877966,42.5286743],[3.0877727,42.5286652],[3.0877304,42.5286273],[3.0876997,42.5286245],[3.0876994,42.5286028],[3.0876659,42.5285937],[3.0876311,42.5286022],[3.0876159,42.5286147],[3.087651,42.5286361],[3.0876193,42.5286601],[3.0875463,42.5286255],[3.0874511,42.5287117],[3.0874045,42.5286656],[3.0873287,42.5287373],[3.0872674,42.5287377],[3.0871318,42.5287129],[3.0870977,42.5286687],[3.0871212,42.5286459],[3.0870861,42.5286327],[3.0870761,42.5286101],[3.0870813,42.5285781],[3.0871017,42.5285377],[3.0870849,42.5285306],[3.0870489,42.5285515],[3.0870306,42.5285433],[3.0870276,42.5285207],[3.0870683,42.5284909],[3.0870529,42.5284568],[3.0870529,42.5284247],[3.0870737,42.5283679],[3.0871099,42.5283293],[3.0871321,42.5282932],[3.0871381,42.5282646],[3.0871616,42.5282547],[3.0871797,42.5282547],[3.0872051,42.5282675],[3.0872186,42.5282596],[3.0872226,42.5282389],[3.0872118,42.5282176],[3.0872118,42.5282028],[3.0872226,42.5281821],[3.0872038,42.5281598],[3.0871555,42.5281223],[3.0870382,42.5280486],[3.0869416,42.5280145],[3.0866955,42.5279503],[3.086603,42.5279286],[3.0865239,42.5279365],[3.0864856,42.5279419],[3.0864447,42.5279681],[3.0864534,42.5281006],[3.0864509,42.5281284],[3.0864586,42.5281882],[3.0864591,42.5282264],[3.0864439,42.5282347],[3.0864284,42.5282245],[3.0864249,42.5281657],[3.0864216,42.5281297],[3.0864035,42.5281277],[3.0863773,42.5281506],[3.086348,42.5281549],[3.0863616,42.5281218],[3.0863683,42.5281042],[3.0863529,42.5281002],[3.0863294,42.5281194],[3.0862995,42.5281087],[3.0862636,42.5281007],[3.0862145,42.528133],[3.0862001,42.5281697],[3.0861868,42.5282009],[3.0861597,42.5282112],[3.0861227,42.5282206],[3.0860541,42.5282769],[3.0860742,42.528296],[3.0860745,42.5283252],[3.0860712,42.5283518],[3.0860429,42.5283676],[3.086011,42.5283906],[3.0860103,42.5284309],[3.0860122,42.5284886],[3.0860215,42.5285425],[3.0859984,42.5285738],[3.0859453,42.5285851],[3.0857996,42.5286081],[3.0857629,42.528644],[3.08572,42.5286736],[3.0856718,42.528683],[3.0856709,42.5287068],[3.0856119,42.5287384],[3.0855602,42.5287634],[3.0855207,42.5287692],[3.0854811,42.5287639],[3.0854269,42.528789],[3.0854038,42.5288175],[3.0854139,42.5288367],[3.0854423,42.5288301],[3.0854668,42.5288098],[3.0854757,42.528828],[3.0854787,42.528871],[3.0854311,42.5289244],[3.0853501,42.5289799],[3.0853129,42.5289783],[3.0852136,42.5290522],[3.085174,42.5290479],[3.0851212,42.5290812],[3.0851265,42.5291114],[3.0850109,42.5291707],[3.0849726,42.5291746],[3.0849661,42.5291472],[3.0849621,42.5291253],[3.0849287,42.5291264],[3.0848087,42.5291837],[3.0848144,42.5292036],[3.0847714,42.5292279],[3.084751,42.5292231],[3.0846826,42.5292645],[3.0846773,42.5292806],[3.0846155,42.529309],[3.084548,42.5293225],[3.084502,42.5293218],[3.0844153,42.5293104],[3.0843432,42.5292748],[3.0842793,42.5292452],[3.0842129,42.5292367],[3.0841506,42.5292291],[3.0840732,42.5292086],[3.0839705,42.5292133],[3.0839286,42.5292136],[3.0839017,42.5292248],[3.0839519,42.5292444],[3.0839871,42.5292432],[3.0840277,42.5292419],[3.0840792,42.5292516],[3.0841184,42.5292493],[3.0841374,42.5292572],[3.0841485,42.5292771],[3.0841987,42.5292898],[3.0842788,42.5293183],[3.0843482,42.5293508],[3.084354,42.5293868],[3.0843747,42.5294157],[3.0844004,42.5294185],[3.0844316,42.5294253],[3.0844534,42.5294371],[3.0845066,42.5294758],[3.0845083,42.5295038],[3.0844722,42.5295331],[3.0844846,42.529552],[3.084489,42.529584],[3.0843488,42.5296179],[3.0843122,42.5296172],[3.0842512,42.5296006],[3.0842324,42.5296167],[3.0842341,42.5296397],[3.084209,42.5296939],[3.0841448,42.5297523],[3.0840773,42.5297893],[3.0839864,42.5298212],[3.0839833,42.5298425],[3.0839667,42.5298701],[3.0839465,42.529879],[3.0838822,42.5298706],[3.0837912,42.5298988],[3.0837457,42.5299116],[3.0837035,42.5299106],[3.0836663,42.5299134],[3.0836598,42.5299309],[3.0836837,42.5299495],[3.0835522,42.5299804],[3.0834429,42.5300001],[3.083349,42.5300269],[3.0833148,42.5300253],[3.0832733,42.5300356],[3.0832734999999999,42.5300528],[3.0832078,42.530084],[3.0831701,42.5300987],[3.0831553,42.5300915],[3.0831528,42.5300798],[3.0831598,42.530059],[3.083145,42.5300491],[3.0831291,42.5300492],[3.0830584,42.5300651],[3.0830108,42.5300762],[3.0829692,42.5300729],[3.0829374,42.5300731],[3.0829265,42.5300804],[3.082918,42.5300877],[3.0829269,42.5301157],[3.0829272,42.5301383],[3.0829138,42.5301429],[3.0828893,42.5301413],[3.0828571,42.5301017],[3.0828324,42.5300883],[3.0828142,42.5300947],[3.082828,42.5301245],[3.0828773,42.5302083],[3.0828577,42.5302288],[3.0828273,42.5302425],[3.0828215,42.5302663],[3.082822,42.5303127],[3.0828378,42.5303488],[3.0828275,42.5303816],[3.0827896,42.5304124],[3.0827525,42.5304192],[3.082731,42.5304175],[3.0826783,42.5304055],[3.0826861,42.5304585],[3.0826292,42.5304871],[3.0825935,42.5305033],[3.0825989,42.5305492],[3.0825995,42.5306039],[3.0826166,42.5306356],[3.0826099,42.5306675],[3.0825862,42.5306835],[3.082565,42.5307102],[3.0825369,42.5307508],[3.0825221,42.5307759],[3.0824633,42.5308158],[3.0824311,42.5308478],[3.0824245,42.5308797],[3.0824214,42.5309046],[3.0823891,42.5309264],[3.0822827,42.5309692],[3.0821554,42.5310225],[3.0820382,42.5311351],[3.0819995,42.5311972],[3.0819665,42.5312467],[3.0819444,42.5312717],[3.0819191,42.5313133],[3.0819014,42.5313498],[3.0818904,42.5313651],[3.0818914,42.531376],[3.0819052,42.5313752],[3.0819223,42.5313681],[3.0819447,42.5313629],[3.0819714,42.5313627],[3.0819894,42.5313587],[3.0820039,42.5313402],[3.082021,42.5313362],[3.0820367,42.531345],[3.0820437,42.5313539],[3.0820439,42.5313756],[3.0820278,42.5313942],[3.0819936,42.5314174],[3.0818917,42.5314697],[3.0818729,42.5314864],[3.0818598,42.5315451],[3.0818523,42.5315668],[3.0818636,42.5315699],[3.0818988,42.5315589],[3.0819211,42.5315472],[3.0819374,42.5315471],[3.0819393,42.5315586],[3.0818798,42.5316285],[3.0818578,42.5316592],[3.0818563,42.5316809],[3.0818746,42.5316942],[3.0818892,42.5316947],[3.0819081,42.5316863],[3.0819708,42.531666800000007],[3.082029,42.5316345],[3.0820505,42.5316273],[3.0820669,42.5316336],[3.0820697,42.5316482],[3.0820553,42.5316713],[3.0820094,42.531722],[3.0820001,42.5317399],[3.0820089,42.5317551],[3.0820374,42.5317575],[3.0820546,42.531751],[3.0820605,42.5317458],[3.0820647,42.5317324],[3.0820861,42.5317208],[3.0821079,42.5317423],[3.0821279,42.5317569],[3.0821434,42.5317574],[3.0821562,42.5317477],[3.0821539,42.5316987],[3.0821586,42.5316604],[3.0821823,42.5316245],[3.0822456,42.5315891],[3.0822963,42.5315779],[3.0823247,42.5315707],[3.0823348,42.531554],[3.0823338,42.5315368],[3.0823105,42.5315332],[3.0822967,42.5315333],[3.0822956,42.5315135],[3.0822937,42.531504],[3.0822721,42.5314996],[3.0822584,42.5315023],[3.0822292,42.5315108],[3.0822221,42.5315],[3.0822452,42.5314807],[3.0822624,42.531478],[3.0822952,42.531481],[3.0823324,42.5314941],[3.0823533,42.5315125],[3.0823921,42.5315173],[3.082437,42.5315196],[3.082468,42.5315194],[3.0824791,42.5315078],[3.0824642,42.5314933],[3.082434,42.5314852],[3.0824004,42.5314854],[3.0823528,42.5314717],[3.0823501,42.5314621],[3.0823732,42.5314512]]},"properties":{"natural":"coastline","source":"cadastre-dgi-fr source : Direction Générale des Impôts - Cadastre. Mise à jour : 2010"}},
{"type":"Feature","geometry":{"type":"LineString","coordinates":[[3.0851671,42.5244483],[3.085108,42.5246089],[3.0850117,42.5243765],[3.08554,42.5240504],[3.0859663,42.5239243],[3.0863296,42.5238772],[3.0866813,42.5238679],[3.0868474,42.5238832],[3.086928,42.5238906],[3.0869091,42.5240107],[3.0867528,42.5239936],[3.0863675,42.5240039],[3.0860507,42.5240313],[3.0858258,42.5240754],[3.0855002,42.5242502],[3.0853306,42.5243153],[3.0852474,42.5243683],[3.0851671,42.5244483]]},"properties":{"name":"Port d'Avall","name:ca":"Port d'Avall","natural":"beach","source":"cadastre-dgi-fr source : Direction Générale des Impôts - Cadastre. Mise à jour : 2010"}},
{"type":"Feature","geometry":{"type":"LineString","coordinates":[[3.1057415,42.5212717],[3.1057037,42.521289],[3.1057139,42.5212968],[3.1056828,42.5213106],[3.105621,42.5212344],[3.1056113,42.5212383],[3.1055607,42.5211807],[3.1055709,42.5211753],[3.1055154,42.5211099],[3.1055829,42.5210793],[3.1056364,42.5211459],[3.1056427,42.5211423],[3.1056529,42.5211525],[3.1056879,42.5211372],[3.10572,42.5211746],[3.1056836,42.5211907],[3.1056933,42.5212024],[3.1056851,42.5212069],[3.1057415,42.5212717]]},"properties":{"building":"yes","historic":"yes","source":"cadastre-dgi-fr source : Direction Générale des Impôts - Cadastre. Mise à jour : 2010"}},
{"type":"Feature","geometry":{"type":"LineString","coordinates":[[3.096322,42.5243523],[3.0963871,42.5243075],[3.0964085,42.5242462],[3.0964112,42.524181],[3.0964005,42.5241355],[3.096371,42.5240723],[3.0963281,42.5240426],[3.0962503,42.5240268],[3.0961564,42.5240347],[3.096132,42.5240615],[3.0962037,42.5240999],[3.096285,42.5242075],[3.0963137,42.5242812],[3.096322,42.5243523]]},"properties":{"natural":"beach","surface":"sand"}},
{"type":"Feature","geometry":{"type":"LineString","coordinates":[[3.0889155,42.5246325],[3.0889195,42.5245647],[3.0890083,42.5244834],[3.0892711,42.5245111],[3.0893999,42.5245704],[3.0893957,42.5247568],[3.0893384,42.5247033],[3.089246,42.5246554],[3.089133,42.524631],[3.089015,42.524626],[3.0889155,42.5246325]]},"properties":{"lifeguard":"no","name":"La Balette","natural":"beach","supervised":"no","surface":"pebblestone"}},
{"type":"Feature","geometry":{"type":"LineString","coordinates":[[3.0855891,42.5266673],[3.0855664,42.5267978],[3.085573,42.5268859],[3.0855878,42.5270148],[3.0856193,42.5271384],[3.0856776,42.5272629],[3.0857339,42.5273608],[3.0857977,42.5274472],[3.0858432,42.5274991],[3.085907,42.5275485],[3.0859827,42.5275925],[3.0859414,42.5276215],[3.0859164,42.527611],[3.085925,42.5276011],[3.0859333,42.5275915],[3.0859093,42.5275828],[3.0857474,42.5275149],[3.0855858,42.5274369],[3.0854818,42.5273677],[3.0853712,42.5272723],[3.0853189,42.5272125],[3.0852659,42.5271265],[3.0852176,42.5269842],[3.0851305,42.5267421],[3.0852377,42.5267144],[3.0852532,42.5266926],[3.085333,42.5266828],[3.0854027,42.5266729],[3.0854624,42.5266763],[3.0855891,42.5266673]]},"properties":{"name":"Boramar","name:ca":"Voramar","natural":"beach","surface":"pebblestone"}},
{"type":"Feature","geometry":{"type":"LineString","coordinates":[[3.0867981,42.5276797],[3.0866935,42.5275592],[3.0868893,42.5274329],[3.087016,42.5275648],[3.0871334,42.5276864],[3.0872668,42.5278006],[3.0874123,42.527891],[3.0875458,42.5279577],[3.0876987,42.5280076],[3.0876227,42.5281891],[3.087415,42.5281047],[3.086884,42.5278201],[3.0868062,42.5278339],[3.0866587,42.5277548],[3.0867981,42.5276797]]},"properties":{"access":"yes","dog":"no","loc_name":"Sant-Vicenç","name":"Saint-Vincent","nat_name":"Saint-Vincent","natural":"beach","surface":"gravel"}},
{"type":"Feature","geometry":{"type":"LineString","coordinates":[[3.0996868,42.523568],[3.099629,42.523543600000007],[3.0995558,42.5235331],[3.0994762,42.5235303],[3.0994238,42.5235243],[3.0992281,42.5235821],[3.0990252,42.5236856],[3.098968,42.5237556],[3.0989288,42.523818],[3.0987611,42.5236797],[3.0988737,42.5234326],[3.0994424,42.5233238],[3.099842,42.5233752],[3.0998715,42.523482],[3.0996868,42.523568]]},"properties":{"name":"Oli","name:ca":"Oli","natural":"beach","surface":"pebblestone"}},
{"type":"Feature","geometry":{"type":"LineString","coordinates":[[3.1027441,42.5244114],[3.1027089,42.5244006],[3.1026579,42.5243901],[3.1025305,42.5243186],[3.1023365,42.5242576],[3.1022246,42.5242482],[3.1020963,42.5242524],[3.1019679,42.5242671],[3.1018894,42.5242771],[3.1018249,42.5243257],[3.1017911,42.524235],[3.1017964,42.5241441],[3.1018769,42.5240769],[3.1019523,42.52408],[3.1021827,42.524069],[3.1024026,42.5241164],[3.1026225,42.5242034],[3.1027084,42.5242904],[3.1027441,42.5244114]]},"properties":{"name":"En Baus","natural":"beach"}},
{"type":"Feature","geometry":{"type":"LineString","coordinates":[[3.1069114,42.5206265],[3.106887,42.5205968],[3.1069286,42.5205782],[3.1069531,42.5206079],[3.1069114,42.5206265]]},"properties":{"building":"yes","historic":"yes","name":"Obélisque","source":"cadastre-dgi-fr source : Direction Générale des Impôts - Cadastre. Mise à jour : 2010"}},
{"type":"Feature","geometry":{"type":"LineString","coordinates":[[3.0835908,42.5244577],[3.0841165,42.5242996],[3.0845349,42.5242403],[3.0847028,42.5242128],[3.0846946,42.524173],[3.0841827,42.524214],[3.0839924,42.5242524],[3.0837519,42.5242484],[3.0835497,42.5242646],[3.0835908,42.5244577]]},"properties":{"leisure":"park"}},
{"type":"Feature","geometry":{"type":"LineString","coordinates":[[3.0870191,42.5240681],[3.0869165,42.5240273],[3.0869424,42.5238857],[3.0870895,42.5238912],[3.0872723,42.5239466],[3.0874476,42.5240901],[3.0875026,42.5241885],[3.0875026,42.5242576],[3.0873719,42.5241564],[3.0870191,42.5240681]]},"properties":{"name":"El Botiguer","name:ca":"El Botiguer","natural":"beach","source":"cadastre-dgi-fr source : Direction Générale des Impôts - Cadastre. Mise à jour : 2010"}},
{"type":"Feature","geometry":{"type":"LineString","coordinates":[[3.1141918,42.5211184],[3.1141516,42.5210488],[3.1142244,42.5210259],[3.1142647,42.5210955],[3.1141918,42.5211184]]},"properties":{"natural":"coastline"}},
{"type":"Feature","geometry":{"type":"LineString","coordinates":[[3.0886936,42.5221873],[3.0887495,42.5223292],[3.0891078,42.5222527],[3.0890519,42.5221107],[3.0886936,42.5221873]]},"properties":{"leisure":"pitch","sport":"tennis"}},
{"type":"Feature","geometry":{"type":"LineString","coordinates":[[3.0876227,42.5281891],[3.0877054,42.528158],[3.0884537,42.5277745],[3.0883808,42.5277022],[3.0883693,42.5276907],[3.0883579,42.5276795],[3.0883037,42.5276257],[3.0882321,42.5276655],[3.0882734,42.5277085],[3.0881171,42.5278287],[3.0879743,42.5279137],[3.0877972,42.5279869],[3.0876987,42.5280076],[3.0876227,42.5281891]]},"properties":{"natural":"beach"}},
{"type":"Feature","geometry":{"type":"LineString","coordinates":[[3.0835991,42.5241415],[3.0840766,42.5241296],[3.0840953,42.5241],[3.0837171,42.5240229],[3.0835991,42.5241415]]},"properties":{"leisure":"park","name":"Square Marceau Banyuls"}},
{"type":"Feature","geometry":{"type":"LineString","coordinates":[[3.0844251,42.5264536],[3.0844298,42.5263433],[3.0844299,42.5263426],[3.0845147,42.5263434],[3.0845789,42.5263453],[3.0845798,42.5263148],[3.0845524,42.5263154],[3.0845157,42.5262356],[3.0846328,42.5262163],[3.0846607,42.5263016],[3.0846555,42.5263125],[3.0846232,42.526314],[3.0846221,42.5263463],[3.084976,42.5263546],[3.0856155,42.5259857],[3.0858857,42.5260495],[3.0862667,42.5260324],[3.0862506,42.5260665],[3.0861801,42.5262104],[3.0861095,42.5263494],[3.0859991,42.5264522],[3.0858781,42.5265016],[3.0857075,42.5265247],[3.0856809,42.5264957],[3.0849727,42.526622],[3.0849497,42.5264724],[3.0847471,42.5264661],[3.0845575,42.5264603],[3.0845383,42.5264597],[3.0844251,42.5264536]]},"properties":{"leisure":"marina","name":"Port du Boramar","wheelchair":"limited"}},
{"type":"Feature","geometry":{"type":"LineString","coordinates":[[3.0814827,42.5280567],[3.08155,42.5280005],[3.0811273,42.5277511],[3.0812263,42.527606],[3.0815041,42.5277571],[3.0816778,42.5277803],[3.0818476,42.5278423],[3.0824771,42.5280719],[3.082446,42.5281182],[3.0820694,42.5284296],[3.0819486,42.5283598],[3.0814827,42.5280567]]},"properties":{"leisure":"sports_centre"}},
{"type":"Feature","geometry":{"type":"LineString","coordinates":[[3.0860168,42.5237534],[3.0860107,42.5237368],[3.0859942,42.5237246],[3.0859716,42.5237201],[3.085949,42.5237246],[3.0859325,42.5237368],[3.0859264,42.5237534],[3.0859325,42.5237701],[3.085949,42.5237823],[3.0859716,42.5237867],[3.0859942,42.5237823],[3.0860107,42.5237701],[3.0860168,42.5237534]]},"properties":{"attraction":"carousel","leisure":"carousel","name":"Manège","opening_hours":"We, Sa, Su 10:30-12:30, 15:00-19:00","tourism":"attraction","wheelchair":"limited"}},
{"type":"Feature","geometry":{"type":"LineString","coordinates":[[3.0822475,42.5257262],[3.0823191,42.5257321],[3.0823319,42.5257167],[3.0823063,42.5256878],[3.0822448,42.5256644],[3.0822144,42.5256784],[3.0822266,42.5257102],[3.0822475,42.5257262]]},"properties":{"access":"private","leisure":"swimming_pool"}},
{"type":"Feature","geometry":{"type":"LineString","coordinates":[[3.0892249,42.5238319],[3.0894395,42.5237172],[3.0900618,42.5233871],[3.0901637,42.5232705],[3.0902723,42.5230836],[3.0903179,42.522971],[3.0903514,42.5229206],[3.0904829,42.5227802],[3.090507,42.5227288],[3.0906009,42.5225964],[3.0907296,42.5224501],[3.0909228,42.5221397],[3.09136,42.5217226],[3.0899813,42.5213114],[3.0895226,42.521861],[3.0892947,42.5219954],[3.0892802,42.5220017],[3.0890586,42.5220982],[3.089123,42.5222564],[3.0889862,42.5222939],[3.0886482,42.5224857],[3.0882596,42.5227212],[3.0880716,42.5227565],[3.0878624,42.5227782],[3.0878919,42.5228632],[3.0879053,42.5229601],[3.0878677,42.5230866],[3.0880206,42.5233238],[3.0880313,42.5233851],[3.087967,42.5234563],[3.0880045,42.523476],[3.0880314,42.5234197],[3.0880984,42.5234009],[3.0881494,42.523397],[3.0881762,42.5234306],[3.0881601,42.5236065],[3.0881145,42.5236737],[3.0881225,42.5237923],[3.0880743,42.5238991],[3.0880823,42.5240315],[3.0880984,42.5241224],[3.0879187,42.5241422],[3.0879053,42.5242588],[3.0879643,42.5243557],[3.0880179,42.524415],[3.0881359,42.5244387],[3.0882486,42.5244368],[3.088718,42.5243122],[3.0888092,42.5242845],[3.0887904,42.5242312],[3.0887877,42.524158],[3.0888494,42.5240671],[3.0892249,42.5238319]]},"properties":{"leisure":"park","name":"Jardin Pams"}},
{"type":"Feature","geometry":{"type":"LineString","coordinates":[[3.1179731999999999,42.5197794],[3.1178839,42.5199275],[3.1179016,42.5200067],[3.1179417,42.5200469],[3.1182363,42.5201449],[3.1183403,42.5201175],[3.1184744,42.5199659],[3.1184087,42.5199316],[3.1182966,42.5199069],[3.1182709,42.5198276],[3.118186,42.5197662],[3.1181235,42.5197402],[3.1180948,42.5197769],[3.1180115,42.5197498],[3.1179956,42.5197746],[3.1179731999999999,42.5197794]]},"properties":{"alt_name":"Fort Mailly","castle_type":"fortress","heritage":"3","heritage:operator":"mhs","historic":"castle","mhs:inscription_date":"1991-04-23","name":"Redoute de Mailly","name:ca":"Fortí de Mailly","ref:mhs":"PA00104187","ruins":"yes","source":"cadastre-dgi-fr source : Direction Générale des Impôts - Cadastre. Mise à jour : 2015; bing 2015","wikidata":"Q18337934","wikipedia":"fr:Redoute de Mailly"}},
{"type":"Feature","geometry":{"type":"LineString","coordinates":[[3.0827526,42.5301904],[3.0827687,42.5302774],[3.0827687,42.5303525],[3.0827097,42.5303604],[3.0826078,42.5304197],[3.0826024,42.5304671]]},"properties":{"natural":"cliff"}},
{"type":"Feature","geometry":{"type":"LineString","coordinates":[[3.1090632,42.524698],[3.1090169,42.5246255],[3.1090303,42.5244832],[3.109091,42.5242847],[3.1091466,42.5242853],[3.1091771,42.5242963],[3.1092353,42.5242996],[3.1094768,42.5242895],[3.1095413,42.5242928],[3.1096759,42.5243358],[3.109708,42.524373],[3.1097214,42.524431],[3.1096977,42.5246547],[3.1096637,42.5246699],[3.1095999,42.5248247],[3.1094231,42.5250439],[3.1093244,42.5250108],[3.1092779,42.5249952],[3.1092257,42.5249264],[3.1090889,42.5247028],[3.109078,42.5246912],[3.1090632,42.524698]]},"properties":{"castle_type":"fortress","heritage":"3","heritage:operator":"mhs","historic":"castle","mhs:inscription_date":"1991-04-23","name":"Fort de la Mauresque","name:ca":"Bateria de la Moresca","ref:mhs":"PA00104188","ruins":"yes","wikidata":"Q22954378","wikipedia":"fr:Fort de la Mauresque"}},
{"type":"Feature","geometry":{"type":"LineString","coordinates":[[3.1196062,42.5213381],[3.1196009,42.5211621],[3.1195271,42.5209496],[3.1194507,42.5209763],[3.119275,42.5208369],[3.1192596,42.5208325],[3.1192314,42.520832],[3.119218,42.5208345],[3.1191898,42.5208448],[3.1191767,42.5208626],[3.1191328,42.5208879],[3.1192401,42.520997],[3.1193608,42.5212036],[3.1193742,42.5213806],[3.1193514,42.5215298],[3.1193987,42.5215533],[3.1195378,42.5214428],[3.1196062,42.5213381]]},"properties":{"name":"La jeter","natural":"beach","surface":"sand"}},
{"type":"Feature","geometry":{"type":"LineString","coordinates":[[3.1190503,42.5203467],[3.1189652,42.5204282],[3.1189337,42.5204514],[3.1189068,42.5204623],[3.1187472,42.5204929],[3.1186379,42.5204944],[3.1185405,42.5205074],[3.1184396,42.5205524],[3.1187814,42.5206649],[3.1190412,42.5208404],[3.1190874,42.520794],[3.1190899,42.5207292],[3.1190819,42.5206649],[3.1190591,42.5205829],[3.1190537,42.5205038],[3.119043,42.5204623],[3.1190711,42.520404],[3.1190859,42.5203872],[3.1190886,42.5203674],[3.1190503,42.5203467]]},"properties":{"natural":"beach","surface":"sand"}},
{"type":"Feature","geometry":{"type":"LineString","coordinates":[[3.1132776,42.5212096],[3.1135954,42.5211562],[3.1135873,42.5211142],[3.1137697,42.5210568],[3.1138375,42.521342],[3.1137912,42.5214018],[3.1134398,42.5214898],[3.1133795,42.521345],[3.1133305,42.5213534],[3.1132776,42.5212096]]},"properties":{"alt_name":"Fort Fanal","barrier":"wall","castle_type":"fortress","heritage":"3","heritage:operator":"mhs","historic":"castle","mhs:inscription_date":"1933-06-06","name":"Redoute du Fanal","name:ca":"Fortí del Fanal","ref:mhs":"PA00104098","start_date":"C17","wikidata":"Q3422954","wikipedia":"fr:Redoute du Fanal"}},
{"type":"Feature","geometry":{"type":"LineString","coordinates":[[3.3222444,42.3194537],[3.2641783,42.2281776],[3.210753,42.2315689],[3.1668077,42.2691805],[3.1077562,42.3159096],[3.0363451,42.3494112],[3.0129991,42.3920239],[2.9772935,42.4092636],[2.9168687,42.4153471],[2.8674303,42.3839094],[2.8124986,42.3159096],[2.8248582,42.2447864],[2.7507005,42.1959698],[2.5790392,42.2213998],[2.4815355,42.18783],[2.4444566,42.1298039],[2.2727953,42.0360354],[2.231806,41.9435952],[2.2309106,41.941617],[2.0180505,41.8756969],[1.8168633,41.7277683],[1.5257249,41.7323808],[1.242827,41.8869444],[1.1329637,41.930891],[0.8280931,41.8613802],[0.5836473,41.8593346],[0.3955064,41.9002338],[0.2828966,41.9860369],[0.2238451,42.0686662],[0.1043687,42.1277669],[-0.0672926,42.2020739],[-0.3186049,42.211229],[-0.5575575,42.2701967],[-0.7443251,42.3301246],[-0.9901442,42.3423063],[-1.2702956,42.368692],[-1.3444533,42.5105781],[-1.4584364,42.3889811],[-1.5779128,42.4072357],[-1.6932692,42.5227248],[-1.8305983,42.618803],[-1.838838,42.7550806],[-1.8098029,42.796553],[-1.8097616,42.7966121],[-1.7880263,42.8276396],[-1.8402113,42.9162074],[-1.8663039,42.9875729],[-1.9816603,43.0317579],[-2.0764174,43.1380729],[-2.0242323,43.2221915],[-1.9844069,43.3221815],[-1.7980603,43.3919094],[-1.7976393,43.3920768],[-1.7756667,43.3711167],[-1.6658034,43.3990619],[-1.395265,43.3531451],[-1.1975111,43.3711167],[-1.0258498,43.3201833],[-0.7800307,43.336167],[-0.5245985,43.3791023],[-0.3488173,43.2832049],[0.0274644,43.2191892],[0.2677904,43.1661253],[0.4682909,43.0949673],[0.8033739,43.1069998],[1.1906419,43.0969729],[1.5078722,43.0438028],[2.0860277,42.932297],[2.2521959,42.8185744],[2.6559435,42.7923785],[2.7960191,42.7369275],[2.7081285,42.6733499],[2.9154955,42.5459994],[3.1228624,42.5217127],[3.1791673,42.4457557],[3.1654344,42.3707212],[3.20114,42.3412912],[3.2036683,42.3416416],[3.2450853,42.3473813],[3.3222444,42.3194537]]},"properties":{"boundary":"region","name":"Pyrénées / Pirineos / Pirineus / Pirineu / Pirinioak / Pirenèus","name:af":"Pireneë","name:am":"ፒሬኔ ተራሮች","name:an":"Pireneu","name:ar":"البرانس","name:ba":"Пиреней тауҙары","name:be":"Пірэнеі","name:bg":"Пиренеи","name:bh":"पिरेनीज परबत","name:br":"Pireneoù","name:bs":"Pireneji","name:ca":"Pirineus","name:cs":"Pyreneje","name:cy":"Pyreneau","name:da":"Pyrenæerne","name:de":"Pyrenäen","name:el":"Πυρηναία","name:en":"Pyrenees","name:eo":"Pireneoj","name:es":"Pirineos","name:et":"Püreneed","name:eu":"Pirinioak","name:fa":"پیرنه","name:fi":"Pyreneet","name:fo":"Pyreneurnar","name:fr":"Pyrénées","name:fy":"Pyreneeën","name:ga":"Piréiní","name:gl":"Pireneos","name:he":"הרי הפירנאים","name:hi":"पिरिनी पर्वत शृंखला","name:hr":"Pireneji","name:hu":"Pireneusok","name:hy":"Պիրենեյներ","name:ia":"Pyreneos","name:id":"Pegunungan Pirenia","name:io":"Pirenei","name:is":"Pýreneafjöll","name:it":"Pirenei","name:ja":"ピレネー山脈","name:ka":"პირენეები","name:kk":"Пиреней таулары","name:ko":"피레네 산맥","name:ku":"Pîrenê","name:ky":"Пиреней тоолору","name:la":"Pyrenaei","name:lb":"Pyrenäen","name:li":"Pyreneje","name:lt":"Pirėnai","name:lv":"Pireneji","name:mk":"Пиринеи","name:mn":"Пиренейн уулс","name:mr":"पिरेनीज","name:ms":"Pyrenees","name:nl":"Pyreneeën","name:nn":"Pyreneane","name:no":"Pyreneene","name:oc":"Pirenèus","name:pa":"ਪੀਰੇਨੇ","name:pl":"Pireneje","name:pt":"Pireneus","name:qu":"Piriniyukuna","name:ro":"Munții Pirinei","name:ru":"Пиренеи","name:sk":"Pyreneje","name:sl":"Pireneji","name:sq":"Pirenetë","name:sr":"Пиринеји","name:sv":"Pyrenéerna","name:sw":"Pirenei","name:ta":"பிரனீசு மலைத்தொடர்","name:tg":"Кӯҳҳои Пиреней","name:th":"เทือกเขาพิเรนีส","name:tl":"Pirineos","name:tr":"Pireneler","name:tt":"Пиреней таулары","name:ug":"پىرېنېي تاغلىرى","name:uk":"Піренеї","name:ur":"کوہ پائرینیس","name:uz":"Pireney togʻlari","name:wa":"Pirinêyes","name:yi":"פירענעען","name:zh":"比利牛斯山","natural":"mountain_range","region:type":"mountain_area","source:name:oc":"ieo-bdtopoc","wikidata":"Q12431","wikipedia":"en:Pyrenees"}},
{"type":"Feature","geometry":{"type":"LineString","coordinates":[[3.0829973,42.5224224],[3.0830147,42.5224381],[3.0830382,42.5224742],[3.0830463,42.5224762],[3.083062,42.5224735],[3.0830787,42.5224579],[3.0830713,42.5224335],[3.0830474,42.5224112],[3.0830169,42.5224012],[3.0830053,42.5224029],[3.0829978,42.5224102],[3.0829973,42.5224224]]},"properties":{"access":"private","leisure":"swimming_pool","source":"cadastre-dgi-fr source : Direction Générale des Impôts - Cadastre. Mise à jour : 2021"}},
{"type":"Feature","geometry":{"type":"LineString","coordinates":[[3.0821098,42.5219272],[3.0820649,42.5219219],[3.0820833,42.5218427],[3.0821306,42.521849],[3.0821098,42.5219272]]},"properties":{"access":"private","leisure":"swimming_pool"}},
{"type":"Feature","geometry":{"type":"LineString","coordinates":[[3.0821335,42.5223064],[3.0820843,42.5223083],[3.0820758,42.5222326],[3.0821267,42.5222307],[3.0821335,42.5223064]]},"properties":{"access":"private","leisure":"swimming_pool"}},
{"type":"Feature","geometry":{"type":"LineString","coordinates":[[3.0841832,42.5259227],[3.0840496,42.5260418],[3.0839981,42.5260361],[3.0841763,42.5258817],[3.0841059,42.5258475]]},"properties":{"barrier":"city_wall","name":"Château Royal","source":"cadastre-dgi-fr source : Direction Générale des Impôts - Cadastre. Mise à jour : 2010","tourism":"attraction","wheelchair":"no"}},
{"type":"Feature","geometry":{"type":"LineString","coordinates":[[3.0835748,42.5250519],[3.0835311,42.525066],[3.0835938,42.5251384],[3.0836324,42.5251372],[3.0836806,42.5251918],[3.0836453,42.5251942],[3.0839701,42.5255313],[3.0839413,42.5255503],[3.084004,42.5256073],[3.0838981,42.525706],[3.0841084,42.5257905]]},"properties":{"barrier":"city_wall","name":"Château Royal","source":"cadastre-dgi-fr source : Direction Générale des Impôts - Cadastre. Mise à jour : 2010","tourism":"attraction","wheelchair":"no"}},
{"type":"Feature","geometry":{"type":"LineString","coordinates":[[3.0851125,42.5247393],[3.085043,42.5247554],[3.0849215,42.5247834],[3.0849167,42.5248475],[3.0848878,42.5248464],[3.0848847,42.524901],[3.0848461,42.5248999],[3.0848398,42.5249628],[3.0848029,42.5249629],[3.0848013,42.5250199],[3.0847403,42.5249997],[3.0847066,42.525052],[3.0838072,42.5250905]]},"properties":{"barrier":"city_wall","name":"Château Royal","source":"cadastre-dgi-fr source : Direction Générale des Impôts - Cadastre. Mise à jour : 2010","tourism":"attraction","wheelchair":"no"}},
{"type":"Feature","geometry":{"type":"LineString","coordinates":[[3.0877092,42.5226214],[3.0877124,42.5226391],[3.0877077,42.5226566],[3.0876957,42.5226721],[3.0876775,42.522684],[3.0876552,42.5226909],[3.087631,42.5226922],[3.0876075,42.5226877],[3.0875868,42.5226775],[3.0875717,42.5226629],[3.0875641,42.5226454],[3.0875646,42.5226271],[3.0875733,42.5226099],[3.0875891,42.5225958],[3.0876104,42.5225863],[3.0876348,42.5225825],[3.0876595,42.5225848],[3.0876812,42.5225927],[3.0876984,42.5226053],[3.0877092,42.5226214]]},"properties":{"access":"private","leisure":"swimming_pool","survey:date":"2022-09-05"}},
{"type":"Feature","geometry":{"type":"LineString","coordinates":[[3.0905883,42.5238444],[3.0905883,42.523793],[3.0906553,42.5236974],[3.0907095,42.5237089],[3.0906567,42.5238529],[3.0905883,42.5238444]]},"properties":{"access":"private","leisure":"swimming_pool"}},
{"type":"Feature","geometry":{"type":"LineString","coordinates":[[3.0921839,42.52369],[3.0922136,42.5236397],[3.0923081,42.52367],[3.0922783,42.5237203],[3.0921839,42.52369]]},"properties":{"access":"private","leisure":"swimming_pool"}},
{"type":"Feature","geometry":{"type":"LineString","coordinates":[[3.0925409,42.5233188],[3.0925282,42.5232615],[3.0926575,42.523246],[3.0926702,42.5233033],[3.0925409,42.5233188]]},"properties":{"access":"private","leisure":"swimming_pool"}},
{"type":"Feature","geometry":{"type":"LineString","coordinates":[[3.093256,42.5226632],[3.093249,42.5226751],[3.0932374,42.5226848],[3.0932222,42.5226914],[3.093205,42.5226941],[3.0931875,42.5226928],[3.0931715,42.5226875],[3.0931584,42.5226788],[3.0931497,42.5226675],[3.093067,42.5226644],[3.0930482,42.522654],[3.0930441,42.522638],[3.0930538,42.5226217],[3.093072,42.5226126],[3.0931909,42.5226127],[3.0932102,42.5226124],[3.0932284,42.5226169],[3.0932435,42.5226256],[3.0932537,42.5226377],[3.0932576,42.5226503],[3.093256,42.5226632]]},"properties":{"access":"private","leisure":"swimming_pool"}},
{"type":"Feature","geometry":{"type":"LineString","coordinates":[[3.0916496,42.5226622],[3.0916393,42.5226577],[3.0916496,42.5226383],[3.0916416,42.5226324],[3.0916543,42.5226195],[3.0917326,42.5225945],[3.0917515,42.5226219],[3.0916496,42.5226622]]},"properties":{"access":"private","leisure":"swimming_pool"}},
{"type":"Feature","geometry":{"type":"LineString","coordinates":[[3.0936423,42.5236848],[3.0936177,42.5236373],[3.0937214,42.5236081],[3.093746,42.5236555],[3.0936423,42.5236848]]},"properties":{"access":"private","leisure":"swimming_pool"}},
{"type":"Feature","geometry":{"type":"LineString","coordinates":[[3.0933501,42.523298],[3.0933361,42.523275],[3.0933993,42.523254],[3.0934133,42.523277],[3.0933501,42.523298]]},"properties":{"access":"private","leisure":"swimming_pool"}},
{"type":"Feature","geometry":{"type":"LineString","coordinates":[[3.0948312,42.5234381],[3.0947627,42.5233404],[3.094812,42.5233216],[3.0948805,42.5234193],[3.0948312,42.5234381]]},"properties":{"access":"private","leisure":"swimming_pool","survey:date":"2022-09-05"}},
{"type":"Feature","geometry":{"type":"LineString","coordinates":[[3.1017815,42.521064],[3.101799,42.5210193],[3.1018296,42.5210257],[3.1018122,42.5210705],[3.1017815,42.521064]]},"properties":{"access":"private","leisure":"swimming_pool","survey:date":"2022-09-05"}},
{"type":"Feature","geometry":{"type":"LineString","coordinates":[[3.101457,42.5209903],[3.1014693,42.5209582],[3.1015253,42.5209698],[3.101513,42.5210019],[3.101457,42.5209903]]},"properties":{"access":"private","leisure":"swimming_pool"}},
{"type":"Feature","geometry":{"type":"LineString","coordinates":[[3.1042472,42.5219333],[3.1042259,42.5219031],[3.104296,42.5218761],[3.1043174,42.5219062],[3.1042472,42.5219333]]},"properties":{"access":"private","leisure":"swimming_pool"}},
{"type":"Feature","geometry":{"type":"LineString","coordinates":[[3.1005484,42.5197887],[3.1005423,42.5197536],[3.1005105,42.5197508],[3.1005151,42.5197089],[3.1005484,42.5197056],[3.100584,42.5197318],[3.1005954,42.5197843],[3.1005878,42.5197949],[3.1005484,42.5197887]]},"properties":{"access":"private","leisure":"swimming_pool","survey:date":"2022-09-05"}},
{"type":"Feature","geometry":{"type":"LineString","coordinates":[[3.0996303,42.5198718],[3.0995631,42.5198214],[3.0995998,42.5197948],[3.0996425,42.5198268],[3.0996503,42.5198212],[3.0996749,42.5198396],[3.0996303,42.5198718]]},"properties":{"access":"private","leisure":"swimming_pool"}},
{"type":"Feature","geometry":{"type":"LineString","coordinates":[[3.0838258,42.527868],[3.0839303,42.5278595],[3.0839235,42.5278219],[3.0838209,42.5278287],[3.0838258,42.527868]]},"properties":{"access":"private","leisure":"swimming_pool","survey:date":"2022-09-05"}},
{"type":"Feature","geometry":{"type":"LineString","coordinates":[[3.0858071,42.5238566],[3.0857711,42.5238166],[3.0859196,42.5237476],[3.0859595,42.523792],[3.0858071,42.5238566]]},"properties":{"leisure":"playground"}},
{"type":"Feature","geometry":{"type":"LineString","coordinates":[[3.0814827,42.5280567],[3.08155,42.5280005],[3.0815893,42.5279677],[3.0820552,42.5282708],[3.0819486,42.5283598],[3.0814827,42.5280567]]},"properties":{"leisure":"pitch","sport":"skateboard"}},
{"type":"Feature","geometry":{"type":"LineString","coordinates":[[3.0985459,42.5243484],[3.0986693,42.5243039],[3.0986532,42.5242189],[3.0985074,42.5241401],[3.0985459,42.5243484]]},"properties":{"natural":"grassland"}},
{"type":"Feature","geometry":{"type":"LineString","coordinates":[[3.0862371,42.5237367],[3.0862401,42.523776],[3.0863757,42.5237636],[3.0863712,42.5237209],[3.0862371,42.5237367]]},"properties":{"leisure":"pitch","sport":"boules"}},
{"type":"Feature","geometry":{"type":"LineString","coordinates":[[3.0820659,42.5280351],[3.0819992,42.5280998],[3.0822701,42.5281982],[3.082314,42.5281462],[3.0820659,42.5280351]]},"properties":{"leisure":"sports_centre","sport":"soccer"}},
{"type":"Feature","geometry":{"type":"LineString","coordinates":[[3.0837247,42.5262499],[3.0844772,42.526333],[3.0844461,42.5261568],[3.0841377,42.5260876],[3.0837247,42.5262499]]},"properties":{"leisure":"park","name":"Boulodrome"}},
{"type":"Feature","geometry":{"type":"LineString","coordinates":[[3.1049947,42.5199604],[3.104997,42.5199458],[3.1050169,42.5199243],[3.1050379,42.5199234],[3.1050426,42.5199407],[3.1050239,42.5199622],[3.1050134,42.5199665],[3.1049947,42.5199604]]},"properties":{"leisure":"swimming_pool"}},
{"type":"Feature","geometry":{"type":"LineString","coordinates":[[3.1019011,42.5208034],[3.1019201,42.520805],[3.1019347,42.5207933],[3.101929,42.5207776],[3.1019113,42.5207757],[3.1018927,42.520788],[3.1019011,42.5208034]]},"properties":{"leisure":"swimming_pool"}},
{"type":"Feature","geometry":{"type":"MultiPolygon","coordinates":[[[[3.0860143,42.5237321],[3.0860169,42.5237201],[3.0860249,42.5237095],[3.0860374,42.5237016],[3.0860527,42.5236973],[3.0860691,42.5236971],[3.0860846,42.5237011],[3.0860973,42.5237087],[3.0861057,42.5237192],[3.0861088,42.5237311],[3.0861062,42.5237431],[3.0860982,42.5237537],[3.0860858,42.5237616],[3.0860704,42.5237659],[3.086054,42.5237661],[3.0860385,42.5237621],[3.0860258,42.5237544],[3.0860174,42.523744],[3.0860143,42.5237321]]]]},"properties":{"building":"yes","height":"10","historic":"monument","man_made":"tower","name":"La Tour d'Avall","name:ca":"La Torre d'Avall","source":"cadastre-dgi-fr source : Direction Générale des Impôts - Cadastre. Mise à jour : 2010"}},
{"type":"Feature","geometry":{"type":"MultiPolygon","coordinates":[[[[3.0847863,42.5260941],[3.0851116,42.5259601],[3.0851732,42.5260164],[3.0849481,42.5261292],[3.0848576,42.5261843],[3.0847863,42.5260941]]]]},"properties":{"source":"cadastre-dgi-fr source : Direction Générale des Impôts - Cadastre. Mise à jour : 2010"}},
{"type":"Feature","geometry":{"type":"MultiPolygon","coordinates":[[[[3.0844803,42.5254957],[3.0844826,42.5254822],[3.0845385,42.5254645],[3.0845928,42.5254631],[3.084639,42.5254868],[3.0846866,42.525501],[3.0847608,42.5254256],[3.0848754,42.5253214],[3.0849582,42.5252446],[3.0849811,42.5252239],[3.0849774,42.5251988],[3.0849771,42.5251845],[3.0849667,42.5251696],[3.0849444,42.5251496],[3.0849321,42.5251425],[3.0849074,42.5251289],[3.085026,42.5249375],[3.0850429,42.524927],[3.0851508,42.525196],[3.0851219,42.5252055],[3.0851085,42.5251987],[3.0850361,42.5250131],[3.0850321,42.5250108],[3.0850271,42.5250108],[3.0849557,42.5251181],[3.0849993000000004,42.5251455],[3.0850037,42.5251638],[3.0850274,42.5252239],[3.0849922,42.5252826],[3.0848881,42.5253801],[3.0847436,42.5255149],[3.0847446,42.5255193],[3.0847413,42.5255379],[3.0846417,42.525518],[3.0846367,42.5255085],[3.0845998,42.5254902],[3.0845505,42.5254953],[3.0845402,42.5255048],[3.0845352,42.525513],[3.0845349,42.5255208],[3.0845383,42.5255276],[3.0845539,42.5255394],[3.0845702,42.5255486],[3.0846128,42.5255543],[3.0846218,42.5255628],[3.0846242,42.5255713],[3.0846222,42.5255805],[3.0846096,42.5256256],[3.0847125,42.5256489],[3.084669,42.5257545],[3.0846186,42.5258448],[3.0846771,42.5258546],[3.0847163,42.5257731],[3.0848824,42.5258144],[3.0850244,42.5257613],[3.0852319,42.5256234],[3.0851906,42.5255939],[3.0850098,42.5252799],[3.0850367,42.5252524],[3.085035,42.5252381],[3.0851302,42.525214],[3.0851973,42.5253764],[3.0851987,42.5254056],[3.085185,42.5254087],[3.0852641,42.5255484],[3.085381,42.5256403],[3.0854714,42.5257552],[3.0855725,42.5257592],[3.0856544,42.5257337],[3.0857557,42.5258375],[3.0856969,42.5259315],[3.0855911,42.5259632],[3.0855043,42.5259551],[3.0855042,42.5259459],[3.0855195,42.5259412],[3.0855891,42.5259492],[3.0856759,42.5259247],[3.0856845,42.5258813],[3.085582,42.5258641],[3.0855611,42.5258875],[3.0855142,42.5259283],[3.0854826,42.5259344],[3.0854123,42.5258836],[3.0853651,42.5258961],[3.085337,42.5258303],[3.0854132,42.5258126],[3.0853162,42.5256885],[3.0852449,42.5256302],[3.0851229,42.5257128],[3.0852372,42.5258101],[3.0852732,42.5258538],[3.0851897,42.5258908],[3.085128,42.525839],[3.0848676,42.5259545],[3.0848523,42.5259413],[3.0848329,42.5258959],[3.0846219,42.525856],[3.0845654,42.5258754],[3.0845171,42.5258642],[3.0844998,42.5259012],[3.0845068,42.5259171],[3.0845165,42.5259215],[3.0845528,42.5259269],[3.084581,42.5258896],[3.0848237,42.5259373],[3.0848457,42.5259674],[3.0848094,42.52598],[3.0848102,42.5260526],[3.0849386,42.526001],[3.0849419,42.5260054],[3.0851132,42.525932],[3.0851385,42.5259313],[3.0851532,42.5259553],[3.0852068,42.5260035],[3.0853016,42.525962],[3.0853789,42.5260247],[3.0853496,42.5260424],[3.0852907,42.5259943],[3.0849677,42.5261486],[3.084856,42.5262151],[3.084849,42.5262155],[3.0848407,42.5262152],[3.0848327,42.5262118],[3.0847477,42.5261022],[3.084744,42.5260954],[3.0847474,42.5260924],[3.084753,42.5260887],[3.0847543,42.5260819],[3.0847493,42.5260714],[3.084748,42.5260534],[3.0847716,42.5260445],[3.0847712,42.5260371],[3.0845306,42.5259816],[3.0845611,42.5259456],[3.0845099,42.5259317],[3.0844969,42.5259256],[3.0844869,42.5259144],[3.0844815,42.5259019],[3.0845051,42.5258486],[3.0845534,42.5258642],[3.0845886,42.5258496],[3.0845507,42.5258387],[3.084622,42.5256867],[3.0846286,42.5256602],[3.0845677,42.5256467],[3.0845647,42.5256378],[3.0845866,42.5255737],[3.084548,42.5255673],[3.0845243,42.5255541],[3.0845033,42.5255402],[3.0844877,42.525511],[3.0844803,42.5254957]]]]},"properties":{"source":"cadastre-dgi-fr source : Direction Générale des Impôts - Cadastre. Mise à jour : 2010"}},
{"type":"Feature","geometry":{"type":"MultiPolygon","coordinates":[[[[3.089012,42.5244485],[3.0890416,42.5244404],[3.0890406,42.5244326],[3.0891823,42.5244294],[3.0891867,42.5243856],[3.0891882,42.5243703],[3.0892518,42.5243625],[3.0894654,42.5243732],[3.0894602,42.5244326],[3.0895051,42.5244346],[3.0894946,42.5245265],[3.0892726,42.5245087],[3.0892739,42.5244897],[3.08919,42.5244844],[3.0891232,42.5244847],[3.0891221,42.5244708],[3.0891018,42.5244705],[3.0891019,42.5244861],[3.0890509,42.5244862],[3.0890469,42.5244702],[3.0890187,42.5244753],[3.089012,42.5244485]]]]},"properties":{"building":"yes","email":"contact@relaisdes3mas.com","name":"Relais des 3 Mas","phone":"+33468820507","source":"cadastre-dgi-fr source : Direction Générale des Impôts - Cadastre. Mise à jour : 2010","stars":"4","tourism":"hotel","website":"https://www.relaisdestroismas.com/"}},
{"type":"Feature","geometry":{"type":"MultiPolygon","coordinates":[[[[3.0844803,42.5254957],[3.0844826,42.5254822],[3.0845385,42.5254645],[3.0845928,42.5254631],[3.084639,42.5254868],[3.0846866,42.525501],[3.0847608,42.5254256],[3.0848754,42.5253214],[3.0849582,42.5252446],[3.0849811,42.5252239],[3.0849774,42.5251988],[3.0849771,42.5251845],[3.0849667,42.5251696],[3.0849444,42.5251496],[3.0849321,42.5251425],[3.0849074,42.5251289],[3.085026,42.5249375],[3.0850429,42.524927],[3.0851508,42.525196],[3.0851219,42.5252055],[3.0851085,42.5251987],[3.0850361,42.5250131],[3.0850321,42.5250108],[3.0850271,42.5250108],[3.0849557,42.5251181],[3.0849993000000004,42.5251455],[3.0850037,42.5251638],[3.0850274,42.5252239],[3.0849922,42.5252826],[3.0848881,42.5253801],[3.0847436,42.5255149],[3.0847446,42.5255193],[3.0847413,42.5255379],[3.0846417,42.525518],[3.0846367,42.5255085],[3.0845998,42.5254902],[3.0845505,42.5254953],[3.0845402,42.5255048],[3.0845352,42.525513],[3.0845349,42.5255208],[3.0845383,42.5255276],[3.0845539,42.5255394],[3.0845702,42.5255486],[3.0846128,42.5255543],[3.0846218,42.5255628],[3.0846242,42.5255713],[3.0846222,42.5255805],[3.0846096,42.5256256],[3.0847125,42.5256489],[3.084669,42.5257545],[3.0846186,42.5258448],[3.0846771,42.5258546],[3.0847163,42.5257731],[3.0848824,42.5258144],[3.0850244,42.5257613],[3.0852319,42.5256234],[3.0851906,42.5255939],[3.0850098,42.5252799],[3.0850367,42.5252524],[3.085035,42.5252381],[3.0851302,42.525214],[3.0851973,42.5253764],[3.0851987,42.5254056],[3.085185,42.5254087],[3.0852641,42.5255484],[3.085381,42.5256403],[3.0854714,42.5257552],[3.0855725,42.5257592],[3.0856544,42.5257337],[3.0857557,42.5258375],[3.0856969,42.5259315],[3.0855911,42.5259632],[3.0855043,42.5259551],[3.0855042,42.5259459],[3.0855195,42.5259412],[3.0855891,42.5259492],[3.0856759,42.5259247],[3.0856845,42.5258813],[3.085582,42.5258641],[3.0855611,42.5258875],[3.0855142,42.5259283],[3.0854826,42.5259344],[3.0854123,42.5258836],[3.0853651,42.5258961],[3.085337,42.5258303],[3.0854132,42.5258126],[3.0853162,42.5256885],[3.0852449,42.5256302],[3.0851229,42.5257128],[3.0852372,42.5258101],[3.0852732,42.5258538],[3.0851897,42.5258908],[3.085128,42.525839],[3.0848676,42.5259545],[3.0848523,42.5259413],[3.0848329,42.5258959],[3.0846219,42.525856],[3.0845654,42.5258754],[3.0845171,42.5258642],[3.0844998,42.5259012],[3.0845068,42.5259171],[3.0845165,42.5259215],[3.0845528,42.5259269],[3.084581,42.5258896],[3.0848237,42.5259373],[3.0848457,42.5259674],[3.0848094,42.52598],[3.0848102,42.5260526],[3.0849386,42.526001],[3.0849419,42.5260054],[3.0851132,42.525932],[3.0851385,42.5259313],[3.0851532,42.5259553],[3.0852068,42.5260035],[3.0853016,42.525962],[3.0853789,42.5260247],[3.0853496,42.5260424],[3.0852907,42.5259943],[3.0849677,42.5261486],[3.084856,42.5262151],[3.084849,42.5262155],[3.0848407,42.5262152],[3.0848327,42.5262118],[3.0847477,42.5261022],[3.084744,42.5260954],[3.0847474,42.5260924],[3.084753,42.5260887],[3.0847543,42.5260819],[3.0847493,42.5260714],[3.084748,42.5260534],[3.0847716,42.5260445],[3.0847712,42.5260371],[3.0845306,42.5259816],[3.0845611,42.5259456],[3.0845099,42.5259317],[3.0844969,42.5259256],[3.0844869,42.5259144],[3.0844815,42.5259019],[3.0845051,42.5258486],[3.0845534,42.5258642],[3.0845886,42.5258496],[3.0845507,42.5258387],[3.084622,42.5256867],[3.0846286,42.5256602],[3.0845677,42.5256467],[3.0845647,42.5256378],[3.0845866,42.5255737],[3.084548,42.5255673],[3.0845243,42.5255541],[3.0845033,42.5255402],[3.0844877,42.525511],[3.0844803,42.5254957]],[[3.0847863,42.5260941],[3.0848576,42.5261843],[3.0849481,42.5261292],[3.0851732,42.5260164],[3.0851116,42.5259601],[3.0847863,42.5260941]],[[3.0854319,42.5258774],[3.0854969,42.5259218],[3.0855102,42.5259194],[3.0855597,42.5258726],[3.0855244,42.5258573],[3.0855304,42.5258495],[3.0855664,42.5258661],[3.0855793,42.5258532],[3.0855786,42.5257833],[3.0855716,42.5257765],[3.0854827,42.5257763],[3.0855007,42.5257997],[3.0854558,42.5258112],[3.0854792,42.5258669],[3.0854319,42.5258774]]]]},"properties":{"building":"yes","historic":"yes"}},
{"type":"Feature","geometry":{"type":"MultiPolygon","coordinates":[[[[3.0854319,42.5258774],[3.0854792,42.5258669],[3.0854558,42.5258112],[3.0855007,42.5257997],[3.0854827,42.5257763],[3.0855716,42.5257765],[3.0855786,42.5257833],[3.0855793,42.5258532],[3.0855664,42.5258661],[3.0855304,42.5258495],[3.0855244,42.5258573],[3.0855597,42.5258726],[3.0855102,42.5259194],[3.0854969,42.5259218],[3.0854319,42.5258774]]]]},"properties":{"source":"cadastre-dgi-fr source : Direction Générale des Impôts - Cadastre. Mise à jour : 2010"}},
{"type":"Feature","geometry":{"type":"MultiPolygon","coordinates":[[[[3.0879215,42.5235699],[3.0879348,42.5235587],[3.0879228,42.5235458],[3.0879355,42.5235291],[3.0879714,42.5235077],[3.0879904,42.5235247],[3.088019,42.5235104],[3.0881153,42.5235982],[3.0881252,42.5235941],[3.0881549,42.5236247],[3.0881153,42.5236481],[3.0881023,42.5236349],[3.0880119,42.5236903],[3.0879672,42.5236482],[3.0880022,42.5236292],[3.0879728,42.5236],[3.0879625,42.5236051],[3.0879215,42.5235699]]]]},"properties":{"building":"yes","fee":"yes","name":"Le musée d’Art Moderne de Collioure","name:ca":"Museu d'Art Modern Cotlliure","official_name":"Musée municipal Jean Peské","opening_hours":"Mo-Su 10:00-12:00,14:00-18:00","phone":"+33 4 68 82 10 19","ref:FR:museofile":"M0489","source":"cadastre-dgi-fr source : Direction Générale des Impôts - Cadastre. Mise à jour : 2010","tourism":"museum","website":"http://villedecollioure.wixsite.com/museedartmoderne","wikidata":"Q11938071","wikipedia":"ca:Museu de Cotlliure"}},
{"type":"Feature","geometry":{"type":"MultiPolygon","coordinates":[[[[3.0850117,42.5243765],[3.08554,42.5240504],[3.0859663,42.5239243],[3.0863296,42.5238772],[3.0866813,42.5238679],[3.0868474,42.5238832],[3.086928,42.5238906],[3.0869091,42.5240107],[3.0867528,42.5239936],[3.0863675,42.5240039],[3.0860507,42.5240313],[3.0858258,42.5240754],[3.0855002,42.5242502],[3.0853306,42.5243153],[3.0852474,42.5243683],[3.0851671,42.5244483],[3.085108,42.5246089],[3.0850117,42.5243765]]]]},"properties":{"name":"Port d'Avall","name:ca":"Port d'Avall","natural":"beach","source":"cadastre-dgi-fr source : Direction Générale des Impôts - Cadastre. Mise à jour : 2010"}},
{"type":"Feature","geometry":{"type":"MultiPolygon","coordinates":[[[[3.1055154,42.5211099],[3.1055829,42.5210793],[3.1056364,42.5211459],[3.1056427,42.5211423],[3.1056529,42.5211525],[3.1056879,42.5211372],[3.10572,42.5211746],[3.1056836,42.5211907],[3.1056933,42.5212024],[3.1056851,42.5212069],[3.1057415,42.5212717],[3.1057037,42.521289],[3.1057139,42.5212968],[3.1056828,42.5213106],[3.105621,42.5212344],[3.1056113,42.5212383],[3.1055607,42.5211807],[3.1055709,42.5211753],[3.1055154,42.5211099]]]]},"properties":{"building":"yes","historic":"yes","source":"cadastre-dgi-fr source : Direction Générale des Impôts - Cadastre. Mise à jour : 2010"}},
{"type":"Feature","geometry":{"type":"MultiPolygon","coordinates":[[[[3.0909744,42.5253196],[3.0912211,42.5253769],[3.0913606,42.525369],[3.0915403,42.5253097],[3.0915752,42.5253809],[3.091256,42.5255509],[3.0911487,42.5255548],[3.0910414,42.5255331],[3.0909824,42.52545],[3.0909744,42.5253196]]]]},"properties":{"area":"yes","highway":"pedestrian","surface":"compacted","tourism":"viewpoint"}},
{"type":"Feature","geometry":{"type":"MultiPolygon","coordinates":[[[[3.096132,42.5240615],[3.0961564,42.5240347],[3.0962503,42.5240268],[3.0963281,42.5240426],[3.096371,42.5240723],[3.0964005,42.5241355],[3.0964112,42.524181],[3.0964085,42.5242462],[3.0963871,42.5243075],[3.096322,42.5243523],[3.0963137,42.5242812],[3.096285,42.5242075],[3.0962037,42.5240999],[3.096132,42.5240615]]]]},"properties":{"natural":"beach","surface":"sand"}},
{"type":"Feature","geometry":{"type":"MultiPolygon","coordinates":[[[[3.0889155,42.5246325],[3.0889195,42.5245647],[3.0890083,42.5244834],[3.0892711,42.5245111],[3.0893999,42.5245704],[3.0893957,42.5247568],[3.0893384,42.5247033],[3.089246,42.5246554],[3.089133,42.524631],[3.089015,42.524626],[3.0889155,42.5246325]]]]},"properties":{"lifeguard":"no","name":"La Balette","natural":"beach","supervised":"no","surface":"pebblestone"}},
{"type":"Feature","geometry":{"type":"MultiPolygon","coordinates":[[[[3.0851305,42.5267421],[3.0852377,42.5267144],[3.0852532,42.5266926],[3.085333,42.5266828],[3.0854027,42.5266729],[3.0854624,42.5266763],[3.0855891,42.5266673],[3.0855664,42.5267978],[3.085573,42.5268859],[3.0855878,42.5270148],[3.0856193,42.5271384],[3.0856776,42.5272629],[3.0857339,42.5273608],[3.0857977,42.5274472],[3.0858432,42.5274991],[3.085907,42.5275485],[3.0859827,42.5275925],[3.0859414,42.5276215],[3.0859164,42.527611],[3.085925,42.5276011],[3.0859333,42.5275915],[3.0859093,42.5275828],[3.0857474,42.5275149],[3.0855858,42.5274369],[3.0854818,42.5273677],[3.0853712,42.5272723],[3.0853189,42.5272125],[3.0852659,42.5271265],[3.0852176,42.5269842],[3.0851305,42.5267421]]]]},"properties":{"name":"Boramar","name:ca":"Voramar","natural":"beach","surface":"pebblestone"}},
{"type":"Feature","geometry":{"type":"MultiPolygon","coordinates":[[[[3.0866587,42.5277548],[3.0867981,42.5276797],[3.0866935,42.5275592],[3.0868893,42.5274329],[3.087016,42.5275648],[3.0871334,42.5276864],[3.0872668,42.5278006],[3.0874123,42.527891],[3.0875458,42.5279577],[3.0876987,42.5280076],[3.0876227,42.5281891],[3.087415,42.5281047],[3.086884,42.5278201],[3.0868062,42.5278339],[3.0866587,42.5277548]]]]},"properties":{"access":"yes","dog":"no","loc_name":"Sant-Vicenç","name":"Saint-Vincent","nat_name":"Saint-Vincent","natural":"beach","surface":"gravel"}},
{"type":"Feature","geometry":{"type":"MultiPolygon","coordinates":[[[[3.0987611,42.5236797],[3.0988737,42.5234326],[3.0994424,42.5233238],[3.099842,42.5233752],[3.0998715,42.523482],[3.0996868,42.523568],[3.099629,42.523543600000007],[3.0995558,42.5235331],[3.0994762,42.5235303],[3.0994238,42.5235243],[3.0992281,42.5235821],[3.0990252,42.5236856],[3.098968,42.5237556],[3.0989288,42.523818],[3.0987611,42.5236797]]]]},"properties":{"name":"Oli","name:ca":"Oli","natural":"beach","surface":"pebblestone"}},
{"type":"Feature","geometry":{"type":"MultiPolygon","coordinates":[[[[3.1017911,42.524235],[3.1017964,42.5241441],[3.1018769,42.5240769],[3.1019523,42.52408],[3.1021827,42.524069],[3.1024026,42.5241164],[3.1026225,42.5242034],[3.1027084,42.5242904],[3.1027441,42.5244114],[3.1027089,42.5244006],[3.1026579,42.5243901],[3.1025305,42.5243186],[3.1023365,42.5242576],[3.1022246,42.5242482],[3.1020963,42.5242524],[3.1019679,42.5242671],[3.1018894,42.5242771],[3.1018249,42.5243257],[3.1017911,42.524235]]]]},"properties":{"name":"En Baus","natural":"beach"}},
{"type":"Feature","geometry":{"type":"MultiPolygon","coordinates":[[[[3.106887,42.5205968],[3.1069286,42.5205782],[3.1069531,42.5206079],[3.1069114,42.5206265],[3.106887,42.5205968]]]]},"properties":{"building":"yes","historic":"yes","name":"Obélisque","source":"cadastre-dgi-fr source : Direction Générale des Impôts - Cadastre. Mise à jour : 2010"}},
{"type":"Feature","geometry":{"type":"MultiPolygon","coordinates":[[[[3.1068215,42.5205859],[3.106945,42.5205308],[3.1070174,42.5206189],[3.106894,42.520674],[3.1068215,42.5205859]],[[3.106887,42.5205968],[3.1069114,42.5206265],[3.1069531,42.5206079],[3.1069286,42.5205782],[3.106887,42.5205968]]]]},"properties":{"historic":"monument","source":"cadastre-dgi-fr source : Direction Générale des Impôts - Cadastre. Mise à jour : 2010"}},
{"type":"Feature","geometry":{"type":"MultiPolygon","coordinates":[[[[3.0835497,42.5242646],[3.0837519,42.5242484],[3.0839924,42.5242524],[3.0841827,42.524214],[3.0846946,42.524173],[3.0847028,42.5242128],[3.0845349,42.5242403],[3.0841165,42.5242996],[3.0835908,42.5244577],[3.0835497,42.5242646]]]]},"properties":{"leisure":"park"}},
{"type":"Feature","geometry":{"type":"MultiPolygon","coordinates":[[[[3.0869165,42.5240273],[3.0869424,42.5238857],[3.0870895,42.5238912],[3.0872723,42.5239466],[3.0874476,42.5240901],[3.0875026,42.5241885],[3.0875026,42.5242576],[3.0873719,42.5241564],[3.0870191,42.5240681],[3.0869165,42.5240273]]]]},"properties":{"name":"El Botiguer","name:ca":"El Botiguer","natural":"beach","source":"cadastre-dgi-fr source : Direction Générale des Impôts - Cadastre. Mise à jour : 2010"}},
{"type":"Feature","geometry":{"type":"MultiPolygon","coordinates":[[[[3.1141516,42.5210488],[3.1142244,42.5210259],[3.1142647,42.5210955],[3.1141918,42.5211184],[3.1141516,42.5210488]]]]},"properties":{"natural":"coastline"}},
{"type":"Feature","geometry":{"type":"MultiPolygon","coordinates":[[[[3.0886936,42.5221873],[3.0890519,42.5221107],[3.0891078,42.5222527],[3.0887495,42.5223292],[3.0886936,42.5221873]]]]},"properties":{"leisure":"pitch","sport":"tennis"}},
{"type":"Feature","geometry":{"type":"MultiPolygon","coordinates":[[[[3.0876227,42.5281891],[3.0876987,42.5280076],[3.0877972,42.5279869],[3.0879743,42.5279137],[3.0881171,42.5278287],[3.0882734,42.5277085],[3.0882321,42.5276655],[3.0883037,42.5276257],[3.0883579,42.5276795],[3.0883693,42.5276907],[3.0883808,42.5277022],[3.0884537,42.5277745],[3.0877054,42.528158],[3.0876227,42.5281891]]]]},"properties":{"natural":"beach"}},
{"type":"Feature","geometry":{"type":"MultiPolygon","coordinates":[[[[3.0835991,42.5241415],[3.0837171,42.5240229],[3.0840953,42.5241],[3.0840766,42.5241296],[3.0835991,42.5241415]]]]},"properties":{"leisure":"park","name":"Square Marceau Banyuls"}},
{"type":"Feature","geometry":{"type":"MultiPolygon","coordinates":[[[[3.0844251,42.5264536],[3.0844298,42.5263433],[3.0844299,42.5263426],[3.0845147,42.5263434],[3.0845789,42.5263453],[3.0845798,42.5263148],[3.0845524,42.5263154],[3.0845157,42.5262356],[3.0846328,42.5262163],[3.0846607,42.5263016],[3.0846555,42.5263125],[3.0846232,42.526314],[3.0846221,42.5263463],[3.084976,42.5263546],[3.0856155,42.5259857],[3.0858857,42.5260495],[3.0862667,42.5260324],[3.0862506,42.5260665],[3.0861801,42.5262104],[3.0861095,42.5263494],[3.0859991,42.5264522],[3.0858781,42.5265016],[3.0857075,42.5265247],[3.0856809,42.5264957],[3.0849727,42.526622],[3.0849497,42.5264724],[3.0847471,42.5264661],[3.0845575,42.5264603],[3.0845383,42.5264597],[3.0844251,42.5264536]]]]},"properties":{"leisure":"marina","name":"Port du Boramar","wheelchair":"limited"}},
{"type":"Feature","geometry":{"type":"MultiPolygon","coordinates":[[[[3.0811273,42.5277511],[3.0812263,42.527606],[3.0815041,42.5277571],[3.0816778,42.5277803],[3.0818476,42.5278423],[3.0824771,42.5280719],[3.082446,42.5281182],[3.0820694,42.5284296],[3.0819486,42.5283598],[3.0814827,42.5280567],[3.08155,42.5280005],[3.0811273,42.5277511]]]]},"properties":{"leisure":"sports_centre"}},
{"type":"Feature","geometry":{"type":"MultiPolygon","coordinates":[[[[3.0859264,42.5237534],[3.0859325,42.5237368],[3.085949,42.5237246],[3.0859716,42.5237201],[3.0859942,42.5237246],[3.0860107,42.5237368],[3.0860168,42.5237534],[3.0860107,42.5237701],[3.0859942,42.5237823],[3.0859716,42.5237867],[3.085949,42.5237823],[3.0859325,42.5237701],[3.0859264,42.5237534]]]]},"properties":{"attraction":"carousel","leisure":"carousel","name":"Manège","opening_hours":"We, Sa, Su 10:30-12:30, 15:00-19:00","tourism":"attraction","wheelchair":"limited"}},
{"type":"Feature","geometry":{"type":"MultiPolygon","coordinates":[[[[3.0822144,42.5256784],[3.0822448,42.5256644],[3.0823063,42.5256878],[3.0823319,42.5257167],[3.0823191,42.5257321],[3.0822475,42.5257262],[3.0822266,42.5257102],[3.0822144,42.5256784]]]]},"properties":{"access":"private","leisure":"swimming_pool"}},
{"type":"Feature","geometry":{"type":"MultiPolygon","coordinates":[[[[3.0878624,42.5227782],[3.0880716,42.5227565],[3.0882596,42.5227212],[3.0886482,42.5224857],[3.0889862,42.5222939],[3.089123,42.5222564],[3.0890586,42.5220982],[3.0892802,42.5220017],[3.0892947,42.5219954],[3.0895226,42.521861],[3.0899813,42.5213114],[3.09136,42.5217226],[3.0909228,42.5221397],[3.0907296,42.5224501],[3.0906009,42.5225964],[3.090507,42.5227288],[3.0904829,42.5227802],[3.0903514,42.5229206],[3.0903179,42.522971],[3.0902723,42.5230836],[3.0901637,42.5232705],[3.0900618,42.5233871],[3.0894395,42.5237172],[3.0892249,42.5238319],[3.0888494,42.5240671],[3.0887877,42.524158],[3.0887904,42.5242312],[3.0888092,42.5242845],[3.088718,42.5243122],[3.0882486,42.5244368],[3.0881359,42.5244387],[3.0880179,42.524415],[3.0879643,42.5243557],[3.0879053,42.5242588],[3.0879187,42.5241422],[3.0880984,42.5241224],[3.0880823,42.5240315],[3.0880743,42.5238991],[3.0881225,42.5237923],[3.0881145,42.5236737],[3.0881601,42.5236065],[3.0881762,42.5234306],[3.0881494,42.523397],[3.0880984,42.5234009],[3.0880314,42.5234197],[3.0880045,42.523476],[3.087967,42.5234563],[3.0880313,42.5233851],[3.0880206,42.5233238],[3.0878677,42.5230866],[3.0879053,42.5229601],[3.0878919,42.5228632],[3.0878624,42.5227782]]]]},"properties":{"leisure":"park","name":"Jardin Pams"}},
{"type":"Feature","geometry":{"type":"MultiPolygon","coordinates":[[[[3.1178839,42.5199275],[3.1179731999999999,42.5197794],[3.1179956,42.5197746],[3.1180115,42.5197498],[3.1180948,42.5197769],[3.1181235,42.5197402],[3.118186,42.5197662],[3.1182709,42.5198276],[3.1182966,42.5199069],[3.1184087,42.5199316],[3.1184744,42.5199659],[3.1183403,42.5201175],[3.1182363,42.5201449],[3.1179417,42.5200469],[3.1179016,42.5200067],[3.1178839,42.5199275]]]]},"properties":{"alt_name":"Fort Mailly","castle_type":"fortress","heritage":"3","heritage:operator":"mhs","historic":"castle","mhs:inscription_date":"1991-04-23","name":"Redoute de Mailly","name:ca":"Fortí de Mailly","ref:mhs":"PA00104187","ruins":"yes","source":"cadastre-dgi-fr source : Direction Générale des Impôts - Cadastre. Mise à jour : 2015; bing 2015","wikidata":"Q18337934","wikipedia":"fr:Redoute de Mailly"}},
{"type":"Feature","geometry":{"type":"MultiPolygon","coordinates":[[[[3.1090169,42.5246255],[3.1090303,42.5244832],[3.109091,42.5242847],[3.1091466,42.5242853],[3.1091771,42.5242963],[3.1092353,42.5242996],[3.1094768,42.5242895],[3.1095413,42.5242928],[3.1096759,42.5243358],[3.109708,42.524373],[3.1097214,42.524431],[3.1096977,42.5246547],[3.1096637,42.5246699],[3.1095999,42.5248247],[3.1094231,42.5250439],[3.1093244,42.5250108],[3.1092779,42.5249952],[3.1092257,42.5249264],[3.1090889,42.5247028],[3.109078,42.5246912],[3.1090632,42.524698],[3.1090169,42.5246255]]]]},"properties":{"castle_type":"fortress","heritage":"3","heritage:operator":"mhs","historic":"castle","mhs:inscription_date":"1991-04-23","name":"Fort de la Mauresque","name:ca":"Bateria de la Moresca","ref:mhs":"PA00104188","ruins":"yes","wikidata":"Q22954378","wikipedia":"fr:Fort de la Mauresque"}},
{"type":"Feature","geometry":{"type":"MultiPolygon","coordinates":[[[[3.1191328,42.5208879],[3.1191767,42.5208626],[3.1191898,42.5208448],[3.119218,42.5208345],[3.1192314,42.520832],[3.1192596,42.5208325],[3.119275,42.5208369],[3.1194507,42.5209763],[3.1195271,42.5209496],[3.1196009,42.5211621],[3.1196062,42.5213381],[3.1195378,42.5214428],[3.1193987,42.5215533],[3.1193514,42.5215298],[3.1193742,42.5213806],[3.1193608,42.5212036],[3.1192401,42.520997],[3.1191328,42.5208879]]]]},"properties":{"name":"La jeter","natural":"beach","surface":"sand"}},
{"type":"Feature","geometry":{"type":"MultiPolygon","coordinates":[[[[3.1184396,42.5205524],[3.1185405,42.5205074],[3.1186379,42.5204944],[3.1187472,42.5204929],[3.1189068,42.5204623],[3.1189337,42.5204514],[3.1189652,42.5204282],[3.1190503,42.5203467],[3.1190886,42.5203674],[3.1190859,42.5203872],[3.1190711,42.520404],[3.119043,42.5204623],[3.1190537,42.5205038],[3.1190591,42.5205829],[3.1190819,42.5206649],[3.1190899,42.5207292],[3.1190874,42.520794],[3.1190412,42.5208404],[3.1187814,42.5206649],[3.1184396,42.5205524]]]]},"properties":{"natural":"beach","surface":"sand"}},
{"type":"Feature","geometry":{"type":"MultiPolygon","coordinates":[[[[3.1132776,42.5212096],[3.1135954,42.5211562],[3.1135873,42.5211142],[3.1137697,42.5210568],[3.1138375,42.521342],[3.1137912,42.5214018],[3.1134398,42.5214898],[3.1133795,42.521345],[3.1133305,42.5213534],[3.1132776,42.5212096]]]]},"properties":{"alt_name":"Fort Fanal","barrier":"wall","castle_type":"fortress","heritage":"3","heritage:operator":"mhs","historic":"castle","mhs:inscription_date":"1933-06-06","name":"Redoute du Fanal","name:ca":"Fortí del Fanal","ref:mhs":"PA00104098","start_date":"C17","wikidata":"Q3422954","wikipedia":"fr:Redoute du Fanal"}},
{"type":"Feature","geometry":{"type":"MultiPolygon","coordinates":[[[[-2.0764174,43.1380729],[-1.9816603,43.0317579],[-1.8663039,42.9875729],[-1.8402113,42.9162074],[-1.7880263,42.8276396],[-1.8097616,42.7966121],[-1.8098029,42.796553],[-1.838838,42.7550806],[-1.8305983,42.618803],[-1.6932692,42.5227248],[-1.5779128,42.4072357],[-1.4584364,42.3889811],[-1.3444533,42.5105781],[-1.2702956,42.368692],[-0.9901442,42.3423063],[-0.7443251,42.3301246],[-0.5575575,42.2701967],[-0.3186049,42.211229],[-0.0672926,42.2020739],[0.1043687,42.1277669],[0.2238451,42.0686662],[0.2828966,41.9860369],[0.3955064,41.9002338],[0.5836473,41.8593346],[0.8280931,41.8613802],[1.1329637,41.930891],[1.242827,41.8869444],[1.5257249,41.7323808],[1.8168633,41.7277683],[2.0180505,41.8756969],[2.2309106,41.941617],[2.231806,41.9435952],[2.2727953,42.0360354],[2.4444566,42.1298039],[2.4815355,42.18783],[2.5790392,42.2213998],[2.7507005,42.1959698],[2.8248582,42.2447864],[2.8124986,42.3159096],[2.8674303,42.3839094],[2.9168687,42.4153471],[2.9772935,42.4092636],[3.0129991,42.3920239],[3.0363451,42.3494112],[3.1077562,42.3159096],[3.1668077,42.2691805],[3.210753,42.2315689],[3.2641783,42.2281776],[3.3222444,42.3194537],[3.2450853,42.3473813],[3.2036683,42.3416416],[3.20114,42.3412912],[3.1654344,42.3707212],[3.1791673,42.4457557],[3.1228624,42.5217127],[2.9154955,42.5459994],[2.7081285,42.6733499],[2.7960191,42.7369275],[2.6559435,42.7923785],[2.2521959,42.8185744],[2.0860277,42.932297],[1.5078722,43.0438028],[1.1906419,43.0969729],[0.8033739,43.1069998],[0.4682909,43.0949673],[0.2677904,43.1661253],[0.0274644,43.2191892],[-0.3488173,43.2832049],[-0.5245985,43.3791023],[-0.7800307,43.336167],[-1.0258498,43.3201833],[-1.1975111,43.3711167],[-1.395265,43.3531451],[-1.6658034,43.3990619],[-1.7756667,43.3711167],[-1.7976393,43.3920768],[-1.7980603,43.3919094],[-1.9844069,43.3221815],[-2.0242323,43.2221915],[-2.0764174,43.1380729]]]]},"properties":{"boundary":"region","name":"Pyrénées / Pirineos / Pirineus / Pirineu / Pirinioak / Pirenèus","name:af":"Pireneë","name:am":"ፒሬኔ ተራሮች","name:an":"Pireneu","name:ar":"البرانس","name:ba":"Пиреней тауҙары","name:be":"Пірэнеі","name:bg":"Пиренеи","name:bh":"पिरेनीज परबत","name:br":"Pireneoù","name:bs":"Pireneji","name:ca":"Pirineus","name:cs":"Pyreneje","name:cy":"Pyreneau","name:da":"Pyrenæerne","name:de":"Pyrenäen","name:el":"Πυρηναία","name:en":"Pyrenees","name:eo":"Pireneoj","name:es":"Pirineos","name:et":"Püreneed","name:eu":"Pirinioak","name:fa":"پیرنه","name:fi":"Pyreneet","name:fo":"Pyreneurnar","name:fr":"Pyrénées","name:fy":"Pyreneeën","name:ga":"Piréiní","name:gl":"Pireneos","name:he":"הרי הפירנאים","name:hi":"पिरिनी पर्वत शृंखला","name:hr":"Pireneji","name:hu":"Pireneusok","name:hy":"Պիրենեյներ","name:ia":"Pyreneos","name:id":"Pegunungan Pirenia","name:io":"Pirenei","name:is":"Pýreneafjöll","name:it":"Pirenei","name:ja":"ピレネー山脈","name:ka":"პირენეები","name:kk":"Пиреней таулары","name:ko":"피레네 산맥","name:ku":"Pîrenê","name:ky":"Пиреней тоолору","name:la":"Pyrenaei","name:lb":"Pyrenäen","name:li":"Pyreneje","name:lt":"Pirėnai","name:lv":"Pireneji","name:mk":"Пиринеи","name:mn":"Пиренейн уулс","name:mr":"पिरेनीज","name:ms":"Pyrenees","name:nl":"Pyreneeën","name:nn":"Pyreneane","name:no":"Pyreneene","name:oc":"Pirenèus","name:pa":"ਪੀਰੇਨੇ","name:pl":"Pireneje","name:pt":"Pireneus","name:qu":"Piriniyukuna","name:ro":"Munții Pirinei","name:ru":"Пиренеи","name:sk":"Pyreneje","name:sl":"Pireneji","name:sq":"Pirenetë","name:sr":"Пиринеји","name:sv":"Pyrenéerna","name:sw":"Pirenei","name:ta":"பிரனீசு மலைத்தொடர்","name:tg":"Кӯҳҳои Пиреней","name:th":"เทือกเขาพิเรนีส","name:tl":"Pirineos","name:tr":"Pireneler","name:tt":"Пиреней таулары","name:ug":"پىرېنېي تاغلىرى","name:uk":"Піренеї","name:ur":"کوہ پائرینیس","name:uz":"Pireney togʻlari","name:wa":"Pirinêyes","name:yi":"פירענעען","name:zh":"比利牛斯山","natural":"mountain_range","region:type":"mountain_area","source:name:oc":"ieo-bdtopoc","wikidata":"Q12431","wikipedia":"en:Pyrenees"}},
{"type":"Feature","geometry":{"type":"MultiPolygon","coordinates":[[[[3.0829973,42.5224224],[3.0829978,42.5224102],[3.0830053,42.5224029],[3.0830169,42.5224012],[3.0830474,42.5224112],[3.0830713,42.5224335],[3.0830787,42.5224579],[3.083062,42.5224735],[3.0830463,42.5224762],[3.0830382,42.5224742],[3.0830147,42.5224381],[3.0829973,42.5224224]]]]},"properties":{"access":"private","leisure":"swimming_pool","source":"cadastre-dgi-fr source : Direction Générale des Impôts - Cadastre. Mise à jour : 2021"}},
{"type":"Feature","geometry":{"type":"MultiPolygon","coordinates":[[[[3.0820649,42.5219219],[3.0820833,42.5218427],[3.0821306,42.521849],[3.0821098,42.5219272],[3.0820649,42.5219219]]]]},"properties":{"access":"private","leisure":"swimming_pool"}},
{"type":"Feature","geometry":{"type":"MultiPolygon","coordinates":[[[[3.0820758,42.5222326],[3.0821267,42.5222307],[3.0821335,42.5223064],[3.0820843,42.5223083],[3.0820758,42.5222326]]]]},"properties":{"access":"private","leisure":"swimming_pool"}},
{"type":"Feature","geometry":{"type":"MultiPolygon","coordinates":[[[[3.0875641,42.5226454],[3.0875646,42.5226271],[3.0875733,42.5226099],[3.0875891,42.5225958],[3.0876104,42.5225863],[3.0876348,42.5225825],[3.0876595,42.5225848],[3.0876812,42.5225927],[3.0876984,42.5226053],[3.0877092,42.5226214],[3.0877124,42.5226391],[3.0877077,42.5226566],[3.0876957,42.5226721],[3.0876775,42.522684],[3.0876552,42.5226909],[3.087631,42.5226922],[3.0876075,42.5226877],[3.0875868,42.5226775],[3.0875717,42.5226629],[3.0875641,42.5226454]]]]},"properties":{"access":"private","leisure":"swimming_pool","survey:date":"2022-09-05"}},
{"type":"Feature","geometry":{"type":"MultiPolygon","coordinates":[[[[3.0905883,42.523793],[3.0906553,42.5236974],[3.0907095,42.5237089],[3.0906567,42.5238529],[3.0905883,42.5238444],[3.0905883,42.523793]]]]},"properties":{"access":"private","leisure":"swimming_pool"}},
{"type":"Feature","geometry":{"type":"MultiPolygon","coordinates":[[[[3.0921839,42.52369],[3.0922136,42.5236397],[3.0923081,42.52367],[3.0922783,42.5237203],[3.0921839,42.52369]]]]},"properties":{"access":"private","leisure":"swimming_pool"}},
{"type":"Feature","geometry":{"type":"MultiPolygon","coordinates":[[[[3.0925282,42.5232615],[3.0926575,42.523246],[3.0926702,42.5233033],[3.0925409,42.5233188],[3.0925282,42.5232615]]]]},"properties":{"access":"private","leisure":"swimming_pool"}},
{"type":"Feature","geometry":{"type":"MultiPolygon","coordinates":[[[[3.0930441,42.522638],[3.0930538,42.5226217],[3.093072,42.5226126],[3.0931909,42.5226127],[3.0932102,42.5226124],[3.0932284,42.5226169],[3.0932435,42.5226256],[3.0932537,42.5226377],[3.0932576,42.5226503],[3.093256,42.5226632],[3.093249,42.5226751],[3.0932374,42.5226848],[3.0932222,42.5226914],[3.093205,42.5226941],[3.0931875,42.5226928],[3.0931715,42.5226875],[3.0931584,42.5226788],[3.0931497,42.5226675],[3.093067,42.5226644],[3.0930482,42.522654],[3.0930441,42.522638]]]]},"properties":{"access":"private","leisure":"swimming_pool"}},
{"type":"Feature","geometry":{"type":"MultiPolygon","coordinates":[[[[3.0916393,42.5226577],[3.0916496,42.5226383],[3.0916416,42.5226324],[3.0916543,42.5226195],[3.0917326,42.5225945],[3.0917515,42.5226219],[3.0916496,42.5226622],[3.0916393,42.5226577]]]]},"properties":{"access":"private","leisure":"swimming_pool"}},
{"type":"Feature","geometry":{"type":"MultiPolygon","coordinates":[[[[3.0936177,42.5236373],[3.0937214,42.5236081],[3.093746,42.5236555],[3.0936423,42.5236848],[3.0936177,42.5236373]]]]},"properties":{"access":"private","leisure":"swimming_pool"}},
{"type":"Feature","geometry":{"type":"MultiPolygon","coordinates":[[[[3.0933361,42.523275],[3.0933993,42.523254],[3.0934133,42.523277],[3.0933501,42.523298],[3.0933361,42.523275]]]]},"properties":{"access":"private","leisure":"swimming_pool"}},
{"type":"Feature","geometry":{"type":"MultiPolygon","coordinates":[[[[3.0947627,42.5233404],[3.094812,42.5233216],[3.0948805,42.5234193],[3.0948312,42.5234381],[3.0947627,42.5233404]]]]},"properties":{"access":"private","leisure":"swimming_pool","survey:date":"2022-09-05"}},
{"type":"Feature","geometry":{"type":"MultiPolygon","coordinates":[[[[3.1017815,42.521064],[3.101799,42.5210193],[3.1018296,42.5210257],[3.1018122,42.5210705],[3.1017815,42.521064]]]]},"properties":{"access":"private","leisure":"swimming_pool","survey:date":"2022-09-05"}},
{"type":"Feature","geometry":{"type":"MultiPolygon","coordinates":[[[[3.101457,42.5209903],[3.1014693,42.5209582],[3.1015253,42.5209698],[3.101513,42.5210019],[3.101457,42.5209903]]]]},"properties":{"access":"private","leisure":"swimming_pool"}},
{"type":"Feature","geometry":{"type":"MultiPolygon","coordinates":[[[[3.1042259,42.5219031],[3.104296,42.5218761],[3.1043174,42.5219062],[3.1042472,42.5219333],[3.1042259,42.5219031]]]]},"properties":{"access":"private","leisure":"swimming_pool"}},
{"type":"Feature","geometry":{"type":"MultiPolygon","coordinates":[[[[3.1005105,42.5197508],[3.1005151,42.5197089],[3.1005484,42.5197056],[3.100584,42.5197318],[3.1005954,42.5197843],[3.1005878,42.5197949],[3.1005484,42.5197887],[3.1005423,42.5197536],[3.1005105,42.5197508]]]]},"properties":{"access":"private","leisure":"swimming_pool","survey:date":"2022-09-05"}},
{"type":"Feature","geometry":{"type":"MultiPolygon","coordinates":[[[[3.0995631,42.5198214],[3.0995998,42.5197948],[3.0996425,42.5198268],[3.0996503,42.5198212],[3.0996749,42.5198396],[3.0996303,42.5198718],[3.0995631,42.5198214]]]]},"properties":{"access":"private","leisure":"swimming_pool"}},
{"type":"Feature","geometry":{"type":"MultiPolygon","coordinates":[[[[3.0838209,42.5278287],[3.0839235,42.5278219],[3.0839303,42.5278595],[3.0838258,42.527868],[3.0838209,42.5278287]]]]},"properties":{"access":"private","leisure":"swimming_pool","survey:date":"2022-09-05"}},
{"type":"Feature","geometry":{"type":"MultiPolygon","coordinates":[[[[3.0857711,42.5238166],[3.0859196,42.5237476],[3.0859595,42.523792],[3.0858071,42.5238566],[3.0857711,42.5238166]]]]},"properties":{"leisure":"playground"}},
{"type":"Feature","geometry":{"type":"MultiPolygon","coordinates":[[[[3.0818165,42.5278886],[3.0818476,42.5278423],[3.0824771,42.5280719],[3.082446,42.5281182],[3.0818165,42.5278886]]]]},"properties":{"area":"yes","leisure":"track","sport":"athletics"}},
{"type":"Feature","geometry":{"type":"MultiPolygon","coordinates":[[[[3.0814827,42.5280567],[3.08155,42.5280005],[3.0815893,42.5279677],[3.0820552,42.5282708],[3.0819486,42.5283598],[3.0814827,42.5280567]]]]},"properties":{"leisure":"pitch","sport":"skateboard"}},
{"type":"Feature","geometry":{"type":"MultiPolygon","coordinates":[[[[3.0985074,42.5241401],[3.0986532,42.5242189],[3.0986693,42.5243039],[3.0985459,42.5243484],[3.0985074,42.5241401]]]]},"properties":{"natural":"grassland"}},
{"type":"Feature","geometry":{"type":"MultiPolygon","coordinates":[[[[3.0862371,42.5237367],[3.0863712,42.5237209],[3.0863757,42.5237636],[3.0862401,42.523776],[3.0862371,42.5237367]]]]},"properties":{"leisure":"pitch","sport":"boules"}},
{"type":"Feature","geometry":{"type":"MultiPolygon","coordinates":[[[[3.0819992,42.5280998],[3.0820659,42.5280351],[3.082314,42.5281462],[3.0822701,42.5281982],[3.0819992,42.5280998]]]]},"properties":{"leisure":"sports_centre","sport":"soccer"}},
{"type":"Feature","geometry":{"type":"MultiPolygon","coordinates":[[[[3.0837247,42.5262499],[3.0841377,42.5260876],[3.0844461,42.5261568],[3.0844772,42.526333],[3.0837247,42.5262499]]]]},"properties":{"leisure":"park","name":"Boulodrome"}},
{"type":"Feature","geometry":{"type":"MultiPolygon","coordinates":[[[[3.1049947,42.5199604],[3.104997,42.5199458],[3.1050169,42.5199243],[3.1050379,42.5199234],[3.1050426,42.5199407],[3.1050239,42.5199622],[3.1050134,42.5199665],[3.1049947,42.5199604]]]]},"properties":{"leisure":"swimming_pool"}},
{"type":"Feature","geometry":{"type":"MultiPolygon","coordinates":[[[[3.1018927,42.520788],[3.1019113,42.5207757],[3.101929,42.5207776],[3.1019347,42.5207933],[3.1019201,42.520805],[3.1019011,42.5208034],[3.1018927,42.520788]]]]},"properties":{"leisure":"swimming_pool"}}
]}
