{"type":"FeatureCollection","features":[
{"type":"Feature","geometry":{"type":"Point","coordinates":[2.9043504,48.1199188]},"properties":{"historic":"memorial","memorial":"war_memorial","name":"Mémorial Pers-en-Gâtinais église"}},
{"type":"Feature","geometry":{"type":"Point","coordinates":[2.8053301,48.1413398]},"properties":{"information":"guidepost","name":"Les Cannivelles","tourism":"information"}},
{"type":"Feature","geometry":{"type":"Point","coordinates":[2.8209811,48.1297547]},"properties":{"information":"guidepost","tourism":"information"}},
{"type":"Feature","geometry":{"type":"Point","coordinates":[2.8810256,48.1598137]},"properties":{"leisure":"playground"}},
{"type":"Feature","geometry":{"type":"Point","coordinates":[2.7913854,48.0899079]},"properties":{"heritage":"3","heritage:operator":"mhs","historic":"wayside_cross","mhs:inscription_date":"1926-06-12","name":"Croix Sainte-Apolline","ref:mhs":"PA00098774","source":"cadastre-dgi-fr source : Direction Générale des Impôts - Cadastre. Mise à jour : 2012","source:heritage":"data.gouv.fr, Ministère de la Culture - 2016","start_date":"C16","wikidata":"Q22943933"}},
{"type":"Feature","geometry":{"type":"Point","coordinates":[2.7912003,48.0904427]},"properties":{"leisure":"pitch","source":"cadastre-dgi-fr source : Direction Générale des Impôts - Cadastre. Mise à jour : 2012","sport":"boules"}},
{"type":"Feature","geometry":{"type":"Point","coordinates":[2.791284,48.0998448]},"properties":{"historic":"wayside_cross","source":"cadastre-dgi-fr source : Direction Générale des Impôts - Cadastre. Mise à jour : 2012"}},
{"type":"Feature","geometry":{"type":"Point","coordinates":[2.8325923,48.1524809]},"properties":{"direction":"forward","highway":"stop"}},
{"type":"Feature","geometry":{"type":"Point","coordinates":[2.8354566,48.1528176]},"properties":{"direction":"forward","highway":"stop","source":"cadastre-dgi-fr source : Direction Générale des Impôts - Cadastre. Mise à jour : 2012"}},
{"type":"Feature","geometry":{"type":"Point","coordinates":[2.8378971,48.1530474]},"properties":{"direction":"backward","highway":"stop","source":"cadastre-dgi-fr source : Direction Générale des Impôts - Cadastre. Mise à jour : 2012"}},
{"type":"Feature","geometry":{"type":"Point","coordinates":[2.90199,48.10693]},"properties":{"heritage":"3","heritage:operator":"mhs","historic":"archaeological_site","mhs:inscription_date":"1987","name":"Polissoir des Davaux","ref:mhs":"PA00099021","source":"Base Mérimée","source:heritage":"data.gouv.fr:Ministère de la Culture - 04/2015","wikidata":"Q21523456"}},
{"type":"Feature","geometry":{"type":"Point","coordinates":[2.7905871,48.0907718]},"properties":{"information":"map","map_size":"city","map_type":"scheme","tourism":"information"}},
{"type":"Feature","geometry":{"type":"Point","coordinates":[2.7900662,48.0944261]},"properties":{"historic":"wayside_cross","source":"cadastre-dgi-fr source : Direction Générale des Impôts - Cadastre. Mise à jour : 2013"}},
{"type":"Feature","geometry":{"type":"Point","coordinates":[2.872061,48.1767704]},"properties":{"information":"office","tourism":"information"}},
{"type":"Feature","geometry":{"type":"Point","coordinates":[2.887348,48.1057781]},"properties":{"leisure":"sports_centre","name":"Ecurie des Palissades","sport":"equestrian"}},
{"type":"Feature","geometry":{"type":"Point","coordinates":[2.9049326,48.1204645]},"properties":{"leisure":"playground","name":"Aire de Jeux"}},
{"type":"Feature","geometry":{"type":"Point","coordinates":[2.8875371,48.1117277]},"properties":{"historic":"archaeological_site","name":"Menhir de la Grande Roche"}},
{"type":"Feature","geometry":{"type":"Point","coordinates":[2.8802793,48.1127327]},"properties":{"tourism":"picnic_site"}},
{"type":"Feature","geometry":{"type":"Point","coordinates":[2.8065038,48.1693276]},"properties":{"historic":"memorial","name":"Memoire Résistance"}},
{"type":"Feature","geometry":{"type":"Point","coordinates":[2.7896301,48.0896177]},"properties":{"tourism":"picnic_site"}},
{"type":"Feature","geometry":{"type":"Point","coordinates":[2.8715533,48.1722209]},"properties":{"leisure":"fitness_centre","name":"Piscine municipale","name:fr":"Piscine municipale"}},
{"type":"Feature","geometry":{"type":"Point","coordinates":[2.7902618,48.0970047]},"properties":{"heritage":"3","heritage:operator":"mhs","historic":"wayside_cross","mhs:inscription_date":"1926-06-12","name":"Croix de l'Hosannaire","ref:mhs":"PA00098773","source:heritage":"data.gouv.fr, Ministère de la Culture - 2016","start_date":"C13","wikidata":"Q22943928"}},
{"type":"Feature","geometry":{"type":"Point","coordinates":[2.8599322,48.1355674]},"properties":{"alt_name":"Pierre de la Justice","archaeological_site":"megalith","heritage":"2","heritage:operator":"mhs","historic":"archaeological_site","megalith_type":"menhir","mhs:inscription_date":"1910-02-24","name":"Pierre aux Sorciers","ref:mhs":"PA00098750","source:heritage":"data.gouv.fr, Ministère de la Culture - 2016","wikidata":"Q22943852"}},
{"type":"Feature","geometry":{"type":"Point","coordinates":[2.8827638,48.1603237]},"properties":{"access":"yes","leisure":"playground"}},
{"type":"Feature","geometry":{"type":"Point","coordinates":[2.8805745,48.1599793]},"properties":{"access":"yes","leisure":"playground"}},
{"type":"Feature","geometry":{"type":"Point","coordinates":[2.8328137,48.1524678]},"properties":{"bus":"yes","name":"Aristide Briand","public_transport":"stop_position"}},
{"type":"Feature","geometry":{"type":"Point","coordinates":[2.7925712,48.1505648]},"properties":{"barrier":"gate"}},
{"type":"Feature","geometry":{"type":"Point","coordinates":[2.7921917,48.1503249]},"properties":{"natural":"tree"}},
{"type":"Feature","geometry":{"type":"Point","coordinates":[2.7927697,48.1504037]},"properties":{"natural":"tree"}},
{"type":"Feature","geometry":{"type":"Point","coordinates":[2.7927361,48.150106]},"properties":{"natural":"tree"}},
{"type":"Feature","geometry":{"type":"Point","coordinates":[2.7927737,48.1503124]},"properties":{"natural":"tree"}},
{"type":"Feature","geometry":{"type":"Point","coordinates":[2.7922578,48.1504836]},"properties":{"natural":"tree"}},
{"type":"Feature","geometry":{"type":"Point","coordinates":[2.792488,48.1504066]},"properties":{"natural":"tree"}},
{"type":"Feature","geometry":{"type":"Point","coordinates":[2.7928716,48.1501138]},"properties":{"natural":"tree"}},
{"type":"Feature","geometry":{"type":"Point","coordinates":[2.7926329,48.1501033]},"properties":{"natural":"tree"}},
{"type":"Feature","geometry":{"type":"Point","coordinates":[2.7926329,48.1502131]},"properties":{"natural":"tree"}},
{"type":"Feature","geometry":{"type":"Point","coordinates":[2.8993407,48.1095698]},"properties":{"archaeological_site":"megalith","ele":"125","historic":"archaeological_site","historic:civilization":"prehistoric","historic:era":"neolithic","historic:period":"stone-age","megalith_type":"menhir","name":"Menhir du Bois de Forville","ref:megalithic.co.uk":"6334256","ref:t4t35.fr":"6142"}},
{"type":"Feature","geometry":{"type":"Point","coordinates":[2.8727129,48.1168636]},"properties":{"historic":"wayside_cross","material":"metal"}},
{"type":"Feature","geometry":{"type":"Point","coordinates":[2.8728041,48.1168528]},"properties":{"hiking":"yes","information":"guidepost","tourism":"information"}},
{"type":"Feature","geometry":{"type":"Point","coordinates":[2.874164,48.1159843]},"properties":{"hiking":"yes","information":"guidepost","tourism":"information"}},
{"type":"Feature","geometry":{"type":"Point","coordinates":[2.7918631,48.0876565]},"properties":{"leisure":"fitness_station","name":"20","note":"Récupération"}},
{"type":"Feature","geometry":{"type":"Point","coordinates":[2.7915949,48.0873931]},"properties":{"leisure":"fitness_station","name":"19","note":"Récupération"}},
{"type":"Feature","geometry":{"type":"Point","coordinates":[2.7915157,48.0859776]},"properties":{"leisure":"fitness_station"}},
{"type":"Feature","geometry":{"type":"Point","coordinates":[2.7927616,48.0864641]},"properties":{"leisure":"fitness_station","name":"11","note":"Tonification"}},
{"type":"Feature","geometry":{"type":"Point","coordinates":[2.7935837,48.086766]},"properties":{"leisure":"fitness_station","name":"22","note":"Coordination"}},
{"type":"Feature","geometry":{"type":"Point","coordinates":[2.7911442,48.0867749]},"properties":{"leisure":"fitness_station","name":"17","note":"Résistance"}},
{"type":"Feature","geometry":{"type":"Point","coordinates":[2.7915935,48.0883015]},"properties":{"board_type":"plants","information":"board","name":"Le Sentier Botanique de l'Étang des Moines","tourism":"information"}},
{"type":"Feature","geometry":{"type":"Point","coordinates":[2.7914768,48.088099]},"properties":{"board_type":"plants","information":"board","name":"L'Aulne glutineux","tourism":"information"}},
{"type":"Feature","geometry":{"type":"Point","coordinates":[2.7898407,48.0870634]},"properties":{"board_type":"plants","information":"board","name":"Le Roseau","tourism":"information"}},
{"type":"Feature","geometry":{"type":"Point","coordinates":[2.7897951,48.0865608]},"properties":{"board_type":"plants","information":"board","name":"Le Chêne pédonculé","tourism":"information"}},
{"type":"Feature","geometry":{"type":"Point","coordinates":[2.7897455,48.0864721]},"properties":{"board_type":"plants","information":"board","name":"Le Troêne","tourism":"information"}},
{"type":"Feature","geometry":{"type":"Point","coordinates":[2.7897696,48.0864246]},"properties":{"board_type":"plants","information":"board","name":"L'Orme champêtre","tourism":"information"}},
{"type":"Feature","geometry":{"type":"Point","coordinates":[2.7905595,48.0863243]},"properties":{"board_type":"plants","information":"board","name":"Le Merisier","tourism":"information"}},
{"type":"Feature","geometry":{"type":"Point","coordinates":[2.7927214,48.0862571]},"properties":{"board_type":"plants","information":"board","name":"Le Liseron des haies","tourism":"information"}},
{"type":"Feature","geometry":{"type":"Point","coordinates":[2.7929789,48.0865904]},"properties":{"board_type":"plants","information":"board","name":"La Cépée","tourism":"information"}},
{"type":"Feature","geometry":{"type":"Point","coordinates":[2.7930835,48.0866603]},"properties":{"board_type":"plants","information":"board","name":"L'Eupatoire chanvrine","tourism":"information"}},
{"type":"Feature","geometry":{"type":"Point","coordinates":[2.7933571,48.0867418]},"properties":{"board_type":"plants","information":"board","name":"Les Laîches","tourism":"information"}},
{"type":"Feature","geometry":{"type":"Point","coordinates":[2.7937232,48.0868072]},"properties":{"board_type":"plants","information":"board","name":"La Reine des Prés","tourism":"information"}},
{"type":"Feature","geometry":{"type":"Point","coordinates":[2.7940679,48.0870724]},"properties":{"leisure":"fitness_station"}},
{"type":"Feature","geometry":{"type":"Point","coordinates":[2.7940746,48.0870965]},"properties":{"board_type":"plants","information":"board","name":"L'Epicéa","tourism":"information"}},
{"type":"Feature","geometry":{"type":"Point","coordinates":[2.7939606,48.0872542]},"properties":{"board_type":"plants","information":"board","name":"L'Aulnaie-frênaie","tourism":"information"}},
{"type":"Feature","geometry":{"type":"Point","coordinates":[2.7939807,48.0873895]},"properties":{"board_type":"plants","information":"board","name":"L'Aulne blanc","tourism":"information"}},
{"type":"Feature","geometry":{"type":"Point","coordinates":[2.7937514,48.0875906]},"properties":{"leisure":"fitness_station","name":"7"}},
{"type":"Feature","geometry":{"type":"Point","coordinates":[2.7938127,48.0875996]},"properties":{"board_type":"plants","information":"board","name":"Le Noyer","tourism":"information"}},
{"type":"Feature","geometry":{"type":"Point","coordinates":[2.7933269,48.0877129]},"properties":{"leisure":"fitness_station","name":"6"}},
{"type":"Feature","geometry":{"type":"Point","coordinates":[2.7932558,48.0877295]},"properties":{"leisure":"fitness_station","name":"5"}},
{"type":"Feature","geometry":{"type":"Point","coordinates":[2.7933852,48.087755]},"properties":{"board_type":"plants","information":"board","note":"L'Osier","tourism":"information"}},
{"type":"Feature","geometry":{"type":"Point","coordinates":[2.7932525,48.087781]},"properties":{"board_type":"plants","information":"board","note":"L'Aubépine monogyne","tourism":"information"}},
{"type":"Feature","geometry":{"type":"Point","coordinates":[2.7927509,48.0878401]},"properties":{"board_type":"plants","information":"board","name":"Saule Blanc","tourism":"information"}},
{"type":"Feature","geometry":{"type":"Point","coordinates":[2.7910987,48.0866253]},"properties":{"board_type":"plants","information":"board","note":"Les fossés","tourism":"information"}},
{"type":"Feature","geometry":{"type":"Point","coordinates":[2.7908117,48.0862974]},"properties":{"leisure":"fitness_station","name":"16","note":"Tonification"}},
{"type":"Feature","geometry":{"type":"Point","coordinates":[2.7908425,48.0862589]},"properties":{"board_type":"plants","information":"board","note":"Le Gui","tourism":"information"}},
{"type":"Feature","geometry":{"type":"Point","coordinates":[2.7913535,48.0870419]},"properties":{"leisure":"fitness_station","name":"18","note":"Récupération"}},
{"type":"Feature","geometry":{"type":"Point","coordinates":[2.7918839,48.0885335]},"properties":{"leisure":"pitch","sport":"table_tennis"}},
{"type":"Feature","geometry":{"type":"Point","coordinates":[2.792128,48.0883678]},"properties":{"leisure":"picnic_table"}},
{"type":"Feature","geometry":{"type":"Point","coordinates":[2.7920951,48.0883364]},"properties":{"leisure":"picnic_table"}},
{"type":"Feature","geometry":{"type":"Point","coordinates":[2.7920119,48.0883001]},"properties":{"leisure":"picnic_table"}},
{"type":"Feature","geometry":{"type":"Point","coordinates":[2.7915372,48.0883037]},"properties":{"information":"board","name":"Parcours de l'Europe","tourism":"information"}},
{"type":"Feature","geometry":{"type":"Point","coordinates":[2.789996,48.0905018]},"properties":{"natural":"tree"}},
{"type":"Feature","geometry":{"type":"Point","coordinates":[2.7899166,48.09054]},"properties":{"natural":"tree"}},
{"type":"Feature","geometry":{"type":"Point","coordinates":[2.906268,48.1602889]},"properties":{"direction":"forward","highway":"stop"}},
{"type":"Feature","geometry":{"type":"Point","coordinates":[2.7926802,48.1504613]},"properties":{"natural":"tree"}},
{"type":"Feature","geometry":{"type":"Point","coordinates":[2.79218,48.1501653]},"properties":{"natural":"tree"}},
{"type":"Feature","geometry":{"type":"Point","coordinates":[2.7921935,48.1502411]},"properties":{"natural":"tree"}},
{"type":"Feature","geometry":{"type":"Point","coordinates":[2.8217164,48.1413765]},"properties":{"access":"yes","name":"Lavoir de Rochemort","tourism":"picnic_site"}},
{"type":"Feature","geometry":{"type":"Point","coordinates":[2.7891692,48.090307]},"properties":{"natural":"tree"}},
{"type":"Feature","geometry":{"type":"Point","coordinates":[2.7893237,48.0903109]},"properties":{"natural":"tree"}},
{"type":"Feature","geometry":{"type":"Point","coordinates":[2.7891971,48.0902512]},"properties":{"natural":"tree"}},
{"type":"Feature","geometry":{"type":"Point","coordinates":[2.7893422,48.0902705]},"properties":{"natural":"tree"}},
{"type":"Feature","geometry":{"type":"Point","coordinates":[2.7894165,48.0898425]},"properties":{"natural":"tree"}},
{"type":"Feature","geometry":{"type":"Point","coordinates":[2.804618,48.1408697]},"properties":{"access":"customers","addr:city":"Bransles","addr:place":"Gros-Lot","addr:postcode":"77620","leisure":"horse_riding","name":"Centre équestre Aurore Meriot","operator":"Aurore Mériot","website":"https://www.tourisme-gatinaisvaldeloing.fr/fr/fiche/5449886/centre-equestre-aurore-meriot/"}},
{"type":"Feature","geometry":{"type":"Point","coordinates":[2.8030542,48.1401714]},"properties":{"information":"guidepost","name":"Gros-Lot","tourism":"information"}},
{"type":"Feature","geometry":{"type":"Point","coordinates":[2.8052036,48.1383751]},"properties":{"information":"guidepost","name":"Brandard","tourism":"information"}},
{"type":"Feature","geometry":{"type":"Point","coordinates":[2.8096679,48.1405237]},"properties":{"information":"guidepost","name":"Brandard","tourism":"information"}},
{"type":"Feature","geometry":{"type":"Point","coordinates":[2.8171364,48.1416773]},"properties":{"information":"guidepost","name":"Rochemort - bas","tourism":"information"}},
{"type":"Feature","geometry":{"type":"Point","coordinates":[2.8168592,48.1417824]},"properties":{"information":"guidepost","name":"Pintois","tourism":"information"}},
{"type":"Feature","geometry":{"type":"Point","coordinates":[2.8215226,48.1420131]},"properties":{"information":"guidepost","name":"Rochemort - bas","tourism":"information"}},
{"type":"Feature","geometry":{"type":"Point","coordinates":[2.8097525,48.1405711]},"properties":{"information":"guidepost","name":"Pont-Levé","tourism":"information"}},
{"type":"Feature","geometry":{"type":"Point","coordinates":[2.8047223,48.1409945]},"properties":{"addr:city":"Bransles","addr:housenumber":"2","addr:postcode":"77620","addr:street":"gros lot","email":"marechal.ylm@orange.fr","name":"Chez YAHMZ","operator":"Ives Le Men","phone":"06 84 21 47 77","tourism":"chalet","website":"https://www.tourisme-gatinaisvaldeloing.fr/fr/fiche/6030496/chez-yahmz/"}},
{"type":"Feature","geometry":{"type":"Point","coordinates":[2.8597663,48.1840268]},"properties":{"fee":"yes","name":"Museé-jardin Bourdelle","tourism":"museum"}},
{"type":"Feature","geometry":{"type":"LineString","coordinates":[[2.8042125,48.1498836],[2.80465,48.1497567],[2.8051092,48.1496713],[2.8059372,48.1497213],[2.8068604,48.1498098],[2.8074631,48.1498488],[2.8115073,48.1502715],[2.8161621,48.1507652]]},"properties":{"highway":"secondary","maxspeed":"90","ref":"D 43"}},
{"type":"Feature","geometry":{"type":"LineString","coordinates":[[2.8011369,48.1496135],[2.8023955,48.1497806],[2.8035835,48.1499482],[2.8042125,48.1498836]]},"properties":{"highway":"secondary","maxspeed":"90","ref":"D 43"}},
{"type":"Feature","geometry":{"type":"LineString","coordinates":[[2.8273825,48.1519287],[2.8275396,48.1519225],[2.827724,48.1519392],[2.8283004,48.1519915],[2.8288227,48.1520444],[2.8290881,48.1521072]]},"properties":{"highway":"secondary","maxspeed":"50","name":"Rue de César","oneway":"yes","ref":"D 43","surface":"asphalt"}},
{"type":"Feature","geometry":{"type":"LineString","coordinates":[[2.8377591,48.1530449],[2.8366491,48.1529266],[2.8355409,48.1528052]]},"properties":{"highway":"secondary","maxspeed":"50","ref":"D 219","source":"survey; Royaltek RGM-3800; 2008-07"}},
{"type":"Feature","geometry":{"type":"LineString","coordinates":[[2.7916971,48.1476249],[2.7916768,48.1475875],[2.7919039,48.147472],[2.7918463,48.1474065],[2.7919088,48.1473833],[2.7920058,48.1474808],[2.7919087,48.1475286],[2.7916971,48.1476249]]},"properties":{"natural":"water","source":"cadastre-dgi-fr source : Direction Générale des Impôts - Cadastre. Mise à jour : 2010"}},
{"type":"Feature","geometry":{"type":"LineString","coordinates":[[2.7921975,48.1525546],[2.7923655,48.1525117],[2.792474,48.1527107],[2.7923066,48.1527495],[2.7921975,48.1525546]]},"properties":{"leisure":"swimming_pool"}},
{"type":"Feature","geometry":{"type":"LineString","coordinates":[[2.7972893,48.1337421],[2.7973461,48.1337797],[2.7973112,48.1338049],[2.797252,48.1337678],[2.7972893,48.1337421]]},"properties":{"access":"private","leisure":"swimming_pool","source":"cadastre-dgi-fr source : Direction Générale des Impôts - Cadastre. Mise à jour : 2010"}},
{"type":"Feature","geometry":{"type":"LineString","coordinates":[[2.8004595,48.089114],[2.8004577,48.0891145],[2.8004553,48.0891145],[2.8004529,48.0891151],[2.8004505,48.0891151],[2.8004481,48.0891151],[2.8004458,48.0891151],[2.8004434,48.0891145],[2.8004416,48.0891145],[2.8004392,48.089114],[2.8004368,48.0891134],[2.8004344,48.0891129],[2.8004326,48.0891124],[2.8004308,48.0891113],[2.8004284,48.0891102],[2.8004266,48.0891097],[2.8004254,48.0891086],[2.8004236,48.089107],[2.8004224,48.0891059],[2.8004206,48.0891048],[2.8004194,48.0891032],[2.8004188,48.0891021],[2.8004176,48.0891005],[2.8004171,48.0890989],[2.8004165,48.0890973],[2.8004159,48.0890957],[2.8004159,48.0890941],[2.8004159,48.089093],[2.8004159,48.0890914],[2.8004159,48.089089800000007],[2.8004165,48.0890882],[2.8004171,48.0890866],[2.8004177,48.089085],[2.8004183,48.0890833],[2.8004195,48.0890823],[2.8004207,48.0890807],[2.8004219,48.0890796],[2.8004231,48.0890785],[2.8004249,48.0890769],[2.8004267,48.0890758],[2.8004285,48.0890748],[2.8004303,48.0890742],[2.8004321,48.0890732],[2.8004345,48.0890726],[2.8004363,48.0890716],[2.8004387,48.089071],[2.8004411,48.089071],[2.8005035,48.0890609],[2.8005053,48.0890604],[2.8005077,48.0890599],[2.8005101,48.0890599],[2.8005125,48.0890599],[2.8005149,48.0890599],[2.8005173,48.0890604],[2.8005191,48.0890604],[2.8005214,48.089061],[2.8005238,48.0890615],[2.8005262,48.0890621],[2.800528,48.0890631],[2.8005304,48.0890637],[2.8005322,48.0890648],[2.800534,48.0890658],[2.8005358,48.0890664],[2.800537,48.089068],[2.8005382,48.0890691],[2.80054,48.0890701],[2.8005586,48.0890669],[2.8005639,48.0890831],[2.8005447,48.0890852],[2.8005441,48.0890868],[2.8005435,48.0890884],[2.8005429,48.08909],[2.8005423,48.0890916],[2.8005411,48.0890927],[2.8005399,48.0890943],[2.8005387,48.0890954],[2.8005375,48.089097],[2.8005357,48.089098],[2.8005339,48.0890991],[2.8005321,48.0891002],[2.8005303,48.0891007],[2.8005285,48.0891018],[2.8005261,48.0891023],[2.8005243,48.0891034],[2.8005219,48.0891039],[2.8005195,48.0891039],[2.8004595,48.089114]]},"properties":{"access":"private","leisure":"swimming_pool","source":"cadastre-dgi-fr source : Direction Générale des Impôts - Cadastre. Mise à jour : 2010"}},
{"type":"Feature","geometry":{"type":"LineString","coordinates":[[2.8038379,48.0893335],[2.8038751,48.0893271],[2.8039012,48.0893894],[2.8038628,48.0893963],[2.8038379,48.0893335]]},"properties":{"access":"private","leisure":"swimming_pool","source":"cadastre-dgi-fr source : Direction Générale des Impôts - Cadastre. Mise à jour : 2010"}},
{"type":"Feature","geometry":{"type":"LineString","coordinates":[[2.7997184,48.0965267],[2.7998575,48.0965093],[2.7998589,48.0966129],[2.7998385,48.0966262],[2.7997833,48.0966326],[2.7997516,48.096618],[2.7997325,48.0965917],[2.7997184,48.0965267]]},"properties":{"natural":"water","source":"cadastre-dgi-fr source : Direction Générale des Impôts - Cadastre. Mise à jour : 2010"}},
{"type":"Feature","geometry":{"type":"LineString","coordinates":[[2.7957032,48.0899496],[2.7957155,48.0900204],[2.7957035,48.0900209],[2.7957035,48.090022],[2.7957035,48.0900226],[2.7957035,48.0900231],[2.7957029,48.0900236],[2.7957029,48.0900242],[2.7957029,48.0900247],[2.7957023,48.0900252],[2.7957017,48.0900258],[2.7957017,48.0900263],[2.7957011,48.0900268],[2.7957005,48.0900274],[2.7956999,48.0900279],[2.7956993,48.0900285],[2.7956981,48.090029],[2.7956975,48.090029],[2.7956969,48.0900295],[2.7956957,48.0900301],[2.7956951,48.0900301],[2.7956939,48.0900301],[2.7956933,48.0900306],[2.7956921,48.0900306],[2.7956915,48.0900306],[2.7956903,48.0900306],[2.7956897,48.0900306],[2.7956885,48.0900306],[2.7956879,48.0900306],[2.7956867,48.0900306],[2.7956861,48.0900306],[2.7956849,48.09003],[2.7956843,48.09003],[2.7956831,48.0900295],[2.7956825,48.0900295],[2.7956819,48.090029],[2.7956807,48.0900284],[2.7956801,48.0900279],[2.7956795,48.0900273],[2.7956789,48.0900273],[2.7956783,48.0900268],[2.7956783,48.0900263],[2.7956777,48.0900257],[2.7956771,48.0900247],[2.7956771,48.0900241],[2.7956771,48.0900236],[2.7956765,48.090023],[2.7956766,48.0900225],[2.7956634,48.090023],[2.7956499,48.0899532],[2.7957032,48.0899496]]},"properties":{"access":"private","leisure":"swimming_pool","source":"cadastre-dgi-fr source : Direction Générale des Impôts - Cadastre. Mise à jour : 2010"}},
{"type":"Feature","geometry":{"type":"LineString","coordinates":[[2.7988374,48.104863],[2.7988529,48.1048845],[2.7988492,48.104906],[2.7988252,48.1049301],[2.7987503,48.104923],[2.7987329,48.1049149],[2.7987222,48.1048913],[2.7987325,48.1048693],[2.7987547,48.1048559],[2.7987842,48.1048442],[2.7988273,48.1048485],[2.7988374,48.104863]]},"properties":{"natural":"water","source":"cadastre-dgi-fr source : Direction Générale des Impôts - Cadastre. Mise à jour : 2010"}},
{"type":"Feature","geometry":{"type":"LineString","coordinates":[[2.7992792,48.0975905],[2.799288,48.0974922],[2.7993012,48.0974939],[2.7993018,48.0974923],[2.7993018,48.0974912],[2.7993024,48.0974901],[2.799303,48.0974896],[2.7993036,48.0974885],[2.7993042,48.097488],[2.7993054,48.0974869],[2.799306,48.0974864],[2.7993066,48.0974853],[2.7993078,48.0974848],[2.799309,48.0974842],[2.7993102,48.0974837],[2.7993114,48.0974832],[2.7993126,48.0974826],[2.7993138,48.0974821],[2.799315,48.0974821],[2.7993162,48.0974816],[2.799318,48.0974816],[2.7993192,48.0974816],[2.7993204,48.097481],[2.7993222,48.097481],[2.7993234,48.0974816],[2.7993246,48.0974816],[2.7993264,48.0974816],[2.7993276,48.0974821],[2.7993288,48.0974821],[2.79933,48.0974827],[2.7993312,48.0974832],[2.7993324,48.0974837],[2.7993336,48.0974843],[2.7993348,48.0974848],[2.799336,48.0974854],[2.7993366,48.0974859],[2.7993378,48.097487],[2.7993384,48.0974875],[2.799339,48.0974886],[2.7993396,48.0974891],[2.7993401,48.0974902],[2.7993407,48.0974913],[2.7993413,48.0974918],[2.7993413,48.0974929],[2.7993413,48.097494],[2.7993413,48.0974945],[2.7993413,48.0974956],[2.7993413,48.0974966],[2.7993545,48.0974972],[2.7993463,48.0975938],[2.7992792,48.0975905]]},"properties":{"access":"private","leisure":"swimming_pool","source":"cadastre-dgi-fr source : Direction Générale des Impôts - Cadastre. Mise à jour : 2010"}},
{"type":"Feature","geometry":{"type":"LineString","coordinates":[[2.7908078,48.1028877],[2.7908545,48.1029002],[2.7908201,48.1029559],[2.7907764,48.1029435],[2.7908078,48.1028877]]},"properties":{"leisure":"swimming_pool","source":"cadastre-dgi-fr source : Direction Générale des Impôts - Cadastre. Mise à jour : 2010"}},
{"type":"Feature","geometry":{"type":"LineString","coordinates":[[2.8086166,48.121207],[2.8086783,48.1212173],[2.8086541,48.1212935],[2.8085936,48.1212848],[2.8086166,48.121207]]},"properties":{"leisure":"swimming_pool","source":"cadastre-dgi-fr source : Direction Générale des Impôts - Cadastre. Mise à jour : 2010"}},
{"type":"Feature","geometry":{"type":"LineString","coordinates":[[2.7938082,48.0908731],[2.7937939,48.0908742],[2.7937819,48.0908682],[2.7937759,48.0908602],[2.7937724,48.0908473],[2.7937736,48.0908355],[2.7937839,48.0908258],[2.7937965,48.0908216],[2.7938078,48.0908253],[2.7938216,48.0908323],[2.7938263,48.0908474],[2.7938263,48.0908597],[2.793819,48.0908688],[2.7938082,48.0908731]]},"properties":{"leisure":"swimming_pool","source":"cadastre-dgi-fr source : Direction Générale des Impôts - Cadastre. Mise à jour : 2010"}},
{"type":"Feature","geometry":{"type":"LineString","coordinates":[[2.8250086,48.1171468],[2.8249396,48.1171837],[2.8248834,48.1171364],[2.8249524,48.1170995],[2.8250086,48.1171468]]},"properties":{"leisure":"swimming_pool"}},
{"type":"Feature","geometry":{"type":"LineString","coordinates":[[2.799712,48.1054331],[2.7996977,48.1054287],[2.7996845,48.1054174],[2.799681,48.105396],[2.7996793,48.1053804],[2.7996902,48.1053541],[2.7997148,48.1053472],[2.7997567,48.1053478],[2.7997818,48.1053602],[2.799783,48.10538],[2.7997703,48.1054036],[2.7997414,48.1054218],[2.799712,48.1054331]]},"properties":{"natural":"water","source":"cadastre-dgi-fr source : Direction Générale des Impôts - Cadastre. Mise à jour : 2010"}},
{"type":"Feature","geometry":{"type":"LineString","coordinates":[[2.7997322,48.0972949],[2.7997324,48.0972423],[2.7999481,48.0972524],[2.7999479,48.0973039],[2.7997322,48.0972949]]},"properties":{"access":"private","leisure":"swimming_pool","source":"cadastre-dgi-fr source : Direction Générale des Impôts - Cadastre. Mise à jour : 2010"}},
{"type":"Feature","geometry":{"type":"LineString","coordinates":[[2.7902715,48.0990313],[2.7902733,48.0990453],[2.7902871,48.0990448],[2.7902923,48.0990824],[2.7902773,48.099084],[2.7902785,48.0990931],[2.790119,48.0991051],[2.7901155,48.0990922],[2.7900975,48.0990938],[2.7900934,48.0990611],[2.7901114,48.099059],[2.7901103,48.0990461],[2.7902715,48.0990313]]},"properties":{"access":"private","leisure":"swimming_pool","source":"cadastre-dgi-fr source : Direction Générale des Impôts - Cadastre. Mise à jour : 2010"}},
{"type":"Feature","geometry":{"type":"LineString","coordinates":[[2.8369073,48.1086966],[2.8368922,48.1085382],[2.8369126,48.1085291],[2.8369384,48.1085232],[2.8369834,48.1085141],[2.8370361,48.1085148],[2.8370888,48.1085175],[2.837132,48.108524],[2.8371667,48.1085386],[2.8371858,48.1085617],[2.8371362,48.1086985],[2.8369073,48.1086966]]},"properties":{"leisure":"swimming_pool"}},
{"type":"Feature","geometry":{"type":"LineString","coordinates":[[2.8318917,48.1228693],[2.8319283,48.1228495],[2.8319929,48.1229081],[2.8319569,48.1229311],[2.8318917,48.1228693]]},"properties":{"leisure":"swimming_pool"}},
{"type":"Feature","geometry":{"type":"LineString","coordinates":[[2.8174171,48.0981194],[2.8174777,48.0981055],[2.8175169,48.0982027],[2.8174575,48.0982123],[2.8174171,48.0981194]]},"properties":{"leisure":"swimming_pool","source":"cadastre-dgi-fr source : Direction Générale des Impôts - Cadastre. Mise à jour : 2010"}},
{"type":"Feature","geometry":{"type":"LineString","coordinates":[[2.795048,48.1200697],[2.7951381,48.1200275],[2.7952708,48.1199917],[2.7953721,48.1199903],[2.7954643,48.1200307],[2.795527,48.120092],[2.7955627,48.120149],[2.7955865,48.1201963],[2.795596,48.1202301],[2.7955806,48.1203106],[2.7955026,48.1203363],[2.795448,48.1203431],[2.7953863,48.1203479],[2.7953317,48.1203467],[2.7952765999999999,48.1203375],[2.7952263,48.1203266],[2.7951999,48.1203142],[2.7951736,48.1202965],[2.7951479,48.1202755],[2.7951175,48.1202465],[2.7950936,48.1202169],[2.7950799,48.120189],[2.7950675,48.1201589],[2.7950544,48.1201197],[2.795048,48.1200697]]},"properties":{"leisure":"swimming_pool","source":"cadastre-dgi-fr source : Direction Générale des Impôts - Cadastre. Mise à jour : 2010"}},
{"type":"Feature","geometry":{"type":"LineString","coordinates":[[2.789126,48.0948501],[2.7892609,48.0948487],[2.7892602,48.0948573],[2.7892614,48.0948573],[2.7892632,48.0948573],[2.7892644,48.0948579],[2.7892656,48.0948579],[2.7892674,48.0948584],[2.7892686,48.094859],[2.7892698,48.094859],[2.789271,48.0948595],[2.7892722,48.09486],[2.7892734,48.0948611],[2.7892746,48.0948617],[2.7892752,48.0948622],[2.7892764,48.0948633],[2.789277,48.0948638],[2.7892776,48.0948649],[2.7892782,48.0948654],[2.7892788,48.0948665],[2.7892794,48.0948676],[2.78928,48.0948681],[2.7892799,48.0948692],[2.7892799,48.0948703],[2.7892799,48.0948713],[2.7892799,48.0948719],[2.7892799,48.0948729],[2.7892799,48.094874],[2.7892793,48.0948751],[2.7892793,48.0948756],[2.7892787,48.0948767],[2.7892781,48.0948778],[2.7892769,48.0948783],[2.7892763,48.0948794],[2.7892757,48.0948799],[2.7892745,48.0948804],[2.7892733,48.0948815],[2.7892721,48.094882],[2.7892715,48.0948826],[2.7892703,48.0948831],[2.7892685,48.0948837],[2.7892673,48.0948842],[2.7892661,48.0948842],[2.7892649,48.0948847],[2.7892631,48.0948847],[2.7892619,48.0948847],[2.7892601,48.0948847],[2.7892589,48.0948847],[2.7892583,48.0948938],[2.789124,48.0948952],[2.789126,48.0948501]]},"properties":{"access":"private","leisure":"swimming_pool","source":"cadastre-dgi-fr source : Direction Générale des Impôts - Cadastre. Mise à jour : 2010"}},
{"type":"Feature","geometry":{"type":"LineString","coordinates":[[2.8214907,48.0979631],[2.8214895,48.0979604],[2.8214866,48.0979551],[2.8214812,48.0979438],[2.8214776,48.0979346],[2.8214759,48.0979266],[2.8214747,48.0979201],[2.8214735,48.097911],[2.821473,48.0979019],[2.821473,48.0978938],[2.8214742,48.0978869],[2.8215162,48.0978816],[2.8215198,48.0978875],[2.8215233,48.097895],[2.8215281,48.0979052],[2.8215311,48.0979132],[2.8215334,48.097924],[2.8215352,48.0979358],[2.8215357,48.0979481],[2.8215351,48.0979589],[2.8214907,48.0979631]]},"properties":{"leisure":"swimming_pool","source":"cadastre-dgi-fr source : Direction Générale des Impôts - Cadastre. Mise à jour : 2010"}},
{"type":"Feature","geometry":{"type":"LineString","coordinates":[[2.7985078,48.1355769],[2.7985519,48.1356628],[2.7986076,48.1358192],[2.7985222,48.1358781],[2.7984502,48.1359075],[2.7983835,48.1359213],[2.7983218,48.1359223],[2.79826,48.1359152],[2.7982355,48.1359087],[2.7982109,48.1358893],[2.7981901,48.1358469],[2.7981708,48.1357363],[2.7985078,48.1355769]]},"properties":{"leisure":"swimming_pool","source":"cadastre-dgi-fr source : Direction Générale des Impôts - Cadastre. Mise à jour : 2010"}},
{"type":"Feature","geometry":{"type":"LineString","coordinates":[[2.7891666,48.1133967],[2.7891709,48.1133693],[2.7891847,48.1133661],[2.7892853,48.1133749],[2.7892979,48.1133808],[2.7892936,48.1134076],[2.7892792,48.1134108],[2.7891791,48.1134021],[2.7891666,48.1133967]]},"properties":{"leisure":"swimming_pool","source":"cadastre-dgi-fr source : Direction Générale des Impôts - Cadastre. Mise à jour : 2010"}},
{"type":"Feature","geometry":{"type":"LineString","coordinates":[[2.8292056,48.1256391],[2.8290738,48.1256217],[2.8290865,48.1255777],[2.8292184,48.1255945],[2.8292056,48.1256391]]},"properties":{"access":"private","leisure":"swimming_pool"}},
{"type":"Feature","geometry":{"type":"LineString","coordinates":[[2.7883389,48.1091232],[2.7883270000000004,48.1091033],[2.7883151,48.1090759],[2.7882997,48.1090265],[2.7882861,48.1089873],[2.7882989,48.1089481],[2.7883199,48.1089202],[2.78835,48.1089058],[2.7884148,48.1088919],[2.7884819,48.1089007],[2.7885231,48.1089168],[2.7885842,48.108939],[2.7886494,48.1089756],[2.7887002,48.1090041],[2.7887308,48.1090042],[2.7887524,48.1090042],[2.7887998,48.1089893],[2.7889288,48.1089487],[2.7889828,48.1089322],[2.7890362,48.1089205],[2.7890901,48.1089238],[2.7891416,48.1089362],[2.7891793,48.1089513],[2.7892092,48.1089777],[2.7892144,48.1090147],[2.7891939,48.1090432],[2.7891566,48.1090855],[2.789094,48.1091412],[2.7890189,48.1091942],[2.7889432,48.1092327],[2.7888743,48.1092364],[2.788791,48.1092201],[2.7886712,48.1092006],[2.7886335,48.1091924],[2.7885706,48.1091762],[2.7885102,48.1091589],[2.7884497,48.1091502],[2.7883832,48.1091372],[2.7883389,48.1091232]]},"properties":{"source":"cadastre-dgi-fr source : Direction Générale des Impôts - Cadastre. Mise à jour : 2010"}},
{"type":"Feature","geometry":{"type":"LineString","coordinates":[[2.8222755,48.098033],[2.8222593,48.0980373],[2.8222431,48.0980335],[2.8222025,48.097997],[2.8222014,48.0979857],[2.8222116,48.0979766],[2.8222278,48.0979723],[2.8222439,48.0979761],[2.8222846,48.0980127],[2.8222857,48.0980239],[2.8222755,48.098033]]},"properties":{"leisure":"swimming_pool","source":"cadastre-dgi-fr source : Direction Générale des Impôts - Cadastre. Mise à jour : 2010"}},
{"type":"Feature","geometry":{"type":"LineString","coordinates":[[2.8172455,48.1030798],[2.8172149,48.10309],[2.817179,48.1030937],[2.8171442,48.1030915],[2.8171372,48.1030475],[2.8171642,48.10304],[2.8172007,48.1030352],[2.8172361,48.1030336],[2.8172455,48.1030798]]},"properties":{"leisure":"swimming_pool","source":"cadastre-dgi-fr source : Direction Générale des Impôts - Cadastre. Mise à jour : 2010"}},
{"type":"Feature","geometry":{"type":"LineString","coordinates":[[2.7992199,48.0961343],[2.799235,48.096096],[2.7993606,48.0961167],[2.7993479,48.0961553],[2.7992199,48.0961343]]},"properties":{"access":"private","leisure":"swimming_pool","source":"cadastre-dgi-fr source : Direction Générale des Impôts - Cadastre. Mise à jour : 2010"}},
{"type":"Feature","geometry":{"type":"LineString","coordinates":[[2.7974281,48.0959389],[2.7975177,48.0959337],[2.7975321,48.0960435],[2.7974425,48.0960488],[2.7974281,48.0959389]]},"properties":{"access":"private","leisure":"swimming_pool","source":"cadastre-dgi-fr source : Direction Générale des Impôts - Cadastre. Mise à jour : 2010"}},
{"type":"Feature","geometry":{"type":"LineString","coordinates":[[2.8377591,48.1530449],[2.8378971,48.1530474],[2.838625,48.1531244],[2.8391186,48.1531602],[2.8409639,48.1533606],[2.8429917,48.1536111],[2.845631,48.1538545],[2.8485707,48.1541623],[2.8531626,48.1546561],[2.8583124,48.1552287],[2.8596566,48.1553729],[2.8622626,48.1556666],[2.8640524,48.1558443],[2.866284,48.1560876],[2.8666702,48.1561806],[2.8668465,48.156225]]},"properties":{"highway":"unclassified"}},
{"type":"Feature","geometry":{"type":"LineString","coordinates":[[2.9023773,48.1598899],[2.9041381,48.1600702],[2.906268,48.1602889],[2.9063065,48.1602916]]},"properties":{"alt_name":"Route du Petit Bouttecourt","highway":"unclassified","name":"Rue du Petit Bouttecourt"}},
{"type":"Feature","geometry":{"type":"LineString","coordinates":[[2.869136,48.174973],[2.869154,48.17499],[2.869031,48.175047],[2.869011,48.175028],[2.868934,48.174952],[2.868879,48.1749],[2.868859,48.174909],[2.868837,48.174888],[2.868857,48.174878],[2.868813,48.174834],[2.868774,48.174797],[2.868783,48.17479],[2.868771,48.174779],[2.868796,48.174767],[2.868808,48.174779],[2.868892,48.174739],[2.868923,48.174768],[2.868947,48.174756],[2.869013,48.174818],[2.868989,48.17483],[2.869063,48.174903],[2.869136,48.174973]]},"properties":{"building":"yes","historic":"castle","name":"Château d'Égreville Massenet","source":"cadastre-dgi-fr source : Direction Générale des Impôts - Cadastre. Mise à jour : 2011"}},
{"type":"Feature","geometry":{"type":"LineString","coordinates":[[2.8763965,48.1794768],[2.8772297,48.1793233],[2.8768307,48.1783604],[2.8759975,48.1785139],[2.8763965,48.1794768]]},"properties":{"leisure":"pitch","name":"stade","sport":"soccer"}},
{"type":"Feature","geometry":{"type":"LineString","coordinates":[[2.873823,48.1730287],[2.874301,48.1729034],[2.8741186,48.1725939],[2.8736406,48.1727193],[2.873823,48.1730287]]},"properties":{"leisure":"pitch","sport":"tennis"}},
{"type":"Feature","geometry":{"type":"LineString","coordinates":[[2.9023773,48.1598899],[2.8999964,48.159651],[2.8981809,48.159458],[2.8975046,48.1593864]]},"properties":{"bicycle":"yes","foot":"yes","highway":"unclassified","name":"Chemin de César","surface":"asphalt"}},
{"type":"Feature","geometry":{"type":"LineString","coordinates":[[2.8871622,48.1582958],[2.8889861,48.1584891],[2.8929228,48.1589082],[2.8934757,48.1589636],[2.8935417,48.1589702],[2.8956702,48.1591833],[2.897117,48.1593457],[2.8975046,48.1593864]]},"properties":{"bicycle":"yes","foot":"yes","highway":"track","name":"Chemin de César","surface":"grass"}},
{"type":"Feature","geometry":{"type":"LineString","coordinates":[[2.8857835,48.1581454],[2.8838478,48.1579337],[2.8837558,48.1579236],[2.8820017,48.1577194],[2.8813632,48.1576516],[2.8805157,48.1575657],[2.8791155,48.1574118],[2.8779892,48.1572995],[2.8761007,48.1571113],[2.874816,48.1569934],[2.8746499,48.1569781],[2.8735717,48.1569316],[2.8721501,48.1567348],[2.8711041,48.1566203],[2.8696128,48.1565129],[2.8685452,48.1565451],[2.8678693,48.156631],[2.8675367,48.1565988],[2.8671022,48.1563877],[2.8668465,48.156225]]},"properties":{"bicycle":"yes","foot":"yes","highway":"track","name":"Chemin de César","surface":"grass"}},
{"type":"Feature","geometry":{"type":"LineString","coordinates":[[2.905378,48.102847],[2.905343,48.102675],[2.905383,48.102641],[2.905392,48.102607],[2.905388,48.102549],[2.905414,48.102518],[2.905521,48.102512],[2.905569,48.102517],[2.905588,48.102526],[2.905647,48.102583],[2.905736,48.102683],[2.905598,48.102754],[2.905378,48.102847]]},"properties":{"natural":"water","source":"cadastre-dgi-fr source : Direction Générale des Impôts - Cadastre. Mise à jour : 2012"}},
{"type":"Feature","geometry":{"type":"LineString","coordinates":[[2.882169,48.095503],[2.882212,48.095488],[2.882314,48.09548],[2.88241,48.095486],[2.882258,48.095564],[2.882293,48.095667],[2.882222,48.095772],[2.882268,48.095806],[2.882109,48.095952],[2.882052,48.095987],[2.881987,48.09601],[2.881934,48.096015],[2.881871,48.096003],[2.88182,48.09593],[2.881874,48.095809],[2.881855,48.095806],[2.881914,48.095649],[2.881875,48.09564],[2.881908,48.095573],[2.881999,48.095541],[2.882169,48.095503]]},"properties":{"natural":"water","source":"cadastre-dgi-fr source : Direction Générale des Impôts - Cadastre. Mise à jour : 2012"}},
{"type":"Feature","geometry":{"type":"LineString","coordinates":[[2.885723,48.091588],[2.885694,48.091579],[2.885664,48.091567],[2.885631,48.091543],[2.885566,48.091492],[2.885535,48.091466],[2.885516,48.091446],[2.885506,48.091423],[2.885502,48.0914],[2.885506,48.091377],[2.885513,48.091353],[2.885523,48.091334],[2.885556,48.091299],[2.885579,48.091286],[2.885606,48.091275],[2.885643,48.091267],[2.885672,48.091266],[2.8857,48.091267],[2.885729,48.09127],[2.885754,48.091276],[2.88579,48.091298],[2.885844,48.09135],[2.885866,48.091391],[2.885867,48.091414],[2.885861,48.091442],[2.885848,48.091467],[2.885841,48.091489],[2.885825,48.091514],[2.88581,48.091548],[2.885799,48.091566],[2.885766,48.091585],[2.885745,48.091592],[2.885723,48.091588]]},"properties":{"natural":"water","source":"cadastre-dgi-fr source : Direction Générale des Impôts - Cadastre. Mise à jour : 2012"}},
{"type":"Feature","geometry":{"type":"LineString","coordinates":[[2.902154,48.10106],[2.90216,48.101048],[2.902175,48.101029],[2.902225,48.101005],[2.902296,48.100979],[2.902317,48.100977],[2.902393,48.100977],[2.902435,48.100974],[2.902475,48.100975],[2.902567,48.10097],[2.902678,48.100962],[2.902723,48.100964],[2.902759,48.100967],[2.902779,48.100976],[2.902787,48.100991],[2.902793,48.101034],[2.9028,48.101053],[2.902808,48.101069],[2.902805,48.101128],[2.902797,48.101152],[2.902783,48.101168],[2.902746,48.101191],[2.902688,48.101204],[2.902659,48.101207],[2.902588,48.101209],[2.902541,48.101213],[2.902443,48.10121],[2.902398,48.101204],[2.902366,48.101196],[2.902338,48.101181],[2.902286,48.101161],[2.902222,48.101125],[2.902164,48.101082],[2.902153,48.101072],[2.902154,48.10106]]},"properties":{"natural":"water","source":"cadastre-dgi-fr source : Direction Générale des Impôts - Cadastre. Mise à jour : 2012"}},
{"type":"Feature","geometry":{"type":"LineString","coordinates":[[2.889337,48.094504],[2.889367,48.094493],[2.889402,48.094492],[2.889487,48.094494],[2.889527,48.0945],[2.889572,48.094511],[2.889621,48.09453],[2.889694,48.094589],[2.889748,48.094656],[2.88975,48.094706],[2.889715,48.094776],[2.889702,48.094798],[2.889681,48.094813],[2.889673,48.094836],[2.889682,48.094856],[2.88968,48.094874],[2.889669,48.094896],[2.889617,48.094935],[2.889585,48.094949],[2.889539,48.094949],[2.889506,48.094941],[2.889459,48.094926],[2.889406,48.094917],[2.889361,48.094904],[2.889309,48.094887],[2.889277,48.094862],[2.889208,48.094797],[2.889205,48.09477],[2.889198,48.094745],[2.889204,48.094718],[2.889222,48.094674],[2.889236,48.094632],[2.889258,48.094593],[2.889286,48.094555],[2.889311,48.094524],[2.889337,48.094504]]},"properties":{"natural":"water","source":"cadastre-dgi-fr source : Direction Générale des Impôts - Cadastre. Mise à jour : 2012"}},
{"type":"Feature","geometry":{"type":"LineString","coordinates":[[2.8888834,48.1064215],[2.8893826,48.1065503],[2.8894303,48.1066378],[2.8890127,48.1069521],[2.8885424,48.1066653],[2.8888834,48.1064215]]},"properties":{"natural":"water","source":"cadastre-dgi-fr source : Direction Générale des Impôts - Cadastre. Mise à jour : 2012"}},
{"type":"Feature","geometry":{"type":"LineString","coordinates":[[2.901744,48.101581],[2.901714,48.101512],[2.90187,48.101481],[2.901954,48.101609],[2.901774,48.101648],[2.901744,48.101581]]},"properties":{"natural":"water","source":"cadastre-dgi-fr source : Direction Générale des Impôts - Cadastre. Mise à jour : 2012"}},
{"type":"Feature","geometry":{"type":"LineString","coordinates":[[2.9050354,48.1170243],[2.9050428,48.1169884],[2.9049394,48.1169724],[2.9049368,48.1169779],[2.9049286,48.1169803],[2.9049233,48.116982],[2.9049216,48.1169844],[2.9049192,48.1169889],[2.9049186,48.116993],[2.9049192,48.1169963],[2.9049218,48.1170001],[2.9049253,48.117002],[2.9049303,48.1170046],[2.9049309,48.1170089],[2.9050354,48.1170243]]},"properties":{"access":"private","leisure":"swimming_pool","source":"cadastre-dgi-fr source : Direction Générale des Impôts - Cadastre. Mise à jour : 2012"}},
{"type":"Feature","geometry":{"type":"LineString","coordinates":[[2.853491,48.108238],[2.853433,48.108283],[2.853396,48.108312],[2.853276,48.108353],[2.853224,48.108343],[2.853189,48.108329],[2.853109,48.108244],[2.853053,48.108174],[2.853175,48.108134],[2.853244,48.108116],[2.853463,48.108122],[2.853472,48.108185],[2.853491,48.108238]]},"properties":{"natural":"water","source":"cadastre-dgi-fr source : Direction Générale des Impôts - Cadastre. Mise à jour : 2012"}},
{"type":"Feature","geometry":{"type":"LineString","coordinates":[[2.847804,48.098822],[2.847803,48.098809],[2.847797,48.098757],[2.847766,48.098706],[2.84771,48.098659],[2.847631,48.098605],[2.847535,48.098543],[2.847495,48.098504],[2.847479,48.098476],[2.847499,48.098455],[2.847537,48.098432],[2.847581,48.098414],[2.847594,48.098417],[2.847694,48.098546],[2.847757,48.098599],[2.847857,48.098722],[2.847946,48.098769],[2.847807,48.09884],[2.847804,48.098822]]},"properties":{"natural":"water","source":"cadastre-dgi-fr source : Direction Générale des Impôts - Cadastre. Mise à jour : 2012"}},
{"type":"Feature","geometry":{"type":"LineString","coordinates":[[2.858954,48.090404],[2.858963,48.090367],[2.859002,48.090209],[2.859041,48.090188],[2.859146,48.090169],[2.859236,48.090172],[2.859292,48.090192],[2.859375,48.090212],[2.859434,48.090245],[2.859493,48.090305],[2.859503,48.090363],[2.8595,48.090428],[2.859491,48.090517],[2.859456,48.090575],[2.859432,48.090592],[2.859235,48.090648],[2.859128,48.090588],[2.858973,48.09048],[2.858954,48.090404]]},"properties":{"natural":"water","source":"cadastre-dgi-fr source : Direction Générale des Impôts - Cadastre. Mise à jour : 2012"}},
{"type":"Feature","geometry":{"type":"LineString","coordinates":[[2.849974,48.09802],[2.849959,48.098024],[2.849946,48.098028],[2.849934,48.098027],[2.849924,48.098018],[2.849919,48.098007],[2.849922,48.098],[2.849933,48.097988],[2.84995,48.097984],[2.849972,48.097973],[2.849984,48.09795],[2.849994,48.097941],[2.850005,48.097937],[2.850033,48.097936],[2.850045,48.097938],[2.850054,48.097944],[2.85006,48.097951],[2.850063,48.097968],[2.850059,48.097976],[2.850038,48.097991],[2.850018,48.098000999999999],[2.849974,48.09802]]},"properties":{"natural":"water","source":"cadastre-dgi-fr source : Direction Générale des Impôts - Cadastre. Mise à jour : 2012"}},
{"type":"Feature","geometry":{"type":"LineString","coordinates":[[2.85904,48.113731],[2.858979,48.113762],[2.858948,48.113764],[2.858882,48.113751],[2.858569,48.113662],[2.858134,48.113516],[2.858208,48.113378],[2.858281,48.113299],[2.858457,48.113171],[2.858499,48.113113],[2.858604,48.113008],[2.858782,48.112849],[2.85897,48.112714],[2.859159,48.112592],[2.859224,48.11257],[2.859291,48.112563],[2.859455,48.112575],[2.859636,48.112618],[2.859684,48.11265],[2.859698,48.112684],[2.85961,48.112864],[2.859506,48.113028],[2.85904,48.113731]]},"properties":{"natural":"water","source":"cadastre-dgi-fr source : Direction Générale des Impôts - Cadastre. Mise à jour : 2012"}},
{"type":"Feature","geometry":{"type":"LineString","coordinates":[[2.893998,48.148439],[2.893972,48.148456],[2.893936,48.148458],[2.893908,48.148448],[2.893892,48.148431],[2.893894,48.148406],[2.893922,48.148386],[2.89396,48.148385],[2.89399,48.148397],[2.894003,48.148417],[2.893998,48.148439]]},"properties":{"natural":"water","source":"cadastre-dgi-fr source : Direction Générale des Impôts - Cadastre. Mise à jour : 2012"}},
{"type":"Feature","geometry":{"type":"LineString","coordinates":[[2.894667,48.151747],[2.894669,48.151766],[2.894585,48.151778],[2.894541,48.151779],[2.894494,48.151769],[2.894476,48.151742],[2.894498,48.151713],[2.894558,48.15171],[2.894593,48.151712],[2.89464,48.15173],[2.894667,48.151747]]},"properties":{"natural":"water","source":"cadastre-dgi-fr source : Direction Générale des Impôts - Cadastre. Mise à jour : 2012"}},
{"type":"Feature","geometry":{"type":"LineString","coordinates":[[2.8873035,48.1450636],[2.887301,48.145034],[2.887307,48.144989],[2.887322,48.14496],[2.887348,48.144932],[2.887366,48.144927],[2.887405,48.144929],[2.887461,48.144945],[2.887538,48.14497],[2.887543,48.144976],[2.887504,48.145048],[2.8873035,48.1450636]]},"properties":{"natural":"water","source":"cadastre-dgi-fr source : Direction Générale des Impôts - Cadastre. Mise à jour : 2012"}},
{"type":"Feature","geometry":{"type":"LineString","coordinates":[[2.895185,48.135358],[2.895178,48.13535],[2.895156,48.135325],[2.895078,48.13525],[2.895142,48.135228],[2.895352,48.13523],[2.895356,48.135244],[2.89536,48.135256],[2.895367,48.135278],[2.895349,48.135306],[2.895311,48.135318],[2.895185,48.135358]]},"properties":{"natural":"water","source":"cadastre-dgi-fr source : Direction Générale des Impôts - Cadastre. Mise à jour : 2012"}},
{"type":"Feature","geometry":{"type":"LineString","coordinates":[[2.89907,48.140517],[2.8991729999999999,48.140459],[2.899216,48.140493],[2.899114,48.140551],[2.899107,48.140546],[2.899103,48.140548],[2.899099,48.140548],[2.899096,48.140549],[2.899092,48.140549],[2.899087,48.140548],[2.899082,48.140547],[2.899077,48.140544],[2.899074,48.140541],[2.899072,48.140539],[2.899071,48.140535],[2.899071,48.140532],[2.899072,48.140528],[2.899075,48.140525],[2.899077,48.140523],[2.89907,48.140517]]},"properties":{"access":"private","leisure":"swimming_pool","source":"cadastre-dgi-fr source : Direction Générale des Impôts - Cadastre. Mise à jour : 2012"}},
{"type":"Feature","geometry":{"type":"LineString","coordinates":[[2.88736,48.144614],[2.887478,48.144636],[2.887475,48.144643],[2.887476,48.144643],[2.887479,48.144644],[2.887481,48.144645],[2.887483,48.144646],[2.887485,48.144648],[2.887486,48.14465],[2.887487,48.144651],[2.887487,48.144653],[2.887487,48.144655],[2.887486,48.144657],[2.887485,48.144659],[2.887483,48.144661],[2.887481,48.144662],[2.887479,48.144663],[2.887476,48.144664],[2.887473,48.144665],[2.88747,48.144665],[2.887468,48.144665],[2.887466,48.144664],[2.887464,48.144669],[2.887346,48.144647],[2.88736,48.144614]]},"properties":{"access":"private","leisure":"swimming_pool","source":"cadastre-dgi-fr source : Direction Générale des Impôts - Cadastre. Mise à jour : 2012"}},
{"type":"Feature","geometry":{"type":"LineString","coordinates":[[2.894496,48.144991],[2.894486,48.144983],[2.894484,48.144976],[2.894481,48.144968],[2.894483,48.144958],[2.894488,48.144951],[2.894493,48.144945],[2.894502,48.14494],[2.89451,48.144938],[2.894523,48.144937],[2.894533,48.144938],[2.894547,48.14494],[2.894558,48.144942],[2.894573,48.144947],[2.894588,48.144953],[2.8946,48.144959],[2.894607,48.144965],[2.894607,48.144966],[2.894619,48.14497],[2.894626,48.144984],[2.894598,48.144997],[2.894554,48.14499],[2.894524,48.144994],[2.894523,48.144988],[2.894519,48.14499],[2.894512,48.144993],[2.894504,48.144993],[2.894496,48.144991]]},"properties":{"access":"private","leisure":"swimming_pool","source":"cadastre-dgi-fr source : Direction Générale des Impôts - Cadastre. Mise à jour : 2012"}},
{"type":"Feature","geometry":{"type":"LineString","coordinates":[[2.905091,48.132976],[2.905063,48.13301],[2.905054,48.13302],[2.905053,48.13302],[2.905049,48.133019],[2.905046,48.133019],[2.905043,48.13302],[2.90504,48.133021],[2.905037,48.133023],[2.904976,48.132995],[2.904954,48.132985],[2.905031,48.132943],[2.905043,48.132901],[2.904986,48.132863],[2.904985,48.132846],[2.90501,48.132822],[2.905098,48.132821],[2.90512,48.132829],[2.905191,48.132835],[2.90514,48.132915],[2.905137,48.132914],[2.905133,48.132914],[2.90513,48.132915],[2.905127,48.132916],[2.905125,48.132918],[2.905123,48.13292],[2.905122,48.132922],[2.905122,48.132925],[2.905123,48.132927],[2.905125,48.132929],[2.905127,48.132931],[2.905129,48.132931],[2.905091,48.132976]]},"properties":{"natural":"water","source":"cadastre-dgi-fr source : Direction Générale des Impôts - Cadastre. Mise à jour : 2012"}},
{"type":"Feature","geometry":{"type":"LineString","coordinates":[[2.894366,48.144516],[2.894355,48.144509],[2.894349,48.144503],[2.894344,48.144496],[2.894341,48.144489],[2.894338,48.144482000000007],[2.894339,48.144474],[2.89434,48.144469],[2.894347,48.144463],[2.894352,48.144459],[2.894358,48.144456],[2.894364,48.144454],[2.894372,48.144451],[2.89438,48.144449],[2.894393,48.144446],[2.894404,48.144446],[2.894411,48.144446],[2.894419,48.144447],[2.894422,48.14445],[2.894424,48.144454],[2.894425,48.144458],[2.894423,48.144465],[2.894423,48.14447],[2.894429,48.144471],[2.894435,48.144473],[2.894438,48.144478],[2.894438,48.144483],[2.894435,48.144487],[2.894428,48.144489],[2.894422,48.144492],[2.89442,48.144496],[2.894417,48.144504],[2.894412,48.14451],[2.894406,48.144514],[2.8944,48.144517],[2.89439,48.144518],[2.894383,48.144519],[2.894374,48.144518],[2.894366,48.144516]]},"properties":{"access":"private","leisure":"swimming_pool","source":"cadastre-dgi-fr source : Direction Générale des Impôts - Cadastre. Mise à jour : 2012"}},
{"type":"Feature","geometry":{"type":"LineString","coordinates":[[2.8952644,48.1379234],[2.8951409,48.1379227],[2.8951413,48.1378877],[2.8952648,48.1378884],[2.8952644,48.1379234]]},"properties":{"access":"private","leisure":"swimming_pool","source":"cadastre-dgi-fr source : Direction Générale des Impôts - Cadastre. Mise à jour : 2012"}},
{"type":"Feature","geometry":{"type":"LineString","coordinates":[[2.899696,48.139634],[2.899708,48.13968],[2.899567,48.139695],[2.899556,48.139649],[2.899696,48.139634]]},"properties":{"access":"private","leisure":"swimming_pool","source":"cadastre-dgi-fr source : Direction Générale des Impôts - Cadastre. Mise à jour : 2012"}},
{"type":"Feature","geometry":{"type":"LineString","coordinates":[[2.895659,48.136701],[2.895639,48.136642],[2.895675,48.136635],[2.895695,48.136695],[2.895659,48.136701]]},"properties":{"access":"private","leisure":"swimming_pool","source":"cadastre-dgi-fr source : Direction Générale des Impôts - Cadastre. Mise à jour : 2012"}},
{"type":"Feature","geometry":{"type":"LineString","coordinates":[[2.886987,48.145014],[2.886983,48.144991],[2.887063,48.144985],[2.887067,48.145007],[2.886987,48.145014]]},"properties":{"access":"private","leisure":"swimming_pool","source":"cadastre-dgi-fr source : Direction Générale des Impôts - Cadastre. Mise à jour : 2012"}},
{"type":"Feature","geometry":{"type":"LineString","coordinates":[[2.894073,48.14966],[2.893984,48.149466],[2.89416,48.149445],[2.894214,48.149645],[2.894073,48.14966]]},"properties":{"natural":"water","source":"cadastre-dgi-fr source : Direction Générale des Impôts - Cadastre. Mise à jour : 2012"}},
{"type":"Feature","geometry":{"type":"LineString","coordinates":[[2.897672,48.139022],[2.8977,48.138995],[2.897787,48.139033],[2.897759,48.139061],[2.897672,48.139022]]},"properties":{"access":"private","leisure":"swimming_pool","source":"cadastre-dgi-fr source : Direction Générale des Impôts - Cadastre. Mise à jour : 2012"}},
{"type":"Feature","geometry":{"type":"LineString","coordinates":[[2.897361,48.140227],[2.897363,48.140199],[2.89744,48.140203],[2.897437,48.140231],[2.897361,48.140227]]},"properties":{"access":"private","leisure":"swimming_pool","source":"cadastre-dgi-fr source : Direction Générale des Impôts - Cadastre. Mise à jour : 2012"}},
{"type":"Feature","geometry":{"type":"LineString","coordinates":[[2.9028655,48.1388992],[2.9028726,48.138901],[2.9028783,48.1389043],[2.9028821,48.1389087],[2.9028819,48.1389139],[2.9028796,48.1389191],[2.9028742,48.1389224],[2.9028674,48.1389243],[2.9028598,48.1389249],[2.9028581,48.1389324],[2.9027226,48.1389191],[2.9027328,48.1388763],[2.9028677,48.1388894],[2.9028655,48.1388992]]},"properties":{"access":"private","leisure":"swimming_pool","source":"cadastre-dgi-fr source : Direction Générale des Impôts - Cadastre. Mise à jour : 2012"}},
{"type":"Feature","geometry":{"type":"LineString","coordinates":[[2.89672,48.135083],[2.896592,48.135061],[2.896541,48.13505],[2.896647,48.134996],[2.89677,48.134992],[2.896787,48.135044],[2.896787,48.135081],[2.89672,48.135083]]},"properties":{"natural":"water","source":"cadastre-dgi-fr source : Direction Générale des Impôts - Cadastre. Mise à jour : 2012","water":"pond"}},
{"type":"Feature","geometry":{"type":"LineString","coordinates":[[2.905137,48.13313],[2.905149,48.133111],[2.905277,48.133147],[2.905263,48.133178],[2.905207,48.133181],[2.905171,48.133171],[2.905149,48.133155],[2.905137,48.13313]]},"properties":{"natural":"water","source":"cadastre-dgi-fr source : Direction Générale des Impôts - Cadastre. Mise à jour : 2012"}},
{"type":"Feature","geometry":{"type":"LineString","coordinates":[[2.893553,48.137732],[2.893489,48.137737],[2.893475,48.137655],[2.89346,48.137656],[2.893458,48.137642],[2.893473,48.137641],[2.893472,48.13763],[2.893536,48.137625],[2.893553,48.137732]]},"properties":{"access":"private","leisure":"swimming_pool","source":"cadastre-dgi-fr source : Direction Générale des Impôts - Cadastre. Mise à jour : 2012"}},
{"type":"Feature","geometry":{"type":"LineString","coordinates":[[2.898525,48.142732],[2.898542,48.142735],[2.898598,48.142746],[2.898598,48.142794],[2.898586,48.142808],[2.898555,48.142812],[2.898525,48.142805],[2.898505,48.142782],[2.898525,48.142732]]},"properties":{"natural":"water","source":"cadastre-dgi-fr source : Direction Générale des Impôts - Cadastre. Mise à jour : 2012","water":"pond"}},
{"type":"Feature","geometry":{"type":"LineString","coordinates":[[2.901066,48.141718],[2.901053,48.141708],[2.90104,48.14171],[2.901017,48.141627],[2.901085,48.141617],[2.901108,48.1417],[2.901094,48.141706],[2.90109,48.141715],[2.901066,48.141718]]},"properties":{"access":"private","leisure":"swimming_pool","source":"cadastre-dgi-fr source : Direction Générale des Impôts - Cadastre. Mise à jour : 2012"}},
{"type":"Feature","geometry":{"type":"LineString","coordinates":[[2.8958855,48.1399992],[2.8958155,48.1399382],[2.8958645,48.1399132],[2.8959125,48.1399552],[2.8959255,48.1399482],[2.8959425,48.1399632],[2.8959305,48.1399702],[2.8959345,48.1399732],[2.8958855,48.1399992]]},"properties":{"access":"private","leisure":"swimming_pool","source":"cadastre-dgi-fr source : Direction Générale des Impôts - Cadastre. Mise à jour : 2012"}},
{"type":"Feature","geometry":{"type":"LineString","coordinates":[[2.865867,48.131505],[2.865874,48.131504],[2.865895,48.131586],[2.865837,48.131592],[2.865813,48.131509],[2.865823,48.131508],[2.865836,48.131494000000007],[2.865839,48.131492],[2.865845,48.131491],[2.865851,48.131492],[2.865867,48.131505]]},"properties":{"natural":"water","source":"cadastre-dgi-fr source : Direction Générale des Impôts - Cadastre. Mise à jour : 2012"}},
{"type":"Feature","geometry":{"type":"LineString","coordinates":[[2.840104,48.13209],[2.839908,48.13189],[2.84009,48.131828],[2.840285,48.131783],[2.840296,48.13179],[2.84034,48.13182],[2.840333,48.131832],[2.840266,48.131953],[2.840393,48.132108],[2.840136,48.132104],[2.840104,48.13209]]},"properties":{"natural":"water","source":"cadastre-dgi-fr source : Direction Générale des Impôts - Cadastre. Mise à jour : 2012"}},
{"type":"Feature","geometry":{"type":"LineString","coordinates":[[2.868755,48.124571],[2.868688,48.124502],[2.868685,48.124496],[2.868687,48.12449],[2.868692,48.124483],[2.868698,48.124478],[2.86871,48.124474],[2.86872,48.124472],[2.868728,48.124474],[2.868736,48.124476],[2.868742,48.124481],[2.868808,48.124547],[2.868755,48.124571]]},"properties":{"access":"private","leisure":"swimming_pool","source":"cadastre-dgi-fr source : Direction Générale des Impôts - Cadastre. Mise à jour : 2012"}},
{"type":"Feature","geometry":{"type":"LineString","coordinates":[[2.868428,48.125122],[2.86842,48.125112],[2.868354,48.125035],[2.86837,48.125011],[2.868387,48.124999],[2.868423,48.124988],[2.868454,48.124984],[2.868477,48.124989],[2.868502,48.125009],[2.868507,48.125029],[2.868506,48.125057],[2.868463,48.125093],[2.868443,48.125109],[2.868428,48.125122]]},"properties":{"natural":"water","source":"cadastre-dgi-fr source : Direction Générale des Impôts - Cadastre. Mise à jour : 2012"}},
{"type":"Feature","geometry":{"type":"LineString","coordinates":[[2.870754,48.11908],[2.870787,48.119183],[2.870783,48.119196],[2.870765,48.11923],[2.870739,48.119252],[2.87071,48.119269],[2.870677,48.119277],[2.870641,48.119279],[2.870608,48.119277],[2.87059,48.119268],[2.870572,48.119249],[2.87072,48.119085],[2.870746,48.119057],[2.870754,48.11908]]},"properties":{"natural":"water","source":"cadastre-dgi-fr source : Direction Générale des Impôts - Cadastre. Mise à jour : 2012"}},
{"type":"Feature","geometry":{"type":"LineString","coordinates":[[2.837537,48.13258],[2.837448,48.132501],[2.837444,48.132457],[2.83746,48.132422],[2.837512,48.132382],[2.8377334,48.13232],[2.8379694,48.132241],[2.838183,48.132161],[2.838503,48.13207],[2.838564,48.132068],[2.838615,48.132092],[2.839073,48.132381],[2.839103,48.132425],[2.839113,48.13247],[2.839099,48.132514],[2.839041,48.132557],[2.838625,48.132755],[2.838551,48.132778],[2.838465,48.132809],[2.838126,48.132961],[2.838001,48.132889],[2.837819,48.13277],[2.837604,48.132613],[2.837537,48.13258]]},"properties":{"natural":"water","source":"cadastre-dgi-fr source : Direction Générale des Impôts - Cadastre. Mise à jour : 2012"}},
{"type":"Feature","geometry":{"type":"LineString","coordinates":[[2.862078,48.134051],[2.862082,48.134044],[2.862093,48.134035],[2.862139,48.134022],[2.862156,48.134022],[2.862187,48.134026],[2.862199,48.13403],[2.862211,48.134037],[2.862226,48.134056],[2.862231,48.134189],[2.862226,48.134199],[2.862217,48.134207],[2.8622,48.134215],[2.862189,48.134218],[2.862144,48.134219],[2.862111,48.134214],[2.862086,48.1342],[2.862069,48.134183],[2.862064,48.134166],[2.862078,48.134051]]},"properties":{"natural":"water","source":"cadastre-dgi-fr source : Direction Générale des Impôts - Cadastre. Mise à jour : 2012"}},
{"type":"Feature","geometry":{"type":"LineString","coordinates":[[2.8661466,48.1248845],[2.8662356,48.1248905],[2.8662326,48.1249235],[2.8661426,48.1249195],[2.8661466,48.1248845]]},"properties":{"access":"private","leisure":"swimming_pool","source":"cadastre-dgi-fr source : Direction Générale des Impôts - Cadastre. Mise à jour : 2012"}},
{"type":"Feature","geometry":{"type":"LineString","coordinates":[[2.874384,48.137576],[2.874387,48.137657],[2.874334,48.137658],[2.874329,48.13758],[2.874384,48.137576]]},"properties":{"access":"private","leisure":"swimming_pool","source":"cadastre-dgi-fr source : Direction Générale des Impôts - Cadastre. Mise à jour : 2012"}},
{"type":"Feature","geometry":{"type":"LineString","coordinates":[[2.86963,48.124665],[2.869604,48.124617],[2.869759,48.12458],[2.869785,48.124627],[2.86963,48.124665]]},"properties":{"access":"private","leisure":"swimming_pool","source":"cadastre-dgi-fr source : Direction Générale des Impôts - Cadastre. Mise à jour : 2012"}},
{"type":"Feature","geometry":{"type":"LineString","coordinates":[[2.873083,48.136164],[2.873081,48.136126],[2.873093,48.136114],[2.87311,48.136107],[2.873189,48.136105],[2.873204,48.136107],[2.873217,48.136118],[2.873218,48.136128],[2.87321,48.136139],[2.8732,48.136143],[2.873143,48.136145],[2.873128,48.13617],[2.873116,48.136173],[2.873101,48.136172],[2.873089,48.136169],[2.873083,48.136164]]},"properties":{"natural":"water","source":"cadastre-dgi-fr source : Direction Générale des Impôts - Cadastre. Mise à jour : 2012"}},
{"type":"Feature","geometry":{"type":"LineString","coordinates":[[2.858219,48.133963],[2.858226,48.133912],[2.858282,48.133914],[2.858276,48.133975],[2.858218,48.133972],[2.858219,48.133963]]},"properties":{"natural":"water","source":"cadastre-dgi-fr source : Direction Générale des Impôts - Cadastre. Mise à jour : 2012"}},
{"type":"Feature","geometry":{"type":"LineString","coordinates":[[2.7866688,48.0910876],[2.786581,48.0910882],[2.7863686,48.0910903],[2.7863207,48.0911229],[2.7863241,48.0910938],[2.7863241,48.0910709],[2.7864242,48.091063],[2.7866513,48.0910524],[2.7866706,48.0910515],[2.7866942,48.0910503],[2.7868037,48.0910205],[2.7870378,48.0909205],[2.7873081,48.0909078],[2.787371,48.0908992],[2.7874328,48.0908804],[2.787506,48.0908537],[2.787535,48.0908108],[2.7875808,48.0907428],[2.7876001,48.0907041],[2.7876314,48.0906448],[2.7877318,48.0904986],[2.7877585,48.090467],[2.7878074,48.0903959],[2.7879192,48.0903075],[2.7879778,48.0902603],[2.78802,48.0902252],[2.7880503,48.090202],[2.788096,48.0901672],[2.7882469,48.0900536],[2.7883262,48.0899999],[2.7883503,48.0899804],[2.788362,48.0899605],[2.7883829,48.0899453],[2.7884037,48.0899176],[2.78852,48.089695],[2.7886987,48.08942],[2.7888865,48.0891333],[2.7891209,48.0887208],[2.7891446,48.0886357],[2.7891442,48.088628],[2.7892736,48.0886628],[2.7892676,48.0886789],[2.7892434,48.0887149],[2.7892095,48.0887687],[2.7889558,48.0891569],[2.7888175,48.0893729],[2.7886134,48.0896878],[2.788475,48.0899281],[2.7884326,48.0899819],[2.7884137,48.0899983],[2.7883728,48.0900317],[2.7882571,48.0901114],[2.7881485,48.0901833],[2.7879983,48.0902985],[2.7878812,48.0903981],[2.7878523,48.0904228],[2.7878095,48.0904828],[2.7877946,48.0905179],[2.7877194,48.0906584],[2.7876827,48.0907199],[2.7876634,48.0907579],[2.7876212,48.0908325],[2.7875988,48.0908791],[2.7875711,48.0909016],[2.7875525,48.0909118],[2.7874493,48.0909449],[2.7873858,48.0909539],[2.7873228,48.0909731],[2.7872011,48.0909783],[2.7871088,48.0909821],[2.786879,48.0910807],[2.7869272,48.0911711],[2.786889,48.0911741],[2.7868245,48.091078],[2.7867143,48.0910865],[2.7866688,48.0910876]]},"properties":{"natural":"water","source":"cadastre-dgi-fr source : Direction Générale des Impôts - Cadastre. Mise à jour : 2012","water":"stream"}},
{"type":"Feature","geometry":{"type":"LineString","coordinates":[[2.792215,48.1505855],[2.7924651,48.1505682],[2.7924768,48.1505869],[2.792512,48.1505978],[2.7925311,48.1505979],[2.7925489,48.1505822],[2.7925533,48.1505674],[2.7925712,48.1505648],[2.7925901,48.1505626],[2.7925989,48.1505793],[2.7926223,48.1505951],[2.7926532,48.1505951],[2.7926827,48.1505824],[2.7926842,48.1505588],[2.7927504,48.15055],[2.7928937,48.1505444],[2.7929401,48.1505431],[2.79296,48.1505695],[2.7929954,48.1505792],[2.7930229,48.1505778],[2.7930534,48.1505597],[2.7930594,48.1505419],[2.7930555,48.150522],[2.7930331,48.1505066],[2.7930032,48.1504993],[2.7929884,48.1503334],[2.7929856,48.1502899],[2.7929755,48.1501874],[2.7929483,48.1499915],[2.792988,48.1499787],[2.7930043,48.1499552],[2.7930014,48.1499365],[2.7929838,48.1499236],[2.79295,48.1499177],[2.7929177,48.1499176],[2.7928941,48.1499254],[2.7928867,48.1499343],[2.7928808,48.1499549],[2.7928815,48.1499601],[2.7925492,48.1499808],[2.7924057,48.1499898],[2.7921372,48.1500065],[2.7921196,48.1499863],[2.7920833,48.1499737],[2.79205,48.1499757],[2.7920281,48.1499875],[2.7920197,48.1500104],[2.7920217,48.1500278],[2.7920404,48.1500404],[2.7920664,48.1500516],[2.7920892,48.1500509],[2.7921538,48.1505534],[2.7921392,48.1505555],[2.7921121,48.1505638],[2.7921027,48.1505805],[2.7920985,48.1506006],[2.7921171,48.1506167],[2.7921337,48.1506264],[2.7921586,48.1506293],[2.7921899,48.1506231],[2.7922055,48.1506036],[2.792215,48.1505855]]},"properties":{"source":"cadastre-dgi-fr source : Direction Générale des Impôts - Cadastre. Mise à jour : 2012"}},
{"type":"Feature","geometry":{"type":"LineString","coordinates":[[2.8328137,48.1524678],[2.8330021,48.1524704],[2.8333597,48.1525053],[2.834058,48.152576],[2.834123,48.1525963],[2.8345499,48.1527298],[2.8350912,48.1528198],[2.8353087,48.1528372],[2.8354566,48.1528176],[2.8355409,48.1528052]]},"properties":{"highway":"secondary","maxspeed":"50","name":"Rue de César","oneway":"no","ref":"D 43","surface":"asphalt"}},
{"type":"Feature","geometry":{"type":"LineString","coordinates":[[2.8290881,48.1521072],[2.8287955,48.1521103],[2.8281049,48.152038],[2.8275825,48.1519735],[2.8273825,48.1519287]]},"properties":{"highway":"secondary","maxspeed":"50","name":"Rue de César","oneway":"yes","ref":"D 43"}},
{"type":"Feature","geometry":{"type":"LineString","coordinates":[[2.897508,48.1593898],[2.8981299,48.1594551],[2.8990561,48.1595524],[2.8999823,48.1596496]]},"properties":{"admin_level":"4","border_type":"region","boundary":"administrative","source":"cadastre-dgi-fr source : Direction Générale des Impôts - Cadastre. Mise à jour : 2009"}},
{"type":"Feature","geometry":{"type":"LineString","coordinates":[[2.875463,48.1796173],[2.8762177,48.1794828],[2.8758989,48.1786875],[2.8751442,48.178822],[2.875463,48.1796173]]},"properties":{"leisure":"pitch","sport":"soccer"}},
{"type":"Feature","geometry":{"type":"LineString","coordinates":[[2.8196804,48.2002627],[2.8201423,48.2000264],[2.8199686,48.1998746],[2.8195066,48.2001108],[2.8196804,48.2002627]]},"properties":{"leisure":"pitch","sport":"tennis"}},
{"type":"Feature","geometry":{"type":"LineString","coordinates":[[2.8191713,48.1387478],[2.8191791,48.1384343],[2.8189355,48.1384278],[2.8189393,48.1387517],[2.8191713,48.1387478]]},"properties":{"access":"private","leisure":"pitch","sport":"tennis"}},
{"type":"Feature","geometry":{"type":"LineString","coordinates":[[2.8590693,48.1313215],[2.859945,48.1313468],[2.8599267,48.131629],[2.859051,48.1316036],[2.8590693,48.1313215]]},"properties":{"leisure":"pitch","sport":"soccer"}},
{"type":"Feature","geometry":{"type":"LineString","coordinates":[[2.8599749,48.1316083],[2.859982,48.1313312],[2.8602193,48.1313339],[2.8602121,48.131611],[2.8599749,48.1316083]]},"properties":{"leisure":"pitch","sport":"basketball"}},
{"type":"Feature","geometry":{"type":"LineString","coordinates":[[2.8404407,48.1308862],[2.8403998,48.1306183],[2.8406164,48.1306112],[2.8406401,48.1308706],[2.8404407,48.1308862]]},"properties":{"access":"private","leisure":"pitch","sport":"tennis"}},
{"type":"Feature","geometry":{"type":"LineString","coordinates":[[2.8009897,48.0926361],[2.8010006,48.0926369],[2.8010108,48.0926344],[2.8010843,48.0925832],[2.8010822,48.0925696],[2.8010616,48.0925577],[2.8010456,48.092558],[2.8010334,48.0925608],[2.8009713,48.0926038],[2.8009628,48.0926151],[2.8009695,48.0926239],[2.8009897,48.0926361]]},"properties":{"access":"private","leisure":"swimming_pool"}},
{"type":"Feature","geometry":{"type":"LineString","coordinates":[[2.8005391,48.0923523],[2.8004788,48.0922635],[2.8004501,48.0922714],[2.8003613,48.0921453],[2.800746,48.092028],[2.8007846,48.0920772],[2.8008707,48.0920497],[2.8009522,48.0921142],[2.8009294,48.0921209],[2.8009375,48.092131],[2.8009444,48.0921445],[2.8009465,48.092156],[2.8009469,48.0921681],[2.8009448,48.0921755],[2.8009681,48.0921831],[2.8009579,48.0921995],[2.8009439,48.0922161],[2.8009241,48.0922285],[2.800903,48.0922389],[2.8008781,48.0922468],[2.8005391,48.0923523]]},"properties":{"leisure":"swimming_pool","sport":"swimming"}},
{"type":"Feature","geometry":{"type":"LineString","coordinates":[[2.7957811,48.1041648],[2.7958484,48.1041219],[2.795816,48.1040988],[2.7957479,48.1041426],[2.7957537,48.1041453],[2.7957521,48.1041485],[2.7957502,48.1041517],[2.7957521,48.1041569],[2.7957545,48.1041599],[2.7957598,48.1041626],[2.7957662,48.1041637],[2.7957704,48.1041637],[2.7957753,48.1041623],[2.7957811,48.1041648]]},"properties":{"access":"private","leisure":"swimming_pool","source":"cadastre-dgi-fr source : Direction Générale des Impôts - Cadastre. Mise à jour : 2013"}},
{"type":"Feature","geometry":{"type":"LineString","coordinates":[[2.7949204,48.0962009],[2.7950153,48.0961956],[2.7950116,48.0961633],[2.7949166,48.0961682],[2.7949204,48.0962009]]},"properties":{"access":"private","leisure":"swimming_pool","source":"cadastre-dgi-fr source : Direction Générale des Impôts - Cadastre. Mise à jour : 2013"}},
{"type":"Feature","geometry":{"type":"LineString","coordinates":[[2.9047471,48.1214111],[2.9049117,48.1214058],[2.9049125,48.1213869],[2.9049276,48.1213863],[2.904932,48.121381],[2.9049329,48.1213751],[2.9049311,48.1213686],[2.9049196,48.1213662],[2.9049117,48.1213651],[2.9049117,48.1213503],[2.9047453,48.1213544],[2.9047471,48.1214111]]},"properties":{"access":"private","leisure":"swimming_pool"}},
{"type":"Feature","geometry":{"type":"LineString","coordinates":[[2.8798494,48.1124131],[2.8796605,48.1124413],[2.8794651,48.1125131],[2.8793544,48.1125957],[2.879312,48.1127197],[2.8793641,48.1128023],[2.8795074,48.1128806],[2.8796181,48.112898],[2.8797386,48.1128675],[2.8797647,48.1128414],[2.8797875,48.1128371],[2.8798266,48.1128436],[2.8799373,48.1128305],[2.8801229,48.1127653],[2.8801816,48.1126957],[2.880149,48.1125805],[2.8800318,48.1125109],[2.879921,48.1124413],[2.8798494,48.1124131]]},"properties":{"name":"Mare de Lamerville","natural":"water","water":"pond"}},
{"type":"Feature","geometry":{"type":"LineString","coordinates":[[2.8194785,48.0786181],[2.8194658,48.0786869],[2.8194318,48.0787269],[2.8194178,48.0787759],[2.8194088,48.0788169],[2.8193858,48.0788549],[2.8193518,48.0788899],[2.8192958,48.0789229],[2.8192518,48.0789459],[2.8191478,48.0789789],[2.8190498,48.0789919],[2.8189538,48.0789979],[2.8188548,48.0790099],[2.8184008,48.0791689],[2.8183458,48.0791869],[2.8182048,48.0792239],[2.8181968,48.0792269],[2.8179798,48.0792469],[2.8177818,48.0792629],[2.8176058,48.0792999],[2.8174748,48.0793529],[2.8173798,48.0794099],[2.8172408,48.0795209],[2.8172058,48.0795639],[2.8171408,48.0796659],[2.8170518,48.0797679],[2.8169638,48.0798399],[2.8168748,48.0798829],[2.8166568,48.0799589],[2.8165278,48.0800069],[2.8164698,48.0800399],[2.8163088,48.0801539],[2.8161878,48.0802319],[2.8160578,48.0802919],[2.8158898,48.0803439],[2.8157948,48.0803649],[2.8156958,48.0803809],[2.8156368,48.0803859],[2.8154388,48.0803789],[2.8153478,48.0803439],[2.8152788,48.0803339],[2.8151588,48.0803339],[2.8150028,48.0803309],[2.8147768,48.0803549],[2.8145788,48.0804039],[2.8144258,48.0804739],[2.8142048,48.0805689],[2.8140028,48.0806259],[2.8139898,48.0806019],[2.8136978,48.0807049],[2.8131978,48.0809929],[2.8129768,48.0810909],[2.8126668,48.0811489],[2.8124448,48.0812119],[2.8121948,48.0813809],[2.8120588,48.0815629],[2.8120748,48.0816739],[2.8122148,48.0818969],[2.8121758,48.0819909],[2.8116918,48.0823759],[2.8113118,48.0826869],[2.8108658,48.0829599],[2.8105138,48.0830759],[2.8099168,48.0833849],[2.8097488,48.0835049],[2.8095868,48.0836839],[2.8094438,48.0837839],[2.8090578,48.0839449],[2.8090128,48.0839649],[2.8087888,48.0840919],[2.8084888,48.0845669],[2.8077588,48.0849669],[2.8067015,48.0855251],[2.806683,48.0855835],[2.8061178,48.085957],[2.8056021,48.0862092],[2.8053598,48.0863752],[2.8053332,48.0863929],[2.8048831,48.0866141],[2.8044454,48.0866518],[2.8043041,48.0866805],[2.8042251,48.0867321],[2.8041943,48.0867459],[2.8041419,48.0867547],[2.8039726,48.0867328],[2.8038258,48.0867019],[2.8037428,48.0866851],[2.8036996,48.0866844],[2.8036398,48.0866988],[2.8036063,48.0867677],[2.803578,48.0868044],[2.8034015,48.0869215],[2.8033491,48.0869342],[2.8032263,48.0869206],[2.8031092,48.086916],[2.8030502,48.0869242],[2.8029887000000004,48.0869458],[2.8029388,48.086978],[2.8028273,48.0870407],[2.8026517,48.0871311],[2.8024698,48.0871569],[2.8023769,48.087125],[2.8023337,48.0871177],[2.8022948,48.087101],[2.8021747,48.0870201],[2.8021448,48.0870145],[2.8019007,48.0870274],[2.8018558,48.0870251],[2.8018127,48.0870195],[2.8008662,48.0867775],[2.8007998,48.0867746],[2.8002424,48.086832],[2.8001893,48.0868247],[2.8001279,48.0868107],[2.7998935,48.0866601],[2.7996257,48.0865216],[2.7995943,48.086502],[2.7995471,48.0864652],[2.7994355,48.0863371],[2.7994089,48.0863292],[2.798902,48.0862416],[2.7985442,48.0862053],[2.7984745,48.0861902],[2.798394,48.0861912],[2.7982312,48.0862059],[2.797756,48.0862601],[2.7977303,48.086269],[2.7966372,48.0867778],[2.7960645,48.0869415],[2.795466,48.0870951],[2.7951347,48.0870883],[2.7948824,48.0870506],[2.7945378,48.0870689],[2.7944572,48.0870793],[2.7943108,48.087147],[2.7942816,48.0871708],[2.7942416,48.0872114],[2.7941805,48.0873381],[2.7941168,48.0874904],[2.7940808,48.0875588],[2.7940516,48.0875882],[2.7939891,48.0876465],[2.7939142,48.0877037],[2.7936157,48.0878055],[2.7934138,48.0878252],[2.7928353,48.0879571],[2.7921916,48.0880127],[2.7921118,48.0880393],[2.7920128,48.0880869],[2.7919079,48.0881468],[2.7917298,48.0882472],[2.7916076,48.0882804],[2.7915362,48.088288],[2.7914772,48.0882874],[2.7914058,48.08828],[2.7913336,48.0882682],[2.7907721,48.0881131],[2.7906476,48.0881156],[2.7903217,48.0882007],[2.7899575,48.0882783],[2.7898339,48.088328],[2.7898054,48.08837],[2.7897013,48.0884282],[2.7896597,48.0884621],[2.7895955,48.0885181],[2.7896194,48.0885649],[2.7895004,48.0886209],[2.7893816,48.0886346],[2.7892736,48.0886628],[2.7891442,48.088628],[2.7891334,48.0886219],[2.7882554,48.0888934],[2.787246,48.089227],[2.7872251,48.0892476],[2.7872284,48.0892632],[2.7872132,48.089321],[2.7868521,48.0894922],[2.7868196,48.0895139],[2.7867697,48.0895472],[2.7867287,48.0896105],[2.7866684,48.0897523],[2.7865561,48.089993],[2.7865185,48.0900519],[2.7864759,48.0901035],[2.7864632,48.0901591],[2.7864562,48.0902659],[2.7864304,48.0904296],[2.7864244,48.090462],[2.7864159,48.0904937],[2.786332,48.0906669],[2.7863225,48.0906862],[2.7863146,48.0906991],[2.7862833,48.0907613],[2.7862924,48.090822],[2.7863032,48.0908902],[2.7863132,48.0909551],[2.7863241,48.0910709],[2.7863241,48.0910938],[2.7863207,48.0911229],[2.7863148,48.0912437],[2.7863033,48.0913099],[2.7862841,48.091454],[2.7862442,48.0914509],[2.7862282,48.091517],[2.7862676,48.0915215],[2.7862195,48.0917062],[2.7863419,48.0925417],[2.7863592,48.0926533],[2.7863727,48.0927145],[2.7863833,48.0927493],[2.786396,48.0927969],[2.7864005,48.0928105],[2.7864298,48.0928654],[2.786471,48.0929353],[2.7864888,48.0929604],[2.7865074,48.0929749],[2.7865231,48.0929891],[2.7865417,48.0930069],[2.7866063,48.093046],[2.7866332,48.0930579],[2.7866645,48.0930714],[2.786712,48.093087],[2.7867904,48.0931117],[2.7869082,48.0931422],[2.7870472,48.0931786],[2.7871127,48.0931902],[2.7871658,48.0932028],[2.7875319,48.0932483],[2.7875764,48.0933131],[2.787597,48.0933598],[2.7876059,48.0933861],[2.7876254,48.0934446],[2.7875996,48.0934473],[2.7876174,48.093501],[2.7876458,48.0935773],[2.7876571,48.0935913],[2.7877453,48.0937138],[2.7877954,48.0937773],[2.7878152,48.093773],[2.7878259,48.0937956],[2.7878114,48.0938248],[2.7878341,48.093853],[2.7879271,48.0940741],[2.7879944,48.0942594],[2.7880509,48.0944515],[2.7880712,48.0945661],[2.788064,48.0946991],[2.7881383,48.0950069],[2.7882173,48.0953953],[2.7883091,48.0959046],[2.7882725,48.0961048],[2.788258,48.0962027],[2.7882056,48.0962914],[2.7881281,48.0963702],[2.7880974,48.0964039],[2.7880274,48.0964547],[2.7880173,48.0964676],[2.7879932,48.0964912],[2.7879458,48.0965309],[2.7876705,48.0967259],[2.7875811,48.096799],[2.7875257,48.096852],[2.7874899,48.0968886],[2.7873605,48.096845],[2.7873424,48.0968188],[2.7872475,48.0967175],[2.7871995,48.0964751],[2.7871632,48.0963106],[2.7870965,48.0961773],[2.7871543,48.0961647],[2.7871593,48.0961677],[2.7871767,48.0961644],[2.7871996,48.0961595],[2.7872137,48.0961534],[2.787242,48.0961423],[2.7872624,48.0961382],[2.7873093,48.0961313],[2.7873247,48.0961288],[2.7873501,48.096118],[2.7873886,48.0960954],[2.7874169,48.0960786],[2.7874486,48.0960657],[2.7874932,48.0960527],[2.7875223,48.0960438],[2.7875497,48.0960414],[2.787573,48.09604],[2.7875937,48.0960406],[2.7876111,48.0960445],[2.7876414,48.0960493],[2.7876854,48.0960544],[2.7877166,48.0960556],[2.7877448,48.0960526],[2.7877835,48.0960443],[2.7878213,48.0960316],[2.7878488,48.0960194],[2.787875,48.09601],[2.7878978,48.0960042],[2.7879194,48.0960017],[2.7879377,48.0960034],[2.7879609,48.0960079],[2.7879845,48.0960174],[2.7879995,48.0960277],[2.788021,48.0960397],[2.7880933,48.0960173],[2.7880907,48.0960029],[2.7880824,48.0959599],[2.7880295,48.0956801],[2.7879952,48.0952355],[2.7879775,48.0950124],[2.7879665,48.0949428],[2.7879581,48.0948794],[2.7879412,48.0947464],[2.7878988,48.0945516],[2.7878891,48.0944934],[2.7878649,48.0943065],[2.7878469,48.0942386],[2.7877938,48.0940362],[2.7877171,48.0938976],[2.7876916,48.0938541],[2.7876817,48.093831],[2.7876676,48.0938151],[2.7875824,48.093691],[2.7875306,48.0936246],[2.787508,48.0935492],[2.7874944,48.0935269],[2.7874834,48.0934938],[2.7874781,48.0934676],[2.7874714,48.0933619],[2.7874495,48.0933391],[2.7874288,48.0933248],[2.7874081,48.0933151],[2.7873787,48.0933069],[2.7871881,48.0932977],[2.7871487,48.0932923],[2.7871138,48.0932887],[2.7870541,48.0932805],[2.7870188,48.0932721],[2.7869669,48.0932622],[2.7869006,48.0932443],[2.7868264,48.0932175],[2.786758,48.0931898],[2.7867086,48.0931691],[2.7866531,48.0931579],[2.7865962,48.0931428],[2.7865506,48.0931288],[2.7864926,48.0931034],[2.7864632,48.0930863],[2.7864317,48.0930646],[2.7864106,48.0930448],[2.7863966,48.0930231],[2.786371,48.0929971],[2.7863524,48.092971],[2.7863268,48.0929359],[2.7863054,48.0928816],[2.7862885,48.0928501],[2.7862607,48.0927547],[2.7862478,48.0926603],[2.7862107,48.0923009],[2.7861495,48.0917308],[2.7861039,48.0916217],[2.7860944,48.0915874],[2.7861,48.0915518],[2.7861016,48.0915251],[2.7861257,48.0914491],[2.7861372,48.0914351],[2.7861552,48.0914133],[2.7861676,48.0914015],[2.7861853,48.0913858],[2.786196,48.0913615],[2.7862105,48.0911239],[2.7861732,48.0908652],[2.7861533,48.0908239],[2.7861756,48.0907414],[2.7862464,48.09067],[2.7863025,48.0905934],[2.7863219,48.0905574],[2.7863326,48.0905209],[2.7863352,48.0905026],[2.7863645,48.090228],[2.7864226,48.0900306],[2.7867105,48.0894965],[2.786733,48.0894765],[2.7869894,48.0893145],[2.7870841,48.0892941],[2.7871249,48.0892803],[2.7871325,48.089243],[2.7871443,48.0892147],[2.7871667,48.089198],[2.7874952,48.0890896],[2.7897834,48.0883361],[2.7902569,48.0881211],[2.7907704,48.0880386],[2.7911487,48.0881306],[2.7913206,48.0881773],[2.7913868,48.0881991],[2.7915201,48.0882087],[2.7915735,48.0882022],[2.7916594,48.0881634],[2.791856,48.0880473],[2.7921894,48.0879169],[2.7922582,48.087895],[2.792677,48.087871],[2.7934608,48.0877288],[2.7936482,48.0877087],[2.7938369,48.0876523],[2.7939358,48.0875687],[2.7941276,48.0871871],[2.7941837,48.087116],[2.7942549,48.0870571],[2.7942867,48.0870359],[2.7943044,48.0870238],[2.7943773,48.0869897],[2.7945036,48.0869686],[2.795072,48.0869744],[2.7951295,48.086978],[2.7952574,48.086996],[2.7953191,48.0869961],[2.7958644,48.086881],[2.796067,48.0868652],[2.7961894,48.086795],[2.7964529,48.0866842],[2.7967528,48.0865553],[2.7970145,48.0864668],[2.7972952,48.0862875],[2.797875,48.0860738],[2.7983623,48.0860675],[2.799029,48.0861324],[2.7995597,48.0863029],[2.7996406,48.0863526],[2.80015,48.0866922],[2.8002022,48.0867108],[2.8002609,48.086716],[2.8003572,48.0867111],[2.8006427,48.0866868],[2.8006973,48.0866825],[2.8008359,48.0866788],[2.800857,48.0866828],[2.8018713,48.0869143],[2.801971,48.0869251],[2.8020591,48.0869284],[2.8021354,48.0869297],[2.802187,48.0869392],[2.8022445,48.0869692],[2.8024039,48.0870466],[2.8025012,48.0870763],[2.8025441,48.0870728],[2.802587,48.0870603],[2.802867,48.0869239],[2.8029882,48.0868537],[2.8030441,48.086842],[2.8033888,48.0868213],[2.8034305,48.0868025],[2.8034577,48.086764],[2.8035263,48.0866264],[2.8035576,48.0865954],[2.8035934,48.0865793],[2.8036296,48.0865739],[2.8036404,48.0865733],[2.8039739,48.0866496],[2.8040469,48.0866614],[2.8040834,48.0866642],[2.8041117,48.0866604],[2.8041374,48.0866532],[2.8041641,48.0866399],[2.8041999,48.0866177],[2.8042519,48.0865802],[2.8042943,48.0865681],[2.8043358,48.0865637],[2.8043898,48.086561],[2.8044654,48.0865545],[2.8045136,48.086544],[2.8045793,48.0865157],[2.8047736,48.0865083],[2.8048884,48.0864612],[2.8050232,48.0863857],[2.805208,48.0862392],[2.805762,48.0859758],[2.8063572,48.0855774],[2.8067475,48.0853466],[2.8071892,48.0851387],[2.8076507,48.0849078],[2.8077248,48.0849399],[2.8078028,48.0848949],[2.8079908,48.0847869],[2.8082128,48.0846599],[2.8082148,48.0846669],[2.8084048,48.0845789],[2.8085768,48.0843779],[2.8086208,48.0842909],[2.8086798,48.0841979],[2.8087308,48.0840999],[2.8087948,48.0840429],[2.8089148,48.0839749],[2.8090848,48.0838989],[2.8093838,48.0837769],[2.8094548,48.0837299],[2.8095168,48.0836619],[2.8096498,48.0835409],[2.8098458,48.0833969],[2.8101168,48.0832309],[2.8103868,48.0831029],[2.8105438,48.0830119],[2.8106418,48.0829989],[2.8107408,48.0829749],[2.8108768,48.0829139],[2.8108388,48.0828809],[2.8110218,48.0827769],[2.8110408,48.0827929],[2.8113068,48.0826369],[2.8114368,48.0825109],[2.8117568,48.0822869],[2.8120388,48.0820529],[2.8121458,48.0819419],[2.8121568,48.0819029],[2.8121078,48.0817689],[2.8120048,48.0816219],[2.8119968,48.0815729],[2.8120178,48.0815289],[2.8121458,48.0813739],[2.8121708,48.0813549],[2.8123578,48.0812229],[2.8124728,48.0811679],[2.8126838,48.0811229],[2.8129158,48.0810709],[2.8130278,48.0810309],[2.8131468,48.0809789],[2.8137348,48.0806419],[2.8139858,48.0805769],[2.8142138,48.0804959],[2.8144458,48.0803769],[2.8145378,48.0803349],[2.8146728,48.0802909],[2.8148718,48.0802629],[2.8149398,48.0802459],[2.8149728,48.0801809],[2.8152668,48.0802599],[2.8155738,48.0803269],[2.8157968,48.0803079],[2.8159228,48.0802709],[2.8159738,48.0802059],[2.8160458,48.0801839],[2.8161068,48.0801489],[2.8162368,48.0800719],[2.8164168,48.0799499],[2.8167778,48.0798199],[2.8168718,48.0797699],[2.8168958,48.0797539],[2.8170008,48.0796469],[2.8170968,48.0795119],[2.8171728,48.0794379],[2.8172398,48.0793829],[2.8173598,48.0793119],[2.8175058,48.0792449],[2.8176758,48.0791869],[2.8177938,48.0791579],[2.8178998,48.0791409],[2.8179678,48.0791359],[2.8180588,48.0791579],[2.8180888,48.0791599],[2.8181158,48.0791549],[2.8183908,48.0790499],[2.8185948,48.0789349],[2.8186898,48.0789019],[2.8187588,48.0788819],[2.8188998,48.0788239],[2.8190568,48.0787369],[2.8191198,48.0786919],[2.8191758,48.0786399],[2.8192698,48.0785769],[2.819309,48.07852],[2.819415,48.078425],[2.819437,48.078387],[2.819435,48.078342],[2.819422,48.078307],[2.819338,48.07819],[2.819312,48.078112],[2.819292,48.07799],[2.819297,48.077946],[2.819317,48.077882],[2.819306,48.077859],[2.819199,48.077783],[2.819132,48.077703],[2.819113,48.077643],[2.819113,48.077634],[2.819132,48.077611],[2.819157,48.077596],[2.819174,48.077582],[2.819183,48.077564],[2.819186,48.077548],[2.819176,48.077522],[2.819156,48.077498],[2.819053,48.077411],[2.819038,48.077394],[2.81902,48.077358],[2.818993,48.077239],[2.818982,48.077095],[2.819008,48.076971],[2.819045,48.076883],[2.819086,48.076803],[2.819092,48.076699],[2.819061,48.076501],[2.819062,48.076492],[2.819082,48.076407],[2.819086,48.076349],[2.819129,48.076287],[2.819279,48.076144],[2.819325,48.076139],[2.820213,48.075891],[2.820345,48.07585],[2.820584,48.075787],[2.820942,48.075685],[2.821124,48.075663],[2.82119,48.07565],[2.821234,48.075637],[2.821306,48.075601],[2.821469,48.075512],[2.821531,48.075489],[2.821636,48.075455],[2.821805,48.07541],[2.821928,48.075394],[2.821982,48.075391],[2.822119,48.075397],[2.82221,48.07541],[2.822293,48.075431],[2.822375,48.075457],[2.822443,48.075487],[2.822598,48.075574],[2.822707,48.075645],[2.822805,48.075705],[2.822854,48.075727],[2.822886,48.075736],[2.822935,48.075747],[2.823194,48.075786],[2.823328,48.075796],[2.823465,48.075788],[2.82358,48.075776],[2.823893,48.075757],[2.82393,48.075751],[2.824025,48.075719],[2.824049,48.075709],[2.824091,48.075678],[2.82422,48.075552],[2.824249,48.075532],[2.824282,48.075516],[2.824307,48.075509],[2.824342,48.075504],[2.824369,48.075503],[2.824429,48.075506],[2.824492,48.075519],[2.824525,48.075531],[2.824547,48.075542],[2.824586,48.075569],[2.824605,48.075592],[2.824624,48.075638],[2.824641,48.075728],[2.824652,48.075762],[2.824727,48.075875],[2.824734,48.075892],[2.824737,48.075925],[2.824734,48.076003],[2.824745,48.076033],[2.824756,48.076043],[2.824769,48.076051],[2.824788,48.076055],[2.824819,48.076055],[2.824882,48.076048],[2.824942,48.076031],[2.824958,48.076022],[2.82497,48.07601],[2.824973,48.075976],[2.824939,48.075894],[2.824939,48.075884],[2.824942,48.075877],[2.824952,48.075865],[2.824961,48.075856],[2.824974,48.075848],[2.825009,48.075833],[2.825104,48.075807],[2.825172,48.0758],[2.825208,48.075799],[2.82524,48.075803],[2.825261,48.075808],[2.825291,48.075822],[2.825322,48.075846],[2.825355,48.075868],[2.825403,48.075895],[2.825528,48.075947],[2.825583,48.075973],[2.825709,48.076037],[2.825895,48.076122],[2.825926,48.076132],[2.825964,48.076134],[2.825992,48.076182],[2.8258784,48.0762059],[2.82583,48.076169],[2.825685,48.076097],[2.825442,48.075997],[2.825261,48.075901],[2.82521,48.075879],[2.825181,48.075876],[2.82515,48.075878],[2.825122,48.075887],[2.825097,48.0759],[2.825074,48.075919],[2.825065,48.075942],[2.825076,48.075978],[2.825079,48.075999],[2.825068,48.076031],[2.82504,48.076074],[2.825024,48.076088],[2.825005,48.076098],[2.824938,48.076111],[2.824828,48.076117],[2.824786,48.076113],[2.8247,48.076091],[2.824676,48.07608],[2.824663,48.076071],[2.824659,48.076062],[2.824671,48.075952],[2.824664,48.07591],[2.824653,48.075881],[2.824632,48.075853],[2.824587,48.075799],[2.824567,48.075741],[2.824547,48.075647],[2.82454,48.075636],[2.824526,48.07562],[2.824483,48.075597],[2.824395,48.075568],[2.824373,48.075568],[2.824343,48.07557],[2.824319,48.075576],[2.824294,48.075586],[2.824255,48.07562],[2.824194,48.075713],[2.82414,48.075759],[2.824087,48.075786],[2.823973,48.075814],[2.823865,48.075834],[2.823764,48.075845],[2.823591,48.075851],[2.823471,48.075859],[2.823347,48.075872],[2.823316,48.075873],[2.823272,48.07587],[2.82294,48.075813],[2.822847,48.075794],[2.822789,48.075776],[2.82267,48.07572],[2.822597,48.07568],[2.822352,48.075531],[2.822281,48.075501],[2.822179,48.075468],[2.822115,48.075455],[2.822028,48.075445],[2.821965,48.075445],[2.821926,48.075447],[2.821857,48.075455],[2.821821,48.075462],[2.821471,48.075575],[2.821361,48.075636],[2.821297,48.07567],[2.821239,48.075692],[2.821175,48.075709],[2.821122,48.075716],[2.820988,48.075723],[2.820961,48.075729],[2.82033,48.075932],[2.819768,48.076092],[2.819815,48.076276],[2.819732,48.076404],[2.819696,48.076437],[2.819454,48.076649],[2.819222,48.076812],[2.819197,48.076836],[2.81914,48.076934],[2.819099,48.077052],[2.819099,48.077188],[2.819134,48.07733],[2.819147,48.077357],[2.819231,48.077442],[2.819282,48.077512],[2.819297,48.077567],[2.819287,48.077596],[2.8192719999999999,48.077613],[2.819232,48.077649],[2.81923,48.077678],[2.819253,48.077719],[2.819423,48.077844],[2.819439,48.077878],[2.81941,48.077958],[2.819417,48.07808],[2.819431,48.078159],[2.819448,48.078178],[2.819509,48.078253],[2.819529,48.07831],[2.819543,48.078391],[2.819544,48.078413],[2.819522,48.078529],[2.81951,48.078563],[2.819488,48.078606],[2.8194785,48.0786181]]},"properties":{"source":"cadastre-dgi-fr source : Direction Générale des Impôts - Cadastre. Mise à jour : 2012"}},
{"type":"Feature","geometry":{"type":"LineString","coordinates":[[2.8690993,48.1767759],[2.8692033,48.1767809],[2.8692078,48.176746],[2.8691041,48.1767405],[2.8690993,48.1767759]]},"properties":{"access":"private","leisure":"swimming_pool"}},
{"type":"Feature","geometry":{"type":"LineString","coordinates":[[2.8689342,48.1771122],[2.8690353,48.1771329],[2.8690489,48.1771057],[2.8689468,48.1770843],[2.8689342,48.1771122]]},"properties":{"access":"private","leisure":"swimming_pool"}},
{"type":"Feature","geometry":{"type":"LineString","coordinates":[[2.7853226,48.1487665],[2.7857498,48.1487521],[2.7865031,48.1487328],[2.7876935,48.1488137],[2.7888538,48.1489033],[2.7891644,48.1489266],[2.7893417,48.1489452]]},"properties":{"highway":"secondary","maxspeed":"90","name":"Route de Bransles","ref":"D 62"}},
{"type":"Feature","geometry":{"type":"LineString","coordinates":[[2.8352853,48.1481504],[2.8358003,48.1476815],[2.8350492,48.1473755],[2.8346094,48.1478515],[2.8352853,48.1481504]]},"properties":{"leisure":"pitch","sport":"football"}},
{"type":"Feature","geometry":{"type":"LineString","coordinates":[[2.8355025,48.1475348],[2.8356769,48.1476135],[2.8359397,48.1473558],[2.83576,48.1472717],[2.8355025,48.1475348]]},"properties":{"leisure":"pitch","lit":"no","sport":"tennis","surface":"asphalt"}},
{"type":"Feature","geometry":{"type":"LineString","coordinates":[[2.8364815,48.1472824],[2.8366693,48.1470856],[2.8367605,48.147073],[2.8368678,48.147107],[2.8368919,48.1471196],[2.8368275,48.1472574],[2.8367927,48.1473075],[2.8364815,48.1472824]]},"properties":{"natural":"water","water":"pond"}},
{"type":"Feature","geometry":{"type":"LineString","coordinates":[[2.8647173,48.1805023],[2.8647318,48.1805033],[2.8647467,48.1804997],[2.8647552,48.1804945],[2.8647618,48.1804879],[2.8647651,48.1804805],[2.8647633,48.1804726],[2.8647613,48.1804664],[2.8647548,48.1804605],[2.8647503,48.1804577],[2.8647521,48.1804545],[2.8647533,48.1804494],[2.8647498,48.1804439],[2.8647448,48.1804397],[2.8647375,48.1804371],[2.8647293,48.1804368],[2.864723,48.180438],[2.8647184,48.1804403],[2.8647162,48.1804413],[2.8647091,48.1804408],[2.8647009,48.1804425],[2.8646966,48.1804441],[2.8646925,48.1804495],[2.864691,48.1804551],[2.864693,48.1804591],[2.8646965,48.1804628],[2.864694,48.1804665],[2.86469,48.180474],[2.8646909,48.1804823],[2.8646929,48.1804877],[2.8646977,48.1804927],[2.8647047,48.1804972],[2.8647173,48.1805023]]},"properties":{"access":"private","leisure":"swimming_pool","source":"cadastre-dgi-fr source : Direction Générale des Impôts - Cadastre. Mise à jour : 2014"}},
{"type":"Feature","geometry":{"type":"LineString","coordinates":[[2.8811268,48.1679765],[2.8811373,48.1679747],[2.881141,48.1679784],[2.8811478,48.1679823],[2.8811558,48.1679831],[2.8811599,48.167983],[2.8811633,48.1679804],[2.881167,48.1679761],[2.8811686,48.1679715],[2.8811684,48.1679697],[2.8811796,48.1679685],[2.8811542,48.1678982],[2.8811019,48.1679088],[2.8811268,48.1679765]]},"properties":{"access":"private","leisure":"swimming_pool","source":"cadastre-dgi-fr source : Direction Générale des Impôts - Cadastre. Mise à jour : 2014"}},
{"type":"Feature","geometry":{"type":"LineString","coordinates":[[2.8828556,48.1689552],[2.882888,48.1689151],[2.8829797,48.1689493],[2.8829499,48.1689881],[2.8828556,48.1689552]]},"properties":{"access":"private","leisure":"swimming_pool","source":"cadastre-dgi-fr source : Direction Générale des Impôts - Cadastre. Mise à jour : 2014"}},
{"type":"Feature","geometry":{"type":"LineString","coordinates":[[2.8713573,48.1771107],[2.871418,48.1771043],[2.871413,48.177088],[2.871404,48.177044],[2.8713968,48.1770062],[2.8713341,48.1770153],[2.8713573,48.1771107]]},"properties":{"access":"private","leisure":"swimming_pool","source":"cadastre-dgi-fr source : Direction Générale des Impôts - Cadastre. Mise à jour : 2014"}},
{"type":"Feature","geometry":{"type":"LineString","coordinates":[[2.8601523,48.1727703],[2.8603702,48.1729278],[2.8611681,48.1730446],[2.8619659,48.1718074],[2.8618215,48.1717079],[2.8601523,48.1727703]]},"properties":{"natural":"water","source":"cadastre-dgi-fr source : Direction Générale des Impôts - Cadastre. Mise à jour : 2014","water":"basin"}},
{"type":"Feature","geometry":{"type":"LineString","coordinates":[[2.86994,48.1243878],[2.8704249,48.1242729],[2.8703525,48.1241188],[2.8698548,48.1242353],[2.86994,48.1243878]]},"properties":{"access":"private","leisure":"pitch","source":"cadastre-dgi-fr source : Direction Générale des Impôts - Cadastre. Mise à jour : 2014","sport":"tennis"}},
{"type":"Feature","geometry":{"type":"LineString","coordinates":[[2.8353588,48.1502354],[2.8354032,48.1502455],[2.8354399,48.1501798],[2.8353973,48.1501696],[2.8353588,48.1502354]]},"properties":{"access":"private","leisure":"swimming_pool","source":"cadastre-dgi-fr source : Direction Générale des Impôts - Cadastre. Mise à jour : 2014"}},
{"type":"Feature","geometry":{"type":"LineString","coordinates":[[2.8335211,48.1216888],[2.8335597,48.1216648],[2.8334838,48.1216111],[2.8334468,48.1216333],[2.8335211,48.1216888]]},"properties":{"access":"private","leisure":"swimming_pool","source":"cadastre-dgi-fr source : Direction Générale des Impôts - Cadastre. Mise à jour : 2015"}},
{"type":"Feature","geometry":{"type":"LineString","coordinates":[[2.8348955,48.1220793],[2.8349309,48.1220656],[2.8349751,48.12204],[2.8348841,48.12196],[2.8348,48.1220003],[2.8348955,48.1220793]]},"properties":{"access":"private","leisure":"swimming_pool","source":"cadastre-dgi-fr source : Direction Générale des Impôts - Cadastre. Mise à jour : 2015"}},
{"type":"Feature","geometry":{"type":"LineString","coordinates":[[2.7910549,48.0917635],[2.7910423,48.0917679],[2.7910436,48.0917897],[2.7910566,48.0917934],[2.7911236,48.0917932],[2.7911372,48.0917883],[2.7911365,48.0917666],[2.7911249,48.0917624],[2.7910549,48.0917635]]},"properties":{"access":"private","leisure":"swimming_pool"}},
{"type":"Feature","geometry":{"type":"LineString","coordinates":[[2.8799374,48.1605056],[2.8802057,48.1603857],[2.8802352,48.1603338],[2.8799187,48.1600314],[2.8798489,48.1600028],[2.8796075,48.1601817],[2.8796236,48.1602283],[2.8798811,48.160502],[2.8799374,48.1605056]]},"properties":{"natural":"water","water":"basin"}},
{"type":"Feature","geometry":{"type":"LineString","coordinates":[[2.8795324,48.1606702],[2.8798248,48.1605539],[2.8795646,48.1602569],[2.879401,48.160341],[2.8795324,48.1606702]]},"properties":{"natural":"water","water":"basin"}},
{"type":"Feature","geometry":{"type":"LineString","coordinates":[[2.8534363,48.0930912],[2.8534017,48.0930336],[2.8534446,48.0930221],[2.8534792,48.0930797],[2.8534363,48.0930912]]},"properties":{"access":"private","leisure":"swimming_pool"}},
{"type":"Feature","geometry":{"type":"LineString","coordinates":[[2.8608689,48.1835295],[2.8608009,48.1835125],[2.8607915,48.1835061],[2.8607875,48.1834962],[2.8607891,48.1834877],[2.8607999,48.1834797],[2.8608156,48.1834757],[2.860826,48.1834759],[2.8608944,48.1834942],[2.8609008,48.1835],[2.8609035,48.1835105],[2.8609011,48.1835179],[2.8608944,48.1835251],[2.8608844,48.1835289],[2.8608689,48.1835295]]},"properties":{"access":"private","leisure":"swimming_pool"}},
{"type":"Feature","geometry":{"type":"LineString","coordinates":[[2.8603131999999999,48.1839481],[2.8603272,48.1839104],[2.8604348,48.1839283],[2.8604208,48.1839659],[2.8603131999999999,48.1839481]]},"properties":{"access":"private","leisure":"swimming_pool"}},
{"type":"Feature","geometry":{"type":"LineString","coordinates":[[2.863856,48.182762],[2.8639387,48.1827429],[2.8639756,48.1827473],[2.8640058,48.1827719],[2.864048,48.1829329],[2.8639039,48.1829476],[2.863895,48.182936],[2.8638712,48.1828605],[2.863886,48.182858],[2.863856,48.182762]]},"properties":{"natural":"water"}},
{"type":"Feature","geometry":{"type":"LineString","coordinates":[[2.8186775,48.1027372],[2.8187283,48.1027362],[2.8187245,48.1026597],[2.8186738,48.1026609],[2.8186775,48.1027372]]},"properties":{"access":"private","leisure":"swimming_pool"}},
{"type":"Feature","geometry":{"type":"LineString","coordinates":[[2.8352116,48.1064591],[2.8352582,48.1064413],[2.8351844,48.1063556],[2.8351378,48.1063736],[2.8352116,48.1064591]]},"properties":{"access":"private","leisure":"swimming_pool"}},
{"type":"Feature","geometry":{"type":"LineString","coordinates":[[2.8283818,48.1251685],[2.8283852,48.1251779],[2.8283784,48.1251861],[2.8283647,48.1251885],[2.8283519,48.1251843],[2.8283478,48.1251865],[2.8282813,48.125131],[2.8283195,48.1251109],[2.8283861,48.1251663],[2.8283818,48.1251685]]},"properties":{"access":"private","leisure":"swimming_pool"}},
{"type":"Feature","geometry":{"type":"LineString","coordinates":[[2.8326154,48.1311887],[2.8326808,48.131178],[2.8326452,48.131082],[2.8325804,48.1310926],[2.8326154,48.1311887]]},"properties":{"access":"private","leisure":"swimming_pool"}},
{"type":"Feature","geometry":{"type":"LineString","coordinates":[[2.8393206,48.1307212],[2.8393316,48.1307173],[2.8392736,48.1306434],[2.8392163,48.1306635],[2.839274,48.1307375],[2.8392857,48.1307334],[2.8392905,48.1307375],[2.8392973,48.1307399],[2.8393048,48.1307405],[2.8393124,48.1307389],[2.8393182,48.1307358],[2.839322,48.1307312],[2.8393225,48.1307262],[2.8393206,48.1307212]]},"properties":{"access":"private","leisure":"swimming_pool"}},
{"type":"Feature","geometry":{"type":"LineString","coordinates":[[2.8464179,48.1351243],[2.8464739,48.1350966],[2.846383,48.1350109],[2.846331,48.1350409],[2.8464179,48.1351243]]},"properties":{"access":"private","leisure":"swimming_pool"}},
{"type":"Feature","geometry":{"type":"LineString","coordinates":[[2.8582907,48.1344115],[2.858524,48.1344553],[2.8586487,48.1341376],[2.8584114,48.1340955],[2.8582907,48.1344115]]},"properties":{"leisure":"pitch","sport":"tennis"}},
{"type":"Feature","geometry":{"type":"LineString","coordinates":[[2.8779898,48.1290922],[2.8780864,48.1290638],[2.8780696,48.1290376],[2.8779731,48.129066],[2.8779898,48.1290922]]},"properties":{"access":"private","leisure":"swimming_pool"}},
{"type":"Feature","geometry":{"type":"LineString","coordinates":[[2.8938973,48.135462],[2.8939258,48.135471],[2.8939578,48.1354255],[2.893929,48.1354169],[2.8938973,48.135462]]},"properties":{"access":"private","leisure":"swimming_pool"}},
{"type":"Feature","geometry":{"type":"LineString","coordinates":[[2.7959534,48.0878804],[2.795822,48.0875902],[2.795649,48.0872542],[2.7956423,48.0871808],[2.7956973,48.0871422],[2.7957845,48.0871673],[2.7959937,48.0872677],[2.7961278,48.0873769],[2.7963236,48.0878258],[2.7962793,48.0878634],[2.7960138,48.0879001],[2.7959695,48.0878965],[2.7959534,48.0878804]]},"properties":{"natural":"water"}},
{"type":"Feature","geometry":{"type":"LineString","coordinates":[[2.8022379,48.0850468],[2.8020595,48.0847959],[2.80203,48.0847789],[2.801578,48.0848577],[2.8015271,48.0848972],[2.8015096,48.0849877],[2.8015378,48.0850781],[2.8018248,48.0857088],[2.8018959,48.0858092],[2.8020474,48.0859265],[2.80214,48.0859534],[2.8022714,48.0859328],[2.8025852,48.0858181],[2.803123,48.0855189],[2.8031351,48.0854938],[2.8029365999999999,48.0852089],[2.8028963,48.0851973],[2.8028078,48.0852027],[2.8025852,48.0852645],[2.8024524,48.0853281],[2.8023398,48.0854186],[2.802089,48.0856031],[2.8020219,48.0856139],[2.8019723,48.0855888],[2.8019857,48.0855565],[2.8020528,48.0854311],[2.801798,48.0853729],[2.8018369,48.0853093],[2.8019536,48.0852206],[2.8022379,48.0850468]]},"properties":{"natural":"water"}},
{"type":"Feature","geometry":{"type":"LineString","coordinates":[[2.8025092,48.158426],[2.802329,48.158343],[2.8025901,48.1580907],[2.8027704,48.1581737],[2.8025092,48.158426]]},"properties":{"leisure":"pitch","sport":"tennis"}},
{"type":"Feature","geometry":{"type":"LineString","coordinates":[[2.8632715,48.1103424],[2.8633265,48.1104069],[2.8634311,48.110406],[2.8634942,48.1103746],[2.8635143,48.1103227],[2.8634767,48.110217],[2.863533,48.1101561],[2.8636537,48.110089],[2.8636497,48.1100532],[2.8636283,48.1100406],[2.8634982,48.1100084],[2.8633735,48.1100487],[2.8633507,48.1101579],[2.8632769,48.1102806],[2.8632715,48.1103424]]},"properties":{"name":"Le Marchais de la Roche","natural":"water"}},
{"type":"Feature","geometry":{"type":"LineString","coordinates":[[2.8163035,48.1507799],[2.8250804,48.1516735],[2.8273825,48.1519287]]},"properties":{"highway":"secondary","maxspeed":"90","ref":"D 43"}},
{"type":"Feature","geometry":{"type":"LineString","coordinates":[[2.8290881,48.1521072],[2.8300009,48.152214],[2.8323951,48.1524761]]},"properties":{"highway":"secondary","maxspeed":"50","name":"Rue de César","oneway":"no","ref":"D 43","surface":"asphalt"}},
{"type":"Feature","geometry":{"type":"LineString","coordinates":[[2.8323951,48.1524761],[2.8325079,48.1524812],[2.8325923,48.1524809],[2.8326579,48.1524767],[2.8327113,48.1524674],[2.8328137,48.1524678]]},"properties":{"highway":"secondary","maxspeed":"50","name":"Rue de César","oneway":"no","ref":"D 43","surface":"asphalt"}},
{"type":"Feature","geometry":{"type":"LineString","coordinates":[[2.7916177,48.0890893],[2.7915915,48.0890544],[2.7915063,48.0890853],[2.7914996,48.089105],[2.7915171,48.0891234],[2.7916177,48.0890893]]},"properties":{"access":"private","leisure":"swimming_pool"}},
{"type":"Feature","geometry":{"type":"LineString","coordinates":[[2.7922614,48.1493765],[2.7923405,48.1493657],[2.7923083,48.1492351],[2.7922265,48.1492467],[2.7922614,48.1493765]]},"properties":{"access":"private","leisure":"swimming_pool"}},
{"type":"Feature","geometry":{"type":"LineString","coordinates":[[2.792421,48.1493648],[2.7925672,48.1493452],[2.7925095,48.1491143],[2.7923392,48.1491411],[2.792421,48.1493648]]},"properties":{"leisure":"pitch","sport":"tennis"}},
{"type":"Feature","geometry":{"type":"LineString","coordinates":[[2.8745594,48.1731324],[2.874473,48.1729954],[2.8748023,48.1729019],[2.8748863,48.173039],[2.8745594,48.1731324]]},"properties":{"leisure":"pitch","sport":"basketball"}},
{"type":"Feature","geometry":{"type":"LineString","coordinates":[[2.7896997,48.1412264],[2.7897082,48.1411583],[2.7897765,48.1411621],[2.789768,48.1412302],[2.7896997,48.1412264]]},"properties":{"access":"private","leisure":"swimming_pool"}},
{"type":"Feature","geometry":{"type":"LineString","coordinates":[[2.7933655,48.0907281],[2.7933594,48.090701],[2.7932669,48.0907102],[2.7932729,48.0907373],[2.7933655,48.0907281]]},"properties":{"access":"private","leisure":"swimming_pool"}},
{"type":"Feature","geometry":{"type":"LineString","coordinates":[[2.7898139,48.0905907],[2.7900964,48.0905665],[2.7900859,48.0904589]]},"properties":{"natural":"tree_row"}},
{"type":"Feature","geometry":{"type":"LineString","coordinates":[[2.8953005,48.1941568],[2.8953306,48.1939722],[2.8953414,48.193962],[2.8953682,48.1939642],[2.8956673,48.1941671],[2.8956693,48.194181],[2.8956438,48.1941922],[2.8954996,48.1941926],[2.8953226,48.1941711],[2.8953092,48.1941658],[2.8953005,48.1941568]]},"properties":{"natural":"water","water":"pond"}},
{"type":"Feature","geometry":{"type":"LineString","coordinates":[[2.8970561,48.1948883],[2.897099,48.1948592],[2.8970079,48.1947997],[2.896965,48.1948288],[2.8970561,48.1948883]]},"properties":{"access":"private","leisure":"swimming_pool"}},
{"type":"Feature","geometry":{"type":"LineString","coordinates":[[2.8744977,48.1764861],[2.8744694,48.176398],[2.8745421,48.1763876],[2.8745704,48.1764757],[2.8744977,48.1764861]]},"properties":{"access":"private","leisure":"swimming_pool"}},
{"type":"Feature","geometry":{"type":"LineString","coordinates":[[2.8381557,48.1334533],[2.8381972,48.1334264],[2.8382709,48.133477],[2.8382294,48.1335039],[2.8381557,48.1334533]]},"properties":{"access":"private","leisure":"swimming_pool"}},
{"type":"Feature","geometry":{"type":"LineString","coordinates":[[2.8612876,48.131482],[2.8615126,48.1314414],[2.861387,48.1311314],[2.8611621,48.131172],[2.8612876,48.131482]]},"properties":{"access":"private","leisure":"pitch","sport":"tennis"}},
{"type":"Feature","geometry":{"type":"LineString","coordinates":[[2.896924,48.1411546],[2.8971576,48.1411777],[2.8972282,48.1408607],[2.8969945,48.1408376],[2.896924,48.1411546]]},"properties":{"leisure":"pitch","sport":"tennis"}},
{"type":"Feature","geometry":{"type":"LineString","coordinates":[[2.8877317,48.1446092],[2.8877493,48.1445676],[2.8876191,48.1445431],[2.8876016,48.1445846],[2.8877317,48.1446092]]},"properties":{"access":"private","leisure":"swimming_pool"}},
{"type":"Feature","geometry":{"type":"LineString","coordinates":[[2.898499,48.1588879],[2.8983656,48.1587493],[2.8983689,48.158739],[2.8983756,48.1587345],[2.8985808,48.1587537],[2.8985922,48.1587586],[2.8985982,48.1587721],[2.8985419,48.1588906],[2.8985272,48.158896],[2.8985131,48.1588955],[2.898499,48.1588879]]},"properties":{"natural":"water","water":"pond"}},
{"type":"Feature","geometry":{"type":"LineString","coordinates":[[2.7987291,48.1348526],[2.79878,48.1347763],[2.7989895,48.1348385],[2.7989386,48.1349148],[2.7987291,48.1348526]]},"properties":{"access":"private","leisure":"swimming_pool"}},
{"type":"Feature","geometry":{"type":"LineString","coordinates":[[2.7987743,48.1349692],[2.7992926,48.1349851],[2.7992823,48.1351354],[2.7987639,48.1351195],[2.7987743,48.1349692]]},"properties":{"leisure":"pitch","sport":"tennis"}},
{"type":"Feature","geometry":{"type":"LineString","coordinates":[[2.7891309,48.0902566],[2.7892134,48.0901201]]},"properties":{"natural":"tree_row"}},
{"type":"Feature","geometry":{"type":"LineString","coordinates":[[2.7890288,48.0902853],[2.7891205,48.0901434]]},"properties":{"natural":"tree_row"}},
{"type":"Feature","geometry":{"type":"LineString","coordinates":[[2.7892076,48.0900076],[2.789261,48.0899239]]},"properties":{"natural":"tree_row"}},
{"type":"Feature","geometry":{"type":"LineString","coordinates":[[2.8927624,48.1535683],[2.894015,48.1533106]]},"properties":{"natural":"tree_row"}},
{"type":"Feature","geometry":{"type":"LineString","coordinates":[[2.8048302,48.0980245],[2.8047925,48.0978506],[2.8050813,48.0978208],[2.8051145,48.0979761],[2.805086,48.0980029],[2.8048302,48.0980245]]},"properties":{"natural":"water","water":"reservoir"}},
{"type":"Feature","geometry":{"type":"LineString","coordinates":[[2.8052408,48.0977729],[2.8052146,48.09756],[2.8054703,48.0975394],[2.8055119,48.0977534],[2.8052408,48.0977729]]},"properties":{"natural":"water","water":"reservoir"}},
{"type":"Feature","geometry":{"type":"MultiPolygon","coordinates":[[[[2.7916768,48.1475875],[2.7919039,48.147472],[2.7918463,48.1474065],[2.7919088,48.1473833],[2.7920058,48.1474808],[2.7919087,48.1475286],[2.7916971,48.1476249],[2.7916768,48.1475875]]]]},"properties":{"natural":"water","source":"cadastre-dgi-fr source : Direction Générale des Impôts - Cadastre. Mise à jour : 2010"}},
{"type":"Feature","geometry":{"type":"MultiPolygon","coordinates":[[[[2.7921975,48.1525546],[2.7923655,48.1525117],[2.792474,48.1527107],[2.7923066,48.1527495],[2.7921975,48.1525546]]]]},"properties":{"leisure":"swimming_pool"}},
{"type":"Feature","geometry":{"type":"MultiPolygon","coordinates":[[[[2.797252,48.1337678],[2.7972893,48.1337421],[2.7973461,48.1337797],[2.7973112,48.1338049],[2.797252,48.1337678]]]]},"properties":{"access":"private","leisure":"swimming_pool","source":"cadastre-dgi-fr source : Direction Générale des Impôts - Cadastre. Mise à jour : 2010"}},
{"type":"Feature","geometry":{"type":"MultiPolygon","coordinates":[[[[2.8004159,48.089089800000007],[2.8004165,48.0890882],[2.8004171,48.0890866],[2.8004177,48.089085],[2.8004183,48.0890833],[2.8004195,48.0890823],[2.8004207,48.0890807],[2.8004219,48.0890796],[2.8004231,48.0890785],[2.8004249,48.0890769],[2.8004267,48.0890758],[2.8004285,48.0890748],[2.8004303,48.0890742],[2.8004321,48.0890732],[2.8004345,48.0890726],[2.8004363,48.0890716],[2.8004387,48.089071],[2.8004411,48.089071],[2.8005035,48.0890609],[2.8005053,48.0890604],[2.8005077,48.0890599],[2.8005101,48.0890599],[2.8005125,48.0890599],[2.8005149,48.0890599],[2.8005173,48.0890604],[2.8005191,48.0890604],[2.8005214,48.089061],[2.8005238,48.0890615],[2.8005262,48.0890621],[2.800528,48.0890631],[2.8005304,48.0890637],[2.8005322,48.0890648],[2.800534,48.0890658],[2.8005358,48.0890664],[2.800537,48.089068],[2.8005382,48.0890691],[2.80054,48.0890701],[2.8005586,48.0890669],[2.8005639,48.0890831],[2.8005447,48.0890852],[2.8005441,48.0890868],[2.8005435,48.0890884],[2.8005429,48.08909],[2.8005423,48.0890916],[2.8005411,48.0890927],[2.8005399,48.0890943],[2.8005387,48.0890954],[2.8005375,48.089097],[2.8005357,48.089098],[2.8005339,48.0890991],[2.8005321,48.0891002],[2.8005303,48.0891007],[2.8005285,48.0891018],[2.8005261,48.0891023],[2.8005243,48.0891034],[2.8005219,48.0891039],[2.8005195,48.0891039],[2.8004595,48.089114],[2.8004577,48.0891145],[2.8004553,48.0891145],[2.8004529,48.0891151],[2.8004505,48.0891151],[2.8004481,48.0891151],[2.8004458,48.0891151],[2.8004434,48.0891145],[2.8004416,48.0891145],[2.8004392,48.089114],[2.8004368,48.0891134],[2.8004344,48.0891129],[2.8004326,48.0891124],[2.8004308,48.0891113],[2.8004284,48.0891102],[2.8004266,48.0891097],[2.8004254,48.0891086],[2.8004236,48.089107],[2.8004224,48.0891059],[2.8004206,48.0891048],[2.8004194,48.0891032],[2.8004188,48.0891021],[2.8004176,48.0891005],[2.8004171,48.0890989],[2.8004165,48.0890973],[2.8004159,48.0890957],[2.8004159,48.0890941],[2.8004159,48.089093],[2.8004159,48.0890914],[2.8004159,48.089089800000007]]]]},"properties":{"access":"private","leisure":"swimming_pool","source":"cadastre-dgi-fr source : Direction Générale des Impôts - Cadastre. Mise à jour : 2010"}},
{"type":"Feature","geometry":{"type":"MultiPolygon","coordinates":[[[[2.8038379,48.0893335],[2.8038751,48.0893271],[2.8039012,48.0893894],[2.8038628,48.0893963],[2.8038379,48.0893335]]]]},"properties":{"access":"private","leisure":"swimming_pool","source":"cadastre-dgi-fr source : Direction Générale des Impôts - Cadastre. Mise à jour : 2010"}},
{"type":"Feature","geometry":{"type":"MultiPolygon","coordinates":[[[[2.7997184,48.0965267],[2.7998575,48.0965093],[2.7998589,48.0966129],[2.7998385,48.0966262],[2.7997833,48.0966326],[2.7997516,48.096618],[2.7997325,48.0965917],[2.7997184,48.0965267]]]]},"properties":{"natural":"water","source":"cadastre-dgi-fr source : Direction Générale des Impôts - Cadastre. Mise à jour : 2010"}},
{"type":"Feature","geometry":{"type":"MultiPolygon","coordinates":[[[[2.7956499,48.0899532],[2.7957032,48.0899496],[2.7957155,48.0900204],[2.7957035,48.0900209],[2.7957035,48.090022],[2.7957035,48.0900226],[2.7957035,48.0900231],[2.7957029,48.0900236],[2.7957029,48.0900242],[2.7957029,48.0900247],[2.7957023,48.0900252],[2.7957017,48.0900258],[2.7957017,48.0900263],[2.7957011,48.0900268],[2.7957005,48.0900274],[2.7956999,48.0900279],[2.7956993,48.0900285],[2.7956981,48.090029],[2.7956975,48.090029],[2.7956969,48.0900295],[2.7956957,48.0900301],[2.7956951,48.0900301],[2.7956939,48.0900301],[2.7956933,48.0900306],[2.7956921,48.0900306],[2.7956915,48.0900306],[2.7956903,48.0900306],[2.7956897,48.0900306],[2.7956885,48.0900306],[2.7956879,48.0900306],[2.7956867,48.0900306],[2.7956861,48.0900306],[2.7956849,48.09003],[2.7956843,48.09003],[2.7956831,48.0900295],[2.7956825,48.0900295],[2.7956819,48.090029],[2.7956807,48.0900284],[2.7956801,48.0900279],[2.7956795,48.0900273],[2.7956789,48.0900273],[2.7956783,48.0900268],[2.7956783,48.0900263],[2.7956777,48.0900257],[2.7956771,48.0900247],[2.7956771,48.0900241],[2.7956771,48.0900236],[2.7956765,48.090023],[2.7956766,48.0900225],[2.7956634,48.090023],[2.7956499,48.0899532]]]]},"properties":{"access":"private","leisure":"swimming_pool","source":"cadastre-dgi-fr source : Direction Générale des Impôts - Cadastre. Mise à jour : 2010"}},
{"type":"Feature","geometry":{"type":"MultiPolygon","coordinates":[[[[2.7987222,48.1048913],[2.7987325,48.1048693],[2.7987547,48.1048559],[2.7987842,48.1048442],[2.7988273,48.1048485],[2.7988374,48.104863],[2.7988529,48.1048845],[2.7988492,48.104906],[2.7988252,48.1049301],[2.7987503,48.104923],[2.7987329,48.1049149],[2.7987222,48.1048913]]]]},"properties":{"natural":"water","source":"cadastre-dgi-fr source : Direction Générale des Impôts - Cadastre. Mise à jour : 2010"}},
{"type":"Feature","geometry":{"type":"MultiPolygon","coordinates":[[[[2.7992792,48.0975905],[2.799288,48.0974922],[2.7993012,48.0974939],[2.7993018,48.0974923],[2.7993018,48.0974912],[2.7993024,48.0974901],[2.799303,48.0974896],[2.7993036,48.0974885],[2.7993042,48.097488],[2.7993054,48.0974869],[2.799306,48.0974864],[2.7993066,48.0974853],[2.7993078,48.0974848],[2.799309,48.0974842],[2.7993102,48.0974837],[2.7993114,48.0974832],[2.7993126,48.0974826],[2.7993138,48.0974821],[2.799315,48.0974821],[2.7993162,48.0974816],[2.799318,48.0974816],[2.7993192,48.0974816],[2.7993204,48.097481],[2.7993222,48.097481],[2.7993234,48.0974816],[2.7993246,48.0974816],[2.7993264,48.0974816],[2.7993276,48.0974821],[2.7993288,48.0974821],[2.79933,48.0974827],[2.7993312,48.0974832],[2.7993324,48.0974837],[2.7993336,48.0974843],[2.7993348,48.0974848],[2.799336,48.0974854],[2.7993366,48.0974859],[2.7993378,48.097487],[2.7993384,48.0974875],[2.799339,48.0974886],[2.7993396,48.0974891],[2.7993401,48.0974902],[2.7993407,48.0974913],[2.7993413,48.0974918],[2.7993413,48.0974929],[2.7993413,48.097494],[2.7993413,48.0974945],[2.7993413,48.0974956],[2.7993413,48.0974966],[2.7993545,48.0974972],[2.7993463,48.0975938],[2.7992792,48.0975905]]]]},"properties":{"access":"private","leisure":"swimming_pool","source":"cadastre-dgi-fr source : Direction Générale des Impôts - Cadastre. Mise à jour : 2010"}},
{"type":"Feature","geometry":{"type":"MultiPolygon","coordinates":[[[[2.7907764,48.1029435],[2.7908078,48.1028877],[2.7908545,48.1029002],[2.7908201,48.1029559],[2.7907764,48.1029435]]]]},"properties":{"leisure":"swimming_pool","source":"cadastre-dgi-fr source : Direction Générale des Impôts - Cadastre. Mise à jour : 2010"}},
{"type":"Feature","geometry":{"type":"MultiPolygon","coordinates":[[[[2.8085936,48.1212848],[2.8086166,48.121207],[2.8086783,48.1212173],[2.8086541,48.1212935],[2.8085936,48.1212848]]]]},"properties":{"leisure":"swimming_pool","source":"cadastre-dgi-fr source : Direction Générale des Impôts - Cadastre. Mise à jour : 2010"}},
{"type":"Feature","geometry":{"type":"MultiPolygon","coordinates":[[[[2.7937724,48.0908473],[2.7937736,48.0908355],[2.7937839,48.0908258],[2.7937965,48.0908216],[2.7938078,48.0908253],[2.7938216,48.0908323],[2.7938263,48.0908474],[2.7938263,48.0908597],[2.793819,48.0908688],[2.7938082,48.0908731],[2.7937939,48.0908742],[2.7937819,48.0908682],[2.7937759,48.0908602],[2.7937724,48.0908473]]]]},"properties":{"leisure":"swimming_pool","source":"cadastre-dgi-fr source : Direction Générale des Impôts - Cadastre. Mise à jour : 2010"}},
{"type":"Feature","geometry":{"type":"MultiPolygon","coordinates":[[[[2.8248834,48.1171364],[2.8249524,48.1170995],[2.8250086,48.1171468],[2.8249396,48.1171837],[2.8248834,48.1171364]]]]},"properties":{"leisure":"swimming_pool"}},
{"type":"Feature","geometry":{"type":"MultiPolygon","coordinates":[[[[2.7996793,48.1053804],[2.7996902,48.1053541],[2.7997148,48.1053472],[2.7997567,48.1053478],[2.7997818,48.1053602],[2.799783,48.10538],[2.7997703,48.1054036],[2.7997414,48.1054218],[2.799712,48.1054331],[2.7996977,48.1054287],[2.7996845,48.1054174],[2.799681,48.105396],[2.7996793,48.1053804]]]]},"properties":{"natural":"water","source":"cadastre-dgi-fr source : Direction Générale des Impôts - Cadastre. Mise à jour : 2010"}},
{"type":"Feature","geometry":{"type":"MultiPolygon","coordinates":[[[[2.7997322,48.0972949],[2.7997324,48.0972423],[2.7999481,48.0972524],[2.7999479,48.0973039],[2.7997322,48.0972949]]]]},"properties":{"access":"private","leisure":"swimming_pool","source":"cadastre-dgi-fr source : Direction Générale des Impôts - Cadastre. Mise à jour : 2010"}},
{"type":"Feature","geometry":{"type":"MultiPolygon","coordinates":[[[[2.7900934,48.0990611],[2.7901114,48.099059],[2.7901103,48.0990461],[2.7902715,48.0990313],[2.7902733,48.0990453],[2.7902871,48.0990448],[2.7902923,48.0990824],[2.7902773,48.099084],[2.7902785,48.0990931],[2.790119,48.0991051],[2.7901155,48.0990922],[2.7900975,48.0990938],[2.7900934,48.0990611]]]]},"properties":{"access":"private","leisure":"swimming_pool","source":"cadastre-dgi-fr source : Direction Générale des Impôts - Cadastre. Mise à jour : 2010"}},
{"type":"Feature","geometry":{"type":"MultiPolygon","coordinates":[[[[2.8368922,48.1085382],[2.8369126,48.1085291],[2.8369384,48.1085232],[2.8369834,48.1085141],[2.8370361,48.1085148],[2.8370888,48.1085175],[2.837132,48.108524],[2.8371667,48.1085386],[2.8371858,48.1085617],[2.8371362,48.1086985],[2.8369073,48.1086966],[2.8368922,48.1085382]]]]},"properties":{"leisure":"swimming_pool"}},
{"type":"Feature","geometry":{"type":"MultiPolygon","coordinates":[[[[2.8318917,48.1228693],[2.8319283,48.1228495],[2.8319929,48.1229081],[2.8319569,48.1229311],[2.8318917,48.1228693]]]]},"properties":{"leisure":"swimming_pool"}},
{"type":"Feature","geometry":{"type":"MultiPolygon","coordinates":[[[[2.8174171,48.0981194],[2.8174777,48.0981055],[2.8175169,48.0982027],[2.8174575,48.0982123],[2.8174171,48.0981194]]]]},"properties":{"leisure":"swimming_pool","source":"cadastre-dgi-fr source : Direction Générale des Impôts - Cadastre. Mise à jour : 2010"}},
{"type":"Feature","geometry":{"type":"MultiPolygon","coordinates":[[[[2.795048,48.1200697],[2.7951381,48.1200275],[2.7952708,48.1199917],[2.7953721,48.1199903],[2.7954643,48.1200307],[2.795527,48.120092],[2.7955627,48.120149],[2.7955865,48.1201963],[2.795596,48.1202301],[2.7955806,48.1203106],[2.7955026,48.1203363],[2.795448,48.1203431],[2.7953863,48.1203479],[2.7953317,48.1203467],[2.7952765999999999,48.1203375],[2.7952263,48.1203266],[2.7951999,48.1203142],[2.7951736,48.1202965],[2.7951479,48.1202755],[2.7951175,48.1202465],[2.7950936,48.1202169],[2.7950799,48.120189],[2.7950675,48.1201589],[2.7950544,48.1201197],[2.795048,48.1200697]]]]},"properties":{"leisure":"swimming_pool","source":"cadastre-dgi-fr source : Direction Générale des Impôts - Cadastre. Mise à jour : 2010"}},
{"type":"Feature","geometry":{"type":"MultiPolygon","coordinates":[[[[2.789124,48.0948952],[2.789126,48.0948501],[2.7892609,48.0948487],[2.7892602,48.0948573],[2.7892614,48.0948573],[2.7892632,48.0948573],[2.7892644,48.0948579],[2.7892656,48.0948579],[2.7892674,48.0948584],[2.7892686,48.094859],[2.7892698,48.094859],[2.789271,48.0948595],[2.7892722,48.09486],[2.7892734,48.0948611],[2.7892746,48.0948617],[2.7892752,48.0948622],[2.7892764,48.0948633],[2.789277,48.0948638],[2.7892776,48.0948649],[2.7892782,48.0948654],[2.7892788,48.0948665],[2.7892794,48.0948676],[2.78928,48.0948681],[2.7892799,48.0948692],[2.7892799,48.0948703],[2.7892799,48.0948713],[2.7892799,48.0948719],[2.7892799,48.0948729],[2.7892799,48.094874],[2.7892793,48.0948751],[2.7892793,48.0948756],[2.7892787,48.0948767],[2.7892781,48.0948778],[2.7892769,48.0948783],[2.7892763,48.0948794],[2.7892757,48.0948799],[2.7892745,48.0948804],[2.7892733,48.0948815],[2.7892721,48.094882],[2.7892715,48.0948826],[2.7892703,48.0948831],[2.7892685,48.0948837],[2.7892673,48.0948842],[2.7892661,48.0948842],[2.7892649,48.0948847],[2.7892631,48.0948847],[2.7892619,48.0948847],[2.7892601,48.0948847],[2.7892589,48.0948847],[2.7892583,48.0948938],[2.789124,48.0948952]]]]},"properties":{"access":"private","leisure":"swimming_pool","source":"cadastre-dgi-fr source : Direction Générale des Impôts - Cadastre. Mise à jour : 2010"}},
{"type":"Feature","geometry":{"type":"MultiPolygon","coordinates":[[[[2.821473,48.0978938],[2.8214742,48.0978869],[2.8215162,48.0978816],[2.8215198,48.0978875],[2.8215233,48.097895],[2.8215281,48.0979052],[2.8215311,48.0979132],[2.8215334,48.097924],[2.8215352,48.0979358],[2.8215357,48.0979481],[2.8215351,48.0979589],[2.8214907,48.0979631],[2.8214895,48.0979604],[2.8214866,48.0979551],[2.8214812,48.0979438],[2.8214776,48.0979346],[2.8214759,48.0979266],[2.8214747,48.0979201],[2.8214735,48.097911],[2.821473,48.0979019],[2.821473,48.0978938]]]]},"properties":{"leisure":"swimming_pool","source":"cadastre-dgi-fr source : Direction Générale des Impôts - Cadastre. Mise à jour : 2010"}},
{"type":"Feature","geometry":{"type":"MultiPolygon","coordinates":[[[[2.7981708,48.1357363],[2.7985078,48.1355769],[2.7985519,48.1356628],[2.7986076,48.1358192],[2.7985222,48.1358781],[2.7984502,48.1359075],[2.7983835,48.1359213],[2.7983218,48.1359223],[2.79826,48.1359152],[2.7982355,48.1359087],[2.7982109,48.1358893],[2.7981901,48.1358469],[2.7981708,48.1357363]]]]},"properties":{"leisure":"swimming_pool","source":"cadastre-dgi-fr source : Direction Générale des Impôts - Cadastre. Mise à jour : 2010"}},
{"type":"Feature","geometry":{"type":"MultiPolygon","coordinates":[[[[2.7891666,48.1133967],[2.7891709,48.1133693],[2.7891847,48.1133661],[2.7892853,48.1133749],[2.7892979,48.1133808],[2.7892936,48.1134076],[2.7892792,48.1134108],[2.7891791,48.1134021],[2.7891666,48.1133967]]]]},"properties":{"leisure":"swimming_pool","source":"cadastre-dgi-fr source : Direction Générale des Impôts - Cadastre. Mise à jour : 2010"}},
{"type":"Feature","geometry":{"type":"MultiPolygon","coordinates":[[[[2.8290738,48.1256217],[2.8290865,48.1255777],[2.8292184,48.1255945],[2.8292056,48.1256391],[2.8290738,48.1256217]]]]},"properties":{"access":"private","leisure":"swimming_pool"}},
{"type":"Feature","geometry":{"type":"MultiPolygon","coordinates":[[[[2.7882861,48.1089873],[2.7882989,48.1089481],[2.7883199,48.1089202],[2.78835,48.1089058],[2.7884148,48.1088919],[2.7884819,48.1089007],[2.7885231,48.1089168],[2.7885842,48.108939],[2.7886494,48.1089756],[2.7887002,48.1090041],[2.7887308,48.1090042],[2.7887524,48.1090042],[2.7887998,48.1089893],[2.7889288,48.1089487],[2.7889828,48.1089322],[2.7890362,48.1089205],[2.7890901,48.1089238],[2.7891416,48.1089362],[2.7891793,48.1089513],[2.7892092,48.1089777],[2.7892144,48.1090147],[2.7891939,48.1090432],[2.7891566,48.1090855],[2.789094,48.1091412],[2.7890189,48.1091942],[2.7889432,48.1092327],[2.7888743,48.1092364],[2.788791,48.1092201],[2.7886712,48.1092006],[2.7886335,48.1091924],[2.7885706,48.1091762],[2.7885102,48.1091589],[2.7884497,48.1091502],[2.7883832,48.1091372],[2.7883389,48.1091232],[2.7883270000000004,48.1091033],[2.7883151,48.1090759],[2.7882997,48.1090265],[2.7882861,48.1089873]]]]},"properties":{"source":"cadastre-dgi-fr source : Direction Générale des Impôts - Cadastre. Mise à jour : 2010"}},
{"type":"Feature","geometry":{"type":"MultiPolygon","coordinates":[[[[2.8222014,48.0979857],[2.8222116,48.0979766],[2.8222278,48.0979723],[2.8222439,48.0979761],[2.8222846,48.0980127],[2.8222857,48.0980239],[2.8222755,48.098033],[2.8222593,48.0980373],[2.8222431,48.0980335],[2.8222025,48.097997],[2.8222014,48.0979857]]]]},"properties":{"leisure":"swimming_pool","source":"cadastre-dgi-fr source : Direction Générale des Impôts - Cadastre. Mise à jour : 2010"}},
{"type":"Feature","geometry":{"type":"MultiPolygon","coordinates":[[[[2.8171372,48.1030475],[2.8171642,48.10304],[2.8172007,48.1030352],[2.8172361,48.1030336],[2.8172455,48.1030798],[2.8172149,48.10309],[2.817179,48.1030937],[2.8171442,48.1030915],[2.8171372,48.1030475]]]]},"properties":{"leisure":"swimming_pool","source":"cadastre-dgi-fr source : Direction Générale des Impôts - Cadastre. Mise à jour : 2010"}},
{"type":"Feature","geometry":{"type":"MultiPolygon","coordinates":[[[[2.7992199,48.0961343],[2.799235,48.096096],[2.7993606,48.0961167],[2.7993479,48.0961553],[2.7992199,48.0961343]]]]},"properties":{"access":"private","leisure":"swimming_pool","source":"cadastre-dgi-fr source : Direction Générale des Impôts - Cadastre. Mise à jour : 2010"}},
{"type":"Feature","geometry":{"type":"MultiPolygon","coordinates":[[[[2.7974281,48.0959389],[2.7975177,48.0959337],[2.7975321,48.0960435],[2.7974425,48.0960488],[2.7974281,48.0959389]]]]},"properties":{"access":"private","leisure":"swimming_pool","source":"cadastre-dgi-fr source : Direction Générale des Impôts - Cadastre. Mise à jour : 2010"}},
{"type":"Feature","geometry":{"type":"MultiPolygon","coordinates":[[[[2.868771,48.174779],[2.868796,48.174767],[2.868808,48.174779],[2.868892,48.174739],[2.868923,48.174768],[2.868947,48.174756],[2.869013,48.174818],[2.868989,48.17483],[2.869063,48.174903],[2.869136,48.174973],[2.869154,48.17499],[2.869031,48.175047],[2.869011,48.175028],[2.868934,48.174952],[2.868879,48.1749],[2.868859,48.174909],[2.868837,48.174888],[2.868857,48.174878],[2.868813,48.174834],[2.868774,48.174797],[2.868783,48.17479],[2.868771,48.174779]]]]},"properties":{"building":"yes","historic":"castle","name":"Château d'Égreville Massenet","source":"cadastre-dgi-fr source : Direction Générale des Impôts - Cadastre. Mise à jour : 2011"}},
{"type":"Feature","geometry":{"type":"MultiPolygon","coordinates":[[[[2.8759975,48.1785139],[2.8768307,48.1783604],[2.8772297,48.1793233],[2.8763965,48.1794768],[2.8759975,48.1785139]]]]},"properties":{"leisure":"pitch","name":"stade","sport":"soccer"}},
{"type":"Feature","geometry":{"type":"MultiPolygon","coordinates":[[[[2.8736406,48.1727193],[2.8741186,48.1725939],[2.874301,48.1729034],[2.873823,48.1730287],[2.8736406,48.1727193]]]]},"properties":{"leisure":"pitch","sport":"tennis"}},
{"type":"Feature","geometry":{"type":"MultiPolygon","coordinates":[[[[2.905343,48.102675],[2.905383,48.102641],[2.905392,48.102607],[2.905388,48.102549],[2.905414,48.102518],[2.905521,48.102512],[2.905569,48.102517],[2.905588,48.102526],[2.905647,48.102583],[2.905736,48.102683],[2.905598,48.102754],[2.905378,48.102847],[2.905343,48.102675]]]]},"properties":{"natural":"water","source":"cadastre-dgi-fr source : Direction Générale des Impôts - Cadastre. Mise à jour : 2012"}},
{"type":"Feature","geometry":{"type":"MultiPolygon","coordinates":[[[[2.88182,48.09593],[2.881874,48.095809],[2.881855,48.095806],[2.881914,48.095649],[2.881875,48.09564],[2.881908,48.095573],[2.881999,48.095541],[2.882169,48.095503],[2.882212,48.095488],[2.882314,48.09548],[2.88241,48.095486],[2.882258,48.095564],[2.882293,48.095667],[2.882222,48.095772],[2.882268,48.095806],[2.882109,48.095952],[2.882052,48.095987],[2.881987,48.09601],[2.881934,48.096015],[2.881871,48.096003],[2.88182,48.09593]]]]},"properties":{"natural":"water","source":"cadastre-dgi-fr source : Direction Générale des Impôts - Cadastre. Mise à jour : 2012"}},
{"type":"Feature","geometry":{"type":"MultiPolygon","coordinates":[[[[2.885502,48.0914],[2.885506,48.091377],[2.885513,48.091353],[2.885523,48.091334],[2.885556,48.091299],[2.885579,48.091286],[2.885606,48.091275],[2.885643,48.091267],[2.885672,48.091266],[2.8857,48.091267],[2.885729,48.09127],[2.885754,48.091276],[2.88579,48.091298],[2.885844,48.09135],[2.885866,48.091391],[2.885867,48.091414],[2.885861,48.091442],[2.885848,48.091467],[2.885841,48.091489],[2.885825,48.091514],[2.88581,48.091548],[2.885799,48.091566],[2.885766,48.091585],[2.885745,48.091592],[2.885723,48.091588],[2.885694,48.091579],[2.885664,48.091567],[2.885631,48.091543],[2.885566,48.091492],[2.885535,48.091466],[2.885516,48.091446],[2.885506,48.091423],[2.885502,48.0914]]]]},"properties":{"natural":"water","source":"cadastre-dgi-fr source : Direction Générale des Impôts - Cadastre. Mise à jour : 2012"}},
{"type":"Feature","geometry":{"type":"MultiPolygon","coordinates":[[[[2.902153,48.101072],[2.902154,48.10106],[2.90216,48.101048],[2.902175,48.101029],[2.902225,48.101005],[2.902296,48.100979],[2.902317,48.100977],[2.902393,48.100977],[2.902435,48.100974],[2.902475,48.100975],[2.902567,48.10097],[2.902678,48.100962],[2.902723,48.100964],[2.902759,48.100967],[2.902779,48.100976],[2.902787,48.100991],[2.902793,48.101034],[2.9028,48.101053],[2.902808,48.101069],[2.902805,48.101128],[2.902797,48.101152],[2.902783,48.101168],[2.902746,48.101191],[2.902688,48.101204],[2.902659,48.101207],[2.902588,48.101209],[2.902541,48.101213],[2.902443,48.10121],[2.902398,48.101204],[2.902366,48.101196],[2.902338,48.101181],[2.902286,48.101161],[2.902222,48.101125],[2.902164,48.101082],[2.902153,48.101072]]]]},"properties":{"natural":"water","source":"cadastre-dgi-fr source : Direction Générale des Impôts - Cadastre. Mise à jour : 2012"}},
{"type":"Feature","geometry":{"type":"MultiPolygon","coordinates":[[[[2.889198,48.094745],[2.889204,48.094718],[2.889222,48.094674],[2.889236,48.094632],[2.889258,48.094593],[2.889286,48.094555],[2.889311,48.094524],[2.889337,48.094504],[2.889367,48.094493],[2.889402,48.094492],[2.889487,48.094494],[2.889527,48.0945],[2.889572,48.094511],[2.889621,48.09453],[2.889694,48.094589],[2.889748,48.094656],[2.88975,48.094706],[2.889715,48.094776],[2.889702,48.094798],[2.889681,48.094813],[2.889673,48.094836],[2.889682,48.094856],[2.88968,48.094874],[2.889669,48.094896],[2.889617,48.094935],[2.889585,48.094949],[2.889539,48.094949],[2.889506,48.094941],[2.889459,48.094926],[2.889406,48.094917],[2.889361,48.094904],[2.889309,48.094887],[2.889277,48.094862],[2.889208,48.094797],[2.889205,48.09477],[2.889198,48.094745]]]]},"properties":{"natural":"water","source":"cadastre-dgi-fr source : Direction Générale des Impôts - Cadastre. Mise à jour : 2012"}},
{"type":"Feature","geometry":{"type":"MultiPolygon","coordinates":[[[[2.8885424,48.1066653],[2.8888834,48.1064215],[2.8893826,48.1065503],[2.8894303,48.1066378],[2.8890127,48.1069521],[2.8885424,48.1066653]]]]},"properties":{"natural":"water","source":"cadastre-dgi-fr source : Direction Générale des Impôts - Cadastre. Mise à jour : 2012"}},
{"type":"Feature","geometry":{"type":"MultiPolygon","coordinates":[[[[2.901714,48.101512],[2.90187,48.101481],[2.901954,48.101609],[2.901774,48.101648],[2.901744,48.101581],[2.901714,48.101512]]]]},"properties":{"natural":"water","source":"cadastre-dgi-fr source : Direction Générale des Impôts - Cadastre. Mise à jour : 2012"}},
{"type":"Feature","geometry":{"type":"MultiPolygon","coordinates":[[[[2.9049186,48.116993],[2.9049192,48.1169889],[2.9049216,48.1169844],[2.9049233,48.116982],[2.9049286,48.1169803],[2.9049368,48.1169779],[2.9049394,48.1169724],[2.9050428,48.1169884],[2.9050354,48.1170243],[2.9049309,48.1170089],[2.9049303,48.1170046],[2.9049253,48.117002],[2.9049218,48.1170001],[2.9049192,48.1169963],[2.9049186,48.116993]]]]},"properties":{"access":"private","leisure":"swimming_pool","source":"cadastre-dgi-fr source : Direction Générale des Impôts - Cadastre. Mise à jour : 2012"}},
{"type":"Feature","geometry":{"type":"MultiPolygon","coordinates":[[[[2.853053,48.108174],[2.853175,48.108134],[2.853244,48.108116],[2.853463,48.108122],[2.853472,48.108185],[2.853491,48.108238],[2.853433,48.108283],[2.853396,48.108312],[2.853276,48.108353],[2.853224,48.108343],[2.853189,48.108329],[2.853109,48.108244],[2.853053,48.108174]]]]},"properties":{"natural":"water","source":"cadastre-dgi-fr source : Direction Générale des Impôts - Cadastre. Mise à jour : 2012"}},
{"type":"Feature","geometry":{"type":"MultiPolygon","coordinates":[[[[2.847479,48.098476],[2.847499,48.098455],[2.847537,48.098432],[2.847581,48.098414],[2.847594,48.098417],[2.847694,48.098546],[2.847757,48.098599],[2.847857,48.098722],[2.847946,48.098769],[2.847807,48.09884],[2.847804,48.098822],[2.847803,48.098809],[2.847797,48.098757],[2.847766,48.098706],[2.84771,48.098659],[2.847631,48.098605],[2.847535,48.098543],[2.847495,48.098504],[2.847479,48.098476]]]]},"properties":{"natural":"water","source":"cadastre-dgi-fr source : Direction Générale des Impôts - Cadastre. Mise à jour : 2012"}},
{"type":"Feature","geometry":{"type":"MultiPolygon","coordinates":[[[[2.858954,48.090404],[2.858963,48.090367],[2.859002,48.090209],[2.859041,48.090188],[2.859146,48.090169],[2.859236,48.090172],[2.859292,48.090192],[2.859375,48.090212],[2.859434,48.090245],[2.859493,48.090305],[2.859503,48.090363],[2.8595,48.090428],[2.859491,48.090517],[2.859456,48.090575],[2.859432,48.090592],[2.859235,48.090648],[2.859128,48.090588],[2.858973,48.09048],[2.858954,48.090404]]]]},"properties":{"natural":"water","source":"cadastre-dgi-fr source : Direction Générale des Impôts - Cadastre. Mise à jour : 2012"}},
{"type":"Feature","geometry":{"type":"MultiPolygon","coordinates":[[[[2.849919,48.098007],[2.849922,48.098],[2.849933,48.097988],[2.84995,48.097984],[2.849972,48.097973],[2.849984,48.09795],[2.849994,48.097941],[2.850005,48.097937],[2.850033,48.097936],[2.850045,48.097938],[2.850054,48.097944],[2.85006,48.097951],[2.850063,48.097968],[2.850059,48.097976],[2.850038,48.097991],[2.850018,48.098000999999999],[2.849974,48.09802],[2.849959,48.098024],[2.849946,48.098028],[2.849934,48.098027],[2.849924,48.098018],[2.849919,48.098007]]]]},"properties":{"natural":"water","source":"cadastre-dgi-fr source : Direction Générale des Impôts - Cadastre. Mise à jour : 2012"}},
{"type":"Feature","geometry":{"type":"MultiPolygon","coordinates":[[[[2.858134,48.113516],[2.858208,48.113378],[2.858281,48.113299],[2.858457,48.113171],[2.858499,48.113113],[2.858604,48.113008],[2.858782,48.112849],[2.85897,48.112714],[2.859159,48.112592],[2.859224,48.11257],[2.859291,48.112563],[2.859455,48.112575],[2.859636,48.112618],[2.859684,48.11265],[2.859698,48.112684],[2.85961,48.112864],[2.859506,48.113028],[2.85904,48.113731],[2.858979,48.113762],[2.858948,48.113764],[2.858882,48.113751],[2.858569,48.113662],[2.858134,48.113516]]]]},"properties":{"natural":"water","source":"cadastre-dgi-fr source : Direction Générale des Impôts - Cadastre. Mise à jour : 2012"}},
{"type":"Feature","geometry":{"type":"MultiPolygon","coordinates":[[[[2.893892,48.148431],[2.893894,48.148406],[2.893922,48.148386],[2.89396,48.148385],[2.89399,48.148397],[2.894003,48.148417],[2.893998,48.148439],[2.893972,48.148456],[2.893936,48.148458],[2.893908,48.148448],[2.893892,48.148431]]]]},"properties":{"natural":"water","source":"cadastre-dgi-fr source : Direction Générale des Impôts - Cadastre. Mise à jour : 2012"}},
{"type":"Feature","geometry":{"type":"MultiPolygon","coordinates":[[[[2.894476,48.151742],[2.894498,48.151713],[2.894558,48.15171],[2.894593,48.151712],[2.89464,48.15173],[2.894667,48.151747],[2.894669,48.151766],[2.894585,48.151778],[2.894541,48.151779],[2.894494,48.151769],[2.894476,48.151742]]]]},"properties":{"natural":"water","source":"cadastre-dgi-fr source : Direction Générale des Impôts - Cadastre. Mise à jour : 2012"}},
{"type":"Feature","geometry":{"type":"MultiPolygon","coordinates":[[[[2.887301,48.145034],[2.887307,48.144989],[2.887322,48.14496],[2.887348,48.144932],[2.887366,48.144927],[2.887405,48.144929],[2.887461,48.144945],[2.887538,48.14497],[2.887543,48.144976],[2.887504,48.145048],[2.8873035,48.1450636],[2.887301,48.145034]]]]},"properties":{"natural":"water","source":"cadastre-dgi-fr source : Direction Générale des Impôts - Cadastre. Mise à jour : 2012"}},
{"type":"Feature","geometry":{"type":"MultiPolygon","coordinates":[[[[2.895078,48.13525],[2.895142,48.135228],[2.895352,48.13523],[2.895356,48.135244],[2.89536,48.135256],[2.895367,48.135278],[2.895349,48.135306],[2.895311,48.135318],[2.895185,48.135358],[2.895178,48.13535],[2.895156,48.135325],[2.895078,48.13525]]]]},"properties":{"natural":"water","source":"cadastre-dgi-fr source : Direction Générale des Impôts - Cadastre. Mise à jour : 2012"}},
{"type":"Feature","geometry":{"type":"MultiPolygon","coordinates":[[[[2.89907,48.140517],[2.8991729999999999,48.140459],[2.899216,48.140493],[2.899114,48.140551],[2.899107,48.140546],[2.899103,48.140548],[2.899099,48.140548],[2.899096,48.140549],[2.899092,48.140549],[2.899087,48.140548],[2.899082,48.140547],[2.899077,48.140544],[2.899074,48.140541],[2.899072,48.140539],[2.899071,48.140535],[2.899071,48.140532],[2.899072,48.140528],[2.899075,48.140525],[2.899077,48.140523],[2.89907,48.140517]]]]},"properties":{"access":"private","leisure":"swimming_pool","source":"cadastre-dgi-fr source : Direction Générale des Impôts - Cadastre. Mise à jour : 2012"}},
{"type":"Feature","geometry":{"type":"MultiPolygon","coordinates":[[[[2.887346,48.144647],[2.88736,48.144614],[2.887478,48.144636],[2.887475,48.144643],[2.887476,48.144643],[2.887479,48.144644],[2.887481,48.144645],[2.887483,48.144646],[2.887485,48.144648],[2.887486,48.14465],[2.887487,48.144651],[2.887487,48.144653],[2.887487,48.144655],[2.887486,48.144657],[2.887485,48.144659],[2.887483,48.144661],[2.887481,48.144662],[2.887479,48.144663],[2.887476,48.144664],[2.887473,48.144665],[2.88747,48.144665],[2.887468,48.144665],[2.887466,48.144664],[2.887464,48.144669],[2.887346,48.144647]]]]},"properties":{"access":"private","leisure":"swimming_pool","source":"cadastre-dgi-fr source : Direction Générale des Impôts - Cadastre. Mise à jour : 2012"}},
{"type":"Feature","geometry":{"type":"MultiPolygon","coordinates":[[[[2.894481,48.144968],[2.894483,48.144958],[2.894488,48.144951],[2.894493,48.144945],[2.894502,48.14494],[2.89451,48.144938],[2.894523,48.144937],[2.894533,48.144938],[2.894547,48.14494],[2.894558,48.144942],[2.894573,48.144947],[2.894588,48.144953],[2.8946,48.144959],[2.894607,48.144965],[2.894607,48.144966],[2.894619,48.14497],[2.894626,48.144984],[2.894598,48.144997],[2.894554,48.14499],[2.894524,48.144994],[2.894523,48.144988],[2.894519,48.14499],[2.894512,48.144993],[2.894504,48.144993],[2.894496,48.144991],[2.894486,48.144983],[2.894484,48.144976],[2.894481,48.144968]]]]},"properties":{"access":"private","leisure":"swimming_pool","source":"cadastre-dgi-fr source : Direction Générale des Impôts - Cadastre. Mise à jour : 2012"}},
{"type":"Feature","geometry":{"type":"MultiPolygon","coordinates":[[[[2.904954,48.132985],[2.905031,48.132943],[2.905043,48.132901],[2.904986,48.132863],[2.904985,48.132846],[2.90501,48.132822],[2.905098,48.132821],[2.90512,48.132829],[2.905191,48.132835],[2.90514,48.132915],[2.905137,48.132914],[2.905133,48.132914],[2.90513,48.132915],[2.905127,48.132916],[2.905125,48.132918],[2.905123,48.13292],[2.905122,48.132922],[2.905122,48.132925],[2.905123,48.132927],[2.905125,48.132929],[2.905127,48.132931],[2.905129,48.132931],[2.905091,48.132976],[2.905063,48.13301],[2.905054,48.13302],[2.905053,48.13302],[2.905049,48.133019],[2.905046,48.133019],[2.905043,48.13302],[2.90504,48.133021],[2.905037,48.133023],[2.904976,48.132995],[2.904954,48.132985]]]]},"properties":{"natural":"water","source":"cadastre-dgi-fr source : Direction Générale des Impôts - Cadastre. Mise à jour : 2012"}},
{"type":"Feature","geometry":{"type":"MultiPolygon","coordinates":[[[[2.894338,48.144482000000007],[2.894339,48.144474],[2.89434,48.144469],[2.894347,48.144463],[2.894352,48.144459],[2.894358,48.144456],[2.894364,48.144454],[2.894372,48.144451],[2.89438,48.144449],[2.894393,48.144446],[2.894404,48.144446],[2.894411,48.144446],[2.894419,48.144447],[2.894422,48.14445],[2.894424,48.144454],[2.894425,48.144458],[2.894423,48.144465],[2.894423,48.14447],[2.894429,48.144471],[2.894435,48.144473],[2.894438,48.144478],[2.894438,48.144483],[2.894435,48.144487],[2.894428,48.144489],[2.894422,48.144492],[2.89442,48.144496],[2.894417,48.144504],[2.894412,48.14451],[2.894406,48.144514],[2.8944,48.144517],[2.89439,48.144518],[2.894383,48.144519],[2.894374,48.144518],[2.894366,48.144516],[2.894355,48.144509],[2.894349,48.144503],[2.894344,48.144496],[2.894341,48.144489],[2.894338,48.144482000000007]]]]},"properties":{"access":"private","leisure":"swimming_pool","source":"cadastre-dgi-fr source : Direction Générale des Impôts - Cadastre. Mise à jour : 2012"}},
{"type":"Feature","geometry":{"type":"MultiPolygon","coordinates":[[[[2.8951409,48.1379227],[2.8951413,48.1378877],[2.8952648,48.1378884],[2.8952644,48.1379234],[2.8951409,48.1379227]]]]},"properties":{"access":"private","leisure":"swimming_pool","source":"cadastre-dgi-fr source : Direction Générale des Impôts - Cadastre. Mise à jour : 2012"}},
{"type":"Feature","geometry":{"type":"MultiPolygon","coordinates":[[[[2.899556,48.139649],[2.899696,48.139634],[2.899708,48.13968],[2.899567,48.139695],[2.899556,48.139649]]]]},"properties":{"access":"private","leisure":"swimming_pool","source":"cadastre-dgi-fr source : Direction Générale des Impôts - Cadastre. Mise à jour : 2012"}},
{"type":"Feature","geometry":{"type":"MultiPolygon","coordinates":[[[[2.895639,48.136642],[2.895675,48.136635],[2.895695,48.136695],[2.895659,48.136701],[2.895639,48.136642]]]]},"properties":{"access":"private","leisure":"swimming_pool","source":"cadastre-dgi-fr source : Direction Générale des Impôts - Cadastre. Mise à jour : 2012"}},
{"type":"Feature","geometry":{"type":"MultiPolygon","coordinates":[[[[2.886983,48.144991],[2.887063,48.144985],[2.887067,48.145007],[2.886987,48.145014],[2.886983,48.144991]]]]},"properties":{"access":"private","leisure":"swimming_pool","source":"cadastre-dgi-fr source : Direction Générale des Impôts - Cadastre. Mise à jour : 2012"}},
{"type":"Feature","geometry":{"type":"MultiPolygon","coordinates":[[[[2.893984,48.149466],[2.89416,48.149445],[2.894214,48.149645],[2.894073,48.14966],[2.893984,48.149466]]]]},"properties":{"natural":"water","source":"cadastre-dgi-fr source : Direction Générale des Impôts - Cadastre. Mise à jour : 2012"}},
{"type":"Feature","geometry":{"type":"MultiPolygon","coordinates":[[[[2.897672,48.139022],[2.8977,48.138995],[2.897787,48.139033],[2.897759,48.139061],[2.897672,48.139022]]]]},"properties":{"access":"private","leisure":"swimming_pool","source":"cadastre-dgi-fr source : Direction Générale des Impôts - Cadastre. Mise à jour : 2012"}},
{"type":"Feature","geometry":{"type":"MultiPolygon","coordinates":[[[[2.897361,48.140227],[2.897363,48.140199],[2.89744,48.140203],[2.897437,48.140231],[2.897361,48.140227]]]]},"properties":{"access":"private","leisure":"swimming_pool","source":"cadastre-dgi-fr source : Direction Générale des Impôts - Cadastre. Mise à jour : 2012"}},
{"type":"Feature","geometry":{"type":"MultiPolygon","coordinates":[[[[2.9027226,48.1389191],[2.9027328,48.1388763],[2.9028677,48.1388894],[2.9028655,48.1388992],[2.9028726,48.138901],[2.9028783,48.1389043],[2.9028821,48.1389087],[2.9028819,48.1389139],[2.9028796,48.1389191],[2.9028742,48.1389224],[2.9028674,48.1389243],[2.9028598,48.1389249],[2.9028581,48.1389324],[2.9027226,48.1389191]]]]},"properties":{"access":"private","leisure":"swimming_pool","source":"cadastre-dgi-fr source : Direction Générale des Impôts - Cadastre. Mise à jour : 2012"}},
{"type":"Feature","geometry":{"type":"MultiPolygon","coordinates":[[[[2.896541,48.13505],[2.896647,48.134996],[2.89677,48.134992],[2.896787,48.135044],[2.896787,48.135081],[2.89672,48.135083],[2.896592,48.135061],[2.896541,48.13505]]]]},"properties":{"natural":"water","source":"cadastre-dgi-fr source : Direction Générale des Impôts - Cadastre. Mise à jour : 2012","water":"pond"}},
{"type":"Feature","geometry":{"type":"MultiPolygon","coordinates":[[[[2.905137,48.13313],[2.905149,48.133111],[2.905277,48.133147],[2.905263,48.133178],[2.905207,48.133181],[2.905171,48.133171],[2.905149,48.133155],[2.905137,48.13313]]]]},"properties":{"natural":"water","source":"cadastre-dgi-fr source : Direction Générale des Impôts - Cadastre. Mise à jour : 2012"}},
{"type":"Feature","geometry":{"type":"MultiPolygon","coordinates":[[[[2.893458,48.137642],[2.893473,48.137641],[2.893472,48.13763],[2.893536,48.137625],[2.893553,48.137732],[2.893489,48.137737],[2.893475,48.137655],[2.89346,48.137656],[2.893458,48.137642]]]]},"properties":{"access":"private","leisure":"swimming_pool","source":"cadastre-dgi-fr source : Direction Générale des Impôts - Cadastre. Mise à jour : 2012"}},
{"type":"Feature","geometry":{"type":"MultiPolygon","coordinates":[[[[2.898505,48.142782],[2.898525,48.142732],[2.898542,48.142735],[2.898598,48.142746],[2.898598,48.142794],[2.898586,48.142808],[2.898555,48.142812],[2.898525,48.142805],[2.898505,48.142782]]]]},"properties":{"natural":"water","source":"cadastre-dgi-fr source : Direction Générale des Impôts - Cadastre. Mise à jour : 2012","water":"pond"}},
{"type":"Feature","geometry":{"type":"MultiPolygon","coordinates":[[[[2.901017,48.141627],[2.901085,48.141617],[2.901108,48.1417],[2.901094,48.141706],[2.90109,48.141715],[2.901066,48.141718],[2.901053,48.141708],[2.90104,48.14171],[2.901017,48.141627]]]]},"properties":{"access":"private","leisure":"swimming_pool","source":"cadastre-dgi-fr source : Direction Générale des Impôts - Cadastre. Mise à jour : 2012"}},
{"type":"Feature","geometry":{"type":"MultiPolygon","coordinates":[[[[2.8958155,48.1399382],[2.8958645,48.1399132],[2.8959125,48.1399552],[2.8959255,48.1399482],[2.8959425,48.1399632],[2.8959305,48.1399702],[2.8959345,48.1399732],[2.8958855,48.1399992],[2.8958155,48.1399382]]]]},"properties":{"access":"private","leisure":"swimming_pool","source":"cadastre-dgi-fr source : Direction Générale des Impôts - Cadastre. Mise à jour : 2012"}},
{"type":"Feature","geometry":{"type":"MultiPolygon","coordinates":[[[[2.865813,48.131509],[2.865823,48.131508],[2.865836,48.131494000000007],[2.865839,48.131492],[2.865845,48.131491],[2.865851,48.131492],[2.865867,48.131505],[2.865874,48.131504],[2.865895,48.131586],[2.865837,48.131592],[2.865813,48.131509]]]]},"properties":{"natural":"water","source":"cadastre-dgi-fr source : Direction Générale des Impôts - Cadastre. Mise à jour : 2012"}},
{"type":"Feature","geometry":{"type":"MultiPolygon","coordinates":[[[[2.839908,48.13189],[2.84009,48.131828],[2.840285,48.131783],[2.840296,48.13179],[2.84034,48.13182],[2.840333,48.131832],[2.840266,48.131953],[2.840393,48.132108],[2.840136,48.132104],[2.840104,48.13209],[2.839908,48.13189]]]]},"properties":{"natural":"water","source":"cadastre-dgi-fr source : Direction Générale des Impôts - Cadastre. Mise à jour : 2012"}},
{"type":"Feature","geometry":{"type":"MultiPolygon","coordinates":[[[[2.868685,48.124496],[2.868687,48.12449],[2.868692,48.124483],[2.868698,48.124478],[2.86871,48.124474],[2.86872,48.124472],[2.868728,48.124474],[2.868736,48.124476],[2.868742,48.124481],[2.868808,48.124547],[2.868755,48.124571],[2.868688,48.124502],[2.868685,48.124496]]]]},"properties":{"access":"private","leisure":"swimming_pool","source":"cadastre-dgi-fr source : Direction Générale des Impôts - Cadastre. Mise à jour : 2012"}},
{"type":"Feature","geometry":{"type":"MultiPolygon","coordinates":[[[[2.868354,48.125035],[2.86837,48.125011],[2.868387,48.124999],[2.868423,48.124988],[2.868454,48.124984],[2.868477,48.124989],[2.868502,48.125009],[2.868507,48.125029],[2.868506,48.125057],[2.868463,48.125093],[2.868443,48.125109],[2.868428,48.125122],[2.86842,48.125112],[2.868354,48.125035]]]]},"properties":{"natural":"water","source":"cadastre-dgi-fr source : Direction Générale des Impôts - Cadastre. Mise à jour : 2012"}},
{"type":"Feature","geometry":{"type":"MultiPolygon","coordinates":[[[[2.870572,48.119249],[2.87072,48.119085],[2.870746,48.119057],[2.870754,48.11908],[2.870787,48.119183],[2.870783,48.119196],[2.870765,48.11923],[2.870739,48.119252],[2.87071,48.119269],[2.870677,48.119277],[2.870641,48.119279],[2.870608,48.119277],[2.87059,48.119268],[2.870572,48.119249]]]]},"properties":{"natural":"water","source":"cadastre-dgi-fr source : Direction Générale des Impôts - Cadastre. Mise à jour : 2012"}},
{"type":"Feature","geometry":{"type":"MultiPolygon","coordinates":[[[[2.837444,48.132457],[2.83746,48.132422],[2.837512,48.132382],[2.8377334,48.13232],[2.8379694,48.132241],[2.838183,48.132161],[2.838503,48.13207],[2.838564,48.132068],[2.838615,48.132092],[2.839073,48.132381],[2.839103,48.132425],[2.839113,48.13247],[2.839099,48.132514],[2.839041,48.132557],[2.838625,48.132755],[2.838551,48.132778],[2.838465,48.132809],[2.838126,48.132961],[2.838001,48.132889],[2.837819,48.13277],[2.837604,48.132613],[2.837537,48.13258],[2.837448,48.132501],[2.837444,48.132457]]]]},"properties":{"natural":"water","source":"cadastre-dgi-fr source : Direction Générale des Impôts - Cadastre. Mise à jour : 2012"}},
{"type":"Feature","geometry":{"type":"MultiPolygon","coordinates":[[[[2.862064,48.134166],[2.862078,48.134051],[2.862082,48.134044],[2.862093,48.134035],[2.862139,48.134022],[2.862156,48.134022],[2.862187,48.134026],[2.862199,48.13403],[2.862211,48.134037],[2.862226,48.134056],[2.862231,48.134189],[2.862226,48.134199],[2.862217,48.134207],[2.8622,48.134215],[2.862189,48.134218],[2.862144,48.134219],[2.862111,48.134214],[2.862086,48.1342],[2.862069,48.134183],[2.862064,48.134166]]]]},"properties":{"natural":"water","source":"cadastre-dgi-fr source : Direction Générale des Impôts - Cadastre. Mise à jour : 2012"}},
{"type":"Feature","geometry":{"type":"MultiPolygon","coordinates":[[[[2.8661426,48.1249195],[2.8661466,48.1248845],[2.8662356,48.1248905],[2.8662326,48.1249235],[2.8661426,48.1249195]]]]},"properties":{"access":"private","leisure":"swimming_pool","source":"cadastre-dgi-fr source : Direction Générale des Impôts - Cadastre. Mise à jour : 2012"}},
{"type":"Feature","geometry":{"type":"MultiPolygon","coordinates":[[[[2.874329,48.13758],[2.874384,48.137576],[2.874387,48.137657],[2.874334,48.137658],[2.874329,48.13758]]]]},"properties":{"access":"private","leisure":"swimming_pool","source":"cadastre-dgi-fr source : Direction Générale des Impôts - Cadastre. Mise à jour : 2012"}},
{"type":"Feature","geometry":{"type":"MultiPolygon","coordinates":[[[[2.869604,48.124617],[2.869759,48.12458],[2.869785,48.124627],[2.86963,48.124665],[2.869604,48.124617]]]]},"properties":{"access":"private","leisure":"swimming_pool","source":"cadastre-dgi-fr source : Direction Générale des Impôts - Cadastre. Mise à jour : 2012"}},
{"type":"Feature","geometry":{"type":"MultiPolygon","coordinates":[[[[2.873081,48.136126],[2.873093,48.136114],[2.87311,48.136107],[2.873189,48.136105],[2.873204,48.136107],[2.873217,48.136118],[2.873218,48.136128],[2.87321,48.136139],[2.8732,48.136143],[2.873143,48.136145],[2.873128,48.13617],[2.873116,48.136173],[2.873101,48.136172],[2.873089,48.136169],[2.873083,48.136164],[2.873081,48.136126]]]]},"properties":{"natural":"water","source":"cadastre-dgi-fr source : Direction Générale des Impôts - Cadastre. Mise à jour : 2012"}},
{"type":"Feature","geometry":{"type":"MultiPolygon","coordinates":[[[[2.858218,48.133972],[2.858219,48.133963],[2.858226,48.133912],[2.858282,48.133914],[2.858276,48.133975],[2.858218,48.133972]]]]},"properties":{"natural":"water","source":"cadastre-dgi-fr source : Direction Générale des Impôts - Cadastre. Mise à jour : 2012"}},
{"type":"Feature","geometry":{"type":"MultiPolygon","coordinates":[[[[2.7863207,48.0911229],[2.7863241,48.0910938],[2.7863241,48.0910709],[2.7864242,48.091063],[2.7866513,48.0910524],[2.7866706,48.0910515],[2.7866942,48.0910503],[2.7868037,48.0910205],[2.7870378,48.0909205],[2.7873081,48.0909078],[2.787371,48.0908992],[2.7874328,48.0908804],[2.787506,48.0908537],[2.787535,48.0908108],[2.7875808,48.0907428],[2.7876001,48.0907041],[2.7876314,48.0906448],[2.7877318,48.0904986],[2.7877585,48.090467],[2.7878074,48.0903959],[2.7879192,48.0903075],[2.7879778,48.0902603],[2.78802,48.0902252],[2.7880503,48.090202],[2.788096,48.0901672],[2.7882469,48.0900536],[2.7883262,48.0899999],[2.7883503,48.0899804],[2.788362,48.0899605],[2.7883829,48.0899453],[2.7884037,48.0899176],[2.78852,48.089695],[2.7886987,48.08942],[2.7888865,48.0891333],[2.7891209,48.0887208],[2.7891446,48.0886357],[2.7891442,48.088628],[2.7892736,48.0886628],[2.7892676,48.0886789],[2.7892434,48.0887149],[2.7892095,48.0887687],[2.7889558,48.0891569],[2.7888175,48.0893729],[2.7886134,48.0896878],[2.788475,48.0899281],[2.7884326,48.0899819],[2.7884137,48.0899983],[2.7883728,48.0900317],[2.7882571,48.0901114],[2.7881485,48.0901833],[2.7879983,48.0902985],[2.7878812,48.0903981],[2.7878523,48.0904228],[2.7878095,48.0904828],[2.7877946,48.0905179],[2.7877194,48.0906584],[2.7876827,48.0907199],[2.7876634,48.0907579],[2.7876212,48.0908325],[2.7875988,48.0908791],[2.7875711,48.0909016],[2.7875525,48.0909118],[2.7874493,48.0909449],[2.7873858,48.0909539],[2.7873228,48.0909731],[2.7872011,48.0909783],[2.7871088,48.0909821],[2.786879,48.0910807],[2.7869272,48.0911711],[2.786889,48.0911741],[2.7868245,48.091078],[2.7867143,48.0910865],[2.7866688,48.0910876],[2.786581,48.0910882],[2.7863686,48.0910903],[2.7863207,48.0911229]]]]},"properties":{"natural":"water","source":"cadastre-dgi-fr source : Direction Générale des Impôts - Cadastre. Mise à jour : 2012","water":"stream"}},
{"type":"Feature","geometry":{"type":"MultiPolygon","coordinates":[[[[2.7920197,48.1500104],[2.7920281,48.1499875],[2.79205,48.1499757],[2.7920833,48.1499737],[2.7921196,48.1499863],[2.7921372,48.1500065],[2.7924057,48.1499898],[2.7925492,48.1499808],[2.7928815,48.1499601],[2.7928808,48.1499549],[2.7928867,48.1499343],[2.7928941,48.1499254],[2.7929177,48.1499176],[2.79295,48.1499177],[2.7929838,48.1499236],[2.7930014,48.1499365],[2.7930043,48.1499552],[2.792988,48.1499787],[2.7929483,48.1499915],[2.7929755,48.1501874],[2.7929856,48.1502899],[2.7929884,48.1503334],[2.7930032,48.1504993],[2.7930331,48.1505066],[2.7930555,48.150522],[2.7930594,48.1505419],[2.7930534,48.1505597],[2.7930229,48.1505778],[2.7929954,48.1505792],[2.79296,48.1505695],[2.7929401,48.1505431],[2.7928937,48.1505444],[2.7927504,48.15055],[2.7926842,48.1505588],[2.7926827,48.1505824],[2.7926532,48.1505951],[2.7926223,48.1505951],[2.7925989,48.1505793],[2.7925901,48.1505626],[2.7925712,48.1505648],[2.7925533,48.1505674],[2.7925489,48.1505822],[2.7925311,48.1505979],[2.792512,48.1505978],[2.7924768,48.1505869],[2.7924651,48.1505682],[2.792215,48.1505855],[2.7922055,48.1506036],[2.7921899,48.1506231],[2.7921586,48.1506293],[2.7921337,48.1506264],[2.7921171,48.1506167],[2.7920985,48.1506006],[2.7921027,48.1505805],[2.7921121,48.1505638],[2.7921392,48.1505555],[2.7921538,48.1505534],[2.7920892,48.1500509],[2.7920664,48.1500516],[2.7920404,48.1500404],[2.7920217,48.1500278],[2.7920197,48.1500104]]]]},"properties":{"source":"cadastre-dgi-fr source : Direction Générale des Impôts - Cadastre. Mise à jour : 2012"}},
{"type":"Feature","geometry":{"type":"MultiPolygon","coordinates":[[[[2.8751442,48.178822],[2.8758989,48.1786875],[2.8762177,48.1794828],[2.875463,48.1796173],[2.8751442,48.178822]]]]},"properties":{"leisure":"pitch","sport":"soccer"}},
{"type":"Feature","geometry":{"type":"MultiPolygon","coordinates":[[[[2.8195066,48.2001108],[2.8199686,48.1998746],[2.8201423,48.2000264],[2.8196804,48.2002627],[2.8195066,48.2001108]]]]},"properties":{"leisure":"pitch","sport":"tennis"}},
{"type":"Feature","geometry":{"type":"MultiPolygon","coordinates":[[[[2.8189355,48.1384278],[2.8191791,48.1384343],[2.8191713,48.1387478],[2.8189393,48.1387517],[2.8189355,48.1384278]]]]},"properties":{"access":"private","leisure":"pitch","sport":"tennis"}},
{"type":"Feature","geometry":{"type":"MultiPolygon","coordinates":[[[[2.859051,48.1316036],[2.8590693,48.1313215],[2.859945,48.1313468],[2.8599267,48.131629],[2.859051,48.1316036]]]]},"properties":{"leisure":"pitch","sport":"soccer"}},
{"type":"Feature","geometry":{"type":"MultiPolygon","coordinates":[[[[2.8599749,48.1316083],[2.859982,48.1313312],[2.8602193,48.1313339],[2.8602121,48.131611],[2.8599749,48.1316083]]]]},"properties":{"leisure":"pitch","sport":"basketball"}},
{"type":"Feature","geometry":{"type":"MultiPolygon","coordinates":[[[[2.8403998,48.1306183],[2.8406164,48.1306112],[2.8406401,48.1308706],[2.8404407,48.1308862],[2.8403998,48.1306183]]]]},"properties":{"access":"private","leisure":"pitch","sport":"tennis"}},
{"type":"Feature","geometry":{"type":"MultiPolygon","coordinates":[[[[2.8009628,48.0926151],[2.8009713,48.0926038],[2.8010334,48.0925608],[2.8010456,48.092558],[2.8010616,48.0925577],[2.8010822,48.0925696],[2.8010843,48.0925832],[2.8010108,48.0926344],[2.8010006,48.0926369],[2.8009897,48.0926361],[2.8009695,48.0926239],[2.8009628,48.0926151]]]]},"properties":{"access":"private","leisure":"swimming_pool"}},
{"type":"Feature","geometry":{"type":"MultiPolygon","coordinates":[[[[2.8003613,48.0921453],[2.800746,48.092028],[2.8007846,48.0920772],[2.8008707,48.0920497],[2.8009522,48.0921142],[2.8009294,48.0921209],[2.8009375,48.092131],[2.8009444,48.0921445],[2.8009465,48.092156],[2.8009469,48.0921681],[2.8009448,48.0921755],[2.8009681,48.0921831],[2.8009579,48.0921995],[2.8009439,48.0922161],[2.8009241,48.0922285],[2.800903,48.0922389],[2.8008781,48.0922468],[2.8005391,48.0923523],[2.8004788,48.0922635],[2.8004501,48.0922714],[2.8003613,48.0921453]]]]},"properties":{"leisure":"swimming_pool","sport":"swimming"}},
{"type":"Feature","geometry":{"type":"MultiPolygon","coordinates":[[[[2.7957479,48.1041426],[2.795816,48.1040988],[2.7958484,48.1041219],[2.7957811,48.1041648],[2.7957753,48.1041623],[2.7957704,48.1041637],[2.7957662,48.1041637],[2.7957598,48.1041626],[2.7957545,48.1041599],[2.7957521,48.1041569],[2.7957502,48.1041517],[2.7957521,48.1041485],[2.7957537,48.1041453],[2.7957479,48.1041426]]]]},"properties":{"access":"private","leisure":"swimming_pool","source":"cadastre-dgi-fr source : Direction Générale des Impôts - Cadastre. Mise à jour : 2013"}},
{"type":"Feature","geometry":{"type":"MultiPolygon","coordinates":[[[[2.7949166,48.0961682],[2.7950116,48.0961633],[2.7950153,48.0961956],[2.7949204,48.0962009],[2.7949166,48.0961682]]]]},"properties":{"access":"private","leisure":"swimming_pool","source":"cadastre-dgi-fr source : Direction Générale des Impôts - Cadastre. Mise à jour : 2013"}},
{"type":"Feature","geometry":{"type":"MultiPolygon","coordinates":[[[[2.9047453,48.1213544],[2.9049117,48.1213503],[2.9049117,48.1213651],[2.9049196,48.1213662],[2.9049311,48.1213686],[2.9049329,48.1213751],[2.904932,48.121381],[2.9049276,48.1213863],[2.9049125,48.1213869],[2.9049117,48.1214058],[2.9047471,48.1214111],[2.9047453,48.1213544]]]]},"properties":{"access":"private","leisure":"swimming_pool"}},
{"type":"Feature","geometry":{"type":"MultiPolygon","coordinates":[[[[2.879312,48.1127197],[2.8793544,48.1125957],[2.8794651,48.1125131],[2.8796605,48.1124413],[2.8798494,48.1124131],[2.879921,48.1124413],[2.8800318,48.1125109],[2.880149,48.1125805],[2.8801816,48.1126957],[2.8801229,48.1127653],[2.8799373,48.1128305],[2.8798266,48.1128436],[2.8797875,48.1128371],[2.8797647,48.1128414],[2.8797386,48.1128675],[2.8796181,48.112898],[2.8795074,48.1128806],[2.8793641,48.1128023],[2.879312,48.1127197]]]]},"properties":{"name":"Mare de Lamerville","natural":"water","water":"pond"}},
{"type":"Feature","geometry":{"type":"MultiPolygon","coordinates":[[[[2.7860944,48.0915874],[2.7861,48.0915518],[2.7861016,48.0915251],[2.7861257,48.0914491],[2.7861372,48.0914351],[2.7861552,48.0914133],[2.7861676,48.0914015],[2.7861853,48.0913858],[2.786196,48.0913615],[2.7862105,48.0911239],[2.7861732,48.0908652],[2.7861533,48.0908239],[2.7861756,48.0907414],[2.7862464,48.09067],[2.7863025,48.0905934],[2.7863219,48.0905574],[2.7863326,48.0905209],[2.7863352,48.0905026],[2.7863645,48.090228],[2.7864226,48.0900306],[2.7867105,48.0894965],[2.786733,48.0894765],[2.7869894,48.0893145],[2.7870841,48.0892941],[2.7871249,48.0892803],[2.7871325,48.089243],[2.7871443,48.0892147],[2.7871667,48.089198],[2.7874952,48.0890896],[2.7897834,48.0883361],[2.7902569,48.0881211],[2.7907704,48.0880386],[2.7911487,48.0881306],[2.7913206,48.0881773],[2.7913868,48.0881991],[2.7915201,48.0882087],[2.7915735,48.0882022],[2.7916594,48.0881634],[2.791856,48.0880473],[2.7921894,48.0879169],[2.7922582,48.087895],[2.792677,48.087871],[2.7934608,48.0877288],[2.7936482,48.0877087],[2.7938369,48.0876523],[2.7939358,48.0875687],[2.7941276,48.0871871],[2.7941837,48.087116],[2.7942549,48.0870571],[2.7942867,48.0870359],[2.7943044,48.0870238],[2.7943773,48.0869897],[2.7945036,48.0869686],[2.795072,48.0869744],[2.7951295,48.086978],[2.7952574,48.086996],[2.7953191,48.0869961],[2.7958644,48.086881],[2.796067,48.0868652],[2.7961894,48.086795],[2.7964529,48.0866842],[2.7967528,48.0865553],[2.7970145,48.0864668],[2.7972952,48.0862875],[2.797875,48.0860738],[2.7983623,48.0860675],[2.799029,48.0861324],[2.7995597,48.0863029],[2.7996406,48.0863526],[2.80015,48.0866922],[2.8002022,48.0867108],[2.8002609,48.086716],[2.8003572,48.0867111],[2.8006427,48.0866868],[2.8006973,48.0866825],[2.8008359,48.0866788],[2.800857,48.0866828],[2.8018713,48.0869143],[2.801971,48.0869251],[2.8020591,48.0869284],[2.8021354,48.0869297],[2.802187,48.0869392],[2.8022445,48.0869692],[2.8024039,48.0870466],[2.8025012,48.0870763],[2.8025441,48.0870728],[2.802587,48.0870603],[2.802867,48.0869239],[2.8029882,48.0868537],[2.8030441,48.086842],[2.8033888,48.0868213],[2.8034305,48.0868025],[2.8034577,48.086764],[2.8035263,48.0866264],[2.8035576,48.0865954],[2.8035934,48.0865793],[2.8036296,48.0865739],[2.8036404,48.0865733],[2.8039739,48.0866496],[2.8040469,48.0866614],[2.8040834,48.0866642],[2.8041117,48.0866604],[2.8041374,48.0866532],[2.8041641,48.0866399],[2.8041999,48.0866177],[2.8042519,48.0865802],[2.8042943,48.0865681],[2.8043358,48.0865637],[2.8043898,48.086561],[2.8044654,48.0865545],[2.8045136,48.086544],[2.8045793,48.0865157],[2.8047736,48.0865083],[2.8048884,48.0864612],[2.8050232,48.0863857],[2.805208,48.0862392],[2.805762,48.0859758],[2.8063572,48.0855774],[2.8067475,48.0853466],[2.8071892,48.0851387],[2.8076507,48.0849078],[2.8077248,48.0849399],[2.8078028,48.0848949],[2.8079908,48.0847869],[2.8082128,48.0846599],[2.8082148,48.0846669],[2.8084048,48.0845789],[2.8085768,48.0843779],[2.8086208,48.0842909],[2.8086798,48.0841979],[2.8087308,48.0840999],[2.8087948,48.0840429],[2.8089148,48.0839749],[2.8090848,48.0838989],[2.8093838,48.0837769],[2.8094548,48.0837299],[2.8095168,48.0836619],[2.8096498,48.0835409],[2.8098458,48.0833969],[2.8101168,48.0832309],[2.8103868,48.0831029],[2.8105438,48.0830119],[2.8106418,48.0829989],[2.8107408,48.0829749],[2.8108768,48.0829139],[2.8108388,48.0828809],[2.8110218,48.0827769],[2.8110408,48.0827929],[2.8113068,48.0826369],[2.8114368,48.0825109],[2.8117568,48.0822869],[2.8120388,48.0820529],[2.8121458,48.0819419],[2.8121568,48.0819029],[2.8121078,48.0817689],[2.8120048,48.0816219],[2.8119968,48.0815729],[2.8120178,48.0815289],[2.8121458,48.0813739],[2.8121708,48.0813549],[2.8123578,48.0812229],[2.8124728,48.0811679],[2.8126838,48.0811229],[2.8129158,48.0810709],[2.8130278,48.0810309],[2.8131468,48.0809789],[2.8137348,48.0806419],[2.8139858,48.0805769],[2.8142138,48.0804959],[2.8144458,48.0803769],[2.8145378,48.0803349],[2.8146728,48.0802909],[2.8148718,48.0802629],[2.8149398,48.0802459],[2.8149728,48.0801809],[2.8152668,48.0802599],[2.8155738,48.0803269],[2.8157968,48.0803079],[2.8159228,48.0802709],[2.8159738,48.0802059],[2.8160458,48.0801839],[2.8161068,48.0801489],[2.8162368,48.0800719],[2.8164168,48.0799499],[2.8167778,48.0798199],[2.8168718,48.0797699],[2.8168958,48.0797539],[2.8170008,48.0796469],[2.8170968,48.0795119],[2.8171728,48.0794379],[2.8172398,48.0793829],[2.8173598,48.0793119],[2.8175058,48.0792449],[2.8176758,48.0791869],[2.8177938,48.0791579],[2.8178998,48.0791409],[2.8179678,48.0791359],[2.8180588,48.0791579],[2.8180888,48.0791599],[2.8181158,48.0791549],[2.8183908,48.0790499],[2.8185948,48.0789349],[2.8186898,48.0789019],[2.8187588,48.0788819],[2.8188998,48.0788239],[2.8190568,48.0787369],[2.8191198,48.0786919],[2.8191758,48.0786399],[2.8192698,48.0785769],[2.819309,48.07852],[2.819415,48.078425],[2.819437,48.078387],[2.819435,48.078342],[2.819422,48.078307],[2.819338,48.07819],[2.819312,48.078112],[2.819292,48.07799],[2.819297,48.077946],[2.819317,48.077882],[2.819306,48.077859],[2.819199,48.077783],[2.819132,48.077703],[2.819113,48.077643],[2.819113,48.077634],[2.819132,48.077611],[2.819157,48.077596],[2.819174,48.077582],[2.819183,48.077564],[2.819186,48.077548],[2.819176,48.077522],[2.819156,48.077498],[2.819053,48.077411],[2.819038,48.077394],[2.81902,48.077358],[2.818993,48.077239],[2.818982,48.077095],[2.819008,48.076971],[2.819045,48.076883],[2.819086,48.076803],[2.819092,48.076699],[2.819061,48.076501],[2.819062,48.076492],[2.819082,48.076407],[2.819086,48.076349],[2.819129,48.076287],[2.819279,48.076144],[2.819325,48.076139],[2.820213,48.075891],[2.820345,48.07585],[2.820584,48.075787],[2.820942,48.075685],[2.821124,48.075663],[2.82119,48.07565],[2.821234,48.075637],[2.821306,48.075601],[2.821469,48.075512],[2.821531,48.075489],[2.821636,48.075455],[2.821805,48.07541],[2.821928,48.075394],[2.821982,48.075391],[2.822119,48.075397],[2.82221,48.07541],[2.822293,48.075431],[2.822375,48.075457],[2.822443,48.075487],[2.822598,48.075574],[2.822707,48.075645],[2.822805,48.075705],[2.822854,48.075727],[2.822886,48.075736],[2.822935,48.075747],[2.823194,48.075786],[2.823328,48.075796],[2.823465,48.075788],[2.82358,48.075776],[2.823893,48.075757],[2.82393,48.075751],[2.824025,48.075719],[2.824049,48.075709],[2.824091,48.075678],[2.82422,48.075552],[2.824249,48.075532],[2.824282,48.075516],[2.824307,48.075509],[2.824342,48.075504],[2.824369,48.075503],[2.824429,48.075506],[2.824492,48.075519],[2.824525,48.075531],[2.824547,48.075542],[2.824586,48.075569],[2.824605,48.075592],[2.824624,48.075638],[2.824641,48.075728],[2.824652,48.075762],[2.824727,48.075875],[2.824734,48.075892],[2.824737,48.075925],[2.824734,48.076003],[2.824745,48.076033],[2.824756,48.076043],[2.824769,48.076051],[2.824788,48.076055],[2.824819,48.076055],[2.824882,48.076048],[2.824942,48.076031],[2.824958,48.076022],[2.82497,48.07601],[2.824973,48.075976],[2.824939,48.075894],[2.824939,48.075884],[2.824942,48.075877],[2.824952,48.075865],[2.824961,48.075856],[2.824974,48.075848],[2.825009,48.075833],[2.825104,48.075807],[2.825172,48.0758],[2.825208,48.075799],[2.82524,48.075803],[2.825261,48.075808],[2.825291,48.075822],[2.825322,48.075846],[2.825355,48.075868],[2.825403,48.075895],[2.825528,48.075947],[2.825583,48.075973],[2.825709,48.076037],[2.825895,48.076122],[2.825926,48.076132],[2.825964,48.076134],[2.825992,48.076182],[2.8258784,48.0762059],[2.82583,48.076169],[2.825685,48.076097],[2.825442,48.075997],[2.825261,48.075901],[2.82521,48.075879],[2.825181,48.075876],[2.82515,48.075878],[2.825122,48.075887],[2.825097,48.0759],[2.825074,48.075919],[2.825065,48.075942],[2.825076,48.075978],[2.825079,48.075999],[2.825068,48.076031],[2.82504,48.076074],[2.825024,48.076088],[2.825005,48.076098],[2.824938,48.076111],[2.824828,48.076117],[2.824786,48.076113],[2.8247,48.076091],[2.824676,48.07608],[2.824663,48.076071],[2.824659,48.076062],[2.824671,48.075952],[2.824664,48.07591],[2.824653,48.075881],[2.824632,48.075853],[2.824587,48.075799],[2.824567,48.075741],[2.824547,48.075647],[2.82454,48.075636],[2.824526,48.07562],[2.824483,48.075597],[2.824395,48.075568],[2.824373,48.075568],[2.824343,48.07557],[2.824319,48.075576],[2.824294,48.075586],[2.824255,48.07562],[2.824194,48.075713],[2.82414,48.075759],[2.824087,48.075786],[2.823973,48.075814],[2.823865,48.075834],[2.823764,48.075845],[2.823591,48.075851],[2.823471,48.075859],[2.823347,48.075872],[2.823316,48.075873],[2.823272,48.07587],[2.82294,48.075813],[2.822847,48.075794],[2.822789,48.075776],[2.82267,48.07572],[2.822597,48.07568],[2.822352,48.075531],[2.822281,48.075501],[2.822179,48.075468],[2.822115,48.075455],[2.822028,48.075445],[2.821965,48.075445],[2.821926,48.075447],[2.821857,48.075455],[2.821821,48.075462],[2.821471,48.075575],[2.821361,48.075636],[2.821297,48.07567],[2.821239,48.075692],[2.821175,48.075709],[2.821122,48.075716],[2.820988,48.075723],[2.820961,48.075729],[2.82033,48.075932],[2.819768,48.076092],[2.819815,48.076276],[2.819732,48.076404],[2.819696,48.076437],[2.819454,48.076649],[2.819222,48.076812],[2.819197,48.076836],[2.81914,48.076934],[2.819099,48.077052],[2.819099,48.077188],[2.819134,48.07733],[2.819147,48.077357],[2.819231,48.077442],[2.819282,48.077512],[2.819297,48.077567],[2.819287,48.077596],[2.8192719999999999,48.077613],[2.819232,48.077649],[2.81923,48.077678],[2.819253,48.077719],[2.819423,48.077844],[2.819439,48.077878],[2.81941,48.077958],[2.819417,48.07808],[2.819431,48.078159],[2.819448,48.078178],[2.819509,48.078253],[2.819529,48.07831],[2.819543,48.078391],[2.819544,48.078413],[2.819522,48.078529],[2.81951,48.078563],[2.819488,48.078606],[2.8194785,48.0786181],[2.8194658,48.0786869],[2.8194318,48.0787269],[2.8194178,48.0787759],[2.8194088,48.0788169],[2.8193858,48.0788549],[2.8193518,48.0788899],[2.8192958,48.0789229],[2.8192518,48.0789459],[2.8191478,48.0789789],[2.8190498,48.0789919],[2.8189538,48.0789979],[2.8188548,48.0790099],[2.8184008,48.0791689],[2.8183458,48.0791869],[2.8182048,48.0792239],[2.8181968,48.0792269],[2.8179798,48.0792469],[2.8177818,48.0792629],[2.8176058,48.0792999],[2.8174748,48.0793529],[2.8173798,48.0794099],[2.8172408,48.0795209],[2.8172058,48.0795639],[2.8171408,48.0796659],[2.8170518,48.0797679],[2.8169638,48.0798399],[2.8168748,48.0798829],[2.8166568,48.0799589],[2.8165278,48.0800069],[2.8164698,48.0800399],[2.8163088,48.0801539],[2.8161878,48.0802319],[2.8160578,48.0802919],[2.8158898,48.0803439],[2.8157948,48.0803649],[2.8156958,48.0803809],[2.8156368,48.0803859],[2.8154388,48.0803789],[2.8153478,48.0803439],[2.8152788,48.0803339],[2.8151588,48.0803339],[2.8150028,48.0803309],[2.8147768,48.0803549],[2.8145788,48.0804039],[2.8144258,48.0804739],[2.8142048,48.0805689],[2.8140028,48.0806259],[2.8139898,48.0806019],[2.8136978,48.0807049],[2.8131978,48.0809929],[2.8129768,48.0810909],[2.8126668,48.0811489],[2.8124448,48.0812119],[2.8121948,48.0813809],[2.8120588,48.0815629],[2.8120748,48.0816739],[2.8122148,48.0818969],[2.8121758,48.0819909],[2.8116918,48.0823759],[2.8113118,48.0826869],[2.8108658,48.0829599],[2.8105138,48.0830759],[2.8099168,48.0833849],[2.8097488,48.0835049],[2.8095868,48.0836839],[2.8094438,48.0837839],[2.8090578,48.0839449],[2.8090128,48.0839649],[2.8087888,48.0840919],[2.8084888,48.0845669],[2.8077588,48.0849669],[2.8067015,48.0855251],[2.806683,48.0855835],[2.8061178,48.085957],[2.8056021,48.0862092],[2.8053598,48.0863752],[2.8053332,48.0863929],[2.8048831,48.0866141],[2.8044454,48.0866518],[2.8043041,48.0866805],[2.8042251,48.0867321],[2.8041943,48.0867459],[2.8041419,48.0867547],[2.8039726,48.0867328],[2.8038258,48.0867019],[2.8037428,48.0866851],[2.8036996,48.0866844],[2.8036398,48.0866988],[2.8036063,48.0867677],[2.803578,48.0868044],[2.8034015,48.0869215],[2.8033491,48.0869342],[2.8032263,48.0869206],[2.8031092,48.086916],[2.8030502,48.0869242],[2.8029887000000004,48.0869458],[2.8029388,48.086978],[2.8028273,48.0870407],[2.8026517,48.0871311],[2.8024698,48.0871569],[2.8023769,48.087125],[2.8023337,48.0871177],[2.8022948,48.087101],[2.8021747,48.0870201],[2.8021448,48.0870145],[2.8019007,48.0870274],[2.8018558,48.0870251],[2.8018127,48.0870195],[2.8008662,48.0867775],[2.8007998,48.0867746],[2.8002424,48.086832],[2.8001893,48.0868247],[2.8001279,48.0868107],[2.7998935,48.0866601],[2.7996257,48.0865216],[2.7995943,48.086502],[2.7995471,48.0864652],[2.7994355,48.0863371],[2.7994089,48.0863292],[2.798902,48.0862416],[2.7985442,48.0862053],[2.7984745,48.0861902],[2.798394,48.0861912],[2.7982312,48.0862059],[2.797756,48.0862601],[2.7977303,48.086269],[2.7966372,48.0867778],[2.7960645,48.0869415],[2.795466,48.0870951],[2.7951347,48.0870883],[2.7948824,48.0870506],[2.7945378,48.0870689],[2.7944572,48.0870793],[2.7943108,48.087147],[2.7942816,48.0871708],[2.7942416,48.0872114],[2.7941805,48.0873381],[2.7941168,48.0874904],[2.7940808,48.0875588],[2.7940516,48.0875882],[2.7939891,48.0876465],[2.7939142,48.0877037],[2.7936157,48.0878055],[2.7934138,48.0878252],[2.7928353,48.0879571],[2.7921916,48.0880127],[2.7921118,48.0880393],[2.7920128,48.0880869],[2.7919079,48.0881468],[2.7917298,48.0882472],[2.7916076,48.0882804],[2.7915362,48.088288],[2.7914772,48.0882874],[2.7914058,48.08828],[2.7913336,48.0882682],[2.7907721,48.0881131],[2.7906476,48.0881156],[2.7903217,48.0882007],[2.7899575,48.0882783],[2.7898339,48.088328],[2.7898054,48.08837],[2.7897013,48.0884282],[2.7896597,48.0884621],[2.7895955,48.0885181],[2.7896194,48.0885649],[2.7895004,48.0886209],[2.7893816,48.0886346],[2.7892736,48.0886628],[2.7891442,48.088628],[2.7891334,48.0886219],[2.7882554,48.0888934],[2.787246,48.089227],[2.7872251,48.0892476],[2.7872284,48.0892632],[2.7872132,48.089321],[2.7868521,48.0894922],[2.7868196,48.0895139],[2.7867697,48.0895472],[2.7867287,48.0896105],[2.7866684,48.0897523],[2.7865561,48.089993],[2.7865185,48.0900519],[2.7864759,48.0901035],[2.7864632,48.0901591],[2.7864562,48.0902659],[2.7864304,48.0904296],[2.7864244,48.090462],[2.7864159,48.0904937],[2.786332,48.0906669],[2.7863225,48.0906862],[2.7863146,48.0906991],[2.7862833,48.0907613],[2.7862924,48.090822],[2.7863032,48.0908902],[2.7863132,48.0909551],[2.7863241,48.0910709],[2.7863241,48.0910938],[2.7863207,48.0911229],[2.7863148,48.0912437],[2.7863033,48.0913099],[2.7862841,48.091454],[2.7862442,48.0914509],[2.7862282,48.091517],[2.7862676,48.0915215],[2.7862195,48.0917062],[2.7863419,48.0925417],[2.7863592,48.0926533],[2.7863727,48.0927145],[2.7863833,48.0927493],[2.786396,48.0927969],[2.7864005,48.0928105],[2.7864298,48.0928654],[2.786471,48.0929353],[2.7864888,48.0929604],[2.7865074,48.0929749],[2.7865231,48.0929891],[2.7865417,48.0930069],[2.7866063,48.093046],[2.7866332,48.0930579],[2.7866645,48.0930714],[2.786712,48.093087],[2.7867904,48.0931117],[2.7869082,48.0931422],[2.7870472,48.0931786],[2.7871127,48.0931902],[2.7871658,48.0932028],[2.7875319,48.0932483],[2.7875764,48.0933131],[2.787597,48.0933598],[2.7876059,48.0933861],[2.7876254,48.0934446],[2.7875996,48.0934473],[2.7876174,48.093501],[2.7876458,48.0935773],[2.7876571,48.0935913],[2.7877453,48.0937138],[2.7877954,48.0937773],[2.7878152,48.093773],[2.7878259,48.0937956],[2.7878114,48.0938248],[2.7878341,48.093853],[2.7879271,48.0940741],[2.7879944,48.0942594],[2.7880509,48.0944515],[2.7880712,48.0945661],[2.788064,48.0946991],[2.7881383,48.0950069],[2.7882173,48.0953953],[2.7883091,48.0959046],[2.7882725,48.0961048],[2.788258,48.0962027],[2.7882056,48.0962914],[2.7881281,48.0963702],[2.7880974,48.0964039],[2.7880274,48.0964547],[2.7880173,48.0964676],[2.7879932,48.0964912],[2.7879458,48.0965309],[2.7876705,48.0967259],[2.7875811,48.096799],[2.7875257,48.096852],[2.7874899,48.0968886],[2.7873605,48.096845],[2.7873424,48.0968188],[2.7872475,48.0967175],[2.7871995,48.0964751],[2.7871632,48.0963106],[2.7870965,48.0961773],[2.7871543,48.0961647],[2.7871593,48.0961677],[2.7871767,48.0961644],[2.7871996,48.0961595],[2.7872137,48.0961534],[2.787242,48.0961423],[2.7872624,48.0961382],[2.7873093,48.0961313],[2.7873247,48.0961288],[2.7873501,48.096118],[2.7873886,48.0960954],[2.7874169,48.0960786],[2.7874486,48.0960657],[2.7874932,48.0960527],[2.7875223,48.0960438],[2.7875497,48.0960414],[2.787573,48.09604],[2.7875937,48.0960406],[2.7876111,48.0960445],[2.7876414,48.0960493],[2.7876854,48.0960544],[2.7877166,48.0960556],[2.7877448,48.0960526],[2.7877835,48.0960443],[2.7878213,48.0960316],[2.7878488,48.0960194],[2.787875,48.09601],[2.7878978,48.0960042],[2.7879194,48.0960017],[2.7879377,48.0960034],[2.7879609,48.0960079],[2.7879845,48.0960174],[2.7879995,48.0960277],[2.788021,48.0960397],[2.7880933,48.0960173],[2.7880907,48.0960029],[2.7880824,48.0959599],[2.7880295,48.0956801],[2.7879952,48.0952355],[2.7879775,48.0950124],[2.7879665,48.0949428],[2.7879581,48.0948794],[2.7879412,48.0947464],[2.7878988,48.0945516],[2.7878891,48.0944934],[2.7878649,48.0943065],[2.7878469,48.0942386],[2.7877938,48.0940362],[2.7877171,48.0938976],[2.7876916,48.0938541],[2.7876817,48.093831],[2.7876676,48.0938151],[2.7875824,48.093691],[2.7875306,48.0936246],[2.787508,48.0935492],[2.7874944,48.0935269],[2.7874834,48.0934938],[2.7874781,48.0934676],[2.7874714,48.0933619],[2.7874495,48.0933391],[2.7874288,48.0933248],[2.7874081,48.0933151],[2.7873787,48.0933069],[2.7871881,48.0932977],[2.7871487,48.0932923],[2.7871138,48.0932887],[2.7870541,48.0932805],[2.7870188,48.0932721],[2.7869669,48.0932622],[2.7869006,48.0932443],[2.7868264,48.0932175],[2.786758,48.0931898],[2.7867086,48.0931691],[2.7866531,48.0931579],[2.7865962,48.0931428],[2.7865506,48.0931288],[2.7864926,48.0931034],[2.7864632,48.0930863],[2.7864317,48.0930646],[2.7864106,48.0930448],[2.7863966,48.0930231],[2.786371,48.0929971],[2.7863524,48.092971],[2.7863268,48.0929359],[2.7863054,48.0928816],[2.7862885,48.0928501],[2.7862607,48.0927547],[2.7862478,48.0926603],[2.7862107,48.0923009],[2.7861495,48.0917308],[2.7861039,48.0916217],[2.7860944,48.0915874]]]]},"properties":{"source":"cadastre-dgi-fr source : Direction Générale des Impôts - Cadastre. Mise à jour : 2012"}},
{"type":"Feature","geometry":{"type":"MultiPolygon","coordinates":[[[[2.8690993,48.1767759],[2.8691041,48.1767405],[2.8692078,48.176746],[2.8692033,48.1767809],[2.8690993,48.1767759]]]]},"properties":{"access":"private","leisure":"swimming_pool"}},
{"type":"Feature","geometry":{"type":"MultiPolygon","coordinates":[[[[2.8689342,48.1771122],[2.8689468,48.1770843],[2.8690489,48.1771057],[2.8690353,48.1771329],[2.8689342,48.1771122]]]]},"properties":{"access":"private","leisure":"swimming_pool"}},
{"type":"Feature","geometry":{"type":"MultiPolygon","coordinates":[[[[2.8346094,48.1478515],[2.8350492,48.1473755],[2.8358003,48.1476815],[2.8352853,48.1481504],[2.8346094,48.1478515]]]]},"properties":{"leisure":"pitch","sport":"football"}},
{"type":"Feature","geometry":{"type":"MultiPolygon","coordinates":[[[[2.8355025,48.1475348],[2.83576,48.1472717],[2.8359397,48.1473558],[2.8356769,48.1476135],[2.8355025,48.1475348]]]]},"properties":{"leisure":"pitch","lit":"no","sport":"tennis","surface":"asphalt"}},
{"type":"Feature","geometry":{"type":"MultiPolygon","coordinates":[[[[2.8364815,48.1472824],[2.8366693,48.1470856],[2.8367605,48.147073],[2.8368678,48.147107],[2.8368919,48.1471196],[2.8368275,48.1472574],[2.8367927,48.1473075],[2.8364815,48.1472824]]]]},"properties":{"natural":"water","water":"pond"}},
{"type":"Feature","geometry":{"type":"MultiPolygon","coordinates":[[[[2.86469,48.180474],[2.864694,48.1804665],[2.8646965,48.1804628],[2.864693,48.1804591],[2.864691,48.1804551],[2.8646925,48.1804495],[2.8646966,48.1804441],[2.8647009,48.1804425],[2.8647091,48.1804408],[2.8647162,48.1804413],[2.8647184,48.1804403],[2.864723,48.180438],[2.8647293,48.1804368],[2.8647375,48.1804371],[2.8647448,48.1804397],[2.8647498,48.1804439],[2.8647533,48.1804494],[2.8647521,48.1804545],[2.8647503,48.1804577],[2.8647548,48.1804605],[2.8647613,48.1804664],[2.8647633,48.1804726],[2.8647651,48.1804805],[2.8647618,48.1804879],[2.8647552,48.1804945],[2.8647467,48.1804997],[2.8647318,48.1805033],[2.8647173,48.1805023],[2.8647047,48.1804972],[2.8646977,48.1804927],[2.8646929,48.1804877],[2.8646909,48.1804823],[2.86469,48.180474]]]]},"properties":{"access":"private","leisure":"swimming_pool","source":"cadastre-dgi-fr source : Direction Générale des Impôts - Cadastre. Mise à jour : 2014"}},
{"type":"Feature","geometry":{"type":"MultiPolygon","coordinates":[[[[2.8811019,48.1679088],[2.8811542,48.1678982],[2.8811796,48.1679685],[2.8811684,48.1679697],[2.8811686,48.1679715],[2.881167,48.1679761],[2.8811633,48.1679804],[2.8811599,48.167983],[2.8811558,48.1679831],[2.8811478,48.1679823],[2.881141,48.1679784],[2.8811373,48.1679747],[2.8811268,48.1679765],[2.8811019,48.1679088]]]]},"properties":{"access":"private","leisure":"swimming_pool","source":"cadastre-dgi-fr source : Direction Générale des Impôts - Cadastre. Mise à jour : 2014"}},
{"type":"Feature","geometry":{"type":"MultiPolygon","coordinates":[[[[2.8828556,48.1689552],[2.882888,48.1689151],[2.8829797,48.1689493],[2.8829499,48.1689881],[2.8828556,48.1689552]]]]},"properties":{"access":"private","leisure":"swimming_pool","source":"cadastre-dgi-fr source : Direction Générale des Impôts - Cadastre. Mise à jour : 2014"}},
{"type":"Feature","geometry":{"type":"MultiPolygon","coordinates":[[[[2.8713341,48.1770153],[2.8713968,48.1770062],[2.871404,48.177044],[2.871413,48.177088],[2.871418,48.1771043],[2.8713573,48.1771107],[2.8713341,48.1770153]]]]},"properties":{"access":"private","leisure":"swimming_pool","source":"cadastre-dgi-fr source : Direction Générale des Impôts - Cadastre. Mise à jour : 2014"}},
{"type":"Feature","geometry":{"type":"MultiPolygon","coordinates":[[[[2.8601523,48.1727703],[2.8618215,48.1717079],[2.8619659,48.1718074],[2.8611681,48.1730446],[2.8603702,48.1729278],[2.8601523,48.1727703]]]]},"properties":{"natural":"water","source":"cadastre-dgi-fr source : Direction Générale des Impôts - Cadastre. Mise à jour : 2014","water":"basin"}},
{"type":"Feature","geometry":{"type":"MultiPolygon","coordinates":[[[[2.8698548,48.1242353],[2.8703525,48.1241188],[2.8704249,48.1242729],[2.86994,48.1243878],[2.8698548,48.1242353]]]]},"properties":{"access":"private","leisure":"pitch","source":"cadastre-dgi-fr source : Direction Générale des Impôts - Cadastre. Mise à jour : 2014","sport":"tennis"}},
{"type":"Feature","geometry":{"type":"MultiPolygon","coordinates":[[[[2.8353588,48.1502354],[2.8353973,48.1501696],[2.8354399,48.1501798],[2.8354032,48.1502455],[2.8353588,48.1502354]]]]},"properties":{"access":"private","leisure":"swimming_pool","source":"cadastre-dgi-fr source : Direction Générale des Impôts - Cadastre. Mise à jour : 2014"}},
{"type":"Feature","geometry":{"type":"MultiPolygon","coordinates":[[[[2.8334468,48.1216333],[2.8334838,48.1216111],[2.8335597,48.1216648],[2.8335211,48.1216888],[2.8334468,48.1216333]]]]},"properties":{"access":"private","leisure":"swimming_pool","source":"cadastre-dgi-fr source : Direction Générale des Impôts - Cadastre. Mise à jour : 2015"}},
{"type":"Feature","geometry":{"type":"MultiPolygon","coordinates":[[[[2.8348,48.1220003],[2.8348841,48.12196],[2.8349751,48.12204],[2.8349309,48.1220656],[2.8348955,48.1220793],[2.8348,48.1220003]]]]},"properties":{"access":"private","leisure":"swimming_pool","source":"cadastre-dgi-fr source : Direction Générale des Impôts - Cadastre. Mise à jour : 2015"}},
{"type":"Feature","geometry":{"type":"MultiPolygon","coordinates":[[[[2.7910423,48.0917679],[2.7910549,48.0917635],[2.7911249,48.0917624],[2.7911365,48.0917666],[2.7911372,48.0917883],[2.7911236,48.0917932],[2.7910566,48.0917934],[2.7910436,48.0917897],[2.7910423,48.0917679]]]]},"properties":{"access":"private","leisure":"swimming_pool"}},
{"type":"Feature","geometry":{"type":"MultiPolygon","coordinates":[[[[2.8796075,48.1601817],[2.8798489,48.1600028],[2.8799187,48.1600314],[2.8802352,48.1603338],[2.8802057,48.1603857],[2.8799374,48.1605056],[2.8798811,48.160502],[2.8796236,48.1602283],[2.8796075,48.1601817]]]]},"properties":{"natural":"water","water":"basin"}},
{"type":"Feature","geometry":{"type":"MultiPolygon","coordinates":[[[[2.879401,48.160341],[2.8795646,48.1602569],[2.8798248,48.1605539],[2.8795324,48.1606702],[2.879401,48.160341]]]]},"properties":{"natural":"water","water":"basin"}},
{"type":"Feature","geometry":{"type":"MultiPolygon","coordinates":[[[[2.8534017,48.0930336],[2.8534446,48.0930221],[2.8534792,48.0930797],[2.8534363,48.0930912],[2.8534017,48.0930336]]]]},"properties":{"access":"private","leisure":"swimming_pool"}},
{"type":"Feature","geometry":{"type":"MultiPolygon","coordinates":[[[[2.8607875,48.1834962],[2.8607891,48.1834877],[2.8607999,48.1834797],[2.8608156,48.1834757],[2.860826,48.1834759],[2.8608944,48.1834942],[2.8609008,48.1835],[2.8609035,48.1835105],[2.8609011,48.1835179],[2.8608944,48.1835251],[2.8608844,48.1835289],[2.8608689,48.1835295],[2.8608009,48.1835125],[2.8607915,48.1835061],[2.8607875,48.1834962]]]]},"properties":{"access":"private","leisure":"swimming_pool"}},
{"type":"Feature","geometry":{"type":"MultiPolygon","coordinates":[[[[2.8603131999999999,48.1839481],[2.8603272,48.1839104],[2.8604348,48.1839283],[2.8604208,48.1839659],[2.8603131999999999,48.1839481]]]]},"properties":{"access":"private","leisure":"swimming_pool"}},
{"type":"Feature","geometry":{"type":"MultiPolygon","coordinates":[[[[2.863856,48.182762],[2.8639387,48.1827429],[2.8639756,48.1827473],[2.8640058,48.1827719],[2.864048,48.1829329],[2.8639039,48.1829476],[2.863895,48.182936],[2.8638712,48.1828605],[2.863886,48.182858],[2.863856,48.182762]]]]},"properties":{"natural":"water"}},
{"type":"Feature","geometry":{"type":"MultiPolygon","coordinates":[[[[2.8186738,48.1026609],[2.8187245,48.1026597],[2.8187283,48.1027362],[2.8186775,48.1027372],[2.8186738,48.1026609]]]]},"properties":{"access":"private","leisure":"swimming_pool"}},
{"type":"Feature","geometry":{"type":"MultiPolygon","coordinates":[[[[2.8351378,48.1063736],[2.8351844,48.1063556],[2.8352582,48.1064413],[2.8352116,48.1064591],[2.8351378,48.1063736]]]]},"properties":{"access":"private","leisure":"swimming_pool"}},
{"type":"Feature","geometry":{"type":"MultiPolygon","coordinates":[[[[2.8282813,48.125131],[2.8283195,48.1251109],[2.8283861,48.1251663],[2.8283818,48.1251685],[2.8283852,48.1251779],[2.8283784,48.1251861],[2.8283647,48.1251885],[2.8283519,48.1251843],[2.8283478,48.1251865],[2.8282813,48.125131]]]]},"properties":{"access":"private","leisure":"swimming_pool"}},
{"type":"Feature","geometry":{"type":"MultiPolygon","coordinates":[[[[2.8325804,48.1310926],[2.8326452,48.131082],[2.8326808,48.131178],[2.8326154,48.1311887],[2.8325804,48.1310926]]]]},"properties":{"access":"private","leisure":"swimming_pool"}},
{"type":"Feature","geometry":{"type":"MultiPolygon","coordinates":[[[[2.8392163,48.1306635],[2.8392736,48.1306434],[2.8393316,48.1307173],[2.8393206,48.1307212],[2.8393225,48.1307262],[2.839322,48.1307312],[2.8393182,48.1307358],[2.8393124,48.1307389],[2.8393048,48.1307405],[2.8392973,48.1307399],[2.8392905,48.1307375],[2.8392857,48.1307334],[2.839274,48.1307375],[2.8392163,48.1306635]]]]},"properties":{"access":"private","leisure":"swimming_pool"}},
{"type":"Feature","geometry":{"type":"MultiPolygon","coordinates":[[[[2.846331,48.1350409],[2.846383,48.1350109],[2.8464739,48.1350966],[2.8464179,48.1351243],[2.846331,48.1350409]]]]},"properties":{"access":"private","leisure":"swimming_pool"}},
{"type":"Feature","geometry":{"type":"MultiPolygon","coordinates":[[[[2.8582907,48.1344115],[2.8584114,48.1340955],[2.8586487,48.1341376],[2.858524,48.1344553],[2.8582907,48.1344115]]]]},"properties":{"leisure":"pitch","sport":"tennis"}},
{"type":"Feature","geometry":{"type":"MultiPolygon","coordinates":[[[[2.8779731,48.129066],[2.8780696,48.1290376],[2.8780864,48.1290638],[2.8779898,48.1290922],[2.8779731,48.129066]]]]},"properties":{"access":"private","leisure":"swimming_pool"}},
{"type":"Feature","geometry":{"type":"MultiPolygon","coordinates":[[[[2.8938973,48.135462],[2.893929,48.1354169],[2.8939578,48.1354255],[2.8939258,48.135471],[2.8938973,48.135462]]]]},"properties":{"access":"private","leisure":"swimming_pool"}},
{"type":"Feature","geometry":{"type":"MultiPolygon","coordinates":[[[[2.7956423,48.0871808],[2.7956973,48.0871422],[2.7957845,48.0871673],[2.7959937,48.0872677],[2.7961278,48.0873769],[2.7963236,48.0878258],[2.7962793,48.0878634],[2.7960138,48.0879001],[2.7959695,48.0878965],[2.7959534,48.0878804],[2.795822,48.0875902],[2.795649,48.0872542],[2.7956423,48.0871808]]]]},"properties":{"natural":"water"}},
{"type":"Feature","geometry":{"type":"MultiPolygon","coordinates":[[[[2.8015096,48.0849877],[2.8015271,48.0848972],[2.801578,48.0848577],[2.80203,48.0847789],[2.8020595,48.0847959],[2.8022379,48.0850468],[2.8019536,48.0852206],[2.8018369,48.0853093],[2.801798,48.0853729],[2.8020528,48.0854311],[2.8019857,48.0855565],[2.8019723,48.0855888],[2.8020219,48.0856139],[2.802089,48.0856031],[2.8023398,48.0854186],[2.8024524,48.0853281],[2.8025852,48.0852645],[2.8028078,48.0852027],[2.8028963,48.0851973],[2.8029365999999999,48.0852089],[2.8031351,48.0854938],[2.803123,48.0855189],[2.8025852,48.0858181],[2.8022714,48.0859328],[2.80214,48.0859534],[2.8020474,48.0859265],[2.8018959,48.0858092],[2.8018248,48.0857088],[2.8015378,48.0850781],[2.8015096,48.0849877]]]]},"properties":{"natural":"water"}},
{"type":"Feature","geometry":{"type":"MultiPolygon","coordinates":[[[[2.802329,48.158343],[2.8025901,48.1580907],[2.8027704,48.1581737],[2.8025092,48.158426],[2.802329,48.158343]]]]},"properties":{"leisure":"pitch","sport":"tennis"}},
{"type":"Feature","geometry":{"type":"MultiPolygon","coordinates":[[[[2.8632715,48.1103424],[2.8632769,48.1102806],[2.8633507,48.1101579],[2.8633735,48.1100487],[2.8634982,48.1100084],[2.8636283,48.1100406],[2.8636497,48.1100532],[2.8636537,48.110089],[2.863533,48.1101561],[2.8634767,48.110217],[2.8635143,48.1103227],[2.8634942,48.1103746],[2.8634311,48.110406],[2.8633265,48.1104069],[2.8632715,48.1103424]]]]},"properties":{"name":"Le Marchais de la Roche","natural":"water"}},
{"type":"Feature","geometry":{"type":"MultiPolygon","coordinates":[[[[2.7914996,48.089105],[2.7915063,48.0890853],[2.7915915,48.0890544],[2.7916177,48.0890893],[2.7915171,48.0891234],[2.7914996,48.089105]]]]},"properties":{"access":"private","leisure":"swimming_pool"}},
{"type":"Feature","geometry":{"type":"MultiPolygon","coordinates":[[[[2.7922265,48.1492467],[2.7923083,48.1492351],[2.7923405,48.1493657],[2.7922614,48.1493765],[2.7922265,48.1492467]]]]},"properties":{"access":"private","leisure":"swimming_pool"}},
{"type":"Feature","geometry":{"type":"MultiPolygon","coordinates":[[[[2.7923392,48.1491411],[2.7925095,48.1491143],[2.7925672,48.1493452],[2.792421,48.1493648],[2.7923392,48.1491411]]]]},"properties":{"leisure":"pitch","sport":"tennis"}},
{"type":"Feature","geometry":{"type":"MultiPolygon","coordinates":[[[[2.7922052,48.1501684],[2.7922282,48.1501396],[2.7922627,48.1501396],[2.7922814,48.1501464],[2.7923762,48.1501368],[2.7923921,48.1501214],[2.7924222,48.1501214],[2.7924409,48.1501262],[2.7924553,48.1501406],[2.7924582,48.1501569],[2.7924467,48.1501694],[2.7924582,48.150224],[2.7924783,48.1502336],[2.7924797,48.150249],[2.7924654,48.1502681],[2.7924409,48.1502777],[2.7923992,48.1502729],[2.7922886,48.1502854],[2.7922785,48.1502892],[2.7922483,48.1502835],[2.7922296,48.1502729],[2.7922282,48.1502605],[2.7922311,48.1502442],[2.7922239,48.150201],[2.7922066,48.1501933],[2.7922052,48.1501684]],[[2.7922769,48.1502127],[2.7923006,48.1502366],[2.7923409,48.1502467],[2.7923823,48.150239],[2.7924091,48.1502165],[2.7924109,48.1501879],[2.7923872,48.1501639],[2.7923469,48.1501539],[2.7923055,48.1501616],[2.7922787,48.1501841],[2.7922769,48.1502127]]]]},"properties":{"building":"castle","historic":"castle","man_made":"tower","ruins":"yes","start_date":"C12","tower:construction":"stone","tower:type":"defensive"}},
{"type":"Feature","geometry":{"type":"MultiPolygon","coordinates":[[[[2.7920197,48.1500104],[2.7920281,48.1499875],[2.79205,48.1499757],[2.7920833,48.1499737],[2.7921196,48.1499863],[2.7921372,48.1500065],[2.7924057,48.1499898],[2.7925492,48.1499808],[2.7928815,48.1499601],[2.7928808,48.1499549],[2.7928867,48.1499343],[2.7928941,48.1499254],[2.7929177,48.1499176],[2.79295,48.1499177],[2.7929838,48.1499236],[2.7930014,48.1499365],[2.7930043,48.1499552],[2.792988,48.1499787],[2.7929483,48.1499915],[2.7929755,48.1501874],[2.7929856,48.1502899],[2.7929884,48.1503334],[2.7930032,48.1504993],[2.7930331,48.1505066],[2.7930555,48.150522],[2.7930594,48.1505419],[2.7930534,48.1505597],[2.7930229,48.1505778],[2.7929954,48.1505792],[2.79296,48.1505695],[2.7929401,48.1505431],[2.7928937,48.1505444],[2.7927504,48.15055],[2.7926842,48.1505588],[2.7926827,48.1505824],[2.7926532,48.1505951],[2.7926223,48.1505951],[2.7925989,48.1505793],[2.7925901,48.1505626],[2.7925712,48.1505648],[2.7925533,48.1505674],[2.7925489,48.1505822],[2.7925311,48.1505979],[2.792512,48.1505978],[2.7924768,48.1505869],[2.7924651,48.1505682],[2.792215,48.1505855],[2.7922055,48.1506036],[2.7921899,48.1506231],[2.7921586,48.1506293],[2.7921337,48.1506264],[2.7921171,48.1506167],[2.7920985,48.1506006],[2.7921027,48.1505805],[2.7921121,48.1505638],[2.7921392,48.1505555],[2.7921538,48.1505534],[2.7920892,48.1500509],[2.7920664,48.1500516],[2.7920404,48.1500404],[2.7920217,48.1500278],[2.7920197,48.1500104]],[[2.7921179,48.150048],[2.7921259,48.1501357],[2.7921595,48.1503714],[2.7921796,48.1505629],[2.7921943,48.1505723],[2.7925336,48.1505432],[2.7928736,48.1505267],[2.7929494,48.1505253],[2.7929863,48.150499],[2.7929574,48.150197],[2.7929004,48.1500171],[2.7928682,48.1499965],[2.7927824,48.1499925],[2.7927998,48.1500762],[2.7926604,48.150086],[2.7926671,48.1500672],[2.7927683,48.150065],[2.7927583,48.1499916],[2.7925745,48.150001],[2.7923486,48.1500194],[2.7921588,48.1500283],[2.7921179,48.150048]]]]},"properties":{"access":"private","building":"yes","castle_type":"defensive","heritage":"3","heritage:operator":"mhs","historic":"castle","historic:civilization":"medieval","mhs:inscription_date":"1940-02-17","name":"Château de Mez-le-Maréchal","ref:mhs":"PA00098766","ruins":"yes","source:heritage":"data.gouv.fr, Ministère de la Culture - 2016","start_date":"C12","website":"https://www.chateau-mezlemarechal.com/","wikidata":"Q22943888"}},
{"type":"Feature","geometry":{"type":"MultiPolygon","coordinates":[[[[2.874473,48.1729954],[2.8748023,48.1729019],[2.8748863,48.173039],[2.8745594,48.1731324],[2.874473,48.1729954]]]]},"properties":{"leisure":"pitch","sport":"basketball"}},
{"type":"Feature","geometry":{"type":"MultiPolygon","coordinates":[[[[2.7896997,48.1412264],[2.7897082,48.1411583],[2.7897765,48.1411621],[2.789768,48.1412302],[2.7896997,48.1412264]]]]},"properties":{"access":"private","leisure":"swimming_pool"}},
{"type":"Feature","geometry":{"type":"MultiPolygon","coordinates":[[[[2.7932669,48.0907102],[2.7933594,48.090701],[2.7933655,48.0907281],[2.7932729,48.0907373],[2.7932669,48.0907102]]]]},"properties":{"access":"private","leisure":"swimming_pool"}},
{"type":"Feature","geometry":{"type":"MultiPolygon","coordinates":[[[[2.8953005,48.1941568],[2.8953306,48.1939722],[2.8953414,48.193962],[2.8953682,48.1939642],[2.8956673,48.1941671],[2.8956693,48.194181],[2.8956438,48.1941922],[2.8954996,48.1941926],[2.8953226,48.1941711],[2.8953092,48.1941658],[2.8953005,48.1941568]]]]},"properties":{"natural":"water","water":"pond"}},
{"type":"Feature","geometry":{"type":"MultiPolygon","coordinates":[[[[2.896965,48.1948288],[2.8970079,48.1947997],[2.897099,48.1948592],[2.8970561,48.1948883],[2.896965,48.1948288]]]]},"properties":{"access":"private","leisure":"swimming_pool"}},
{"type":"Feature","geometry":{"type":"MultiPolygon","coordinates":[[[[2.8744694,48.176398],[2.8745421,48.1763876],[2.8745704,48.1764757],[2.8744977,48.1764861],[2.8744694,48.176398]]]]},"properties":{"access":"private","leisure":"swimming_pool"}},
{"type":"Feature","geometry":{"type":"MultiPolygon","coordinates":[[[[2.8381557,48.1334533],[2.8381972,48.1334264],[2.8382709,48.133477],[2.8382294,48.1335039],[2.8381557,48.1334533]]]]},"properties":{"access":"private","leisure":"swimming_pool"}},
{"type":"Feature","geometry":{"type":"MultiPolygon","coordinates":[[[[2.8611621,48.131172],[2.861387,48.1311314],[2.8615126,48.1314414],[2.8612876,48.131482],[2.8611621,48.131172]]]]},"properties":{"access":"private","leisure":"pitch","sport":"tennis"}},
{"type":"Feature","geometry":{"type":"MultiPolygon","coordinates":[[[[2.896924,48.1411546],[2.8969945,48.1408376],[2.8972282,48.1408607],[2.8971576,48.1411777],[2.896924,48.1411546]]]]},"properties":{"leisure":"pitch","sport":"tennis"}},
{"type":"Feature","geometry":{"type":"MultiPolygon","coordinates":[[[[2.8876016,48.1445846],[2.8876191,48.1445431],[2.8877493,48.1445676],[2.8877317,48.1446092],[2.8876016,48.1445846]]]]},"properties":{"access":"private","leisure":"swimming_pool"}},
{"type":"Feature","geometry":{"type":"MultiPolygon","coordinates":[[[[2.8983656,48.1587493],[2.8983689,48.158739],[2.8983756,48.1587345],[2.8985808,48.1587537],[2.8985922,48.1587586],[2.8985982,48.1587721],[2.8985419,48.1588906],[2.8985272,48.158896],[2.8985131,48.1588955],[2.898499,48.1588879],[2.8983656,48.1587493]]]]},"properties":{"natural":"water","water":"pond"}},
{"type":"Feature","geometry":{"type":"MultiPolygon","coordinates":[[[[2.7987291,48.1348526],[2.79878,48.1347763],[2.7989895,48.1348385],[2.7989386,48.1349148],[2.7987291,48.1348526]]]]},"properties":{"access":"private","leisure":"swimming_pool"}},
{"type":"Feature","geometry":{"type":"MultiPolygon","coordinates":[[[[2.7987639,48.1351195],[2.7987743,48.1349692],[2.7992926,48.1349851],[2.7992823,48.1351354],[2.7987639,48.1351195]]]]},"properties":{"leisure":"pitch","sport":"tennis"}},
{"type":"Feature","geometry":{"type":"MultiPolygon","coordinates":[[[[2.8047925,48.0978506],[2.8050813,48.0978208],[2.8051145,48.0979761],[2.805086,48.0980029],[2.8048302,48.0980245],[2.8047925,48.0978506]]]]},"properties":{"natural":"water","water":"reservoir"}},
{"type":"Feature","geometry":{"type":"MultiPolygon","coordinates":[[[[2.8052146,48.09756],[2.8054703,48.0975394],[2.8055119,48.0977534],[2.8052408,48.0977729],[2.8052146,48.09756]]]]},"properties":{"natural":"water","water":"reservoir"}}
]}
