{"type":"FeatureCollection","features":[
{"type":"Feature","geometry":{"type":"Point","coordinates":[2.3889137,51.268318]},"properties":{"note":"Point 2 - Conversion made from ED50 system to WGS84","source":"Accord relatif à la délimitation de la mer territoriale, signé à Bruxelles le 8 octobre 1990","website:source":"http://untreaty.un.org/unts/120001_144071/13/2/00010336.pdf"}},
{"type":"Feature","geometry":{"type":"LineString","coordinates":[[2.3889137,51.268318],[2.395854,51.260387],[2.4027943,51.2524547],[2.4097346,51.2445209],[2.4166748,51.2365858],[2.4236151,51.2286494],[2.4305554,51.2207115],[2.4374957,51.2127723],[2.444436,51.2048318],[2.4513763,51.1968898],[2.4583166,51.1889465],[2.4652569,51.1810019],[2.4721971,51.1730558],[2.4791374,51.1651084],[2.4860777,51.1571596],[2.493018,51.1492094],[2.4999583,51.1412579],[2.5068986,51.133305],[2.5138389,51.1253508]]},"properties":{"admin_level":"2","border_type":"territorial","boundary":"administrative","description":"loxodromy axis between points 1 and 2 of France-Belgium agreement on territorial sea","left:country":"Belgique / België / Belgien","maritime":"yes","name":"France - Belgique / België / Belgien","name:ar":"بلجيكا - فرنسا","name:da":"Frankrig - Belgien","name:de":"Frankreich - Belgien","name:en":"France – Belgium","name:fa":"بلژیک - فرانسه","name:fr":"France - Belgique","name:lt":"Prancūzija - Belgija","name:nl":"Frankrijk - België","name:no":"Frankrike - Belgia","name:pt":"França - Bélgica","name:ro":"Franța - Belgia","name:ru":"Франция — Бельгия","name:sv":"Frankrike - Belgien","name:ur":"بیلجیم - فرانس","name:wa":"France - Beldjike","right:country":"France","source":"Accord relatif à la délimitation de la mer territoriale, signé à Bruxelles le 8 octobre 1990","website:source":"http://untreaty.un.org/unts/120001_144071/13/2/00010336.pdf"}}
]}
