{"type":"FeatureCollection","features":[
{"type":"Feature","geometry":{"type":"Point","coordinates":[2.4999773,42.3433061]},"properties":{"ele":"1375","name":"els Forquets","natural":"peak"}},
{"type":"Feature","geometry":{"type":"Point","coordinates":[2.4807945,42.3410636]},"properties":{"ele":"1131","information":"guidepost","name":"Col de Malrems","tourism":"information"}},
{"type":"Feature","geometry":{"type":"Point","coordinates":[2.6063968,42.3420393]},"properties":{"hiking":"yes","information":"guidepost","name":"AE80- Coll de Prior","network:type":"node_network","operator":"Itinerànnia","rwn_ref":"AE80","tourism":"information"}},
{"type":"Feature","geometry":{"type":"Point","coordinates":[2.5277649,42.3332995]},"properties":{"alt_name":"Coma Negra","ele":"1557.7","name":"Comanegra","name:ca":"Comanegra","name:fr":"Puig de Coma Negra","natural":"peak","prominence":"425","ref":"ftp://geofons.icc.cat/fitxes/100CIMS/298081006.pdf","source":"Institut Cartogràfic de Catalunya","source:prominence":"CNIG Map. Key col: Coll de Malrem 1133","wikidata":"Q4889555","wikipedia":"ca:Comanegra"}},
{"type":"Feature","geometry":{"type":"Point","coordinates":[2.4808713,42.3409658]},"properties":{"information":"guidepost","name":"R83 Coll de Malrem","network:type":"node_network","operator":"Itinerànnia","rwn_ref":"R83","tourism":"information"}},
{"type":"Feature","geometry":{"type":"Point","coordinates":[2.5442013,42.3386793]},"properties":{"historic":"boundary_stone","name":"522","name:ca":"522"}},
{"type":"Feature","geometry":{"type":"Point","coordinates":[2.5470832,42.3395942]},"properties":{"ele":"1114.2","name":"Coll Pregon","name:ca":"Coll Pregon","natural":"saddle"}},
{"type":"Feature","geometry":{"type":"Point","coordinates":[2.5489376,42.3398272]},"properties":{"ele":"1117.1","name":"Coll del Perer","name:ca":"Coll del Perer","natural":"saddle","wikidata":"Q24003086","wikipedia":"ca:Coll del Perer"}},
{"type":"Feature","geometry":{"type":"Point","coordinates":[2.5520097,42.3424985]},"properties":{"ele":"1122.5","name":"el Collet","name:ca":"el Collet","natural":"saddle"}},
{"type":"Feature","geometry":{"type":"Point","coordinates":[2.6774066,42.3363964]},"properties":{"ele":"449.2","name":"Puig del Roqueter","name:ca":"Puig del Roqueter","natural":"peak","source":"Institut Cartogràfic de Catalunya"}},
{"type":"Feature","geometry":{"type":"Point","coordinates":[2.6772536,42.341745]},"properties":{"ele":"610.6","name":"Puig d'en Roger","name:ca":"Puig d'en Roger","natural":"peak","source":"Institut Cartogràfic de Catalunya"}},
{"type":"Feature","geometry":{"type":"Point","coordinates":[2.4807284,42.3410792]},"properties":{"ele":"1133.8","name":"Coll de Malrem","name:ca":"Coll de Malrem","natural":"saddle","source":"Institut Cartogràfic de Catalunya"}},
{"type":"Feature","geometry":{"type":"Point","coordinates":[2.505502,42.3415822]},"properties":{"ele":"1391.1","name":"Cim de Bordellat","natural":"peak","source":"Institut Cartogràfic de Catalunya"}},
{"type":"Feature","geometry":{"type":"Point","coordinates":[2.4884866,42.3410722]},"properties":{"ele":"1213.3","name":"Collada Fonda","name:ca":"Collada Fonda","natural":"saddle","source":"Institut Cartogràfic de Catalunya"}},
{"type":"Feature","geometry":{"type":"Point","coordinates":[2.5439929,42.339335]},"properties":{"ele":"1126","name":"Coll de les Falgueres","name:ca":"Coll de les Falgueres","natural":"saddle"}},
{"type":"Feature","geometry":{"type":"Point","coordinates":[2.5324509,42.3330362]},"properties":{"hiking":"yes","information":"guidepost","tourism":"information"}},
{"type":"Feature","geometry":{"type":"Point","coordinates":[2.5426011,42.3332154]},"properties":{"hiking":"yes","information":"guidepost","tourism":"information"}},
{"type":"Feature","geometry":{"type":"Point","coordinates":[2.4810835,42.3409579]},"properties":{"name":"Col de Malrems (1131 m)","tourism":"information"}},
{"type":"Feature","geometry":{"type":"Point","coordinates":[2.6755824,42.3423843]},"properties":{"historic":"boundary_stone","name":"Borne frontière 541"}},
{"type":"Feature","geometry":{"type":"Point","coordinates":[2.4810135,42.3410492]},"properties":{"historic":"boundary_stone","name":"Borne frontière 521"}},
{"type":"Feature","geometry":{"type":"Point","coordinates":[2.5444245,42.3386536]},"properties":{"historic":"boundary_stone","name":"Borne frontière 522"}},
{"type":"Feature","geometry":{"type":"Point","coordinates":[2.6667745,42.3412781]},"properties":{"historic":"boundary_stone","name":"Borne frontière 537"}},
{"type":"Feature","geometry":{"type":"Point","coordinates":[2.670857,42.3406258]},"properties":{"historic":"boundary_stone","name":"Borne frontière 539"}},
{"type":"Feature","geometry":{"type":"Point","coordinates":[2.6718502,42.3410492]},"properties":{"historic":"boundary_stone","name":"Borne frontière 540"}},
{"type":"Feature","geometry":{"type":"Point","coordinates":[2.6675162,42.3410568]},"properties":{"historic":"boundary_stone","name":"Borne frontière 538"}},
{"type":"Feature","geometry":{"type":"Point","coordinates":[2.6659137999999999,42.3410416]},"properties":{"historic":"boundary_stone","name":"Borne frontière 536"}},
{"type":"Feature","geometry":{"type":"Point","coordinates":[2.5352802,42.3300989]},"properties":{"name":"Font de l'Avellanosa","natural":"spring"}},
{"type":"Feature","geometry":{"type":"Point","coordinates":[2.5435409,42.330918]},"properties":{"tourism":"viewpoint"}},
{"type":"Feature","geometry":{"type":"Point","coordinates":[2.5619377,42.328341]},"properties":{"ele":"1069","name":"Coll de la Maçana","name:ca":"Coll de la Maçana","natural":"saddle"}},
{"type":"Feature","geometry":{"type":"Point","coordinates":[2.5327405,42.3329613]},"properties":{"name":"Southernmost point of mainland France","name:fr":"Point extrême de la France continentale le plus au sud","tourism":"attraction","wikidata":"Q722343","wikipedia":"fr:Liste de points extrêmes de la France"}},
{"type":"Feature","geometry":{"type":"Point","coordinates":[2.4803221,42.3417991]},"properties":{"historic":"memorial","memorial":"plaque"}},
{"type":"Feature","geometry":{"type":"LineString","coordinates":[[2.5420165,42.3338911],[2.5437195,42.3388422],[2.5487715,42.3396719],[2.5496589,42.3411204],[2.5515445,42.341093],[2.5527078,42.343553],[2.551856,42.3448542],[2.5537868,42.3458895],[2.5539004,42.3477923],[2.5545708,42.3482452],[2.5547523,42.3492473],[2.5542882,42.350174],[2.5544827,42.3510237],[2.5543185,42.3518864],[2.5541271,42.3522392],[2.5539527,42.3530701],[2.5544082,42.3537147],[2.5545398,42.3546736],[2.5554721,42.3540658],[2.5566418,42.3536876],[2.5619174,42.3554088],[2.5619061,42.3570347]]},"properties":{"admin_level":"2","border_type":"nation","boundary":"administrative","name":"France - España","name:an":"Francia - Espanya","name:ar":"إسبانيا - فرنسا","name:ca":"França - Espanya","name:de":"Frankreich - Spanien","name:en":"France - Spain","name:es":"Francia - España","name:eu":"Frantzia - Espainia","name:fa":"اسپانیا - فرانسه","name:fr":"France - Espagne","name:gl":"Francia - España","name:lt":"Prancūzija - Ispanija","name:oc":"França - Espanha","name:pt":"França - Espanha","name:ru":"Франция - Испания","name:ur":"ہسپانیہ - فرانس","source":"BDLL25, EGRN, Instituto Geográfico Nacional"}},
{"type":"Feature","geometry":{"type":"LineString","coordinates":[[2.5260773,42.3334062],[2.5304921,42.3328251],[2.532811,42.3327551],[2.5336156,42.33307],[2.5343728,42.3335597],[2.5353666,42.3339971],[2.5361473,42.3340665],[2.5420165,42.3338911]]},"properties":{"admin_level":"2","border_type":"nation","boundary":"administrative","name":"France - España","name:an":"Francia - Espanya","name:ar":"إسبانيا - فرنسا","name:ca":"França - Espanya","name:de":"Frankreich - Spanien","name:en":"France - Spain","name:es":"Francia - España","name:eu":"Frantzia - Espainia","name:fa":"اسپانیا - فرانسه","name:fr":"France - Espagne","name:gl":"Francia - España","name:lt":"Prancūzija - Ispanija","name:oc":"França - Espanha","name:pt":"França - Espanha","name:ru":"Франция - Испания","name:ur":"ہسپانیہ - فرانس","source":"BDLL25, EGRN, Instituto Geográfico Nacional"}},
{"type":"Feature","geometry":{"type":"LineString","coordinates":[[2.4766773,42.3450597],[2.4793268999999999,42.3425418],[2.4812199,42.3407709],[2.4832016,42.3398527],[2.4854987,42.3409148],[2.4868398,42.3403555],[2.4882879,42.3410324],[2.4891634,42.3411199],[2.4897787,42.3417845],[2.491506,42.3424666],[2.491996,42.3424954],[2.4932098,42.3420818],[2.493967,42.3420818],[2.4964042,42.3428864],[2.4990781,42.3431312],[2.4999773,42.3433061],[2.5006162,42.3430613],[2.5026275,42.341837],[2.5031008,42.341732],[2.505396,42.3417495],[2.5074074,42.3405777],[2.5101523,42.3396857],[2.5112881,42.3378666],[2.5126132,42.3372019],[2.516245,42.3360046],[2.5168488,42.3358551],[2.519641,42.3357327],[2.5211317,42.3348231],[2.5250598,42.3340184],[2.5260773,42.3334062]]},"properties":{"admin_level":"2","border_type":"nation","boundary":"administrative","name":"France - España","name:an":"Francia - Espanya","name:ar":"إسبانيا - فرنسا","name:ca":"França - Espanya","name:de":"Frankreich - Spanien","name:en":"France - Spain","name:es":"Francia - España","name:eu":"Frantzia - Espainia","name:fa":"اسپانیا - فرانسه","name:fr":"France - Espagne","name:gl":"Francia - España","name:lt":"Prancūzija - Ispanija","name:oc":"França - Espanha","name:pt":"França - Espanha","name:ru":"Франция - Испания","name:ur":"ہسپانیہ - فرانس","source":"BDLL25, EGRN, Instituto Geográfico Nacional"}},
{"type":"Feature","geometry":{"type":"LineString","coordinates":[[2.5830694,42.3571484],[2.5883126,42.3538956],[2.5895232,42.3532857],[2.5918714,42.3526263],[2.5960518,42.3515494],[2.5977176,42.3518971],[2.5984123,42.3519101],[2.6001548,42.3515351],[2.6007147,42.3499501],[2.6009277,42.3496108],[2.60133,42.3493658],[2.6013107,42.349235],[2.6025791,42.3493565],[2.6031214,42.3492939],[2.6036359,42.3491604],[2.6038122,42.3491122],[2.6045503,42.3491201],[2.6051343,42.3488918],[2.6058172,42.3486579],[2.6067745,42.3483967],[2.6074128,42.3483455],[2.6078186,42.3485695],[2.6081329,42.3485812],[2.6083912,42.3484125],[2.6086098,42.3480465],[2.6088784,42.3477916],[2.6095128,42.3474574],[2.609859,42.3470388],[2.6103151,42.346823],[2.611012,42.3468779],[2.6116658,42.3469081],[2.6133621,42.3466162],[2.6138481,42.3464436],[2.6143393,42.346447],[2.6151176,42.3464196],[2.6159883,42.3461452],[2.6160407,42.3458531],[2.6163747,42.3457568],[2.6167376,42.3459004],[2.6173035,42.3459023],[2.6178,42.3456716],[2.618235,42.3455981],[2.6190631,42.3456834],[2.6195776,42.34582],[2.6201234,42.3457994],[2.6212472,42.3454433],[2.6221041,42.3453279],[2.6225219,42.3452002],[2.623017,42.3452094],[2.6239842,42.3456923],[2.6259146,42.3456313],[2.6266612,42.3458361],[2.6274699,42.3457863],[2.6281149,42.3460733],[2.6287275,42.346705],[2.6293139,42.3466544],[2.6301898,42.3463796],[2.6307492,42.346591600000007],[2.6316491,42.3465046],[2.6325183,42.3464699],[2.6328829,42.3463362],[2.6333683,42.3462778],[2.6334198,42.3461206],[2.6330472,42.345887],[2.6325738,42.3456306],[2.63279,42.3449566],[2.6330435,42.344815],[2.6334679,42.3446749],[2.6338649,42.3443154],[2.6341479,42.3443014],[2.6343823,42.3439648],[2.635292,42.3439228],[2.6360696,42.3440002],[2.6381279,42.3435877],[2.6396752,42.3442966],[2.640096,42.3444706],[2.6420254,42.3445039],[2.6438391,42.3445582],[2.6445174,42.344492],[2.6479347,42.3435886],[2.6506848,42.3443312],[2.6547963,42.3428886],[2.6548562,42.3421443],[2.6576772,42.3412498],[2.6600456,42.3407703],[2.6609627,42.3411849],[2.6617079,42.3405024],[2.6668193,42.3412307],[2.669111,42.3406125],[2.6716925,42.3407507],[2.6718283,42.340884],[2.6719309,42.3409847],[2.6726817,42.3417218],[2.6755123,42.342314],[2.6759142,42.3464303],[2.6757314,42.3471907],[2.6747992,42.3478058],[2.6748065,42.3485486],[2.6758689,42.3510241],[2.6754065,42.3521382],[2.6753363,42.3525814],[2.6759314,42.3543216],[2.6746815,42.3553561],[2.675244,42.3571387],[2.6735067,42.3574342],[2.673936,42.359066],[2.6726692,42.3594107],[2.6725443,42.3599648],[2.6712694,42.3598632],[2.6701859,42.3620083],[2.6695268,42.3622428],[2.6685015,42.3619722],[2.6679156,42.3618098],[2.6669636,42.3617738],[2.6665241,42.3625133],[2.66545,42.3626035],[2.6648153,42.362838],[2.6640181,42.3631879],[2.6634382,42.3637162],[2.6629842,42.3643662],[2.6619151,42.3647287],[2.6611277,42.3652284],[2.6607239,42.3668665],[2.660863,42.3684267],[2.6612619,42.3694873],[2.661886,42.3700706],[2.6628745,42.3717885],[2.6625334,42.3728766],[2.661808,42.3738418],[2.6611543,42.3782327],[2.6614489,42.378624]]},"properties":{"admin_level":"2","border_type":"nation","boundary":"administrative","name":"France - España","name:an":"Francia - Espanya","name:ar":"إسبانيا - فرنسا","name:ca":"França - Espanya","name:de":"Frankreich - Spanien","name:en":"France - Spain","name:es":"Francia - España","name:eu":"Frantzia - Espainia","name:fa":"اسپانیا - فرانسه","name:fr":"France - Espagne","name:gl":"Francia - España","name:lt":"Prancūzija - Ispanija","name:oc":"França - Espanha","name:pt":"França - Espanha","name:ru":"Франция - Испания","name:ur":"ہسپانیہ - فرانس","source":"BDLL25, EGRN, Instituto Geográfico Nacional"}},
{"type":"Feature","geometry":{"type":"LineString","coordinates":[[2.5517804,42.3442484],[2.5528416,42.3435572],[2.5540289,42.343068],[2.5547706,42.3428328],[2.5565399,42.3422293],[2.5593977,42.3414682],[2.5604694,42.3411731],[2.561499,42.3407382],[2.562287,42.3403267],[2.5640731,42.3389986],[2.5653865,42.3379502],[2.5667838,42.3371114],[2.5682337,42.3362727],[2.5687486,42.3358999],[2.5699358,42.3346805],[2.5705347,42.3340592],[2.5707448,42.3334922],[2.5708184,42.332599]]},"properties":{"name":"Serra del Bac","name:ca":"Serra del Bac","natural":"ridge"}},
{"type":"Feature","geometry":{"type":"LineString","coordinates":[[2.6681978,42.3369358],[2.668012,42.3370099],[2.6679303,42.3370648],[2.6678783,42.3371609],[2.6677854,42.3372625],[2.6676517,42.3373531],[2.6674845,42.33743],[2.6673211,42.3374987],[2.6671354,42.3376332],[2.6669496,42.3377485],[2.6668048,42.3378501],[2.6667008,42.33796],[2.6666562,42.3380643],[2.666645,42.3381741]]},"properties":{"natural":"cliff"}},
{"type":"Feature","geometry":{"type":"LineString","coordinates":[[2.658999,42.3356718],[2.6588151,42.3358077],[2.6586365,42.3360174],[2.6584106,42.3363126],[2.6582267,42.336499],[2.6581427,42.3366232],[2.6581217,42.3367747],[2.6581269,42.3369649],[2.6580849,42.337163],[2.6580009000000004,42.3372717],[2.6578695,42.3373183],[2.6575964,42.3373416],[2.6573705,42.3373766],[2.6569502,42.3375125],[2.6567716,42.3376173],[2.6566035,42.3377532],[2.6562725,42.3380328],[2.6558838,42.3382736],[2.6555528,42.3384289],[2.6552061,42.3385687],[2.6548541,42.338693],[2.654665,42.3387512],[2.6545604,42.3388517],[2.6545337,42.3389259],[2.6544496,42.3390735],[2.6542342,42.3392211],[2.6539611,42.3393414],[2.6536564,42.3394424],[2.6532887,42.33952],[2.6528894,42.3395822],[2.6525007,42.3396327]]},"properties":{"name":"Cingle de la Pineda","name:ca":"Cingle de la Pineda","natural":"cliff"}},
{"type":"Feature","geometry":{"type":"LineString","coordinates":[[2.6666413,42.3391159],[2.6665745,42.3390747],[2.6664482,42.3390885],[2.6662736,42.3391242],[2.6661064,42.3391736],[2.6659727,42.3391653],[2.6658427,42.3391434],[2.6657684,42.3391763],[2.6657089,42.3392669],[2.6655938,42.3393905],[2.6654303,42.339525],[2.6652929,42.3396843]]},"properties":{"name":"Cingle del Guillar","natural":"cliff"}},
{"type":"Feature","geometry":{"type":"LineString","coordinates":[[2.678055,42.3394959],[2.6782481,42.3395357],[2.678432,42.3395838],[2.6786419,42.3396332],[2.6788313,42.3396908],[2.6790003,42.3397375],[2.6791954,42.3397746],[2.6793365,42.3397979],[2.6794387,42.3398144],[2.6795055,42.3398583]]},"properties":{"natural":"cliff"}},
{"type":"Feature","geometry":{"type":"LineString","coordinates":[[2.6787329,42.3397663],[2.6789168,42.3398075],[2.6790821,42.3398556],[2.6791731,42.3398775],[2.6792399,42.3398817],[2.6792975,42.3398858],[2.6793458,42.3399352],[2.6793922,42.339986],[2.6794257,42.3400313],[2.6794238,42.3400766],[2.6793755,42.3401453],[2.6793031,42.3402331],[2.6792529,42.3403073],[2.6792344,42.3403649],[2.6792158,42.3404198],[2.6791694,42.3404665],[2.6790969,42.3405063]]},"properties":{"natural":"cliff"}},
{"type":"Feature","geometry":{"type":"LineString","coordinates":[[2.6784543,42.3409264],[2.6785546,42.3410953],[2.6787199,42.3412984],[2.6788536,42.3413945],[2.6791304,42.3415881],[2.6792585,42.3417062],[2.6793644,42.3418489],[2.6794127,42.3419588],[2.6794331,42.3420315],[2.6794164,42.3420796],[2.6793551,42.3421139],[2.6793811,42.3421702],[2.6793885,42.3422278],[2.6793607,42.3422828],[2.6792827,42.3423281],[2.6791656,42.342372],[2.6790301,42.3424145],[2.6789056,42.3424749],[2.6787867,42.3425395],[2.6786549,42.342604],[2.6785044,42.342674],[2.6783819,42.3427413],[2.6782686,42.3428209],[2.6782296,42.3428882],[2.6782388,42.3429348],[2.6782816,42.3429472],[2.6783038,42.3429746],[2.6782927,42.3430227],[2.6782537,42.3430598],[2.6782333,42.3431243],[2.678185,42.3432492],[2.6781553,42.343392],[2.6781423,42.3435553],[2.6781404,42.3436679],[2.6781608,42.3438203],[2.6781943,42.3439205],[2.6782388,42.3440248],[2.6783168,42.3441662],[2.6783651,42.3442733],[2.6783633,42.3443282],[2.6783428,42.3443625],[2.678302,42.3443913],[2.6782054,42.3444243],[2.6781125,42.3444531],[2.678003,42.3444778],[2.677938,42.3444929],[2.6779175,42.3445218],[2.6779027,42.3445643],[2.6778804,42.3446439],[2.6778618,42.3447455],[2.6778446,42.3448311]]},"properties":{"natural":"cliff"}},
{"type":"Feature","geometry":{"type":"LineString","coordinates":[[2.6795,42.3399544],[2.6795501,42.3399901],[2.6795984,42.3400231],[2.679617,42.3400766],[2.6796095,42.3401549],[2.6795761,42.3402029],[2.6795185,42.3402455]]},"properties":{"natural":"cliff"}},
{"type":"Feature","geometry":{"type":"LineString","coordinates":[[2.4802472,42.3462509],[2.4802946,42.3458071],[2.4809108,42.3455853],[2.4817324,42.3451649],[2.4814796,42.3443941],[2.4805474,42.3439387],[2.4814164,42.3436234],[2.483265,42.3439153],[2.4827436,42.3446861],[2.4837232,42.3445459],[2.4837232,42.3447912],[2.4818904,42.3455269],[2.4817166,42.34534],[2.4814954,42.345702],[2.4822538,42.3466012],[2.4817482,42.3466246],[2.4810688,42.3462509],[2.4807844,42.3464377],[2.4802472,42.3462509]]},"properties":{"natural":"grassland","source":"Bing"}},
{"type":"Feature","geometry":{"type":"LineString","coordinates":[[2.5511586,42.3306493],[2.5509778,42.330803],[2.5506704,42.3309099],[2.5503269,42.3310169],[2.5498929,42.3311372],[2.5495223,42.3312708],[2.5491426,42.3315181],[2.5488894,42.3316317],[2.5486092,42.3316518],[2.5482927,42.331752],[2.5481119,42.3319191],[2.5476147,42.3322065],[2.5471355,42.332427]]},"properties":{"name":"Lleixa de la Vaca","name:ca":"Lleixa de la Vaca","natural":"cliff"}},
{"type":"Feature","geometry":{"type":"LineString","coordinates":[[2.5403637,42.3302076],[2.54075,42.3303139],[2.5409297,42.3301478],[2.5414777,42.3303139],[2.5417292,42.3295236],[2.5420616,42.3294638],[2.5425197,42.3295833],[2.5425641,42.3294817],[2.5425556,42.3291052],[2.5430317,42.3289192],[2.5433012,42.3286137],[2.5433911,42.3283614],[2.5438762,42.328554],[2.5441726,42.3284278],[2.5443882,42.3283481],[2.5448553,42.3277437],[2.545538,42.3276972],[2.5462118,42.3277105],[2.5468406,42.3274847],[2.5472628,42.327332],[2.5479815,42.3275046],[2.5483588,42.3275046],[2.5483049,42.327073]]},"properties":{"natural":"cliff"}},
{"type":"Feature","geometry":{"type":"LineString","coordinates":[[2.5357823,42.3290122],[2.5364022,42.3289259],[2.5368244,42.3292646],[2.537579,42.3290985],[2.538091,42.3289524],[2.5384773,42.3290587],[2.5384863,42.3293376],[2.538657,42.3293708],[2.5387468,42.3295103],[2.5390792,42.3294372],[2.5394205,42.3297494]]},"properties":{"ele":"1125","name":"Roques de Malforat","name:ca":"Roques de Malforat","natural":"cliff"}},
{"type":"Feature","geometry":{"type":"LineString","coordinates":[[3.3222444,42.3194537],[3.2641783,42.2281776],[3.210753,42.2315689],[3.1668077,42.2691805],[3.1077562,42.3159096],[3.0363451,42.3494112],[3.0129991,42.3920239],[2.9772935,42.4092636],[2.9168687,42.4153471],[2.8674303,42.3839094],[2.8124986,42.3159096],[2.8248582,42.2447864],[2.7507005,42.1959698],[2.5790392,42.2213998],[2.4815355,42.18783],[2.4444566,42.1298039],[2.2727953,42.0360354],[2.231806,41.9435952],[2.2309106,41.941617],[2.0180505,41.8756969],[1.8168633,41.7277683],[1.5257249,41.7323808],[1.242827,41.8869444],[1.1329637,41.930891],[0.8280931,41.8613802],[0.5836473,41.8593346],[0.3955064,41.9002338],[0.2828966,41.9860369],[0.2238451,42.0686662],[0.1043687,42.1277669],[-0.0672926,42.2020739],[-0.3186049,42.211229],[-0.5575575,42.2701967],[-0.7443251,42.3301246],[-0.9901442,42.3423063],[-1.2702956,42.368692],[-1.3444533,42.5105781],[-1.4584364,42.3889811],[-1.5779128,42.4072357],[-1.6932692,42.5227248],[-1.8305983,42.618803],[-1.838838,42.7550806],[-1.8098029,42.796553],[-1.8097616,42.7966121],[-1.7880263,42.8276396],[-1.8402113,42.9162074],[-1.8663039,42.9875729],[-1.9816603,43.0317579],[-2.0764174,43.1380729],[-2.0242323,43.2221915],[-1.9844069,43.3221815],[-1.7980603,43.3919094],[-1.7976393,43.3920768],[-1.7756667,43.3711167],[-1.6658034,43.3990619],[-1.395265,43.3531451],[-1.1975111,43.3711167],[-1.0258498,43.3201833],[-0.7800307,43.336167],[-0.5245985,43.3791023],[-0.3488173,43.2832049],[0.0274644,43.2191892],[0.2677904,43.1661253],[0.4682909,43.0949673],[0.8033739,43.1069998],[1.1906419,43.0969729],[1.5078722,43.0438028],[2.0860277,42.932297],[2.2521959,42.8185744],[2.6559435,42.7923785],[2.7960191,42.7369275],[2.7081285,42.6733499],[2.9154955,42.5459994],[3.1228624,42.5217127],[3.1791673,42.4457557],[3.1654344,42.3707212],[3.20114,42.3412912],[3.2036683,42.3416416],[3.2450853,42.3473813],[3.3222444,42.3194537]]},"properties":{"boundary":"region","name":"Pyrénées / Pirineos / Pirineus / Pirineu / Pirinioak / Pirenèus","name:af":"Pireneë","name:am":"ፒሬኔ ተራሮች","name:an":"Pireneu","name:ar":"البرانس","name:ba":"Пиреней тауҙары","name:be":"Пірэнеі","name:bg":"Пиренеи","name:bh":"पिरेनीज परबत","name:br":"Pireneoù","name:bs":"Pireneji","name:ca":"Pirineus","name:cs":"Pyreneje","name:cy":"Pyreneau","name:da":"Pyrenæerne","name:de":"Pyrenäen","name:el":"Πυρηναία","name:en":"Pyrenees","name:eo":"Pireneoj","name:es":"Pirineos","name:et":"Püreneed","name:eu":"Pirinioak","name:fa":"پیرنه","name:fi":"Pyreneet","name:fo":"Pyreneurnar","name:fr":"Pyrénées","name:fy":"Pyreneeën","name:ga":"Piréiní","name:gl":"Pireneos","name:he":"הרי הפירנאים","name:hi":"पिरिनी पर्वत शृंखला","name:hr":"Pireneji","name:hu":"Pireneusok","name:hy":"Պիրենեյներ","name:ia":"Pyreneos","name:id":"Pegunungan Pirenia","name:io":"Pirenei","name:is":"Pýreneafjöll","name:it":"Pirenei","name:ja":"ピレネー山脈","name:ka":"პირენეები","name:kk":"Пиреней таулары","name:ko":"피레네 산맥","name:ku":"Pîrenê","name:ky":"Пиреней тоолору","name:la":"Pyrenaei","name:lb":"Pyrenäen","name:li":"Pyreneje","name:lt":"Pirėnai","name:lv":"Pireneji","name:mk":"Пиринеи","name:mn":"Пиренейн уулс","name:mr":"पिरेनीज","name:ms":"Pyrenees","name:nl":"Pyreneeën","name:nn":"Pyreneane","name:no":"Pyreneene","name:oc":"Pirenèus","name:pa":"ਪੀਰੇਨੇ","name:pl":"Pireneje","name:pt":"Pireneus","name:qu":"Piriniyukuna","name:ro":"Munții Pirinei","name:ru":"Пиренеи","name:sk":"Pyreneje","name:sl":"Pireneji","name:sq":"Pirenetë","name:sr":"Пиринеји","name:sv":"Pyrenéerna","name:sw":"Pirenei","name:ta":"பிரனீசு மலைத்தொடர்","name:tg":"Кӯҳҳои Пиреней","name:th":"เทือกเขาพิเรนีส","name:tl":"Pirineos","name:tr":"Pireneler","name:tt":"Пиреней таулары","name:ug":"پىرېنېي تاغلىرى","name:uk":"Піренеї","name:ur":"کوہ پائرینیس","name:uz":"Pireney togʻlari","name:wa":"Pirinêyes","name:yi":"פירענעען","name:zh":"比利牛斯山","natural":"mountain_range","region:type":"mountain_area","source:name:oc":"ieo-bdtopoc","wikidata":"Q12431","wikipedia":"en:Pyrenees"}},
{"type":"Feature","geometry":{"type":"LineString","coordinates":[[2.5367699,42.3336485],[2.5412893,42.3334339]]},"properties":{"name":"Serra Baixa","name:ca":"Serra Baixa","natural":"ridge"}},
{"type":"Feature","geometry":{"type":"LineString","coordinates":[[2.659788,42.3263312],[2.6595599,42.3261598],[2.6597202,42.3260634],[2.6598924,42.3258973],[2.6600132,42.3257123],[2.6600788,42.3254614],[2.6601069,42.3252022],[2.6602222,42.3249999],[2.6604479,42.3249691],[2.6607409,42.3249999],[2.6610185,42.3251054],[2.6614692,42.3253488],[2.6615468,42.3255345],[2.661526,42.3257577],[2.6614712,42.3259129],[2.6613627,42.3260135],[2.6612128,42.3260291],[2.6610903,42.3259933],[2.6609782,42.3258346],[2.6609481,42.3257569],[2.6605708,42.3259612],[2.6604283,42.3260571],[2.6602742,42.3260207],[2.6600672,42.3260785],[2.6599698,42.3262046],[2.6599219,42.3262966],[2.659788,42.3263312]]},"properties":{"natural":"scree"}},
{"type":"Feature","geometry":{"type":"LineString","coordinates":[[2.5932677,42.3445261],[2.5930395,42.3445598],[2.5930062,42.344569],[2.5928278,42.3445138],[2.5928153,42.3444923],[2.5928568,42.3443757],[2.5929315,42.3442899],[2.5929564,42.344265300000007],[2.5929813,42.3442438],[2.5930062,42.3442193],[2.5930229,42.3441978],[2.5930436,42.3441702],[2.5930478,42.3441457],[2.5930436,42.3441089],[2.5930229,42.344072],[2.5930021,42.3440506],[2.5929772,42.3440291],[2.592944,42.3440138],[2.5927863,42.3439739],[2.5925621,42.3439432],[2.5925248,42.3439371],[2.5924833,42.3439279],[2.5924501,42.3439217],[2.5924127,42.3439064],[2.5923712,42.3438911],[2.5923463,42.3438757],[2.5923339,42.3438512],[2.5923297,42.3438266],[2.592475,42.3437438],[2.5926286,42.3436732],[2.5926618,42.3436579],[2.5926991,42.3436426],[2.5927282,42.3436242],[2.5927614,42.3436119],[2.5927904,42.3435935],[2.5928319,42.343572],[2.5930768,42.3434738],[2.5931059,42.3434585],[2.5931847,42.3432806],[2.5932013,42.3431947],[2.5932013,42.3431701],[2.5932055,42.3431395],[2.5932055,42.3431088],[2.5932055,42.3430689],[2.5932055,42.3430321],[2.5932055,42.3430045],[2.5932055,42.3429769],[2.5932055,42.3429523],[2.5932055,42.3429247],[2.5932179,42.3428879],[2.5932304,42.3428572],[2.593247,42.3428266],[2.5933756,42.3427376],[2.5935292,42.3427499],[2.5935666,42.342756],[2.5935998,42.3427621],[2.5936413,42.3427713],[2.5936786,42.3427775],[2.5937118,42.3427836],[2.5937533,42.3427867],[2.5937907,42.3427897],[2.593828,42.3427959],[2.5938571,42.342802],[2.5938862,42.3428081],[2.5939318,42.3428235],[2.5939775,42.3428358],[2.5940107,42.3428419],[2.5940563,42.3428511],[2.5940937,42.3428634],[2.5941227,42.3428695],[2.594268,42.3429094],[2.594322,42.3429247],[2.5943593,42.3429309],[2.5943967,42.3429401],[2.5946582,42.3429738],[2.5947619,42.3429493],[2.5948906,42.3429217],[2.5949238,42.3429155],[2.5949653,42.3429155],[2.5949985,42.3429155],[2.5950358,42.3429186],[2.5950483,42.3429493],[2.5950691,42.3429983],[2.5951811,42.3430597],[2.5954052,42.3430965],[2.5954467,42.3431088],[2.59548,42.343118],[2.5955588,42.3431824],[2.5956211,42.3432652],[2.5956294,42.3432898],[2.595646,42.3433174],[2.5956584,42.3433419],[2.5956792,42.3433665],[2.5956958,42.3434002],[2.5957124,42.3434217],[2.595729,42.3434524],[2.5957414,42.343483],[2.5957539,42.3435137],[2.595758,42.3435475],[2.5957622,42.3435781],[2.5957705,42.3436119],[2.5957746,42.3436456],[2.5957746,42.3436794],[2.5957705,42.3437162],[2.5957622,42.343753],[2.5957539,42.3437837],[2.5957373,42.3438082],[2.5957082,42.3438358],[2.5956709,42.3438542],[2.5956418,42.3438696],[2.5956045,42.3438757],[2.5955588,42.3438819],[2.5955173,42.3438849],[2.5954841,42.343888],[2.5954426,42.343888],[2.5952351,42.3438849],[2.5951189,42.3438849],[2.5950774,42.3438911],[2.5950358,42.3439033],[2.5950026,42.3439125],[2.5948242,42.3440015],[2.5947993,42.344023],[2.5947827,42.3440475],[2.5947578,42.344072],[2.5947329,42.3440935],[2.594708,42.3441089],[2.5946789,42.3441242],[2.5946457,42.3441395],[2.5946083,42.3441518],[2.5945668,42.3441671],[2.5945253,42.3441702],[2.5944921,42.3441733],[2.5944548,42.3441733],[2.5944133,42.3441702],[2.5943759,42.344161],[2.5943344,42.3441579],[2.5943012,42.3441579],[2.594268,42.344161],[2.5942265,42.3441733],[2.5941891,42.3441825],[2.5941559,42.3441948],[2.5941186,42.3442101],[2.5940771,42.3442254],[2.5940314,42.3442438],[2.5939899,42.344253],[2.5939443,42.344265300000007],[2.593882,42.3442807],[2.5938488,42.344296],[2.5938197,42.3443113],[2.5937907,42.3443236],[2.5937699,42.344342],[2.5937492,42.3443635],[2.593716,42.3443819],[2.5936869,42.3443972],[2.5936537,42.3444126],[2.5936164,42.344431],[2.5935832,42.3444432],[2.5935541,42.3444586],[2.5932677,42.3445261]]},"properties":{"natural":"grassland"}},
{"type":"Feature","geometry":{"type":"LineString","coordinates":[[2.6253138,42.329775],[2.6252391,42.3297995],[2.625181,42.3298302],[2.6251229,42.3298609],[2.6250233,42.3299161],[2.6249403,42.3299652],[2.6248158,42.3300388],[2.6246829,42.3301309],[2.6246165,42.3301677],[2.6245501,42.3302107],[2.6245086,42.3302536],[2.6244505,42.3302966],[2.6243841,42.3303211],[2.6243094,42.3303027],[2.6242679,42.3302659],[2.6242264,42.3302291],[2.6241849,42.3301861],[2.6241434,42.330137],[2.624077,42.3300879],[2.6240272,42.3300327],[2.6239774,42.3299897],[2.6239358,42.3299468],[2.6238943,42.3299038],[2.6238943,42.3298486],[2.6239109,42.3297934],[2.6239524,42.3297443],[2.6239857,42.3297013],[2.6240272,42.3296584],[2.6240604,42.3296215],[2.6241517,42.3295234],[2.6241766,42.329462],[2.6241766,42.3294129],[2.62416,42.3293515],[2.6241185,42.3292902],[2.624077,42.3292349],[2.6240438,42.329192],[2.6240106,42.329149],[2.623969,42.3290938],[2.6239441,42.3290447],[2.6239441,42.3289649],[2.6240106,42.3289219],[2.6240687,42.3288974],[2.6241268,42.3288667],[2.6241849,42.3288422],[2.6242347,42.3288053],[2.6242762,42.3287685],[2.6243011,42.3287194],[2.6243011,42.3286765],[2.6243094,42.3286212],[2.6243094,42.3285721],[2.6243094,42.3285169],[2.6243094,42.3284617],[2.624326,42.3284187],[2.6244007,42.3283451],[2.6244837,42.3282776],[2.6245003,42.3282285],[2.6245003,42.3281732],[2.6244837,42.3281241],[2.6244505,42.3280812],[2.6244007,42.3280321],[2.6243675,42.3279891],[2.6243094,42.3279278],[2.6242762,42.3278848],[2.6242181,42.3278234],[2.6241766,42.3277743],[2.6241351,42.3277252],[2.6240936,42.3276639],[2.6240604,42.3276209],[2.623803,42.3273816],[2.6237698,42.3273079],[2.6237366,42.3272527],[2.6237283,42.3272036],[2.62372,42.3271484],[2.62372,42.3270993],[2.62372,42.3270502],[2.62372,42.3270072],[2.6236868,42.3269581],[2.6236287,42.3269274],[2.623554,42.3269029],[2.6234876,42.3268783],[2.6234212,42.3268538],[2.6233548,42.3268354],[2.6232967,42.3268047],[2.6232303,42.3267924],[2.6230227,42.3266574],[2.6227986,42.3261787],[2.6227986,42.3261296],[2.6227986,42.3260805],[2.6227986,42.3260314],[2.6228069,42.3259884],[2.6228401,42.3259516],[2.6228816,42.3259087],[2.6230974,42.3258964],[2.6235789,42.3260498],[2.6236453,42.3260744],[2.6237117,42.3261051],[2.6237947,42.3261357],[2.6238611,42.3261419],[2.6239441,42.3261726],[2.6240438,42.3262094],[2.6241268,42.3262462],[2.6242181,42.3262708],[2.6242928,42.3263014],[2.6243758,42.3263321],[2.6244671,42.3263567],[2.6245418,42.3263935],[2.6246248,42.326418],[2.6246995,42.3264426],[2.6247659,42.3264733],[2.6248573,42.3264978],[2.6249237,42.3265224],[2.6249901,42.3265408],[2.6250565,42.3265715],[2.6251312,42.326596],[2.6252142,42.3266328],[2.6252889,42.3266697],[2.6253636,42.3267004],[2.6254549,42.3267433],[2.625513,42.326774],[2.6255877,42.3267985],[2.6256625,42.3268231],[2.6257372,42.3268599],[2.6258119,42.3268845],[2.6258866,42.3269029],[2.6259613,42.3269029],[2.6260277,42.3269029],[2.626119,42.3269029],[2.6261937,42.3269029],[2.6262601,42.3269029],[2.6263265,42.3269029],[2.6263846,42.3269029],[2.6264511,42.3268967],[2.6265341,42.3268906],[2.6266171,42.3268845],[2.6266918,42.3268783],[2.6267665,42.3268722],[2.6268329,42.3268661],[2.6269159,42.3268599],[2.6269823,42.3268599],[2.6270653,42.3268599],[2.6271234,42.3268538],[2.6271898,42.3268538],[2.6272563,42.3268538],[2.627331,42.3268538],[2.6274057,42.3268661],[2.6274721,42.3268906],[2.6275136,42.3269213],[2.6275385,42.3269827],[2.6275385,42.3270318],[2.627497,42.3270809],[2.6274472,42.3271177],[2.6273808,42.3271484],[2.6273061,42.3271729],[2.6272563,42.3272036],[2.6269076,42.3274859],[2.6268329,42.3275043],[2.6267582,42.3275227],[2.6266669,42.3275534],[2.6265673,42.3275841],[2.6265009,42.3276086],[2.6264428,42.3276332],[2.6263846,42.32767],[2.6263348,42.3277068],[2.6262767,42.3277375],[2.6262269,42.3277682],[2.6262269,42.3278173],[2.6262601,42.3278541],[2.6263348,42.3278664],[2.6264012,42.3278787],[2.6264594,42.3278971],[2.6264926,42.32794],[2.6265009,42.3279953],[2.626559,42.328026],[2.6266254,42.3280444],[2.6266835,42.3280505],[2.6267997,42.3280628],[2.6268744,42.3280628],[2.6269325,42.328075],[2.6269989,42.3280873],[2.6270653,42.3280996],[2.6271234,42.3281119],[2.6271815,42.3281364],[2.6272147,42.3281855],[2.627248,42.3282407],[2.6272895,42.3282776],[2.6273642,42.3282776],[2.6282524,42.3282407],[2.6283852,42.3282407],[2.6284682,42.3282407],[2.6285429,42.3282407],[2.6286342,42.3282407],[2.6287172,42.3282407],[2.6287753,42.3282469],[2.62885,42.3282469],[2.6289331,42.328253],[2.6290161,42.3282592],[2.6290742,42.3282653],[2.6291323,42.3282776],[2.6292153,42.3282837],[2.6292734,42.3282898],[2.6293398,42.328296],[2.6294062,42.3283021],[2.6294643,42.3283083],[2.629539,42.3283267],[2.6296054,42.3283389],[2.6296802,42.3283389],[2.6297466,42.3283389],[2.6298213,42.3283512],[2.6298877,42.3283819],[2.6299457999999999,42.3284064],[2.6300039,42.328431],[2.630062,42.3284617],[2.630145,42.3284924],[2.6302031,42.3284985],[2.6302612,42.3285169],[2.6303359,42.3285292],[2.630394,42.3285415],[2.6304521,42.3285537],[2.6305186,42.3285599],[2.630585,42.3285599],[2.6306597,42.3285599],[2.6307178,42.3285599],[2.6308008,42.3285415],[2.6308672,42.3285292],[2.6309502,42.328523],[2.6310166,42.3285476],[2.6310166,42.328609],[2.6309834,42.3286642],[2.6309419,42.3287256],[2.6309004,42.3287747],[2.6308588999999999,42.3288115],[2.6308257,42.3288544],[2.6307842,42.3289219],[2.630751,42.3289649],[2.6307095,42.3290201],[2.6306597,42.3290631],[2.6305684,42.3290999],[2.630477,42.3291367],[2.6303442,42.3291736],[2.6302197,42.3291981],[2.6300537,42.3292226],[2.6299541,42.3292411],[2.6298379,42.3292472],[2.6296718,42.3292533],[2.6295722,42.3292533],[2.629456,42.3292533],[2.6293564,42.3292595],[2.6291904,42.3292779],[2.6290991,42.3292963],[2.6289663,42.3293024],[2.6288833,42.3293024],[2.6287919,42.3293086],[2.6286342,42.3293208],[2.6285263,42.3293392],[2.628435,42.3293515],[2.6282856,42.3293577],[2.628186,42.3293577],[2.6280698,42.3293638],[2.6279037,42.3293699],[2.6278373,42.3293699],[2.6277626,42.3293699],[2.6276381,42.3293699],[2.6275634,42.3293699],[2.627497,42.3293638],[2.6274057,42.3293577],[2.6273393,42.3293577],[2.6272646,42.3293577],[2.6271732,42.3293577],[2.6270902,42.3293577],[2.6270155,42.3293638],[2.6269325,42.3293699],[2.6268495,42.3293822],[2.6267831,42.3293883],[2.6267084,42.3294068],[2.6266337,42.329419],[2.6265175,42.3294374],[2.6264428,42.3294497],[2.626368,42.3294681],[2.626285,42.3294804],[2.6262103,42.3294865],[2.6261273,42.3294988],[2.6260526,42.3295172],[2.6259779,42.3295356],[2.6253138,42.329775]]},"properties":{"natural":"grassland"}},
{"type":"Feature","geometry":{"type":"LineString","coordinates":[[2.5611243,42.3441812],[2.5610964,42.3441831],[2.5610685,42.3441868],[2.5610431,42.3441906],[2.5610152,42.3441962],[2.5609848,42.3441999],[2.5609594,42.3442037],[2.5609315,42.3442074],[2.5609011,42.3442112],[2.5608732,42.3442131],[2.5607971,42.3442168],[2.5607083,42.3442112],[2.560683,42.3442074],[2.5606627,42.3442018],[2.5606373,42.3441924],[2.560617,42.3441849],[2.5606018,42.3441774],[2.5605866,42.3441699],[2.5605688,42.3441587],[2.5605562,42.3441437],[2.5605435,42.3441287],[2.560508,42.3440875],[2.5604877,42.3440556],[2.5604801,42.3440406],[2.5604775,42.3440256],[2.560475,42.3440106],[2.560475,42.3439956],[2.5604902,42.3439656],[2.5605054,42.343945],[2.5605156,42.3439319],[2.5605257,42.3439206],[2.5605587,42.3439037],[2.5606475,42.3439356],[2.5606627,42.3439487],[2.5606754,42.3439619],[2.5606906,42.3439769],[2.5607007,42.3439919],[2.5607159,42.344005],[2.5608149,42.3440275],[2.5609163,42.3440275],[2.5609366,42.3440275],[2.5609544,42.3440293],[2.5609899,42.3440293],[2.5610178,42.3440293],[2.5610431,42.3440293],[2.5610634,42.3440237],[2.5610787,42.3440106],[2.5610939,42.3440031],[2.5611142,42.3439919],[2.5611015,42.3439525],[2.560995,42.3439056],[2.5609747,42.3438944],[2.5609594,42.3438831],[2.5609442,42.3438719],[2.560929,42.343855],[2.560929,42.3438381],[2.560929,42.3438231],[2.5609315,42.3438081],[2.5609391,42.3437875],[2.5609544,42.3437669],[2.5609899,42.3437256],[2.5610533,42.3436732],[2.5610685,42.3436582],[2.5610837,42.3436469],[2.5610989,42.3436338],[2.5611142,42.3436225],[2.5611319,42.3436075],[2.5611421,42.3435944],[2.5611547,42.3435832],[2.5611649,42.34357],[2.5611801,42.3435569],[2.5611928,42.3435457],[2.561208,42.3435382],[2.5612359,42.3435251],[2.5612689,42.3435101],[2.5612866,42.3435026],[2.561312,42.3434932],[2.5613323,42.3434857],[2.5613551,42.3434782],[2.5613754,42.3434744],[2.5613957,42.3434688],[2.5614211,42.3434613],[2.5615149,42.3434182],[2.5615327,42.3434069],[2.5615479,42.3433994],[2.5615631,42.3433882],[2.5615783,42.3433732],[2.561591,42.3433582],[2.5616037,42.3433413],[2.5616468,42.3432945],[2.5616646,42.3432757],[2.5617736,42.3431895],[2.5617711,42.3431745],[2.5617711,42.3431595],[2.5617711,42.3431407],[2.5617812,42.3431276],[2.5617939,42.3431126],[2.5618117,42.3431032],[2.561832,42.3430957],[2.5618599,42.3430901],[2.5618928,42.3430882],[2.5619284,42.3430882],[2.5619512,42.3430864],[2.5619918,42.3430845],[2.5620425,42.3430807],[2.5620729,42.3430826],[2.5620907,42.343092],[2.5620932,42.3431089],[2.5620932,42.3431276],[2.5620881,42.3431426],[2.5620755,42.3431689],[2.5620476,42.3432082],[2.5620349,42.3432213],[2.562007,42.3432457],[2.5619842,42.3432663],[2.5619613,42.3432888],[2.5619436,42.3433095],[2.5619258,42.3433282],[2.5619157,42.3433451],[2.5619106,42.3433601],[2.5619106,42.3433751],[2.5619309,42.3434163],[2.562007,42.3434557],[2.5620298,42.3434669],[2.5620501,42.3434744],[2.5620755,42.3434782],[2.5621008,42.3434782],[2.5621262,42.3434782],[2.5621592,42.3434782],[2.5621921,42.3434782],[2.5622226,42.3434782],[2.562253,42.3434744],[2.5622708,42.3434707],[2.5622885,42.3434688],[2.562319,42.3434651],[2.5623469,42.3434632],[2.5623773,42.3434613],[2.5624052,42.3434613],[2.5624331,42.3434613],[2.5624585,42.3434632],[2.5624864,42.3434707],[2.5625067,42.3434744],[2.5625346,42.3434819],[2.5625625,42.3434913],[2.5625802,42.3435026],[2.5626005,42.3435232],[2.5626208,42.3435457],[2.5626411,42.3435719],[2.5626512,42.3435869],[2.5626588,42.3436019],[2.5626639,42.3436188],[2.562669,42.3436338],[2.562669,42.3436638],[2.562669,42.34369],[2.5626487,42.3437125],[2.5626208,42.3437313],[2.5625853,42.3437425],[2.562565,42.3437444],[2.5625295,42.3437481],[2.562494,42.3437481],[2.5624737,42.3437463],[2.5624331,42.3437406],[2.5624077,42.3437388],[2.5623697,42.3437331],[2.5623418,42.3437275],[2.5623139,42.3437238],[2.5622911,42.3437238],[2.5622606,42.3437219],[2.5622276,42.3437181],[2.5622023,42.3437088],[2.5621845,42.3436975],[2.5621642,42.3436807],[2.5621439,42.34366],[2.5621237,42.3436394],[2.5621135,42.3436169],[2.5621008,42.3435982],[2.5620881,42.3435832],[2.562078,42.34357],[2.5620577,42.3435569],[2.5620374,42.3435457],[2.562007,42.3435363],[2.5619816,42.3435344],[2.5619588,42.3435344],[2.561936,42.3435419],[2.5619157,42.3435438],[2.5618928,42.3435419],[2.5618649,42.3435288],[2.5618421,42.3435157],[2.5618193,42.3435044],[2.5617939,42.3434894],[2.5617736,42.3434782],[2.5617508,42.3434707],[2.561728,42.3434707],[2.5617026,42.3434763],[2.5616696,42.3434857],[2.5616367,42.3434969],[2.5616138,42.3435082],[2.5615961,42.3435213],[2.5615758,42.34354],[2.561558,42.3435588],[2.5615403,42.3435794],[2.5615225,42.3436],[2.5615073,42.3436207],[2.5615048,42.3436357],[2.5614972,42.3436544],[2.5614896,42.3436732],[2.5614769,42.34369],[2.5614617,42.3437088],[2.5614515,42.3437219],[2.561449,42.3437406],[2.5614566,42.3437575],[2.5614693,42.3437706],[2.561487,42.3437856],[2.5615098,42.3438006],[2.5615327,42.3438156],[2.561553,42.3438306],[2.5615783,42.3438419],[2.5616012,42.3438531],[2.5616214,42.3438625],[2.5616392,42.3438719],[2.5616544,42.3438812],[2.5616722,42.3438962],[2.5616849,42.3439094],[2.561695,42.3439281],[2.5617001,42.343945],[2.5617026,42.3439619],[2.5617026,42.3439806],[2.5617026,42.3439975],[2.5616975,42.3440162],[2.5616874,42.344035],[2.5616696,42.3440556],[2.5616493,42.3440762],[2.5616341,42.3440968],[2.5616189,42.3441137],[2.5616062,42.3441287],[2.5615935,42.3441475],[2.5615809,42.3441625],[2.5615707,42.3441756],[2.561558,42.3441887],[2.5615428,42.3441981],[2.5615276,42.3442074],[2.5615073,42.3442187],[2.5614845,42.3442299],[2.5614617,42.3442374],[2.5614388,42.3442431],[2.5614135,42.3442431],[2.5613856,42.3442431],[2.5613577,42.3442431],[2.5613374,42.3442393],[2.5613171,42.3442356],[2.5612942,42.3442299],[2.5611243,42.3441812]]},"properties":{"natural":"grassland"}},
{"type":"Feature","geometry":{"type":"LineString","coordinates":[[2.576041,42.3274061],[2.5760257,42.3273854],[2.576008,42.3273686],[2.5759953,42.3273573],[2.5759776,42.3273461],[2.5759573,42.3273348],[2.575942,42.3273254],[2.5759091,42.3273104],[2.5756351,42.3271623],[2.5756174,42.3271379],[2.5756123,42.3271229],[2.5756047,42.3271042],[2.5755946,42.3270854],[2.5755793,42.3270648],[2.5755717,42.3270517],[2.5755565,42.327031],[2.5755438,42.3270085],[2.5755235,42.3269504],[2.575521,42.326896],[2.575521,42.3268773],[2.5755235,42.3268604],[2.5755286,42.3268416],[2.5755337,42.3268248],[2.5755489,42.3268079],[2.5755616,42.3267948],[2.5755768,42.3267854],[2.5755971,42.3267779],[2.575663,42.3267573],[2.5757391,42.3267497],[2.5757645,42.3267479],[2.5757873,42.3267479],[2.5758152,42.3267479],[2.575838,42.3267479],[2.5758609,42.3267479],[2.5758862,42.3267479],[2.5759141,42.3267516],[2.575937,42.3267591],[2.5759623,42.326761],[2.5759902,42.3267666],[2.5760105,42.3267741],[2.5760359,42.3267798],[2.5760562,42.3267891],[2.5760765,42.3267966],[2.5760942,42.3268041],[2.5761145,42.3268116],[2.5761348,42.3268191],[2.5761551,42.3268285],[2.5761754,42.3268379],[2.5762489,42.3268735],[2.5762997,42.3268979],[2.5763225,42.326911],[2.5763453,42.3269241],[2.5763682,42.3269354],[2.576391,42.3269429],[2.5764113,42.3269485],[2.5764417,42.326956],[2.5764645,42.3269635],[2.5764848,42.3269673],[2.5765102,42.326971],[2.5765381,42.326971],[2.5765685,42.3269729],[2.5765863,42.3269748],[2.5766066,42.3269785],[2.5766243,42.3269804],[2.5766472,42.3269804],[2.5766649,42.3269823],[2.5766852,42.3269823],[2.576703,42.3269842],[2.5767207,42.3269842],[2.5767562,42.3269898],[2.5768577,42.3270104],[2.5769287,42.3270235],[2.5769617,42.327031],[2.5769972,42.3270404],[2.5770251,42.3270442],[2.5770505,42.3270498],[2.5770707,42.3270535],[2.5770936,42.3270592],[2.5771215,42.3270667],[2.5771494,42.3270779],[2.5771747,42.3270873],[2.577195,42.3270967],[2.5772179,42.327106],[2.5772331,42.3271154],[2.5772483,42.3271267],[2.5772584,42.3271379],[2.5772711,42.327151],[2.577294,42.3271867],[2.5773041,42.3272035],[2.5773117,42.3272186],[2.5772179,42.327314200000007],[2.577157,42.3274398],[2.5771722,42.327453],[2.5771849,42.3274642],[2.5772001,42.3274773],[2.5772153,42.3274905],[2.5772331,42.3274998],[2.5772508,42.3275111],[2.5772711,42.3275223],[2.5772965,42.3275355],[2.5773142,42.3275448],[2.5773345,42.3275542],[2.5773548,42.3275598],[2.5773751,42.3275636],[2.5774208,42.3275898],[2.577436,42.3276086],[2.577436,42.3276255],[2.5774335,42.3276423],[2.5774157,42.327663],[2.5774005,42.3276742],[2.5773827,42.3276873],[2.5773371,42.3277136],[2.5773142,42.3277249],[2.5772889,42.3277399],[2.5772661,42.327753],[2.5772407,42.3277642],[2.5772179,42.3277774],[2.5771925,42.3277886],[2.5771671,42.3277999],[2.5771468,42.3278092],[2.5771265,42.3278205],[2.5771037,42.327828],[2.577086,42.3278355],[2.5770606,42.327843],[2.5770378,42.3278524],[2.5769135,42.3278861],[2.5768425,42.3278974],[2.576812,42.3278974],[2.5767892,42.3278936],[2.5767689,42.3278805],[2.5767486,42.327858],[2.5767334,42.327828],[2.5767233,42.3278017],[2.5767207,42.3277886],[2.5767156,42.3277717],[2.5767106,42.3277286],[2.5767131,42.3276761],[2.5767156,42.3276573],[2.5767233,42.3276423],[2.5767258,42.3276255],[2.5767283,42.3276048],[2.5767283,42.3275898],[2.5767309,42.3275748],[2.5767334,42.327558],[2.5767334,42.327543],[2.5767233,42.327528],[2.576703,42.3275205],[2.5766801,42.3275167],[2.5766573,42.3275167],[2.5766193,42.3275186],[2.5765838,42.3275242],[2.5765609,42.3275298],[2.5765356,42.3275336],[2.5765127,42.3275355],[2.5764924,42.3275355],[2.5764696,42.3275336],[2.5764544,42.3275261],[2.5764189,42.3275186],[2.5763961,42.3275167],[2.5761703,42.3274436],[2.576041,42.3274061]]},"properties":{"natural":"grassland"}},
{"type":"Feature","geometry":{"type":"LineString","coordinates":[[2.6054334,42.3327307],[2.6053937,42.3327331],[2.6052711,42.3327601],[2.6052049,42.3327748],[2.6051419,42.3327699],[2.605122,42.3327454],[2.6051055,42.3326719],[2.6051055,42.332645],[2.6051485,42.3325666],[2.6051883,42.3325005],[2.6052049,42.332476],[2.6052777,42.3323756],[2.6053274,42.3323193],[2.6053473,42.3322948],[2.6053605,42.3322728],[2.605387,42.332214],[2.6054202,42.3321626],[2.6054434,42.3321405],[2.6054632,42.3321185],[2.6054897,42.3320989],[2.6055229,42.3320842],[2.6055759,42.3320254],[2.6055957,42.3319765],[2.605599,42.3319446],[2.605599,42.3319103],[2.6055957,42.3318736],[2.6055924,42.3318418],[2.6055858,42.3318173],[2.6055858,42.3316679],[2.6055924,42.3315896],[2.6055924,42.3315602],[2.6056222,42.3315014],[2.605715,42.331494],[2.605758,42.3315087],[2.6057978,42.3315234],[2.6058342,42.3315381],[2.6059435,42.3316606],[2.6059965,42.3317855],[2.6060065,42.3318197],[2.6060065,42.331854],[2.6060065,42.3318883],[2.6059502,42.3319765],[2.6058409,42.3320279],[2.6058011,42.3320499],[2.605705,42.3321038],[2.6056421,42.3321748],[2.6056156,42.3321969],[2.6055692,42.3322703],[2.6055759,42.3323071],[2.6055957,42.3323291],[2.6056189,42.3323462],[2.6057315,42.3323634],[2.6058342,42.3323732],[2.6059038,42.3324075],[2.6059204,42.3324564],[2.6059071,42.3324883],[2.6058773,42.3325177],[2.6058475,42.3325789],[2.6058409,42.3326181],[2.605811,42.3326376],[2.605768,42.3326474],[2.6057315,42.3326572],[2.6056918,42.3326646],[2.6056355,42.3326793],[2.6054334,42.3327307]]},"properties":{"natural":"scrub"}},
{"type":"Feature","geometry":{"type":"LineString","coordinates":[[2.7185237,42.3386034],[2.7185025,42.338616],[2.7184133,42.3386615],[2.7183539,42.3386803],[2.7183284,42.3386819],[2.7182987,42.3386819],[2.7182711,42.3386819],[2.7182096,42.338674],[2.7181565,42.338663],[2.7181289,42.3386521],[2.7180907,42.3386301],[2.7180737,42.3386097],[2.7180631,42.338594],[2.7180525,42.3385689],[2.7180483,42.3385454],[2.7180461,42.3385281],[2.7180483,42.3385109],[2.7180631,42.3384967],[2.7180822,42.3384873],[2.7181395,42.3384748],[2.718199,42.3384732],[2.7182223,42.3384732],[2.7183093,42.3384748],[2.718373,42.3384763],[2.7183985,42.3384763],[2.7184685,42.3384842],[2.7185067,42.3384873],[2.7185279,42.338492],[2.7185789,42.3384999],[2.718598,42.3385124],[2.7186086,42.3385422],[2.7186043,42.3385626],[2.7185895,42.3385783],[2.7185725,42.3385924],[2.7185237,42.3386034]]},"properties":{"natural":"grassland"}},
{"type":"Feature","geometry":{"type":"LineString","coordinates":[[2.7165795,42.3442181],[2.7165201,42.3442213],[2.7164607,42.3442244],[2.7164055,42.3442307],[2.7163503,42.3442401],[2.7162994,42.3442526],[2.7162399,42.3442652],[2.7161932,42.3442809],[2.7161423,42.3442934],[2.7160956,42.3443028],[2.7160489,42.3443091],[2.7160022,42.3443091],[2.7159555,42.344306],[2.7159258,42.344284],[2.7159046,42.3442526],[2.715807,42.3441616],[2.7157603,42.3441052],[2.7157433,42.3440675],[2.7157348,42.344033],[2.7157433,42.3439954],[2.7158324,42.3439326],[2.7159301,42.3439075],[2.7159725,42.3438918],[2.716015,42.343873],[2.7160574,42.3438573],[2.7160956,42.3438385],[2.7161296,42.3438134],[2.7161296,42.3437789],[2.7160871,42.3437569],[2.7160404,42.3437381],[2.7159895,42.3437224],[2.7159428,42.3437004],[2.7159088,42.3436659],[2.7158961,42.3436314],[2.7158919,42.3435906],[2.7159046,42.3435498],[2.7159258,42.3435216],[2.7159555,42.3434934],[2.715998,42.3434589],[2.7160489,42.3434275],[2.7161126,42.3433961],[2.7161805,42.3433647],[2.7162357,42.3433396],[2.7162994,42.3433083],[2.7163588,42.34328],[2.7164182,42.3432486],[2.7164777,42.3432173],[2.7165413,42.3431859],[2.7165965,42.3431608],[2.7166475,42.3431357],[2.7166941,42.3431137],[2.7167408,42.3430918],[2.7167748,42.3430761],[2.716813,42.3430573],[2.7168682,42.3430353],[2.7169064,42.3430165],[2.7169488,42.3429976],[2.7169913,42.3429788],[2.7170295,42.3429569],[2.7170719,42.3429443],[2.7172884,42.3429035],[2.7175261,42.3429318],[2.7175813,42.3429412],[2.717645,42.3429474],[2.7176959,42.3429474],[2.7177511,42.3429443],[2.7177936,42.3429318],[2.7178445,42.3429161],[2.7180228,42.3428721],[2.7185449,42.3426274],[2.7185789,42.3426086],[2.7187996,42.3424141],[2.7188336,42.342367],[2.71891,42.3421348],[2.71891,42.3422258],[2.7189609,42.3416767],[2.7189567,42.3416391],[2.7189609,42.3416014],[2.7189736,42.3415669],[2.719067,42.3414697],[2.719101,42.3414571],[2.7191434,42.3414697],[2.7193472,42.3416548],[2.7194661,42.3417928],[2.7194873,42.3418242],[2.7195043,42.3418587],[2.7195255,42.3418932],[2.7195509,42.3419277],[2.7195807,42.3419685],[2.7196019,42.3419968],[2.7196189,42.3420281],[2.7196401,42.3420721],[2.7196656,42.3420972],[2.7196953,42.3421286],[2.7197292,42.3421631],[2.7198226,42.3423011],[2.7198523,42.3424015],[2.7198438,42.342436],[2.7198184,42.34248],[2.7197717,42.3425082],[2.7197335,42.3425302],[2.7196783,42.3425615],[2.7196401,42.3425866],[2.7195934,42.3426149],[2.7195382,42.3426462],[2.7194788,42.3426776],[2.7192793,42.3427874],[2.7191137,42.3428721],[2.7190713,42.3429035],[2.7190246,42.3429412],[2.7189864,42.3429694],[2.7189482,42.3430008],[2.7189057,42.3430384],[2.7188675,42.3430667],[2.7188251,42.3430855],[2.7187784,42.3431106],[2.7187402,42.3431357],[2.7186043,42.3432204],[2.718511,42.3432863],[2.7184685,42.3433051],[2.7184261,42.3433239],[2.7183794,42.3433459],[2.7183369,42.3433647],[2.7182902,42.3433836],[2.7181289,42.3434212],[2.7180652,42.3434243],[2.7180143,42.3434369],[2.7179591,42.3434526],[2.7179167,42.3434683],[2.7178615,42.343484],[2.717819,42.3434965],[2.7177639,42.3435153],[2.7177129,42.343531],[2.717662,42.3435498],[2.7174582,42.3436283],[2.7174115,42.3436785],[2.7173818,42.3437224],[2.7172035,42.3440079],[2.7171823,42.3440456],[2.7171653,42.3440769],[2.7171441,42.3441146],[2.7171356,42.3442181],[2.7171356,42.3442966],[2.7171568,42.3443279],[2.7171823,42.344353],[2.7172163,42.3443875],[2.7172417,42.3444221],[2.7172757,42.3444566],[2.7173097,42.3444942],[2.7173351,42.3445287],[2.7173606,42.3446417],[2.7173521,42.3447107],[2.7173394,42.3447515],[2.7173266,42.3447891],[2.7173139,42.3448205],[2.7172969,42.344855],[2.7171399,42.3449303],[2.7169234,42.3449899],[2.7168215,42.345015],[2.7167663,42.3450088],[2.7167196,42.3449931],[2.7166135,42.3449366],[2.716588,42.3449115],[2.7165668,42.3448833],[2.7165328,42.3448582],[2.7164989,42.3448331],[2.7164819,42.3448017],[2.7164649,42.3447672],[2.7164607,42.3447327],[2.7164607,42.344695],[2.7164777,42.3446605],[2.7165074,42.3446323],[2.7165413,42.3446072],[2.7165795,42.3445852],[2.7166135,42.3445695],[2.7166517,42.3445476],[2.7166857,42.3445287],[2.7167239,42.3445099],[2.7167578,42.3444942],[2.7168003,42.3444817],[2.7168427,42.3444691],[2.7168724,42.3444409],[2.7168724,42.3444032],[2.7168682,42.3443687],[2.7168512,42.3443342],[2.7168172,42.3443028],[2.7167833,42.3442809],[2.7167408,42.3442589],[2.7165795,42.3442181]]},"properties":{"natural":"grassland"}},
{"type":"Feature","geometry":{"type":"LineString","coordinates":[[2.6521226,42.312098],[2.6521093,42.3120833],[2.6520717,42.3120211],[2.6520606,42.3119818],[2.6520518,42.3119654],[2.6520451,42.3119474],[2.6520009,42.3119179],[2.6519676,42.3118983],[2.6519411,42.3118835],[2.6519122999999999,42.3118704],[2.6518879,42.3118573],[2.6518636,42.3118442],[2.6518414,42.3118361],[2.6518193,42.3118246],[2.6517972,42.3118099],[2.6517772,42.3117984],[2.6517595,42.3117853],[2.651744,42.3117689],[2.6517329,42.3117493],[2.6517263,42.3117329],[2.6517263,42.3117149],[2.6517263,42.3116969],[2.6517329,42.3116789],[2.6517396,42.3116592],[2.6517462,42.3116429],[2.6517551,42.3116232],[2.6517617,42.3116068],[2.651775,42.3115921],[2.6517905,42.311579],[2.6518127,42.3115643],[2.6518326,42.3115528],[2.6518503,42.3115413],[2.6518592,42.3115184],[2.6518503,42.311484],[2.651837,42.311466],[2.6518392,42.3113776],[2.6518481,42.311358],[2.6518879,42.3112876],[2.6519101,42.311245],[2.6519167,42.3112286],[2.6519211,42.3112073],[2.6519278,42.3111648],[2.6519389,42.3111467],[2.6519521,42.3111353],[2.6519743,42.3111238],[2.6519942,42.3111189],[2.6520141,42.3111271],[2.6521005,42.311168],[2.6521248,42.3111926],[2.6521403,42.311209],[2.6521625,42.3112253],[2.6521868,42.3112433],[2.6522068,42.3112581],[2.6522333,42.3112695],[2.6522577,42.3112777],[2.6522887,42.3112876],[2.6523108,42.3113039],[2.6523706,42.3113399],[2.6523972,42.3113432],[2.6525477,42.3113187],[2.6525965,42.3113023],[2.6526452,42.311299],[2.6526894,42.3113023],[2.6527337,42.3113187],[2.6528134,42.3113678],[2.6528666,42.3114038],[2.6529064,42.31143],[2.6529463,42.3114628],[2.6530038,42.3115184],[2.6530304,42.3115544],[2.6530526,42.3115905],[2.6530791,42.3116232],[2.6531057,42.3116527],[2.6531854,42.3117902],[2.6533758,42.3120325],[2.6534157,42.312062],[2.6534467,42.3120915],[2.6534821,42.3121144],[2.6536061,42.3121668],[2.6536637,42.3121897],[2.6536991,42.3122126],[2.6537168,42.3122487],[2.6536991,42.3122912],[2.6536725,42.3123273],[2.6536459,42.31236],[2.6536194,42.3123928],[2.6535884,42.3124255],[2.6535574,42.3124582],[2.6535264,42.3124975],[2.6534998,42.3125303],[2.6534732,42.3125598],[2.6534422,42.3125958],[2.6534068,42.312622],[2.6533581,42.3126449],[2.6532961,42.312658],[2.6532341,42.3126613],[2.653181,42.3126613],[2.6531278,42.3126613],[2.6530791,42.3126613],[2.6530171,42.3126613],[2.652964,42.312658],[2.6529064,42.3126514],[2.6528356,42.3126351],[2.6527913,42.3126252],[2.6527426,42.3126187],[2.6526806,42.3126121],[2.6526363,42.3125958],[2.652592,42.3125598],[2.6525566,42.3125303],[2.6525389,42.3124975],[2.6525389,42.3124582],[2.6525433,42.3124222],[2.6525566,42.3123862],[2.6525566,42.3123502],[2.6525345,42.3123142],[2.652499,42.3122847],[2.6524547,42.3122585],[2.652406,42.3122323],[2.6523662,42.3122159],[2.6522378,42.3121603],[2.6521226,42.312098]]},"properties":{"natural":"grassland"}},
{"type":"Feature","geometry":{"type":"LineString","coordinates":[[2.6553113,42.309551],[2.6552809,42.3095526],[2.6552311,42.3095494],[2.6552051,42.3095446],[2.6551813,42.3095398],[2.6551596,42.3095222],[2.6551488,42.3095077],[2.6551401,42.3094869],[2.6551271,42.3094709],[2.6551141,42.3094517],[2.6551011,42.3094372],[2.6550881,42.3094228],[2.6550664,42.3093892],[2.6550556,42.3093747],[2.6550426,42.3093571],[2.6551878,42.3092305],[2.6552138,42.3092225],[2.6552398,42.3092145],[2.6552701,42.3092081],[2.6552896,42.3092001],[2.6553156,42.3091936],[2.6553373,42.3091888],[2.6553676,42.3091856],[2.6553893,42.3091953],[2.6554045,42.3092081],[2.6554196,42.3092241],[2.6554326,42.3092385],[2.6554456,42.3092513],[2.6554608,42.3092658],[2.6555258,42.3093267],[2.6555453,42.3093347],[2.6555627,42.3093427],[2.6555778,42.3093539],[2.6555995,42.3093763],[2.6556125,42.3094164],[2.6556125,42.309434],[2.6556082,42.3094517],[2.6555973,42.3094693],[2.6555778,42.3094837],[2.6555518,42.3094949],[2.6555258,42.3095061],[2.6555042,42.3095126],[2.6554803,42.309519],[2.6553113,42.309551]]},"properties":{"natural":"grassland"}},
{"type":"Feature","geometry":{"type":"LineString","coordinates":[[2.6412361,42.3033411],[2.6409092,42.3034262],[2.6407458,42.3033322],[2.6407761,42.3031934],[2.6408063,42.3031576],[2.6409032,42.3030143],[2.6409274,42.3028845],[2.6408971,42.302795],[2.6408426,42.3027099],[2.6407942,42.3026696],[2.6406732,42.302598],[2.6406005,42.3025353],[2.6405703,42.3024906],[2.6405279,42.3024503],[2.6404916,42.3024055],[2.6404613,42.3023652],[2.6404492,42.3023204],[2.6404492,42.3022712],[2.6404613,42.3021951],[2.6404855,42.3021503],[2.6404975999999999,42.3021056],[2.6405339,42.3020384],[2.6406489,42.3017788],[2.6406974,42.301747400000007],[2.6407518,42.3017206],[2.6408124,42.3017027],[2.640885,42.3016937],[2.6409576,42.3016758],[2.6410242,42.3016579],[2.6412179,42.3016579],[2.6413753,42.30164],[2.641454,42.3016355],[2.6415206,42.3016221],[2.6415992,42.3016086],[2.6416779,42.3016042],[2.6417627,42.3016042],[2.6418414,42.3015997],[2.641914,42.3015997],[2.6419866,42.3015952],[2.6420714,42.3015952],[2.642144,42.3015952],[2.6422045,42.3015952],[2.6422893,42.3015952],[2.6423619,42.3015952],[2.6424285,42.3015952],[2.6425011,42.3015952],[2.6425798,42.3015952],[2.6426403,42.3016131],[2.642713,42.3016176],[2.6427735,42.3016176],[2.6428401,42.3016176],[2.6429127,42.3016266],[2.6429732,42.301631],[2.6430398,42.3016355],[2.6431125,42.3016445],[2.6431851,42.3016534],[2.6432456,42.3016713],[2.643294,42.3016982],[2.6433122,42.301747400000007],[2.6432759,42.3018011],[2.6432032,42.3018414],[2.6431246,42.3018817],[2.6430701,42.3019041],[2.6430035,42.3019399],[2.6429369,42.3019757],[2.6428824,42.3020071],[2.642834,42.3020518],[2.6427856,42.3020966],[2.6427372,42.3021503],[2.6427009,42.3021951],[2.6426585,42.3022533],[2.6426161,42.302307],[2.6425738,42.3023563],[2.6425435,42.3024055],[2.6425011,42.3024503],[2.6424587,42.302495],[2.6424164,42.3025443],[2.642374,42.3025846],[2.6423377,42.3026293],[2.6422953,42.3026696],[2.642259,42.3027099],[2.6422166,42.3027547],[2.6421622,42.302786],[2.6420956,42.3027995],[2.642029,42.3028039],[2.6419624,42.3027995],[2.6418958,42.3027995],[2.6418292,42.3028218],[2.6417869,42.3028577],[2.6417506,42.3028979],[2.6417324,42.3029517],[2.6417264,42.3030009],[2.6417203,42.3030546],[2.6416961,42.3030994],[2.6414842,42.3032113],[2.6412361,42.3033411]]},"properties":{"natural":"grassland"}},
{"type":"Feature","geometry":{"type":"LineString","coordinates":[[2.6339275,42.316125],[2.6338943,42.3161366],[2.633863,42.3161395],[2.6338317,42.3161395],[2.6338023,42.3161395],[2.6337749,42.3161395],[2.6337417,42.3161424],[2.6337084,42.3161481],[2.6336771,42.3161554],[2.6336477,42.3161626],[2.6336203,42.3161684],[2.633589,42.3161756],[2.6335617,42.3161814],[2.6335303,42.3161843],[2.633501,42.3161843],[2.6334716,42.3161829],[2.6334462,42.3161684],[2.6334306,42.3161481],[2.6334286,42.3161264],[2.6334325,42.3161062],[2.6334521,42.3160917],[2.6334756,42.3160787],[2.633501,42.3160686],[2.6335303,42.3160584],[2.6335617,42.3160512],[2.6335871,42.3160411],[2.6336125,42.3160338],[2.633638,42.3160266],[2.6336654,42.3160179],[2.6336849,42.3160049],[2.6337045,42.3159904],[2.6337182,42.3159745],[2.6337436,42.3159601],[2.6337651,42.315947],[2.6337847,42.315934],[2.6338121,42.3159239],[2.6338395,42.3159152],[2.6338767,42.3159094],[2.633906,42.3159022],[2.6339314,42.3158979],[2.6339667,42.3158921],[2.633996,42.3158906],[2.6340254,42.3158848],[2.6340586,42.3158805],[2.634086,42.3158776],[2.6341173,42.3158747],[2.6341428,42.3158747],[2.6341721,42.3158747],[2.6341995,42.3158761],[2.634221,42.3158877],[2.6342367,42.3159065],[2.6342484,42.3159268],[2.6342484,42.315947],[2.6342328,42.3159644],[2.6342015,42.3159745],[2.634176,42.3159818],[2.6341486,42.3159919],[2.6341193,42.3160035],[2.6340919,42.3160121],[2.6340684,42.3160266],[2.6340508,42.3160469],[2.6340293,42.3160642],[2.6340117,42.3160801],[2.6339921,42.3160961],[2.6339275,42.316125]]},"properties":{"natural":"grassland"}},
{"type":"Feature","geometry":{"type":"MultiPolygon","coordinates":[[[[2.4802472,42.3462509],[2.4802946,42.3458071],[2.4809108,42.3455853],[2.4817324,42.3451649],[2.4814796,42.3443941],[2.4805474,42.3439387],[2.4814164,42.3436234],[2.483265,42.3439153],[2.4827436,42.3446861],[2.4837232,42.3445459],[2.4837232,42.3447912],[2.4818904,42.3455269],[2.4817166,42.34534],[2.4814954,42.345702],[2.4822538,42.3466012],[2.4817482,42.3466246],[2.4810688,42.3462509],[2.4807844,42.3464377],[2.4802472,42.3462509]]]]},"properties":{"natural":"grassland","source":"Bing"}},
{"type":"Feature","geometry":{"type":"MultiPolygon","coordinates":[[[[-2.0764174,43.1380729],[-1.9816603,43.0317579],[-1.8663039,42.9875729],[-1.8402113,42.9162074],[-1.7880263,42.8276396],[-1.8097616,42.7966121],[-1.8098029,42.796553],[-1.838838,42.7550806],[-1.8305983,42.618803],[-1.6932692,42.5227248],[-1.5779128,42.4072357],[-1.4584364,42.3889811],[-1.3444533,42.5105781],[-1.2702956,42.368692],[-0.9901442,42.3423063],[-0.7443251,42.3301246],[-0.5575575,42.2701967],[-0.3186049,42.211229],[-0.0672926,42.2020739],[0.1043687,42.1277669],[0.2238451,42.0686662],[0.2828966,41.9860369],[0.3955064,41.9002338],[0.5836473,41.8593346],[0.8280931,41.8613802],[1.1329637,41.930891],[1.242827,41.8869444],[1.5257249,41.7323808],[1.8168633,41.7277683],[2.0180505,41.8756969],[2.2309106,41.941617],[2.231806,41.9435952],[2.2727953,42.0360354],[2.4444566,42.1298039],[2.4815355,42.18783],[2.5790392,42.2213998],[2.7507005,42.1959698],[2.8248582,42.2447864],[2.8124986,42.3159096],[2.8674303,42.3839094],[2.9168687,42.4153471],[2.9772935,42.4092636],[3.0129991,42.3920239],[3.0363451,42.3494112],[3.1077562,42.3159096],[3.1668077,42.2691805],[3.210753,42.2315689],[3.2641783,42.2281776],[3.3222444,42.3194537],[3.2450853,42.3473813],[3.2036683,42.3416416],[3.20114,42.3412912],[3.1654344,42.3707212],[3.1791673,42.4457557],[3.1228624,42.5217127],[2.9154955,42.5459994],[2.7081285,42.6733499],[2.7960191,42.7369275],[2.6559435,42.7923785],[2.2521959,42.8185744],[2.0860277,42.932297],[1.5078722,43.0438028],[1.1906419,43.0969729],[0.8033739,43.1069998],[0.4682909,43.0949673],[0.2677904,43.1661253],[0.0274644,43.2191892],[-0.3488173,43.2832049],[-0.5245985,43.3791023],[-0.7800307,43.336167],[-1.0258498,43.3201833],[-1.1975111,43.3711167],[-1.395265,43.3531451],[-1.6658034,43.3990619],[-1.7756667,43.3711167],[-1.7976393,43.3920768],[-1.7980603,43.3919094],[-1.9844069,43.3221815],[-2.0242323,43.2221915],[-2.0764174,43.1380729]]]]},"properties":{"boundary":"region","name":"Pyrénées / Pirineos / Pirineus / Pirineu / Pirinioak / Pirenèus","name:af":"Pireneë","name:am":"ፒሬኔ ተራሮች","name:an":"Pireneu","name:ar":"البرانس","name:ba":"Пиреней тауҙары","name:be":"Пірэнеі","name:bg":"Пиренеи","name:bh":"पिरेनीज परबत","name:br":"Pireneoù","name:bs":"Pireneji","name:ca":"Pirineus","name:cs":"Pyreneje","name:cy":"Pyreneau","name:da":"Pyrenæerne","name:de":"Pyrenäen","name:el":"Πυρηναία","name:en":"Pyrenees","name:eo":"Pireneoj","name:es":"Pirineos","name:et":"Püreneed","name:eu":"Pirinioak","name:fa":"پیرنه","name:fi":"Pyreneet","name:fo":"Pyreneurnar","name:fr":"Pyrénées","name:fy":"Pyreneeën","name:ga":"Piréiní","name:gl":"Pireneos","name:he":"הרי הפירנאים","name:hi":"पिरिनी पर्वत शृंखला","name:hr":"Pireneji","name:hu":"Pireneusok","name:hy":"Պիրենեյներ","name:ia":"Pyreneos","name:id":"Pegunungan Pirenia","name:io":"Pirenei","name:is":"Pýreneafjöll","name:it":"Pirenei","name:ja":"ピレネー山脈","name:ka":"პირენეები","name:kk":"Пиреней таулары","name:ko":"피레네 산맥","name:ku":"Pîrenê","name:ky":"Пиреней тоолору","name:la":"Pyrenaei","name:lb":"Pyrenäen","name:li":"Pyreneje","name:lt":"Pirėnai","name:lv":"Pireneji","name:mk":"Пиринеи","name:mn":"Пиренейн уулс","name:mr":"पिरेनीज","name:ms":"Pyrenees","name:nl":"Pyreneeën","name:nn":"Pyreneane","name:no":"Pyreneene","name:oc":"Pirenèus","name:pa":"ਪੀਰੇਨੇ","name:pl":"Pireneje","name:pt":"Pireneus","name:qu":"Piriniyukuna","name:ro":"Munții Pirinei","name:ru":"Пиренеи","name:sk":"Pyreneje","name:sl":"Pireneji","name:sq":"Pirenetë","name:sr":"Пиринеји","name:sv":"Pyrenéerna","name:sw":"Pirenei","name:ta":"பிரனீசு மலைத்தொடர்","name:tg":"Кӯҳҳои Пиреней","name:th":"เทือกเขาพิเรนีส","name:tl":"Pirineos","name:tr":"Pireneler","name:tt":"Пиреней таулары","name:ug":"پىرېنېي تاغلىرى","name:uk":"Піренеї","name:ur":"کوہ پائرینیس","name:uz":"Pireney togʻlari","name:wa":"Pirinêyes","name:yi":"פירענעען","name:zh":"比利牛斯山","natural":"mountain_range","region:type":"mountain_area","source:name:oc":"ieo-bdtopoc","wikidata":"Q12431","wikipedia":"en:Pyrenees"}},
{"type":"Feature","geometry":{"type":"MultiPolygon","coordinates":[[[[2.6595599,42.3261598],[2.6597202,42.3260634],[2.6598924,42.3258973],[2.6600132,42.3257123],[2.6600788,42.3254614],[2.6601069,42.3252022],[2.6602222,42.3249999],[2.6604479,42.3249691],[2.6607409,42.3249999],[2.6610185,42.3251054],[2.6614692,42.3253488],[2.6615468,42.3255345],[2.661526,42.3257577],[2.6614712,42.3259129],[2.6613627,42.3260135],[2.6612128,42.3260291],[2.6610903,42.3259933],[2.6609782,42.3258346],[2.6609481,42.3257569],[2.6605708,42.3259612],[2.6604283,42.3260571],[2.6602742,42.3260207],[2.6600672,42.3260785],[2.6599698,42.3262046],[2.6599219,42.3262966],[2.659788,42.3263312],[2.6595599,42.3261598]]]]},"properties":{"natural":"scree"}},
{"type":"Feature","geometry":{"type":"MultiPolygon","coordinates":[[[[2.5492054,42.3288758],[2.5492347,42.3288368],[2.549264,42.3288022],[2.5492875,42.3287718],[2.5493168,42.3287458],[2.5493578,42.3287155],[2.549393,42.3286938],[2.5494223,42.3286721],[2.5494634,42.3286418],[2.5494927,42.3286027],[2.5495279,42.3285637],[2.5495572,42.328529],[2.5495807,42.328503],[2.54961,42.3284684],[2.5496334,42.328425],[2.5496393,42.3283903],[2.5496452,42.3283556],[2.5496452,42.3283253],[2.5496452,42.3282863],[2.5496276,42.3282473],[2.54961,42.3282083],[2.5495924,42.3281736],[2.5495689,42.3281476],[2.5494341,42.3279828],[2.5494223,42.3279482],[2.5494223,42.3279135],[2.5494282,42.3278831],[2.5494458,42.3278398],[2.5494692,42.3278008],[2.5494986,42.3277618],[2.5495279,42.3277314],[2.5495572,42.3277011],[2.5495865,42.3276577],[2.5496158,42.32761],[2.5496393,42.327571],[2.5496452,42.327532],[2.5496452,42.3274886],[2.5496452,42.3274453],[2.5496452,42.3274106],[2.5496627,42.3273629],[2.5496803,42.3273282],[2.5497097,42.3272892],[2.5497272,42.3272546],[2.5497566,42.3272242],[2.5497742,42.3271895],[2.5497917,42.3271592],[2.5500263,42.3267734],[2.550038,42.3267387],[2.5500556,42.326704],[2.5500732,42.3266693],[2.5500908,42.3266346],[2.550167,42.3265783],[2.5502081,42.3265696],[2.5502491,42.3265653],[2.5505247,42.3265002],[2.5506068,42.3265913],[2.5506596,42.326652],[2.5506889,42.3266867],[2.5507182,42.3267127],[2.5507651,42.3267213],[2.550812,42.3267213],[2.5508589,42.3266997],[2.5508824,42.3266693],[2.5509,42.3265436],[2.5508648,42.3264179],[2.5508472,42.3263572],[2.5508237,42.3263008],[2.550812,42.3262445],[2.5507944,42.3261968],[2.5507768,42.3261404],[2.550771,42.3260927],[2.550771,42.3260494],[2.550771,42.3260147],[2.550771,42.32598],[2.5507827,42.3259453],[2.5508531,42.3257893],[2.5509117,42.3257026],[2.5509352,42.3256722],[2.5509586,42.3256419],[2.5509938,42.3256029],[2.5510114,42.3255725],[2.5510466,42.3255248],[2.5510642,42.3254945],[2.5510759,42.3254555],[2.5510817,42.3254251],[2.5510817,42.3253514],[2.5510524,42.3253167],[2.5510055,42.3253037],[2.5509527,42.3253037],[2.5508765,42.3253037],[2.5507475,42.325165],[2.5507592,42.3251347],[2.5509,42.3250176],[2.550941,42.3249916],[2.5511462,42.3248962],[2.551199,42.3248789],[2.5512459,42.3248659],[2.5518792,42.3246274],[2.5523307,42.3245321],[2.5523717,42.3245191],[2.5529053,42.3243717],[2.5529464,42.3243543],[2.5529816,42.3243327],[2.5530109,42.3243066],[2.5530461,42.3242416],[2.5530813,42.3241809],[2.5530988,42.3241549],[2.5531164,42.3241246],[2.5531399,42.3240855],[2.5531692,42.3240465],[2.5532044,42.3240075],[2.5532337,42.3239815],[2.553263,42.3239468],[2.5534858,42.3237604],[2.5535445,42.3236954],[2.5535738,42.3236694],[2.5535914,42.323639],[2.553609,42.3236],[2.5536324,42.323561],[2.5536618,42.323522],[2.5536911,42.3234352],[2.5536911,42.3234006],[2.5536735,42.3233702],[2.5536559,42.3233399],[2.5536324,42.3233009],[2.553609,42.3232618],[2.5535328,42.3230884],[2.5535269,42.3230277],[2.5535269,42.3229887],[2.5535269,42.3229454],[2.5535445,42.3228977],[2.5535562,42.322863],[2.5535797,42.3228283],[2.5535973,42.322798],[2.5537028,42.3226636],[2.5538553,42.3225812],[2.553908,42.3225552],[2.5539784,42.3225248],[2.5540253,42.3225118],[2.5540781,42.3224945],[2.5541191,42.3224771],[2.554166,42.3224641],[2.5542071,42.3224555],[2.554254,42.3224338],[2.554295,42.3224121],[2.5543361,42.3223991],[2.5543771,42.3223861],[2.5544182,42.3223731],[2.5544651,42.3223601],[2.554512,42.3223471],[2.554553,42.3223341],[2.5545999,42.3223297],[2.5546527,42.3223167],[2.5546996,42.3223124],[2.5547465,42.3223124],[2.5547993,42.3223124],[2.5548638,42.3222994],[2.5549107,42.3222907],[2.5549576,42.3222864],[2.5550045,42.322269],[2.5550514,42.322243],[2.5550866,42.322217],[2.5551159,42.3221823],[2.5551218,42.3221476],[2.5551335,42.322113],[2.5552508,42.3217791],[2.5552508,42.3217444],[2.5552625,42.3217054],[2.5552743,42.3216751],[2.5553036,42.3216404],[2.555327,42.3216144],[2.5553505,42.321584],[2.5553798,42.3215624],[2.555415,42.321545],[2.5554912,42.321519],[2.5555557,42.3215017],[2.5556261,42.3214843],[2.5556964,42.3214756],[2.5557785,42.3214756],[2.5558372,42.32148],[2.5559368,42.3214973],[2.5560014,42.3215017],[2.5560717,42.3215103],[2.5561304,42.3215233],[2.5561773,42.3215407],[2.5562359,42.321584],[2.5562711,42.3216187],[2.5563004,42.3216534],[2.5563297,42.3216838],[2.5563708,42.3217054],[2.5564411,42.3217401],[2.556488,42.3217705],[2.5565291,42.3217921],[2.5565819,42.3218138],[2.5566815,42.3218181],[2.5567343,42.3218138],[2.5567754,42.3217921],[2.556834,42.3217748],[2.556875,42.3217575],[2.5569161,42.3217401],[2.5569571,42.3217184],[2.5571389,42.3216231],[2.5572269,42.321584],[2.557262,42.3215667],[2.5573207,42.321545],[2.5573617,42.3215277],[2.5574028,42.3215147],[2.5574555,42.3214973],[2.5575494,42.321467],[2.557608,42.321441],[2.557649,42.3214236],[2.5576901,42.3214019],[2.5577253,42.3213759],[2.5577546,42.3213543],[2.5578015,42.3213326],[2.5578484,42.3213152],[2.5578953,42.3212979],[2.5580009,42.3212675],[2.5580536,42.3212545],[2.5580947,42.3212502],[2.5581533,42.3212459],[2.5582002,42.3212415],[2.558253,42.3212415],[2.5587866,42.3210811],[2.5590446,42.3209944],[2.5592791,42.3209771],[2.5595195,42.3208817],[2.5592791,42.3207039],[2.5592205,42.3207039],[2.5591619,42.3207039],[2.5590974,42.3206953],[2.5590211,42.3206823],[2.5589625,42.3206649],[2.5588745,42.3206432],[2.5588042,42.3206216],[2.5587455,42.3206042],[2.5586928,42.3205739],[2.5586517,42.3205392],[2.5586224,42.3205132],[2.5585872,42.3204828],[2.558552,42.3204568],[2.5585169,42.3204221],[2.5584875,42.3203874],[2.5584699,42.3203397],[2.5584582,42.3203007],[2.5584582,42.3202704],[2.5584582,42.3202314],[2.5584699,42.3201923],[2.5584875,42.320149],[2.5585227,42.3201056],[2.5585462,42.3200623],[2.5585814,42.3200189],[2.5586048,42.3199929],[2.5586341,42.3199582],[2.5586634,42.3199279],[2.5586869,42.3198975],[2.5587104,42.3198715],[2.5587455,42.3198412],[2.5587866,42.3198108],[2.5588159,42.3197891],[2.5588511,42.3197675],[2.5588863,42.3197501],[2.5589273,42.3197198],[2.5589684,42.3197068],[2.5590153,42.3196937],[2.559068,42.3196894],[2.5591091,42.3196851],[2.559156,42.3196807],[2.559197,42.3196807],[2.5592557,42.3196807],[2.5593085,42.3196807],[2.5593612,42.3196851],[2.5594199,42.3196981],[2.5594609,42.3197154],[2.5595078,42.3197284],[2.5595547,42.3197284],[2.5595958,42.3197284],[2.5596368,42.3197154],[2.5596779,42.3196981],[2.5597189,42.3196807],[2.55976,42.3196634],[2.5597893,42.3196417],[2.5598127,42.3196157],[2.559842,42.3195897],[2.5598714,42.3195637],[2.5599007,42.3195377],[2.5599359,42.3195073],[2.5599769,42.319477],[2.5600238,42.3194596],[2.5600707,42.3194379],[2.5601176,42.3194293],[2.5602056,42.3194163],[2.5602584,42.3194163],[2.5603053,42.3194119],[2.5603756,42.3194033],[2.5604284,42.3193816],[2.5604753,42.3193686],[2.5605164,42.3193512],[2.5605574,42.3193296],[2.5605985,42.3193079],[2.560663,42.3192775],[2.5607099,42.3192602],[2.5611229,42.3191406],[2.5611731,42.3191475],[2.5612259,42.3191605],[2.5612669,42.3191778],[2.561308,42.3191952],[2.5613549,42.3192082],[2.5614018,42.3192168],[2.5614428,42.3192342],[2.5614839,42.3192559],[2.5615249,42.3192819],[2.5615601,42.3193122],[2.5615777,42.3193512],[2.5615777,42.3193946],[2.5615718,42.3194293],[2.5615484,42.319464],[2.561519,42.3194986],[2.5613373,42.3196764],[2.5603932,42.3205435],[2.5598772,42.3208167],[2.5598479,42.3208513],[2.5598127,42.3208817],[2.5597658,42.3209164],[2.559713,42.3209467],[2.559672,42.3209727],[2.5596368,42.3210031],[2.5596075,42.3210291],[2.5595547,42.3210508],[2.5595137,42.3210768],[2.5594668,42.3210985],[2.5588394,42.3213673],[2.5587924,42.3213889],[2.5587514,42.3214063],[2.5587045,42.3214236],[2.5586576,42.321441],[2.5585989,42.3214626],[2.5585344,42.3214843],[2.5584875,42.3214973],[2.5584289,42.321519],[2.558382,42.321545],[2.5583409,42.321571],[2.5583175,42.3216057],[2.5583116,42.3216491],[2.558294,42.3216838],[2.5582706,42.3217184],[2.5582471,42.3217618],[2.5582237,42.3218008],[2.5581826,42.3218398],[2.5581357,42.3218658],[2.5580947,42.3218875],[2.5580478,42.3219092],[2.5580067,42.321926499999999],[2.5579774,42.3219569],[2.5579422,42.3219872],[2.5579012,42.3220089],[2.5578543,42.3220262],[2.5578132,42.3220523],[2.557778,42.3220739],[2.5577311,42.3220913],[2.5576842,42.3221086],[2.5572914,42.3222604],[2.5573383,42.3223818],[2.5571096,42.3225162],[2.556576,42.3229107],[2.5562887,42.3232098],[2.5562711,42.3232575],[2.5562594,42.3232965],[2.55623,42.3233399],[2.5561949,42.3233876],[2.5561538,42.3234222],[2.5561245,42.3234569],[2.556101,42.3234959],[2.5560893,42.323535],[2.5560776,42.3235696],[2.5560717,42.3236087],[2.5560776,42.323652],[2.5560952,42.323704],[2.5561128,42.3237474],[2.5561186,42.3237864],[2.5561245,42.3238298],[2.5561245,42.3238688],[2.5558665,42.324415],[2.555585,42.3246751],[2.5554795,42.3249743],[2.5552098,42.3252777],[2.5543947,42.325837],[2.5534741,42.3261838],[2.5529112,42.3266173],[2.5528878,42.3266563],[2.5528643,42.3266867],[2.5527763,42.326769],[2.5527236,42.3268254],[2.552706,42.3268601],[2.5526825,42.3268947],[2.5526591,42.3269294],[2.5526297,42.3269598],[2.5525946,42.3269901],[2.5525535,42.3270161],[2.5525007,42.3270508],[2.5524421,42.3270898],[2.5523893,42.3271245],[2.5523307,42.3271548],[2.5522897,42.3271765],[2.5522545,42.3271982],[2.5522017,42.3272329],[2.5521607,42.3272589],[2.5521079,42.3272849],[2.552061,42.3273066],[2.5520141,42.3273326],[2.551973,42.3273716],[2.5519378,42.3273976],[2.5518968,42.327428],[2.5518675,42.3274626],[2.5518382,42.3275017],[2.5517971,42.3275407],[2.5517561,42.327571],[2.5517209,42.3276014],[2.5516798,42.327623],[2.5516329,42.3276534],[2.5515919,42.3276794],[2.5515508,42.3277011],[2.5515157,42.3277271],[2.5514805,42.3277618],[2.5514512,42.3277921],[2.5514394,42.3278268],[2.5514394,42.3278658],[2.5514336,42.3279048],[2.5514101,42.3279438],[2.5513749,42.3279915],[2.5513515,42.3280305],[2.5513339,42.3280652],[2.5513163,42.3281042],[2.5513046,42.3281432],[2.5513046,42.3281822],[2.5513046,42.3282169],[2.5513046,42.3282559],[2.551328,42.3282906],[2.5515215,42.3284423],[2.5514981,42.328477],[2.551457,42.3284987],[2.5514218,42.3285204],[2.5513691,42.3285464],[2.5513163,42.3285811],[2.5512635,42.3286114],[2.5512283,42.3286374],[2.5506889,42.3289842],[2.5503722,42.329214],[2.5499574,42.3293766],[2.5499032,42.3293657],[2.5498504,42.3293484],[2.5497976,42.3293223],[2.5497448,42.329305],[2.5496921,42.3292833],[2.5496276,42.329266],[2.5495748,42.3292486],[2.549522,42.329227],[2.5494692,42.3292053],[2.5494282,42.3291793],[2.5493872,42.329162],[2.549352,42.3291403],[2.5493109,42.3291186],[2.5492757,42.3290883],[2.5492523,42.3290536],[2.5492288,42.3290059],[2.5492112,42.3289582],[2.5492054,42.3289192],[2.5492054,42.3288758]]]]},"properties":{"natural":"grassland"}},
{"type":"Feature","geometry":{"type":"MultiPolygon","coordinates":[[[[2.5127686,42.337025],[2.5127745,42.336986],[2.5127804,42.3369513],[2.5128097,42.336921],[2.5128449,42.336895],[2.51288,42.3368603],[2.5129152,42.33683],[2.5129504,42.3367996],[2.5129797,42.3367693],[2.5130149,42.3367433],[2.5130618,42.3366999],[2.513097,42.3366696],[2.5131322,42.3366393],[2.5132084,42.3362578],[2.5132319,42.3362188],[2.5132553,42.3361885],[2.5132905,42.3361581],[2.5133257,42.3361321],[2.5133726,42.3361105],[2.5134195,42.3360758],[2.5134547,42.3360411],[2.5135192,42.3360021],[2.5136541,42.3359414],[2.5136834,42.3359154],[2.513701,42.3358807],[2.5137186,42.3358374],[2.513742,42.3358027],[2.5137889,42.3357117],[2.5138534,42.3356163],[2.5138886,42.335586],[2.5139238,42.33556],[2.513959,42.335534],[2.5140117,42.335508],[2.5141818,42.3352219],[2.5142111,42.3351829],[2.5142991,42.3351439],[2.5143342,42.3351222],[2.5143811,42.3350832],[2.5144222,42.3350615],[2.5144691,42.3350398],[2.5145101,42.3350182],[2.5145629,42.3350008],[2.5146098,42.3349792],[2.5146567,42.3349618],[2.5147799,42.3349185],[2.5149089,42.3348795],[2.5149675,42.3348621],[2.5150203,42.3348491],[2.5150731,42.3348318],[2.5156477,42.3347538],[2.5156946,42.3347538],[2.5157474,42.3347538],[2.515806,42.3347538],[2.5158529,42.3347538],[2.5159174,42.3347494],[2.5159761,42.3347494],[2.5160347,42.3347451],[2.5160992,42.3347408],[2.5161578000000004,42.3347364],[2.5162282,42.3347321],[2.5162751,42.3347278],[2.5163513,42.3347148],[2.5164276,42.3347017],[2.5164921,42.3346931],[2.5165624,42.3346844],[2.5166387,42.3346801],[2.5167207,42.3346671],[2.5167911,42.3346541],[2.5168732,42.3346367],[2.5169553,42.3346194],[2.5170491,42.3346064],[2.517096,42.3345934],[2.517184,42.3345804],[2.5172719,42.3345674],[2.517354,42.3345544],[2.5174009,42.33455],[2.5174947,42.334537],[2.5175417,42.3345327],[2.5175886,42.3345284],[2.5176765,42.3345154],[2.5177352,42.3345067],[2.517829,42.3344894],[2.5179111,42.334472],[2.5179873,42.3344503],[2.5180518,42.3344287],[2.5181163,42.3343983],[2.5181632,42.3343767],[2.5182042,42.334355],[2.5182687,42.3343203],[2.5183098,42.3342943],[2.5183684,42.334264],[2.5184153,42.3342336],[2.5184622,42.3342076],[2.5185033,42.3341859],[2.5185619,42.3341513],[2.518603,42.3341253],[2.518644,42.3341036],[2.5186968,42.3340732],[2.5187261,42.3340472],[2.5187554,42.3340169],[2.5187906,42.3339865],[2.5188141,42.3339519],[2.5188434,42.3339129],[2.5188727,42.3338825],[2.518902,42.3338435],[2.5189313,42.3338088],[2.5189548,42.3337698],[2.5189782,42.3337221],[2.5189958,42.3336831],[2.5190017,42.3336484],[2.5190252,42.3336051],[2.5190369,42.3335704],[2.5190486,42.3335314],[2.5190662,42.3334924],[2.5190779,42.3334577],[2.5190955,42.3334144],[2.5191072,42.333371],[2.519119,42.3333364],[2.5191248,42.3332887],[2.5191248,42.3332367],[2.5191248,42.3331933],[2.5191248,42.3331456],[2.5191248,42.3331066],[2.519119,42.3330633],[2.5191072,42.3330069],[2.5190897,42.3329636],[2.5190721,42.3329246],[2.5190603,42.3328855],[2.519031,42.3328552],[2.5189958,42.3328249],[2.5189724,42.3327945],[2.5189313,42.3327642],[2.5188962,42.3327425],[2.5188492,42.3327252],[2.5187847,42.3326992],[2.518732,42.3326818],[2.5186851,42.3326645],[2.518644,42.3326471],[2.5185971,42.3326255],[2.5185561,42.3326038],[2.5185326,42.3325778],[2.5184564,42.3325084],[2.5184036,42.3324174],[2.5183684,42.3323914],[2.5183274,42.332361],[2.5182863,42.3323394],[2.5182453,42.3323264],[2.5181925,42.332309],[2.518128,42.3322874],[2.5180401,42.3322744],[2.5178876,42.3322744],[2.5178348,42.332283],[2.5175123,42.3323567],[2.517354,42.3327295],[2.5173482,42.3327685],[2.5173423,42.3328075],[2.5173306,42.3328379],[2.5173188,42.3328812],[2.5173071,42.3329289],[2.5172837,42.3330113],[2.5172074,42.3331066],[2.5171722,42.333137],[2.5171371,42.3331543],[2.5171019,42.3331716],[2.5170608,42.3331803],[2.5170198,42.3331933],[2.516967,42.3331933],[2.5169025,42.3331933],[2.5168497,42.333189],[2.5168028,42.3331716],[2.5167149,42.3331326],[2.5166797,42.3331066],[2.5166562,42.3330633],[2.5166504,42.3330243],[2.5166504,42.3329419],[2.5166856,42.3328335],[2.5167149,42.3327902],[2.5167325,42.3327468],[2.5167442,42.3327078],[2.5167677,42.3326645],[2.5168028,42.3326255],[2.5168322,42.3325951],[2.5168673,42.3325518],[2.516967,42.3324781],[2.5170257,42.3324391],[2.5171605,42.3322007],[2.5171722,42.3321617],[2.5171722,42.3321226],[2.5171722,42.332075],[2.5171722,42.3320359],[2.5171547,42.3319753],[2.5171312,42.3319362],[2.517096,42.3318626],[2.517055,42.3318105],[2.5170198,42.3317629],[2.5169905,42.3317195],[2.5169612,42.3316675],[2.5169494,42.3316025],[2.5169612,42.3315635],[2.5169963,42.3315418],[2.5170726,42.3315418],[2.5171488,42.3315591],[2.5172074,42.3315765],[2.5172719,42.3316111],[2.5173247,42.3316328],[2.5173833,42.3316675],[2.5174244,42.3316848],[2.5174713,42.3317065],[2.5175651,42.3317065],[2.5176413,42.3317065],[2.5177058,42.3317065],[2.5177938,42.3317065],[2.5178817,42.3317065],[2.5179521,42.3317065],[2.518345,42.3316762],[2.5183977,42.3316762],[2.5187847,42.3316371],[2.5188434,42.3316198],[2.5188844,42.3316025],[2.5189313,42.3315895],[2.5189548,42.3315548],[2.5189724,42.3315158],[2.5189958,42.3314854],[2.5190017,42.3314464],[2.5189958,42.3313987],[2.5189782,42.3313641],[2.5189489,42.3313337],[2.5189313,42.331299],[2.5189196,42.33126],[2.5189196,42.3312167],[2.5189313,42.3311777],[2.5189431,42.3311386],[2.5189665,42.3310996],[2.5190076,42.331052],[2.5190369,42.3310259],[2.5190721,42.3309826],[2.5191131,42.3309566],[2.5192714,42.3308916],[2.5193125,42.3308699],[2.5193652,42.3308482],[2.5194063,42.3308179],[2.5196995,42.3307528],[2.5197581,42.3307398],[2.5198109,42.3307398],[2.5198754,42.3307398],[2.5200982,42.3307875],[2.520151,42.3308092],[2.520409,42.3309132],[2.5204559,42.3309349],[2.5204969,42.3309523],[2.5209543,42.3311126],[2.5211009,42.3310736],[2.5211595,42.3310086],[2.5211185,42.3308265],[2.5211126,42.3307875],[2.5210129,42.3305795],[2.5210598,42.3303584],[2.5210892,42.330328],[2.5211009,42.3302934],[2.5211243,42.3302587],[2.5211771,42.330237],[2.5212358,42.330211],[2.5212827,42.330185],[2.5214117,42.330133],[2.521611,42.3300376],[2.5216462,42.3299986],[2.5216345,42.3299552],[2.5215876,42.3299206],[2.5215348,42.3299119],[2.5214762,42.3299119],[2.5214293,42.3299119],[2.5209015,42.3300853],[2.5208488,42.3301286],[2.5208077,42.330146],[2.5207667,42.3301546],[2.5207198,42.3301633],[2.5206728,42.330146],[2.5206318,42.3301286],[2.5205732,42.33012],[2.5205204,42.330107],[2.5204618,42.3300853],[2.5203562,42.3300853],[2.5203093,42.3300853],[2.5202507,42.330094],[2.5201862,42.3301026],[2.5201158,42.330107],[2.5200689,42.330107],[2.5200044,42.3301026],[2.5199516,42.3300376],[2.5199223,42.3299986],[2.5198988,42.3299682],[2.5198695,42.3299336],[2.5198343,42.3299076],[2.5197757,42.3298815],[2.5197171,42.3298815],[2.5195236,42.3298815],[2.5193711,42.3299379],[2.5193418,42.3299639],[2.5193183,42.3300029],[2.5193007,42.3300723],[2.5192656,42.330159],[2.5192245,42.3301893],[2.5191776,42.330224],[2.5191248,42.3302413],[2.5190721,42.3302673],[2.5190134,42.3302934],[2.5189489,42.330328],[2.5188903,42.3303627],[2.5188434,42.3303801],[2.5187906,42.3304061],[2.5187202,42.3304277],[2.5185795,42.3304581],[2.5184212,42.3304537],[2.5183567,42.3304537],[2.5182863,42.3304494],[2.5182042,42.3304451],[2.5181339,42.3304407],[2.5180459,42.3304364],[2.5179697,42.3304234],[2.5178993,42.3304191],[2.5178348,42.3304191],[2.5177586,42.3304234],[2.5176882,42.3304277],[2.5176062,42.3304407],[2.5175651,42.3304537],[2.5175299,42.3304668],[2.5174596,42.3304971],[2.5174244,42.3305188],[2.5173716,42.3305578],[2.517313,42.3306228],[2.5172661,42.3306878],[2.5172133,42.3307442],[2.5171547,42.3307919],[2.5170784,42.3308352],[2.5170022,42.3308612],[2.5169494,42.3308656],[2.5168849,42.3308569],[2.516838,42.3308352],[2.5167852,42.3308179],[2.5167383,42.3307962],[2.5167032,42.3307702],[2.5166621,42.3307355],[2.5166328,42.3307052],[2.5166035,42.3306705],[2.5165683,42.3306358],[2.5165214,42.3305534],[2.5164745,42.3304321],[2.5164451,42.3303844],[2.5164217,42.3303454],[2.5163982,42.330302],[2.5163806,42.330263],[2.5163513,42.330224],[2.516322,42.3301937],[2.5162927,42.3301546],[2.5162927,42.3301156],[2.5162927,42.3300766],[2.5162927,42.3300289],[2.5163044,42.3299856],[2.5163396,42.3299466],[2.5163865,42.3299206],[2.5164803,42.3298859],[2.5166797,42.3298469],[2.5167325,42.3298512],[2.5168028,42.3298555],[2.5168615,42.3298642],[2.5169318,42.3298642],[2.5169846,42.3298685],[2.5170374,42.3298555],[2.5170843,42.3298339],[2.5171312,42.3298165],[2.5171898,42.3297905],[2.5172426,42.3297602],[2.5172837,42.3297385],[2.5173247,42.3297168],[2.5173657,42.3296951],[2.5174185,42.3296735],[2.5174654,42.3296475],[2.5175123,42.3296171],[2.5175592,42.3296041],[2.5176296,42.3295868],[2.5176941,42.3295781],[2.5177469,42.3295694],[2.5178114,42.3295651],[2.5178817,42.3295521],[2.5179462,42.3295348],[2.5180107,42.3295261],[2.5183743,42.3293353],[2.5184388,42.3293007],[2.5184798,42.3292747],[2.5184798,42.3292356],[2.5184622,42.3291966],[2.5184271,42.3291706],[2.5183743,42.3291576],[2.5183215,42.3291446],[2.5182805,42.3291229],[2.518257,42.3290926],[2.5182687,42.3290536],[2.5183274,42.3290492],[2.5183919,42.3290492],[2.5184916,42.3290362],[2.5185326,42.3290189],[2.5185737,42.3290016],[2.5186323,42.3289842],[2.5187027,42.3289495],[2.5187261,42.3289192],[2.5187378,42.3288845],[2.5187847,42.3288802],[2.5188668,42.3288845],[2.5189255,42.3289062],[2.5189958,42.3289365],[2.5190427,42.3289582],[2.5190838,42.3289799],[2.5191366,42.3290016],[2.5191835,42.3290276],[2.5192304,42.3290449],[2.5193007,42.3290666],[2.5193477,42.3290276],[2.5193594,42.3289886],[2.5193652,42.3289539],[2.5193652,42.3288845],[2.519377,42.3288022],[2.5194122,42.3287805],[2.5195353,42.3287631],[2.5197464,42.3286981],[2.5197933,42.3286721],[2.5198343,42.3286548],[2.5198695,42.3286244],[2.5198637,42.3285854],[2.5198402,42.3285507],[2.5197992,42.3285334],[2.5197581,42.328516],[2.5197053,42.3285074],[2.5195939,42.32849],[2.5194297,42.328464],[2.5193828,42.3284597],[2.5193359,42.3284467],[2.519289,42.328438],[2.5192304,42.3284163],[2.5191893,42.3284077],[2.5191483,42.328386],[2.5190897,42.3283513],[2.5190369,42.328295],[2.5190193,42.3282559],[2.5190076,42.3282126],[2.5190076,42.3281692],[2.5190134,42.3281302],[2.519031,42.3280695],[2.5190838,42.3279785],[2.5191131,42.3279438],[2.5191483,42.3279048],[2.5192011,42.3278615],[2.5192538,42.3278051],[2.519289,42.3277748],[2.5193242,42.3277401],[2.5193594,42.3276924],[2.5193828,42.3276534],[2.5194122,42.3276057],[2.5194239,42.3274756],[2.5194239,42.327428],[2.5194239,42.3273933],[2.5194239,42.3273586],[2.5194356,42.3273239],[2.5195236,42.3272199],[2.519547,42.3271852],[2.5195587,42.3271505],[2.5195705,42.3271158],[2.5195822,42.3270768],[2.5195998,42.3270421],[2.5196128,42.3267627],[2.5196877,42.3266867],[2.5199106,42.3266303],[2.5199575,42.3266433],[2.5200044,42.3266563],[2.5200454,42.3266737],[2.5200865,42.3266997],[2.5201217,42.3267343],[2.5201686,42.326756],[2.5202624,42.3267734],[2.520321,42.3267777],[2.5203855,42.3267864],[2.5204442,42.3267864],[2.5205028,42.3267864],[2.5205614,42.3267864],[2.5206259,42.3267864],[2.5206728,42.3267907],[2.5207256,42.326795],[2.5207784,42.326795],[2.5208194,42.326795],[2.5208663,42.326795],[2.520925,42.3267994],[2.5209836,42.326808],[2.5210305,42.3268124],[2.5210774,42.3268167],[2.5211302,42.3268297],[2.521183,42.3268427],[2.5212416,42.3268601],[2.5212944,42.3268774],[2.5213472,42.3269034],[2.5213823,42.3269251],[2.5214175,42.3269554],[2.5214644,42.3269858],[2.5214996,42.3270075],[2.5215407,42.3270248],[2.5215876,42.3270335],[2.5216286,42.3270378],[2.5216931,42.3270378],[2.5217459,42.3270291],[2.5218045,42.3270248],[2.5218514,42.3270118],[2.5218925,42.3269988],[2.5219335,42.3269771],[2.5219804,42.3269598],[2.5220391,42.3269424],[2.522086,42.3269294],[2.5221329,42.3269164],[2.5221798,42.3269077],[2.5222443,42.3269077],[2.5222853,42.3269077],[2.5223381,42.3269077],[2.5224788,42.3269251],[2.5225316,42.3269251],[2.5225844,42.3269338],[2.5226489,42.3269468],[2.5227193,42.3269598],[2.5227896,42.3269641],[2.5228541,42.3269641],[2.5229186,42.3269728],[2.5229655,42.3269988],[2.5230124,42.3270248],[2.5230652,42.3270551],[2.523118,42.3270855],[2.523159,42.3271158],[2.5231942,42.3271462],[2.5232353,42.3271679],[2.5232939,42.3271852],[2.5233467,42.3272069],[2.5233877,42.3272242],[2.5234288,42.3272372],[2.5234757,42.3272632],[2.5235167,42.3272806],[2.5237747,42.327428],[2.5238275,42.3274453],[2.5239917,42.3275233],[2.5240386,42.3275537],[2.524062,42.3275884],[2.5240972,42.3276274],[2.5241324,42.3276534],[2.5241734,42.3276664],[2.5242204,42.3276751],[2.5242673,42.3276707],[2.5243259,42.3276577],[2.5243728,42.3276447],[2.5244197,42.327636],[2.5244666,42.3276534],[2.5244959,42.3276794],[2.524537,42.3277054],[2.5245722,42.3277401],[2.5246015,42.3277661],[2.5246308,42.3278008],[2.5246601,42.3278311],[2.5247129,42.3278354],[2.5247598,42.3278354],[2.5248184,42.3278528],[2.5248654,42.3278658],[2.525182,42.3279178],[2.5252348,42.3279308],[2.5252817,42.3279438],[2.5253403,42.3279698],[2.5254107,42.3280045],[2.5254928,42.3280392],[2.5256042,42.3280782],[2.525698,42.3281042],[2.5258035,42.3281346],[2.5259032,42.3281519],[2.5260088,42.3281649],[2.5261847,42.3281909],[2.5263019,42.3282169],[2.5264075,42.3282299],[2.5264896,42.3282386],[2.5265717,42.3282429],[2.5266538,42.3282473],[2.5267241,42.3282473],[2.5268121,42.3282559],[2.5268766,42.3282646],[2.5269235,42.3282646],[2.5269763,42.3282603],[2.5270173,42.3282559],[2.527076,42.3282386],[2.527117,42.3282343],[2.5271756,42.3282213],[2.5272343,42.3282039],[2.527287,42.3281866],[2.527334,42.3281822],[2.5273867,42.3281779],[2.5274336,42.3281649],[2.5274923,42.3281519],[2.5275509,42.3281519],[2.5276037,42.3281562],[2.5277503,42.3282169],[2.527891,42.328282],[2.527932,42.328308],[2.5279848,42.3283383],[2.5280317,42.3283773],[2.5280728,42.3284033],[2.5281255,42.3284337],[2.5281725,42.3284597],[2.5282663,42.3285421],[2.528366,42.3286071],[2.528407,42.3286374],[2.5284422,42.3286764],[2.5284715,42.3287155],[2.5285125,42.3287545],[2.5285536,42.3287935],[2.5285946,42.3288325],[2.5286298,42.3288715],[2.5286709,42.3289062],[2.528706,42.3289452],[2.5287295,42.3289799],[2.5287647,42.3290146],[2.528794,42.3290579],[2.5288116,42.3290926],[2.5288585,42.3291359],[2.5289699,42.329188],[2.5290168,42.3292053],[2.5290696,42.3292183],[2.529181,42.3292226],[2.529222,42.3292226],[2.5292748,42.329227],[2.5293335,42.329231299999999],[2.5293921,42.32924],[2.5294507,42.32924],[2.5295035,42.32924],[2.5295504,42.3292486],[2.5298964,42.3293787],[2.5299433,42.3293917],[2.5300371,42.3293917],[2.5301075,42.3293917],[2.530172,42.3293917],[2.5302423,42.3293874],[2.5303068,42.3293787],[2.5303713,42.32937],[2.5304358,42.3293657],[2.5304945,42.3293657],[2.5305472,42.3293657],[2.5306059,42.3293657],[2.5306586,42.3293657],[2.5308404,42.3293917],[2.5309518,42.3294177],[2.5309987,42.3294437],[2.5310515,42.3294611],[2.5310984,42.3294697],[2.5311395,42.3294914],[2.5311746,42.3295131],[2.531204,42.3295391],[2.5313564,42.3295998],[2.5314385,42.3295998],[2.5315089,42.3295868],[2.5315734,42.3295694],[2.531632,42.3295521],[2.5317082,42.3295304],[2.5317845,42.3295044],[2.5318196,42.3294914],[2.53189,42.3294741],[2.5319486,42.3294481],[2.5320131,42.3294307],[2.5320542,42.3294134],[2.5321011,42.3293917],[2.5321597,42.3293657],[2.5322184,42.3293353],[2.5322711,42.3293137],[2.5323239,42.3292963],[2.5323591,42.3292747],[2.5325116,42.329201],[2.5325409,42.3291663],[2.5325702,42.3291403],[2.5325878,42.3291099],[2.5326112,42.3290666],[2.5326288,42.3290319],[2.5326406,42.3289929],[2.532664,42.3289539],[2.5326816,42.3289149],[2.5327109,42.3288802],[2.5327344,42.3288412],[2.5328282,42.3287501],[2.5328985999999999,42.3287068],[2.5329455,42.3286808],[2.5329924,42.3286548],[2.533051,42.3286331],[2.5331038,42.3286201],[2.53318,42.3285984],[2.5332504,42.3285897],[2.5332973,42.3285897],[2.5333501,42.3285854],[2.5334146,42.3285811],[2.5334615,42.3285811],[2.5335084,42.3285811],[2.5335553,42.3285854],[2.5335846,42.3286071],[2.5336022,42.3286418],[2.5336139,42.3286808],[2.5336139,42.3287155],[2.5335963,42.3287588],[2.5335729,42.3288022],[2.5335553,42.3288368],[2.5335494,42.3288715],[2.5335494,42.3289105],[2.5335436,42.3289452],[2.5335377,42.3289842],[2.5335377,42.3290232],[2.5335436,42.3290622],[2.5335612,42.3291013],[2.5335787,42.3291316],[2.5335905,42.3291663],[2.5335963,42.329201],[2.5336022,42.32924],[2.5336022,42.329279],[2.5336022,42.329318],[2.5336432,42.3296041],[2.5336667,42.3296388],[2.5336667,42.3296735],[2.5336374,42.3297081],[2.5336081,42.3297385],[2.5335787,42.3297732],[2.5335553,42.3298122],[2.5335846,42.3298469],[2.5336198,42.3298815],[2.533655,42.3299032],[2.5337136,42.3299292],[2.5337605,42.3299509],[2.5338133,42.3299812],[2.5338602,42.3300116],[2.5338837,42.3300506],[2.5338837,42.330094],[2.5338485,42.3301243],[2.5338192,42.3301503],[2.5337781,42.330172],[2.5337312,42.3301937],[2.533696,42.3302197],[2.5336902,42.3302543],[2.5337019,42.3302934],[2.5337312,42.3303324],[2.5337605,42.330367],[2.5337957,42.3304104],[2.5338309,42.3304364],[2.5338661,42.3304668],[2.5338954,42.3304928],[2.5339247,42.3305144],[2.533954,42.3305448],[2.5339775,42.3305795],[2.5339892,42.3306228],[2.5340009,42.3306618],[2.5340009,42.3307052],[2.5339951,42.3307442],[2.5339951,42.3307789],[2.5341768,42.3311647],[2.5341886,42.3311993],[2.5342003,42.331234],[2.5342296,42.331273],[2.5342531,42.3313077],[2.5342765,42.3313467],[2.5343,42.3313857],[2.534341,42.3314204],[2.5343703,42.3314594],[2.5343938,42.3314854],[2.5344348,42.3315028],[2.5344759,42.3315158],[2.5345169,42.3315288],[2.5345638,42.3315418],[2.5346577,42.3315418],[2.5347515,42.3315505],[2.5347984,42.3315635],[2.5348512,42.3315808],[2.5349157,42.3316025],[2.5349684,42.3316198],[2.5350036,42.3316415],[2.5350447,42.3316718],[2.5351209,42.3317195],[2.5351737,42.3317672],[2.535203,42.3318019],[2.5352499,42.3318279],[2.5352909,42.3318452],[2.5353437,42.3318669],[2.5353789,42.3318886],[2.5354258,42.3319016],[2.5354727,42.3319102],[2.5355137,42.3318929],[2.5355313,42.3318452],[2.5354727,42.3317715],[2.5354375,42.3317368],[2.5354023,42.3317108],[2.5353906,42.3316805],[2.5354082,42.331299],[2.5354141,42.3312557],[2.5354199,42.3312123],[2.5354317,42.3311647],[2.5354551,42.3311126],[2.5354786,42.3310736],[2.5354903,42.3310389],[2.535502,42.3310043],[2.5355137,42.3309609],[2.5355372,42.3309262],[2.5355489,42.3308916],[2.5355665,42.3308656],[2.5356076,42.3308569],[2.5356545,42.3308439],[2.5357072,42.3308309],[2.5357542,42.3308179],[2.5358011,42.3308005],[2.5358832,42.3307095],[2.5359183,42.3306792],[2.5359594,42.3306531],[2.5360122,42.3306445],[2.5360591,42.3306618],[2.5361001,42.3306792],[2.5361353,42.3306965],[2.5361822,42.3307312],[2.5362174,42.3307572],[2.5362643,42.3307832],[2.5363229,42.3308092],[2.5363757,42.3308265],[2.5364285,42.3308309],[2.5364871,42.3308309],[2.5365282,42.3308309],[2.5365868,42.3308309],[2.536663,42.3308309],[2.5367158,42.3308309],[2.5367979,42.3308309],[2.5368565,42.3308309],[2.5369034,42.3308352],[2.5369503,42.3308439],[2.5369973,42.3308526],[2.53705,42.3308742],[2.5370969,42.3308916],[2.5371263,42.3309219],[2.537138,42.3309653],[2.5371438,42.3309999],[2.537138,42.3310606],[2.5371087,42.3311213],[2.5370852,42.331169],[2.5370676,42.3312037],[2.5370442,42.3312383],[2.537009,42.3312687],[2.5369621,42.331299],[2.5369152,42.331325],[2.5368683,42.3313511],[2.5368155,42.3313771],[2.5367744,42.3314031],[2.5367744,42.3314377],[2.5367979,42.3314681],[2.5368096,42.3315028],[2.5367979,42.3315418],[2.536751,42.3315591],[2.5366982,42.3315721],[2.5366337,42.3315851],[2.5365809,42.3316068],[2.5365282,42.3316285],[2.5364637,42.3316588],[2.5364226,42.3316848],[2.5363933,42.3317195],[2.5363523,42.3317499],[2.5363288,42.3317802],[2.5362878,42.3318105],[2.536276,42.3318452],[2.5362643,42.3318842],[2.536235,42.3319232],[2.5362057,42.3319492],[2.536106,42.3320663],[2.5360591,42.3320966],[2.5360004,42.3321183],[2.5359594,42.3321356],[2.535889,42.332166],[2.5358069,42.332205],[2.5357717,42.3322267],[2.5357542,42.3322657],[2.5357952,42.3322874],[2.5358421,42.3322917],[2.5359066,42.3322917],[2.535977,42.3322917],[2.5360239,42.3322917],[2.5360415,42.3323264],[2.5360239,42.332361],[2.5359946,42.3323957],[2.5359652,42.3324347],[2.5359535,42.3324738],[2.5359594,42.3325128],[2.535977,42.3325518],[2.5360004,42.3325908],[2.5360239,42.3326211],[2.5360473,42.3326515],[2.5360649,42.3326818],[2.5362174,42.3326601],[2.5364988,42.3324651],[2.5365458,42.3324521],[2.5365868,42.3324347],[2.5366337,42.3324217],[2.5366806,42.3323957],[2.5367334,42.3323784],[2.536792,42.3323524],[2.5368389,42.3323264],[2.5368624,42.3323004],[2.5368976,42.33227],[2.5369269,42.332244],[2.5369621,42.3322223],[2.537009,42.3322007],[2.53705,42.3321833],[2.5370969,42.3321617],[2.5371321,42.3321443],[2.5371908,42.3321313],[2.5372377,42.3321226],[2.5372904,42.3321096],[2.5373373,42.3320966],[2.5373843,42.3320966],[2.5374429,42.3320923],[2.5374839,42.332088],[2.5375308,42.3320836],[2.5375895,42.3320836],[2.5376305,42.3320793],[2.5376892,42.3320836],[2.5377419,42.3320966],[2.5377888,42.3321183],[2.5378416,42.3321356],[2.5378885,42.3321486],[2.5379354,42.3321703],[2.5379823,42.332192],[2.5380234,42.3322093],[2.5380644,42.332231],[2.5380938,42.3322613],[2.5381289,42.3322874],[2.5381758,42.3323047],[2.5382228,42.332322],[2.5382755,42.3323394],[2.5383283,42.332361],[2.5383928,42.3323871],[2.5384456,42.3324131],[2.5384925,42.3324261],[2.5385453,42.3324391],[2.5385922,42.3324521],[2.5386449,42.3324738],[2.5386918,42.3324911],[2.538727,42.3325128],[2.5387798,42.3325344],[2.538815,42.3325561],[2.538856,42.3325821],[2.5391082,42.3327728],[2.5391433,42.3327989],[2.5391903,42.3328075],[2.5392372,42.3328075],[2.5392958,42.3328075],[2.5393427,42.3328075],[2.5394013,42.3328075],[2.5394541,42.3328075],[2.5395186,42.3328075],[2.5395714,42.3328075],[2.53963,42.3328075],[2.5396945,42.3328162],[2.5397473,42.3328249],[2.5397884,42.3328465],[2.5398294,42.3328682],[2.5398704,42.3328985],[2.5398939,42.3329246],[2.5399232,42.3329592],[2.5399408,42.3329896],[2.5399701,42.3330243],[2.540017,42.3330633],[2.5400522,42.3330849],[2.5401109,42.3331109],[2.5401578,42.3331283],[2.5402047,42.3331456],[2.5402633,42.3331586],[2.5403219,42.333176],[2.5403747,42.333189],[2.5404334,42.3331976],[2.5404979,42.3332063],[2.5405448,42.3332106],[2.5405975,42.3332106],[2.5406444,42.333215],[2.5407031,42.3332193],[2.54075,42.3332193],[2.5408086,42.333215],[2.5408673,42.3332063],[2.5409259,42.3331976],[2.5409845,42.333176],[2.5410314,42.333163],[2.5410959,42.33315],[2.5411429,42.333137],[2.5412074,42.3331196],[2.5412543,42.3331109],[2.5413012,42.3331023],[2.5417409,42.3329376],[2.5417703,42.3329159],[2.5418348,42.3328595],[2.5418817,42.3327598],[2.5418934,42.3327208],[2.541911,42.3326818],[2.5419227,42.3326471],[2.5419286,42.3326081],[2.5419462,42.3325691],[2.541952,42.3325388],[2.5419814,42.3325041],[2.5420107,42.3324824],[2.5420576,42.3324651],[2.5421104,42.3324564],[2.5421573,42.3324477],[2.54221,42.3324434],[2.5422569,42.3324434],[2.542298,42.3324434],[2.5423508,42.3324434],[2.5424446,42.3324347],[2.5425149,42.3324217],[2.542556,42.3324044],[2.5426146,42.3323784],[2.5426615,42.3323567],[2.5427026,42.3323394],[2.542726,42.332309],[2.5427319,42.3322744],[2.5426439,42.3322657],[2.5425912,42.3322787],[2.5425267,42.3323004],[2.5424446,42.332335],[2.5423625,42.332361],[2.5423097,42.3323741],[2.5422218,42.3323957],[2.5421279,42.3324217],[2.5420048,42.3324564],[2.5418113,42.3325084],[2.5416589,42.3325214],[2.5416002,42.3325258],[2.5415533,42.3325344],[2.5415005,42.3325388],[2.5414478,42.3325431],[2.5413833,42.3325258],[2.5413422,42.3325041],[2.5413246,42.3324694],[2.5413246,42.3324304],[2.5413364,42.3323827],[2.5413774,42.3323394],[2.5414243,42.3322917],[2.5414654,42.332257],[2.5416354,42.3321747],[2.5418172,42.3321183],[2.5418817,42.332101],[2.5419227,42.3320923],[2.5419638,42.332075],[2.5420107,42.3320663],[2.5420752,42.3320489],[2.5421279,42.3320316],[2.5421924,42.3320186],[2.5422452,42.3320056],[2.542298,42.3319926],[2.5423625,42.3319839],[2.5424094,42.3319753],[2.5424622,42.3319709],[2.5425091,42.3319623],[2.542556,42.3319536],[2.5425912,42.3319362],[2.5426733,42.3318972],[2.5427202,42.3318756],[2.5427788,42.3318582],[2.542855,42.3318235],[2.5429313,42.3317932],[2.5430134,42.3317585],[2.5430485,42.3317455],[2.543113,42.3317152],[2.5431775,42.3316935],[2.5432303,42.3316718],[2.5432714,42.3316545],[2.5433124,42.3316285],[2.5433535,42.3316025],[2.5433886,42.3315808],[2.543418,42.3315548],[2.5434531,42.3315244],[2.5434649,42.3314898],[2.5434297,42.3314594],[2.5433886,42.3314464],[2.5433417,42.3314334],[2.5432831,42.3314204],[2.5432303,42.3314117],[2.5431951,42.3313901],[2.5432303,42.3313641],[2.5432655,42.3313467],[2.5434062,42.3311733],[2.5434414,42.331156],[2.5436701,42.3309132],[2.5436818,42.3308786],[2.5436935,42.3308482],[2.5437229,42.3308179],[2.543758,42.3307875],[2.5437991,42.3307615],[2.543846,42.3307268],[2.5438812,42.3306965],[2.5439105,42.3306705],[2.543934,42.3306358],[2.5439633,42.3305968],[2.5439926,42.3305665],[2.5440219,42.3305318],[2.5440512,42.3304971],[2.5440747,42.3304668],[2.5440864,42.3304364],[2.5440923,42.3304017],[2.5441157,42.3303714],[2.5441333,42.330341],[2.5441568,42.3303064],[2.5441861,42.3302717],[2.5442095,42.330237],[2.544233,42.3302153],[2.5442565,42.330185],[2.5442799,42.330159],[2.5443092,42.33012],[2.5443327,42.3300983],[2.544878,42.3296301],[2.544919,42.3296128],[2.5449601,42.3295911],[2.545007,42.3295694],[2.5450832,42.3295348],[2.5452474,42.3294567],[2.5453354,42.3294134],[2.5453705,42.329396],[2.5454057,42.329383],[2.5454468,42.3293657],[2.5455113,42.329344],[2.545611,42.329318],[2.5457458,42.3293093],[2.5457869,42.3293093],[2.5458396,42.3293093],[2.5458865,42.3293223],[2.5459276,42.329344],[2.5459686,42.329357],[2.5460683,42.329396],[2.5461211,42.329409],[2.5461739,42.3294264],[2.5462149,42.3294437],[2.546256,42.3294611],[2.5462911,42.3294784],[2.5465609,42.3296475],[2.5466254,42.3296605],[2.546684,42.3296821],[2.546772,42.3297038],[2.5468365,42.3297255],[2.5468775,42.3297472],[2.546901,42.3297775],[2.5469303,42.3298079],[2.5469537,42.3298512],[2.5469537,42.3298989],[2.5469537,42.3299379],[2.5469537,42.3299812],[2.5469537,42.3300203],[2.5469713,42.3300593],[2.5469948,42.330094],[2.5472176,42.330146],[2.5472586,42.330133],[2.5476163,42.3302283],[2.5476691,42.3302197],[2.5479447,42.330133],[2.5479975,42.3301286],[2.5481616,42.3301113],[2.5484109,42.330198],[2.5484619,42.3302832],[2.5471044,42.3311061],[2.5424942,42.3336637],[2.5347971,42.3342055],[2.5328981,42.3330666],[2.5263855,42.3336057],[2.52177,42.3348441],[2.5201148,42.3358137],[2.5165619,42.3359955],[2.5153798,42.3367884],[2.5128939,42.3373198],[2.5127686,42.337025]]]]},"properties":{"natural":"grassland"}},
{"type":"Feature","geometry":{"type":"MultiPolygon","coordinates":[[[[2.5923297,42.3438266],[2.592475,42.3437438],[2.5926286,42.3436732],[2.5926618,42.3436579],[2.5926991,42.3436426],[2.5927282,42.3436242],[2.5927614,42.3436119],[2.5927904,42.3435935],[2.5928319,42.343572],[2.5930768,42.3434738],[2.5931059,42.3434585],[2.5931847,42.3432806],[2.5932013,42.3431947],[2.5932013,42.3431701],[2.5932055,42.3431395],[2.5932055,42.3431088],[2.5932055,42.3430689],[2.5932055,42.3430321],[2.5932055,42.3430045],[2.5932055,42.3429769],[2.5932055,42.3429523],[2.5932055,42.3429247],[2.5932179,42.3428879],[2.5932304,42.3428572],[2.593247,42.3428266],[2.5933756,42.3427376],[2.5935292,42.3427499],[2.5935666,42.342756],[2.5935998,42.3427621],[2.5936413,42.3427713],[2.5936786,42.3427775],[2.5937118,42.3427836],[2.5937533,42.3427867],[2.5937907,42.3427897],[2.593828,42.3427959],[2.5938571,42.342802],[2.5938862,42.3428081],[2.5939318,42.3428235],[2.5939775,42.3428358],[2.5940107,42.3428419],[2.5940563,42.3428511],[2.5940937,42.3428634],[2.5941227,42.3428695],[2.594268,42.3429094],[2.594322,42.3429247],[2.5943593,42.3429309],[2.5943967,42.3429401],[2.5946582,42.3429738],[2.5947619,42.3429493],[2.5948906,42.3429217],[2.5949238,42.3429155],[2.5949653,42.3429155],[2.5949985,42.3429155],[2.5950358,42.3429186],[2.5950483,42.3429493],[2.5950691,42.3429983],[2.5951811,42.3430597],[2.5954052,42.3430965],[2.5954467,42.3431088],[2.59548,42.343118],[2.5955588,42.3431824],[2.5956211,42.3432652],[2.5956294,42.3432898],[2.595646,42.3433174],[2.5956584,42.3433419],[2.5956792,42.3433665],[2.5956958,42.3434002],[2.5957124,42.3434217],[2.595729,42.3434524],[2.5957414,42.343483],[2.5957539,42.3435137],[2.595758,42.3435475],[2.5957622,42.3435781],[2.5957705,42.3436119],[2.5957746,42.3436456],[2.5957746,42.3436794],[2.5957705,42.3437162],[2.5957622,42.343753],[2.5957539,42.3437837],[2.5957373,42.3438082],[2.5957082,42.3438358],[2.5956709,42.3438542],[2.5956418,42.3438696],[2.5956045,42.3438757],[2.5955588,42.3438819],[2.5955173,42.3438849],[2.5954841,42.343888],[2.5954426,42.343888],[2.5952351,42.3438849],[2.5951189,42.3438849],[2.5950774,42.3438911],[2.5950358,42.3439033],[2.5950026,42.3439125],[2.5948242,42.3440015],[2.5947993,42.344023],[2.5947827,42.3440475],[2.5947578,42.344072],[2.5947329,42.3440935],[2.594708,42.3441089],[2.5946789,42.3441242],[2.5946457,42.3441395],[2.5946083,42.3441518],[2.5945668,42.3441671],[2.5945253,42.3441702],[2.5944921,42.3441733],[2.5944548,42.3441733],[2.5944133,42.3441702],[2.5943759,42.344161],[2.5943344,42.3441579],[2.5943012,42.3441579],[2.594268,42.344161],[2.5942265,42.3441733],[2.5941891,42.3441825],[2.5941559,42.3441948],[2.5941186,42.3442101],[2.5940771,42.3442254],[2.5940314,42.3442438],[2.5939899,42.344253],[2.5939443,42.344265300000007],[2.593882,42.3442807],[2.5938488,42.344296],[2.5938197,42.3443113],[2.5937907,42.3443236],[2.5937699,42.344342],[2.5937492,42.3443635],[2.593716,42.3443819],[2.5936869,42.3443972],[2.5936537,42.3444126],[2.5936164,42.344431],[2.5935832,42.3444432],[2.5935541,42.3444586],[2.5932677,42.3445261],[2.5930395,42.3445598],[2.5930062,42.344569],[2.5928278,42.3445138],[2.5928153,42.3444923],[2.5928568,42.3443757],[2.5929315,42.3442899],[2.5929564,42.344265300000007],[2.5929813,42.3442438],[2.5930062,42.3442193],[2.5930229,42.3441978],[2.5930436,42.3441702],[2.5930478,42.3441457],[2.5930436,42.3441089],[2.5930229,42.344072],[2.5930021,42.3440506],[2.5929772,42.3440291],[2.592944,42.3440138],[2.5927863,42.3439739],[2.5925621,42.3439432],[2.5925248,42.3439371],[2.5924833,42.3439279],[2.5924501,42.3439217],[2.5924127,42.3439064],[2.5923712,42.3438911],[2.5923463,42.3438757],[2.5923339,42.3438512],[2.5923297,42.3438266]]]]},"properties":{"natural":"grassland"}},
{"type":"Feature","geometry":{"type":"MultiPolygon","coordinates":[[[[2.6227986,42.3260314],[2.6228069,42.3259884],[2.6228401,42.3259516],[2.6228816,42.3259087],[2.6230974,42.3258964],[2.6235789,42.3260498],[2.6236453,42.3260744],[2.6237117,42.3261051],[2.6237947,42.3261357],[2.6238611,42.3261419],[2.6239441,42.3261726],[2.6240438,42.3262094],[2.6241268,42.3262462],[2.6242181,42.3262708],[2.6242928,42.3263014],[2.6243758,42.3263321],[2.6244671,42.3263567],[2.6245418,42.3263935],[2.6246248,42.326418],[2.6246995,42.3264426],[2.6247659,42.3264733],[2.6248573,42.3264978],[2.6249237,42.3265224],[2.6249901,42.3265408],[2.6250565,42.3265715],[2.6251312,42.326596],[2.6252142,42.3266328],[2.6252889,42.3266697],[2.6253636,42.3267004],[2.6254549,42.3267433],[2.625513,42.326774],[2.6255877,42.3267985],[2.6256625,42.3268231],[2.6257372,42.3268599],[2.6258119,42.3268845],[2.6258866,42.3269029],[2.6259613,42.3269029],[2.6260277,42.3269029],[2.626119,42.3269029],[2.6261937,42.3269029],[2.6262601,42.3269029],[2.6263265,42.3269029],[2.6263846,42.3269029],[2.6264511,42.3268967],[2.6265341,42.3268906],[2.6266171,42.3268845],[2.6266918,42.3268783],[2.6267665,42.3268722],[2.6268329,42.3268661],[2.6269159,42.3268599],[2.6269823,42.3268599],[2.6270653,42.3268599],[2.6271234,42.3268538],[2.6271898,42.3268538],[2.6272563,42.3268538],[2.627331,42.3268538],[2.6274057,42.3268661],[2.6274721,42.3268906],[2.6275136,42.3269213],[2.6275385,42.3269827],[2.6275385,42.3270318],[2.627497,42.3270809],[2.6274472,42.3271177],[2.6273808,42.3271484],[2.6273061,42.3271729],[2.6272563,42.3272036],[2.6269076,42.3274859],[2.6268329,42.3275043],[2.6267582,42.3275227],[2.6266669,42.3275534],[2.6265673,42.3275841],[2.6265009,42.3276086],[2.6264428,42.3276332],[2.6263846,42.32767],[2.6263348,42.3277068],[2.6262767,42.3277375],[2.6262269,42.3277682],[2.6262269,42.3278173],[2.6262601,42.3278541],[2.6263348,42.3278664],[2.6264012,42.3278787],[2.6264594,42.3278971],[2.6264926,42.32794],[2.6265009,42.3279953],[2.626559,42.328026],[2.6266254,42.3280444],[2.6266835,42.3280505],[2.6267997,42.3280628],[2.6268744,42.3280628],[2.6269325,42.328075],[2.6269989,42.3280873],[2.6270653,42.3280996],[2.6271234,42.3281119],[2.6271815,42.3281364],[2.6272147,42.3281855],[2.627248,42.3282407],[2.6272895,42.3282776],[2.6273642,42.3282776],[2.6282524,42.3282407],[2.6283852,42.3282407],[2.6284682,42.3282407],[2.6285429,42.3282407],[2.6286342,42.3282407],[2.6287172,42.3282407],[2.6287753,42.3282469],[2.62885,42.3282469],[2.6289331,42.328253],[2.6290161,42.3282592],[2.6290742,42.3282653],[2.6291323,42.3282776],[2.6292153,42.3282837],[2.6292734,42.3282898],[2.6293398,42.328296],[2.6294062,42.3283021],[2.6294643,42.3283083],[2.629539,42.3283267],[2.6296054,42.3283389],[2.6296802,42.3283389],[2.6297466,42.3283389],[2.6298213,42.3283512],[2.6298877,42.3283819],[2.6299457999999999,42.3284064],[2.6300039,42.328431],[2.630062,42.3284617],[2.630145,42.3284924],[2.6302031,42.3284985],[2.6302612,42.3285169],[2.6303359,42.3285292],[2.630394,42.3285415],[2.6304521,42.3285537],[2.6305186,42.3285599],[2.630585,42.3285599],[2.6306597,42.3285599],[2.6307178,42.3285599],[2.6308008,42.3285415],[2.6308672,42.3285292],[2.6309502,42.328523],[2.6310166,42.3285476],[2.6310166,42.328609],[2.6309834,42.3286642],[2.6309419,42.3287256],[2.6309004,42.3287747],[2.6308588999999999,42.3288115],[2.6308257,42.3288544],[2.6307842,42.3289219],[2.630751,42.3289649],[2.6307095,42.3290201],[2.6306597,42.3290631],[2.6305684,42.3290999],[2.630477,42.3291367],[2.6303442,42.3291736],[2.6302197,42.3291981],[2.6300537,42.3292226],[2.6299541,42.3292411],[2.6298379,42.3292472],[2.6296718,42.3292533],[2.6295722,42.3292533],[2.629456,42.3292533],[2.6293564,42.3292595],[2.6291904,42.3292779],[2.6290991,42.3292963],[2.6289663,42.3293024],[2.6288833,42.3293024],[2.6287919,42.3293086],[2.6286342,42.3293208],[2.6285263,42.3293392],[2.628435,42.3293515],[2.6282856,42.3293577],[2.628186,42.3293577],[2.6280698,42.3293638],[2.6279037,42.3293699],[2.6278373,42.3293699],[2.6277626,42.3293699],[2.6276381,42.3293699],[2.6275634,42.3293699],[2.627497,42.3293638],[2.6274057,42.3293577],[2.6273393,42.3293577],[2.6272646,42.3293577],[2.6271732,42.3293577],[2.6270902,42.3293577],[2.6270155,42.3293638],[2.6269325,42.3293699],[2.6268495,42.3293822],[2.6267831,42.3293883],[2.6267084,42.3294068],[2.6266337,42.329419],[2.6265175,42.3294374],[2.6264428,42.3294497],[2.626368,42.3294681],[2.626285,42.3294804],[2.6262103,42.3294865],[2.6261273,42.3294988],[2.6260526,42.3295172],[2.6259779,42.3295356],[2.6253138,42.329775],[2.6252391,42.3297995],[2.625181,42.3298302],[2.6251229,42.3298609],[2.6250233,42.3299161],[2.6249403,42.3299652],[2.6248158,42.3300388],[2.6246829,42.3301309],[2.6246165,42.3301677],[2.6245501,42.3302107],[2.6245086,42.3302536],[2.6244505,42.3302966],[2.6243841,42.3303211],[2.6243094,42.3303027],[2.6242679,42.3302659],[2.6242264,42.3302291],[2.6241849,42.3301861],[2.6241434,42.330137],[2.624077,42.3300879],[2.6240272,42.3300327],[2.6239774,42.3299897],[2.6239358,42.3299468],[2.6238943,42.3299038],[2.6238943,42.3298486],[2.6239109,42.3297934],[2.6239524,42.3297443],[2.6239857,42.3297013],[2.6240272,42.3296584],[2.6240604,42.3296215],[2.6241517,42.3295234],[2.6241766,42.329462],[2.6241766,42.3294129],[2.62416,42.3293515],[2.6241185,42.3292902],[2.624077,42.3292349],[2.6240438,42.329192],[2.6240106,42.329149],[2.623969,42.3290938],[2.6239441,42.3290447],[2.6239441,42.3289649],[2.6240106,42.3289219],[2.6240687,42.3288974],[2.6241268,42.3288667],[2.6241849,42.3288422],[2.6242347,42.3288053],[2.6242762,42.3287685],[2.6243011,42.3287194],[2.6243011,42.3286765],[2.6243094,42.3286212],[2.6243094,42.3285721],[2.6243094,42.3285169],[2.6243094,42.3284617],[2.624326,42.3284187],[2.6244007,42.3283451],[2.6244837,42.3282776],[2.6245003,42.3282285],[2.6245003,42.3281732],[2.6244837,42.3281241],[2.6244505,42.3280812],[2.6244007,42.3280321],[2.6243675,42.3279891],[2.6243094,42.3279278],[2.6242762,42.3278848],[2.6242181,42.3278234],[2.6241766,42.3277743],[2.6241351,42.3277252],[2.6240936,42.3276639],[2.6240604,42.3276209],[2.623803,42.3273816],[2.6237698,42.3273079],[2.6237366,42.3272527],[2.6237283,42.3272036],[2.62372,42.3271484],[2.62372,42.3270993],[2.62372,42.3270502],[2.62372,42.3270072],[2.6236868,42.3269581],[2.6236287,42.3269274],[2.623554,42.3269029],[2.6234876,42.3268783],[2.6234212,42.3268538],[2.6233548,42.3268354],[2.6232967,42.3268047],[2.6232303,42.3267924],[2.6230227,42.3266574],[2.6227986,42.3261787],[2.6227986,42.3261296],[2.6227986,42.3260805],[2.6227986,42.3260314]]]]},"properties":{"natural":"grassland"}},
{"type":"Feature","geometry":{"type":"MultiPolygon","coordinates":[[[[2.6760594,42.3356751],[2.6760822,42.3356133],[2.6760898,42.3355964],[2.6760924,42.3355814],[2.6760974,42.3355683],[2.6761253,42.3354201],[2.6761228,42.3354051],[2.6761177,42.3353714],[2.6761177,42.3353226],[2.6761177,42.3353039],[2.6761228,42.3352851],[2.6761279,42.3352701],[2.6761507,42.3352101],[2.6761685,42.3351633],[2.6761735,42.3351464],[2.6761811,42.3351295],[2.6761989,42.3350789],[2.676209,42.3350358],[2.676209,42.3350226],[2.6762116,42.3350076],[2.6762167,42.3349701],[2.6762293,42.3349439],[2.676242,42.3349308],[2.6762648,42.3349233],[2.6762826,42.3349177],[2.6763587,42.3348989],[2.6763917,42.3348858],[2.6763967,42.3348708],[2.6763638,42.3348483],[2.6763384,42.3348333],[2.6763283,42.3348202],[2.676313,42.3348089],[2.6762978,42.3348014],[2.6762623,42.3347808],[2.6762369,42.3347508],[2.6762268,42.3347358],[2.6762243,42.3347189],[2.6762243,42.3347039],[2.676242,42.3346608],[2.6762648,42.3346402],[2.6762826,42.3346345],[2.6763029,42.3346289],[2.6763257,42.3346252],[2.6763485,42.3346195],[2.6764094,42.3346158],[2.6764728,42.3346158],[2.6764931,42.3346158],[2.676516,42.3346214],[2.6765337,42.3346252],[2.6765591,42.3346327],[2.6765768,42.3346383],[2.6765997,42.334642],[2.676625,42.3346439],[2.6766478,42.3346439],[2.676691,42.3346214],[2.6766707,42.3345839],[2.6766428,42.3345689],[2.6766174,42.3345577],[2.6765946,42.3345445],[2.6765743,42.3345352],[2.6765464,42.3345202],[2.6765134,42.3344714],[2.6764957,42.3344358],[2.6764475,42.3342858],[2.67645,42.3342502],[2.6764804,42.3341977],[2.6764906,42.3341845],[2.6765058,42.3341677],[2.6765236,42.3341527],[2.6765439,42.3341414],[2.6765616,42.3341358],[2.6765794,42.3341283],[2.6765997,42.3341227],[2.6766225,42.334117],[2.6766504,42.3341133],[2.676729,42.3341133],[2.6767975,42.3341264],[2.6768203,42.3341377],[2.6768406,42.3341489],[2.6768584,42.3341564],[2.6770258,42.3341958],[2.6770917,42.3342052],[2.6771196,42.3342145],[2.677145,42.3342239],[2.6771627,42.3342295],[2.6771906,42.3342389],[2.677216,42.3342464],[2.677249,42.3342558],[2.6772794,42.334267],[2.6773073,42.3342783],[2.6773301,42.3342914],[2.677353,42.3343027],[2.6773758,42.3343139],[2.6774012,42.334327],[2.6775204,42.3343852],[2.6775762,42.3344358],[2.6775914,42.3344508],[2.6776066,42.3344583],[2.6776244,42.334462],[2.6776447,42.3344658],[2.6776624,42.3344677],[2.6776827,42.3344695],[2.6777055,42.3344677],[2.6777258,42.3344602],[2.6777486,42.3344508],[2.6777689,42.334447],[2.6777537,42.3346027],[2.677703,42.3347658],[2.677632,42.334867],[2.6775254,42.3349477],[2.6774468,42.3350095],[2.6774316,42.3350545],[2.6774291,42.3351164],[2.6774088,42.3351108],[2.6773885,42.3351108],[2.6773682,42.3351145],[2.677353,42.3351276],[2.6773352,42.3351426],[2.67732,42.3351576],[2.6773048,42.3351708],[2.6771424,42.3352533],[2.6771348,42.3352701],[2.677112,42.3352851],[2.6770866,42.3352983],[2.6770638,42.3353114],[2.6770359,42.3353264],[2.6770055,42.3353395],[2.6769827,42.3353526],[2.6769573,42.3353658],[2.676937,42.3353733],[2.6768787,42.3353958],[2.6768406,42.3354014],[2.6768152,42.3354014],[2.6767924,42.3353939],[2.6767797,42.3353808],[2.6767772,42.3353676],[2.6767772,42.3353526],[2.6767747,42.3353376],[2.6767721,42.3353208],[2.6767721,42.3353058],[2.6767721,42.3352908],[2.6767772,42.335272],[2.6768051,42.3351876],[2.6768051,42.3351558],[2.6768051,42.3351389],[2.676795,42.3351258],[2.6767797,42.3351183],[2.6767569,42.3351164],[2.676625,42.3351895],[2.6765413,42.3352945],[2.6765236,42.3353189],[2.676516,42.3353358],[2.6765109,42.3353545],[2.6765083,42.3353695],[2.6765058,42.3353883],[2.6765033,42.3354033],[2.6765007,42.335422],[2.6764982,42.3354389],[2.6764957,42.3354558],[2.6764881,42.3354726],[2.6764804,42.3354876],[2.6764703,42.3355026],[2.6764551,42.3355158],[2.6764399,42.3355251],[2.6764196,42.3355383],[2.6764018,42.3355495],[2.6763917,42.335572],[2.6763841,42.3355926],[2.6763841,42.3356226],[2.6763891,42.335647],[2.6763917,42.335662],[2.6764018,42.3357033],[2.6764018,42.3357333],[2.6763993,42.3357501],[2.6763917,42.335767],[2.676346,42.3358101],[2.6762699,42.3358364],[2.6762471,42.3358383],[2.6762167,42.3358401],[2.6761938,42.3358401],[2.676171,42.3358383],[2.6761507,42.335827],[2.6761,42.3357783],[2.6760746,42.3357445],[2.676067,42.3357276],[2.6760619,42.3357126],[2.6760594,42.3356939],[2.6760594,42.3356751]]]]},"properties":{"natural":"scrub"}},
{"type":"Feature","geometry":{"type":"MultiPolygon","coordinates":[[[[2.560475,42.3439956],[2.5604902,42.3439656],[2.5605054,42.343945],[2.5605156,42.3439319],[2.5605257,42.3439206],[2.5605587,42.3439037],[2.5606475,42.3439356],[2.5606627,42.3439487],[2.5606754,42.3439619],[2.5606906,42.3439769],[2.5607007,42.3439919],[2.5607159,42.344005],[2.5608149,42.3440275],[2.5609163,42.3440275],[2.5609366,42.3440275],[2.5609544,42.3440293],[2.5609899,42.3440293],[2.5610178,42.3440293],[2.5610431,42.3440293],[2.5610634,42.3440237],[2.5610787,42.3440106],[2.5610939,42.3440031],[2.5611142,42.3439919],[2.5611015,42.3439525],[2.560995,42.3439056],[2.5609747,42.3438944],[2.5609594,42.3438831],[2.5609442,42.3438719],[2.560929,42.343855],[2.560929,42.3438381],[2.560929,42.3438231],[2.5609315,42.3438081],[2.5609391,42.3437875],[2.5609544,42.3437669],[2.5609899,42.3437256],[2.5610533,42.3436732],[2.5610685,42.3436582],[2.5610837,42.3436469],[2.5610989,42.3436338],[2.5611142,42.3436225],[2.5611319,42.3436075],[2.5611421,42.3435944],[2.5611547,42.3435832],[2.5611649,42.34357],[2.5611801,42.3435569],[2.5611928,42.3435457],[2.561208,42.3435382],[2.5612359,42.3435251],[2.5612689,42.3435101],[2.5612866,42.3435026],[2.561312,42.3434932],[2.5613323,42.3434857],[2.5613551,42.3434782],[2.5613754,42.3434744],[2.5613957,42.3434688],[2.5614211,42.3434613],[2.5615149,42.3434182],[2.5615327,42.3434069],[2.5615479,42.3433994],[2.5615631,42.3433882],[2.5615783,42.3433732],[2.561591,42.3433582],[2.5616037,42.3433413],[2.5616468,42.3432945],[2.5616646,42.3432757],[2.5617736,42.3431895],[2.5617711,42.3431745],[2.5617711,42.3431595],[2.5617711,42.3431407],[2.5617812,42.3431276],[2.5617939,42.3431126],[2.5618117,42.3431032],[2.561832,42.3430957],[2.5618599,42.3430901],[2.5618928,42.3430882],[2.5619284,42.3430882],[2.5619512,42.3430864],[2.5619918,42.3430845],[2.5620425,42.3430807],[2.5620729,42.3430826],[2.5620907,42.343092],[2.5620932,42.3431089],[2.5620932,42.3431276],[2.5620881,42.3431426],[2.5620755,42.3431689],[2.5620476,42.3432082],[2.5620349,42.3432213],[2.562007,42.3432457],[2.5619842,42.3432663],[2.5619613,42.3432888],[2.5619436,42.3433095],[2.5619258,42.3433282],[2.5619157,42.3433451],[2.5619106,42.3433601],[2.5619106,42.3433751],[2.5619309,42.3434163],[2.562007,42.3434557],[2.5620298,42.3434669],[2.5620501,42.3434744],[2.5620755,42.3434782],[2.5621008,42.3434782],[2.5621262,42.3434782],[2.5621592,42.3434782],[2.5621921,42.3434782],[2.5622226,42.3434782],[2.562253,42.3434744],[2.5622708,42.3434707],[2.5622885,42.3434688],[2.562319,42.3434651],[2.5623469,42.3434632],[2.5623773,42.3434613],[2.5624052,42.3434613],[2.5624331,42.3434613],[2.5624585,42.3434632],[2.5624864,42.3434707],[2.5625067,42.3434744],[2.5625346,42.3434819],[2.5625625,42.3434913],[2.5625802,42.3435026],[2.5626005,42.3435232],[2.5626208,42.3435457],[2.5626411,42.3435719],[2.5626512,42.3435869],[2.5626588,42.3436019],[2.5626639,42.3436188],[2.562669,42.3436338],[2.562669,42.3436638],[2.562669,42.34369],[2.5626487,42.3437125],[2.5626208,42.3437313],[2.5625853,42.3437425],[2.562565,42.3437444],[2.5625295,42.3437481],[2.562494,42.3437481],[2.5624737,42.3437463],[2.5624331,42.3437406],[2.5624077,42.3437388],[2.5623697,42.3437331],[2.5623418,42.3437275],[2.5623139,42.3437238],[2.5622911,42.3437238],[2.5622606,42.3437219],[2.5622276,42.3437181],[2.5622023,42.3437088],[2.5621845,42.3436975],[2.5621642,42.3436807],[2.5621439,42.34366],[2.5621237,42.3436394],[2.5621135,42.3436169],[2.5621008,42.3435982],[2.5620881,42.3435832],[2.562078,42.34357],[2.5620577,42.3435569],[2.5620374,42.3435457],[2.562007,42.3435363],[2.5619816,42.3435344],[2.5619588,42.3435344],[2.561936,42.3435419],[2.5619157,42.3435438],[2.5618928,42.3435419],[2.5618649,42.3435288],[2.5618421,42.3435157],[2.5618193,42.3435044],[2.5617939,42.3434894],[2.5617736,42.3434782],[2.5617508,42.3434707],[2.561728,42.3434707],[2.5617026,42.3434763],[2.5616696,42.3434857],[2.5616367,42.3434969],[2.5616138,42.3435082],[2.5615961,42.3435213],[2.5615758,42.34354],[2.561558,42.3435588],[2.5615403,42.3435794],[2.5615225,42.3436],[2.5615073,42.3436207],[2.5615048,42.3436357],[2.5614972,42.3436544],[2.5614896,42.3436732],[2.5614769,42.34369],[2.5614617,42.3437088],[2.5614515,42.3437219],[2.561449,42.3437406],[2.5614566,42.3437575],[2.5614693,42.3437706],[2.561487,42.3437856],[2.5615098,42.3438006],[2.5615327,42.3438156],[2.561553,42.3438306],[2.5615783,42.3438419],[2.5616012,42.3438531],[2.5616214,42.3438625],[2.5616392,42.3438719],[2.5616544,42.3438812],[2.5616722,42.3438962],[2.5616849,42.3439094],[2.561695,42.3439281],[2.5617001,42.343945],[2.5617026,42.3439619],[2.5617026,42.3439806],[2.5617026,42.3439975],[2.5616975,42.3440162],[2.5616874,42.344035],[2.5616696,42.3440556],[2.5616493,42.3440762],[2.5616341,42.3440968],[2.5616189,42.3441137],[2.5616062,42.3441287],[2.5615935,42.3441475],[2.5615809,42.3441625],[2.5615707,42.3441756],[2.561558,42.3441887],[2.5615428,42.3441981],[2.5615276,42.3442074],[2.5615073,42.3442187],[2.5614845,42.3442299],[2.5614617,42.3442374],[2.5614388,42.3442431],[2.5614135,42.3442431],[2.5613856,42.3442431],[2.5613577,42.3442431],[2.5613374,42.3442393],[2.5613171,42.3442356],[2.5612942,42.3442299],[2.5611243,42.3441812],[2.5610964,42.3441831],[2.5610685,42.3441868],[2.5610431,42.3441906],[2.5610152,42.3441962],[2.5609848,42.3441999],[2.5609594,42.3442037],[2.5609315,42.3442074],[2.5609011,42.3442112],[2.5608732,42.3442131],[2.5607971,42.3442168],[2.5607083,42.3442112],[2.560683,42.3442074],[2.5606627,42.3442018],[2.5606373,42.3441924],[2.560617,42.3441849],[2.5606018,42.3441774],[2.5605866,42.3441699],[2.5605688,42.3441587],[2.5605562,42.3441437],[2.5605435,42.3441287],[2.560508,42.3440875],[2.5604877,42.3440556],[2.5604801,42.3440406],[2.5604775,42.3440256],[2.560475,42.3440106],[2.560475,42.3439956]]]]},"properties":{"natural":"grassland"}},
{"type":"Feature","geometry":{"type":"MultiPolygon","coordinates":[[[[2.575521,42.3268773],[2.5755235,42.3268604],[2.5755286,42.3268416],[2.5755337,42.3268248],[2.5755489,42.3268079],[2.5755616,42.3267948],[2.5755768,42.3267854],[2.5755971,42.3267779],[2.575663,42.3267573],[2.5757391,42.3267497],[2.5757645,42.3267479],[2.5757873,42.3267479],[2.5758152,42.3267479],[2.575838,42.3267479],[2.5758609,42.3267479],[2.5758862,42.3267479],[2.5759141,42.3267516],[2.575937,42.3267591],[2.5759623,42.326761],[2.5759902,42.3267666],[2.5760105,42.3267741],[2.5760359,42.3267798],[2.5760562,42.3267891],[2.5760765,42.3267966],[2.5760942,42.3268041],[2.5761145,42.3268116],[2.5761348,42.3268191],[2.5761551,42.3268285],[2.5761754,42.3268379],[2.5762489,42.3268735],[2.5762997,42.3268979],[2.5763225,42.326911],[2.5763453,42.3269241],[2.5763682,42.3269354],[2.576391,42.3269429],[2.5764113,42.3269485],[2.5764417,42.326956],[2.5764645,42.3269635],[2.5764848,42.3269673],[2.5765102,42.326971],[2.5765381,42.326971],[2.5765685,42.3269729],[2.5765863,42.3269748],[2.5766066,42.3269785],[2.5766243,42.3269804],[2.5766472,42.3269804],[2.5766649,42.3269823],[2.5766852,42.3269823],[2.576703,42.3269842],[2.5767207,42.3269842],[2.5767562,42.3269898],[2.5768577,42.3270104],[2.5769287,42.3270235],[2.5769617,42.327031],[2.5769972,42.3270404],[2.5770251,42.3270442],[2.5770505,42.3270498],[2.5770707,42.3270535],[2.5770936,42.3270592],[2.5771215,42.3270667],[2.5771494,42.3270779],[2.5771747,42.3270873],[2.577195,42.3270967],[2.5772179,42.327106],[2.5772331,42.3271154],[2.5772483,42.3271267],[2.5772584,42.3271379],[2.5772711,42.327151],[2.577294,42.3271867],[2.5773041,42.3272035],[2.5773117,42.3272186],[2.5772179,42.327314200000007],[2.577157,42.3274398],[2.5771722,42.327453],[2.5771849,42.3274642],[2.5772001,42.3274773],[2.5772153,42.3274905],[2.5772331,42.3274998],[2.5772508,42.3275111],[2.5772711,42.3275223],[2.5772965,42.3275355],[2.5773142,42.3275448],[2.5773345,42.3275542],[2.5773548,42.3275598],[2.5773751,42.3275636],[2.5774208,42.3275898],[2.577436,42.3276086],[2.577436,42.3276255],[2.5774335,42.3276423],[2.5774157,42.327663],[2.5774005,42.3276742],[2.5773827,42.3276873],[2.5773371,42.3277136],[2.5773142,42.3277249],[2.5772889,42.3277399],[2.5772661,42.327753],[2.5772407,42.3277642],[2.5772179,42.3277774],[2.5771925,42.3277886],[2.5771671,42.3277999],[2.5771468,42.3278092],[2.5771265,42.3278205],[2.5771037,42.327828],[2.577086,42.3278355],[2.5770606,42.327843],[2.5770378,42.3278524],[2.5769135,42.3278861],[2.5768425,42.3278974],[2.576812,42.3278974],[2.5767892,42.3278936],[2.5767689,42.3278805],[2.5767486,42.327858],[2.5767334,42.327828],[2.5767233,42.3278017],[2.5767207,42.3277886],[2.5767156,42.3277717],[2.5767106,42.3277286],[2.5767131,42.3276761],[2.5767156,42.3276573],[2.5767233,42.3276423],[2.5767258,42.3276255],[2.5767283,42.3276048],[2.5767283,42.3275898],[2.5767309,42.3275748],[2.5767334,42.327558],[2.5767334,42.327543],[2.5767233,42.327528],[2.576703,42.3275205],[2.5766801,42.3275167],[2.5766573,42.3275167],[2.5766193,42.3275186],[2.5765838,42.3275242],[2.5765609,42.3275298],[2.5765356,42.3275336],[2.5765127,42.3275355],[2.5764924,42.3275355],[2.5764696,42.3275336],[2.5764544,42.3275261],[2.5764189,42.3275186],[2.5763961,42.3275167],[2.5761703,42.3274436],[2.576041,42.3274061],[2.5760257,42.3273854],[2.576008,42.3273686],[2.5759953,42.3273573],[2.5759776,42.3273461],[2.5759573,42.3273348],[2.575942,42.3273254],[2.5759091,42.3273104],[2.5756351,42.3271623],[2.5756174,42.3271379],[2.5756123,42.3271229],[2.5756047,42.3271042],[2.5755946,42.3270854],[2.5755793,42.3270648],[2.5755717,42.3270517],[2.5755565,42.327031],[2.5755438,42.3270085],[2.5755235,42.3269504],[2.575521,42.326896],[2.575521,42.3268773]]]]},"properties":{"natural":"grassland"}},
{"type":"Feature","geometry":{"type":"MultiPolygon","coordinates":[[[[2.6051055,42.332645],[2.6051485,42.3325666],[2.6051883,42.3325005],[2.6052049,42.332476],[2.6052777,42.3323756],[2.6053274,42.3323193],[2.6053473,42.3322948],[2.6053605,42.3322728],[2.605387,42.332214],[2.6054202,42.3321626],[2.6054434,42.3321405],[2.6054632,42.3321185],[2.6054897,42.3320989],[2.6055229,42.3320842],[2.6055759,42.3320254],[2.6055957,42.3319765],[2.605599,42.3319446],[2.605599,42.3319103],[2.6055957,42.3318736],[2.6055924,42.3318418],[2.6055858,42.3318173],[2.6055858,42.3316679],[2.6055924,42.3315896],[2.6055924,42.3315602],[2.6056222,42.3315014],[2.605715,42.331494],[2.605758,42.3315087],[2.6057978,42.3315234],[2.6058342,42.3315381],[2.6059435,42.3316606],[2.6059965,42.3317855],[2.6060065,42.3318197],[2.6060065,42.331854],[2.6060065,42.3318883],[2.6059502,42.3319765],[2.6058409,42.3320279],[2.6058011,42.3320499],[2.605705,42.3321038],[2.6056421,42.3321748],[2.6056156,42.3321969],[2.6055692,42.3322703],[2.6055759,42.3323071],[2.6055957,42.3323291],[2.6056189,42.3323462],[2.6057315,42.3323634],[2.6058342,42.3323732],[2.6059038,42.3324075],[2.6059204,42.3324564],[2.6059071,42.3324883],[2.6058773,42.3325177],[2.6058475,42.3325789],[2.6058409,42.3326181],[2.605811,42.3326376],[2.605768,42.3326474],[2.6057315,42.3326572],[2.6056918,42.3326646],[2.6056355,42.3326793],[2.6054334,42.3327307],[2.6053937,42.3327331],[2.6052711,42.3327601],[2.6052049,42.3327748],[2.6051419,42.3327699],[2.605122,42.3327454],[2.6051055,42.3326719],[2.6051055,42.332645]]]]},"properties":{"natural":"scrub"}},
{"type":"Feature","geometry":{"type":"MultiPolygon","coordinates":[[[[2.7180461,42.3385281],[2.7180483,42.3385109],[2.7180631,42.3384967],[2.7180822,42.3384873],[2.7181395,42.3384748],[2.718199,42.3384732],[2.7182223,42.3384732],[2.7183093,42.3384748],[2.718373,42.3384763],[2.7183985,42.3384763],[2.7184685,42.3384842],[2.7185067,42.3384873],[2.7185279,42.338492],[2.7185789,42.3384999],[2.718598,42.3385124],[2.7186086,42.3385422],[2.7186043,42.3385626],[2.7185895,42.3385783],[2.7185725,42.3385924],[2.7185237,42.3386034],[2.7185025,42.338616],[2.7184133,42.3386615],[2.7183539,42.3386803],[2.7183284,42.3386819],[2.7182987,42.3386819],[2.7182711,42.3386819],[2.7182096,42.338674],[2.7181565,42.338663],[2.7181289,42.3386521],[2.7180907,42.3386301],[2.7180737,42.3386097],[2.7180631,42.338594],[2.7180525,42.3385689],[2.7180483,42.3385454],[2.7180461,42.3385281]]]]},"properties":{"natural":"grassland"}},
{"type":"Feature","geometry":{"type":"MultiPolygon","coordinates":[[[[2.7157348,42.344033],[2.7157433,42.3439954],[2.7158324,42.3439326],[2.7159301,42.3439075],[2.7159725,42.3438918],[2.716015,42.343873],[2.7160574,42.3438573],[2.7160956,42.3438385],[2.7161296,42.3438134],[2.7161296,42.3437789],[2.7160871,42.3437569],[2.7160404,42.3437381],[2.7159895,42.3437224],[2.7159428,42.3437004],[2.7159088,42.3436659],[2.7158961,42.3436314],[2.7158919,42.3435906],[2.7159046,42.3435498],[2.7159258,42.3435216],[2.7159555,42.3434934],[2.715998,42.3434589],[2.7160489,42.3434275],[2.7161126,42.3433961],[2.7161805,42.3433647],[2.7162357,42.3433396],[2.7162994,42.3433083],[2.7163588,42.34328],[2.7164182,42.3432486],[2.7164777,42.3432173],[2.7165413,42.3431859],[2.7165965,42.3431608],[2.7166475,42.3431357],[2.7166941,42.3431137],[2.7167408,42.3430918],[2.7167748,42.3430761],[2.716813,42.3430573],[2.7168682,42.3430353],[2.7169064,42.3430165],[2.7169488,42.3429976],[2.7169913,42.3429788],[2.7170295,42.3429569],[2.7170719,42.3429443],[2.7172884,42.3429035],[2.7175261,42.3429318],[2.7175813,42.3429412],[2.717645,42.3429474],[2.7176959,42.3429474],[2.7177511,42.3429443],[2.7177936,42.3429318],[2.7178445,42.3429161],[2.7180228,42.3428721],[2.7185449,42.3426274],[2.7185789,42.3426086],[2.7187996,42.3424141],[2.7188336,42.342367],[2.71891,42.3421348],[2.71891,42.3422258],[2.7189609,42.3416767],[2.7189567,42.3416391],[2.7189609,42.3416014],[2.7189736,42.3415669],[2.719067,42.3414697],[2.719101,42.3414571],[2.7191434,42.3414697],[2.7193472,42.3416548],[2.7194661,42.3417928],[2.7194873,42.3418242],[2.7195043,42.3418587],[2.7195255,42.3418932],[2.7195509,42.3419277],[2.7195807,42.3419685],[2.7196019,42.3419968],[2.7196189,42.3420281],[2.7196401,42.3420721],[2.7196656,42.3420972],[2.7196953,42.3421286],[2.7197292,42.3421631],[2.7198226,42.3423011],[2.7198523,42.3424015],[2.7198438,42.342436],[2.7198184,42.34248],[2.7197717,42.3425082],[2.7197335,42.3425302],[2.7196783,42.3425615],[2.7196401,42.3425866],[2.7195934,42.3426149],[2.7195382,42.3426462],[2.7194788,42.3426776],[2.7192793,42.3427874],[2.7191137,42.3428721],[2.7190713,42.3429035],[2.7190246,42.3429412],[2.7189864,42.3429694],[2.7189482,42.3430008],[2.7189057,42.3430384],[2.7188675,42.3430667],[2.7188251,42.3430855],[2.7187784,42.3431106],[2.7187402,42.3431357],[2.7186043,42.3432204],[2.718511,42.3432863],[2.7184685,42.3433051],[2.7184261,42.3433239],[2.7183794,42.3433459],[2.7183369,42.3433647],[2.7182902,42.3433836],[2.7181289,42.3434212],[2.7180652,42.3434243],[2.7180143,42.3434369],[2.7179591,42.3434526],[2.7179167,42.3434683],[2.7178615,42.343484],[2.717819,42.3434965],[2.7177639,42.3435153],[2.7177129,42.343531],[2.717662,42.3435498],[2.7174582,42.3436283],[2.7174115,42.3436785],[2.7173818,42.3437224],[2.7172035,42.3440079],[2.7171823,42.3440456],[2.7171653,42.3440769],[2.7171441,42.3441146],[2.7171356,42.3442181],[2.7171356,42.3442966],[2.7171568,42.3443279],[2.7171823,42.344353],[2.7172163,42.3443875],[2.7172417,42.3444221],[2.7172757,42.3444566],[2.7173097,42.3444942],[2.7173351,42.3445287],[2.7173606,42.3446417],[2.7173521,42.3447107],[2.7173394,42.3447515],[2.7173266,42.3447891],[2.7173139,42.3448205],[2.7172969,42.344855],[2.7171399,42.3449303],[2.7169234,42.3449899],[2.7168215,42.345015],[2.7167663,42.3450088],[2.7167196,42.3449931],[2.7166135,42.3449366],[2.716588,42.3449115],[2.7165668,42.3448833],[2.7165328,42.3448582],[2.7164989,42.3448331],[2.7164819,42.3448017],[2.7164649,42.3447672],[2.7164607,42.3447327],[2.7164607,42.344695],[2.7164777,42.3446605],[2.7165074,42.3446323],[2.7165413,42.3446072],[2.7165795,42.3445852],[2.7166135,42.3445695],[2.7166517,42.3445476],[2.7166857,42.3445287],[2.7167239,42.3445099],[2.7167578,42.3444942],[2.7168003,42.3444817],[2.7168427,42.3444691],[2.7168724,42.3444409],[2.7168724,42.3444032],[2.7168682,42.3443687],[2.7168512,42.3443342],[2.7168172,42.3443028],[2.7167833,42.3442809],[2.7167408,42.3442589],[2.7165795,42.3442181],[2.7165201,42.3442213],[2.7164607,42.3442244],[2.7164055,42.3442307],[2.7163503,42.3442401],[2.7162994,42.3442526],[2.7162399,42.3442652],[2.7161932,42.3442809],[2.7161423,42.3442934],[2.7160956,42.3443028],[2.7160489,42.3443091],[2.7160022,42.3443091],[2.7159555,42.344306],[2.7159258,42.344284],[2.7159046,42.3442526],[2.715807,42.3441616],[2.7157603,42.3441052],[2.7157433,42.3440675],[2.7157348,42.344033]]]]},"properties":{"natural":"grassland"}},
{"type":"Feature","geometry":{"type":"MultiPolygon","coordinates":[[[[2.6517263,42.3116969],[2.6517329,42.3116789],[2.6517396,42.3116592],[2.6517462,42.3116429],[2.6517551,42.3116232],[2.6517617,42.3116068],[2.651775,42.3115921],[2.6517905,42.311579],[2.6518127,42.3115643],[2.6518326,42.3115528],[2.6518503,42.3115413],[2.6518592,42.3115184],[2.6518503,42.311484],[2.651837,42.311466],[2.6518392,42.3113776],[2.6518481,42.311358],[2.6518879,42.3112876],[2.6519101,42.311245],[2.6519167,42.3112286],[2.6519211,42.3112073],[2.6519278,42.3111648],[2.6519389,42.3111467],[2.6519521,42.3111353],[2.6519743,42.3111238],[2.6519942,42.3111189],[2.6520141,42.3111271],[2.6521005,42.311168],[2.6521248,42.3111926],[2.6521403,42.311209],[2.6521625,42.3112253],[2.6521868,42.3112433],[2.6522068,42.3112581],[2.6522333,42.3112695],[2.6522577,42.3112777],[2.6522887,42.3112876],[2.6523108,42.3113039],[2.6523706,42.3113399],[2.6523972,42.3113432],[2.6525477,42.3113187],[2.6525965,42.3113023],[2.6526452,42.311299],[2.6526894,42.3113023],[2.6527337,42.3113187],[2.6528134,42.3113678],[2.6528666,42.3114038],[2.6529064,42.31143],[2.6529463,42.3114628],[2.6530038,42.3115184],[2.6530304,42.3115544],[2.6530526,42.3115905],[2.6530791,42.3116232],[2.6531057,42.3116527],[2.6531854,42.3117902],[2.6533758,42.3120325],[2.6534157,42.312062],[2.6534467,42.3120915],[2.6534821,42.3121144],[2.6536061,42.3121668],[2.6536637,42.3121897],[2.6536991,42.3122126],[2.6537168,42.3122487],[2.6536991,42.3122912],[2.6536725,42.3123273],[2.6536459,42.31236],[2.6536194,42.3123928],[2.6535884,42.3124255],[2.6535574,42.3124582],[2.6535264,42.3124975],[2.6534998,42.3125303],[2.6534732,42.3125598],[2.6534422,42.3125958],[2.6534068,42.312622],[2.6533581,42.3126449],[2.6532961,42.312658],[2.6532341,42.3126613],[2.653181,42.3126613],[2.6531278,42.3126613],[2.6530791,42.3126613],[2.6530171,42.3126613],[2.652964,42.312658],[2.6529064,42.3126514],[2.6528356,42.3126351],[2.6527913,42.3126252],[2.6527426,42.3126187],[2.6526806,42.3126121],[2.6526363,42.3125958],[2.652592,42.3125598],[2.6525566,42.3125303],[2.6525389,42.3124975],[2.6525389,42.3124582],[2.6525433,42.3124222],[2.6525566,42.3123862],[2.6525566,42.3123502],[2.6525345,42.3123142],[2.652499,42.3122847],[2.6524547,42.3122585],[2.652406,42.3122323],[2.6523662,42.3122159],[2.6522378,42.3121603],[2.6521226,42.312098],[2.6521093,42.3120833],[2.6520717,42.3120211],[2.6520606,42.3119818],[2.6520518,42.3119654],[2.6520451,42.3119474],[2.6520009,42.3119179],[2.6519676,42.3118983],[2.6519411,42.3118835],[2.6519122999999999,42.3118704],[2.6518879,42.3118573],[2.6518636,42.3118442],[2.6518414,42.3118361],[2.6518193,42.3118246],[2.6517972,42.3118099],[2.6517772,42.3117984],[2.6517595,42.3117853],[2.651744,42.3117689],[2.6517329,42.3117493],[2.6517263,42.3117329],[2.6517263,42.3117149],[2.6517263,42.3116969]]]]},"properties":{"natural":"grassland"}},
{"type":"Feature","geometry":{"type":"MultiPolygon","coordinates":[[[[2.6550426,42.3093571],[2.6551878,42.3092305],[2.6552138,42.3092225],[2.6552398,42.3092145],[2.6552701,42.3092081],[2.6552896,42.3092001],[2.6553156,42.3091936],[2.6553373,42.3091888],[2.6553676,42.3091856],[2.6553893,42.3091953],[2.6554045,42.3092081],[2.6554196,42.3092241],[2.6554326,42.3092385],[2.6554456,42.3092513],[2.6554608,42.3092658],[2.6555258,42.3093267],[2.6555453,42.3093347],[2.6555627,42.3093427],[2.6555778,42.3093539],[2.6555995,42.3093763],[2.6556125,42.3094164],[2.6556125,42.309434],[2.6556082,42.3094517],[2.6555973,42.3094693],[2.6555778,42.3094837],[2.6555518,42.3094949],[2.6555258,42.3095061],[2.6555042,42.3095126],[2.6554803,42.309519],[2.6553113,42.309551],[2.6552809,42.3095526],[2.6552311,42.3095494],[2.6552051,42.3095446],[2.6551813,42.3095398],[2.6551596,42.3095222],[2.6551488,42.3095077],[2.6551401,42.3094869],[2.6551271,42.3094709],[2.6551141,42.3094517],[2.6551011,42.3094372],[2.6550881,42.3094228],[2.6550664,42.3093892],[2.6550556,42.3093747],[2.6550426,42.3093571]]]]},"properties":{"natural":"grassland"}},
{"type":"Feature","geometry":{"type":"MultiPolygon","coordinates":[[[[2.6404492,42.3022712],[2.6404613,42.3021951],[2.6404855,42.3021503],[2.6404975999999999,42.3021056],[2.6405339,42.3020384],[2.6406489,42.3017788],[2.6406974,42.301747400000007],[2.6407518,42.3017206],[2.6408124,42.3017027],[2.640885,42.3016937],[2.6409576,42.3016758],[2.6410242,42.3016579],[2.6412179,42.3016579],[2.6413753,42.30164],[2.641454,42.3016355],[2.6415206,42.3016221],[2.6415992,42.3016086],[2.6416779,42.3016042],[2.6417627,42.3016042],[2.6418414,42.3015997],[2.641914,42.3015997],[2.6419866,42.3015952],[2.6420714,42.3015952],[2.642144,42.3015952],[2.6422045,42.3015952],[2.6422893,42.3015952],[2.6423619,42.3015952],[2.6424285,42.3015952],[2.6425011,42.3015952],[2.6425798,42.3015952],[2.6426403,42.3016131],[2.642713,42.3016176],[2.6427735,42.3016176],[2.6428401,42.3016176],[2.6429127,42.3016266],[2.6429732,42.301631],[2.6430398,42.3016355],[2.6431125,42.3016445],[2.6431851,42.3016534],[2.6432456,42.3016713],[2.643294,42.3016982],[2.6433122,42.301747400000007],[2.6432759,42.3018011],[2.6432032,42.3018414],[2.6431246,42.3018817],[2.6430701,42.3019041],[2.6430035,42.3019399],[2.6429369,42.3019757],[2.6428824,42.3020071],[2.642834,42.3020518],[2.6427856,42.3020966],[2.6427372,42.3021503],[2.6427009,42.3021951],[2.6426585,42.3022533],[2.6426161,42.302307],[2.6425738,42.3023563],[2.6425435,42.3024055],[2.6425011,42.3024503],[2.6424587,42.302495],[2.6424164,42.3025443],[2.642374,42.3025846],[2.6423377,42.3026293],[2.6422953,42.3026696],[2.642259,42.3027099],[2.6422166,42.3027547],[2.6421622,42.302786],[2.6420956,42.3027995],[2.642029,42.3028039],[2.6419624,42.3027995],[2.6418958,42.3027995],[2.6418292,42.3028218],[2.6417869,42.3028577],[2.6417506,42.3028979],[2.6417324,42.3029517],[2.6417264,42.3030009],[2.6417203,42.3030546],[2.6416961,42.3030994],[2.6414842,42.3032113],[2.6412361,42.3033411],[2.6409092,42.3034262],[2.6407458,42.3033322],[2.6407761,42.3031934],[2.6408063,42.3031576],[2.6409032,42.3030143],[2.6409274,42.3028845],[2.6408971,42.302795],[2.6408426,42.3027099],[2.6407942,42.3026696],[2.6406732,42.302598],[2.6406005,42.3025353],[2.6405703,42.3024906],[2.6405279,42.3024503],[2.6404916,42.3024055],[2.6404613,42.3023652],[2.6404492,42.3023204],[2.6404492,42.3022712]]]]},"properties":{"natural":"grassland"}},
{"type":"Feature","geometry":{"type":"MultiPolygon","coordinates":[[[[2.4784463,42.3414274],[2.4784685,42.3413864],[2.4785239,42.3413782],[2.4785849,42.3413864],[2.4786404,42.3414151],[2.4786847,42.3414438],[2.4787402,42.3414725],[2.4787901,42.3415135],[2.4788455,42.3415463],[2.4788954,42.3415791],[2.4789564,42.3416036],[2.4790174,42.3416118],[2.4790784,42.3416118],[2.4791505,42.3416118],[2.479217,42.3416077],[2.4792725,42.3415955],[2.4793279,42.3415832],[2.4794055,42.3415709],[2.4794776,42.3415668],[2.4795497,42.3415668],[2.4796218,42.3415586],[2.4796717,42.3415422],[2.4797271,42.3415258],[2.479777,42.3415053],[2.4798214,42.3414684],[2.479838,42.3414233],[2.4798325,42.3413782],[2.4797715,42.3413619],[2.479716,42.3413496],[2.4796495,42.3413291],[2.4795885,42.3413127],[2.4795386,42.3412799],[2.4795053,42.3412389],[2.4795109,42.3411897],[2.4795386,42.3411528],[2.4795719,42.341116],[2.4796107,42.3410832],[2.4796439,42.3410422],[2.4796717,42.3409971],[2.4796828,42.3409561],[2.4796606,42.3409151],[2.4796329,42.3408824],[2.4795774,42.3408537],[2.4795275,42.340825],[2.4794721,42.3408004],[2.4794166,42.3407717],[2.4793889,42.3407348],[2.4793889,42.3406774],[2.4794332,42.3406447],[2.4794887,42.3406283],[2.4795441,42.3406201],[2.4796051,42.3406201],[2.4796606,42.3406242],[2.4797216,42.3406242],[2.479777,42.3406242],[2.4799766,42.3405381],[2.4801651,42.3402922],[2.4801319,42.340161],[2.4801485,42.3401201],[2.4801707,42.3400709],[2.4801984,42.3400299],[2.4802372,42.3399602],[2.480276,42.3399233],[2.4803204,42.3398988],[2.4803758,42.339866],[2.480398,42.3398291],[2.4804146,42.3397799],[2.4804368,42.3397348],[2.4804479,42.3396897],[2.4804535,42.3396488],[2.480459,42.3396037],[2.480459,42.3395545],[2.4804424,42.3395053],[2.4804091,42.3394561],[2.4803758,42.3394192],[2.480337,42.3393783],[2.4803204,42.3393373],[2.4802982,42.3393004],[2.480276,42.3392512],[2.4802594,42.339202],[2.4802372,42.3391569],[2.4802206,42.3391078],[2.4802039,42.3390709],[2.4801818,42.3390299],[2.4801651,42.3389807],[2.480143,42.3389397],[2.4799711,42.3387553],[2.4799323,42.3387184],[2.4798879,42.3386856],[2.4798491,42.3386405],[2.4797992,42.3386119],[2.4797659,42.3385709],[2.4797327,42.3385381],[2.4796938,42.3385053],[2.4796384,42.3384725],[2.4795885,42.3384397],[2.4795275,42.338411],[2.4794721,42.3383987],[2.4794055,42.3383864],[2.4793501,42.3383741],[2.4792891,42.33837],[2.479217,42.33837],[2.4791505,42.338366],[2.4790895,42.338366],[2.4790174,42.338366],[2.4787734,42.3382799],[2.4787623,42.3382348],[2.4787457,42.3381938],[2.4787291,42.3381528],[2.4787124,42.3381077],[2.4787124,42.3380627],[2.4787014,42.3380135],[2.4787014,42.3379725],[2.4786958,42.3379233],[2.4787457,42.3378946],[2.4788178,42.3379028],[2.4788788,42.3379192],[2.4789342,42.3379438],[2.4789897,42.3379725],[2.479034,42.3380012],[2.4790784,42.3380381],[2.4791338,42.3380627],[2.4791893,42.3380832],[2.4792503,42.3381077],[2.4793113,42.3381364],[2.4793667,42.3381528],[2.4794277,42.3381651],[2.4794776,42.3381815],[2.479533,42.338202],[2.4796107,42.3382266],[2.4796661,42.3382471],[2.4797382,42.3382717],[2.4798047,42.3383004],[2.4798546,42.338325],[2.4799101,42.3383455],[2.47996,42.3383741],[2.4800154,42.338411],[2.4800709,42.3384315],[2.4801152,42.338452],[2.4801762,42.3384807],[2.4802317,42.3385094],[2.4802871,42.3385381],[2.4803426,42.3385586],[2.4803924999999999,42.338575],[2.4804535,42.3386037],[2.4805089,42.3386242],[2.4805643,42.3386528],[2.4806087,42.3386815],[2.4806531,42.3387102],[2.4806919,42.3387471],[2.4807307,42.3387881],[2.4807473,42.3388291],[2.4807473,42.3388783],[2.4807085,42.3389233],[2.4807307,42.3390627],[2.4807695,42.3391037],[2.4808194,42.3391324],[2.4808527,42.3391651],[2.480897,42.3392061],[2.4809469,42.339243],[2.4810024,42.3392799],[2.4810412,42.3393209],[2.4810744,42.3393701],[2.4811022,42.3394192],[2.4811243,42.3394643],[2.4811465,42.3395135],[2.4811465,42.3395627],[2.4811632,42.3396078],[2.4811909,42.3396488],[2.4812242,42.3396815],[2.4812796,42.3397102],[2.481324,42.3397348],[2.4813683,42.3397635],[2.4814127,42.3397881],[2.4814459,42.339825],[2.4814681,42.3398619],[2.4814903,42.3398988],[2.4816234,42.3400647],[2.4816871,42.3400873],[2.4817592,42.3401016],[2.4817952,42.3401078],[2.4818507,42.3401057],[2.4819366,42.3400996],[2.4819782,42.3400914],[2.4820059,42.3400852],[2.4820586,42.3400852],[2.4821085,42.3400873],[2.4821362,42.3401119],[2.4821362,42.3401344],[2.4820586,42.340202],[2.4819145,42.3402697],[2.481884,42.3402819],[2.4818174,42.3402983],[2.4817814,42.3402942],[2.4816649,42.3402635],[2.4816095,42.3402512],[2.4814709,42.3402348],[2.4813434,42.3402164],[2.481238,42.3402082],[2.4811687,42.3402082],[2.4810772,42.340243],[2.4810356,42.3403188],[2.4810634,42.3403803],[2.4810855,42.3403967],[2.4811715,42.3404254],[2.4812574,42.3404377],[2.4813156,42.3404561],[2.4813378,42.3404684],[2.4814441,42.3405965],[2.4815624,42.3408824],[2.4815568,42.3409274],[2.4815291,42.3409643],[2.4814958,42.340993],[2.4814737,42.3410381],[2.4814792,42.3410832],[2.4815346,42.3411078],[2.4815956,42.3411242],[2.4816511,42.3411405],[2.4817232,42.3411569],[2.4817675,42.3411897],[2.4817453,42.3412266],[2.4817065,42.3412553],[2.4816566,42.3412676],[2.4815956,42.3412676],[2.4815346,42.3412676],[2.4814681,42.3412717],[2.4813461,42.3413332],[2.4812962,42.3413496],[2.4812463,42.3413782],[2.4812186,42.341411],[2.4811687,42.3414315],[2.4811077,42.3414479],[2.4810467,42.3414561],[2.4809802,42.3414643],[2.4809192,42.3414766],[2.4808748,42.3415094],[2.4808416,42.3415463],[2.4808305,42.3415873],[2.4808305,42.3416405],[2.4808305,42.3416938],[2.480836,42.3417389],[2.4808416,42.3417922],[2.4808028,42.3418209],[2.4807584,42.3418536],[2.4807307,42.3418946],[2.4806974,42.3419233],[2.4806475,42.3419561],[2.4806087,42.3419848],[2.4805643,42.3420217],[2.48052,42.3420463],[2.4804645,42.3420708],[2.480398,42.3420995],[2.4803592,42.3421282],[2.4803148,42.3421487],[2.4802594,42.3421733],[2.4802317,42.3422102],[2.480215,42.3422512],[2.4802095,42.3422962],[2.4802095,42.3423413],[2.480215,42.3423864],[2.4802261,42.3424397],[2.4802261,42.3424848],[2.4802039,42.3425216],[2.480154,42.3425503],[2.4801041,42.3425831],[2.4800598,42.3426159],[2.480021,42.3426569],[2.4799877,42.342702],[2.4799932,42.3427511],[2.4800154,42.3427921],[2.4800709,42.3428331],[2.4801208,42.3428577],[2.4801762,42.3428864],[2.4802261,42.3429233],[2.4802372,42.3429643],[2.4802372,42.3430093],[2.4802095,42.3430585],[2.4801596,42.3430749],[2.4800875,42.3430749],[2.480021,42.3430749],[2.47996,42.3430544],[2.4799101,42.3430339],[2.4798546,42.3430093],[2.4797992,42.3429847],[2.4797548,42.3429602],[2.4797216,42.3429151],[2.4796828,42.3428659],[2.4796384,42.3428249],[2.4795719,42.3428003],[2.4795109,42.342788],[2.4794568,42.3427719],[2.4793279,42.3427348],[2.479217,42.3425831],[2.4789952,42.3423946],[2.4789453,42.3423577],[2.4789065,42.3423208],[2.4788843,42.3422758],[2.4788843,42.3422307],[2.4788954,42.3421897],[2.4789065,42.3421446],[2.4788233,42.3419151],[2.4787845,42.3418741],[2.4787568,42.3418331],[2.4787235,42.3417922],[2.4786903,42.3417512],[2.478657,42.3417102],[2.4786293,42.3416733],[2.4785849,42.3416405],[2.4785517,42.3415996],[2.4785128,42.3415545],[2.4784851,42.3415176],[2.4784574,42.3414725],[2.4784463,42.3414274]]]]},"properties":{"natural":"grassland"}},
{"type":"Feature","geometry":{"type":"MultiPolygon","coordinates":[[[[2.4712196,42.3428506],[2.4712716,42.3428413],[2.4713215,42.3428126],[2.4713714,42.3427921],[2.4714324,42.3427716],[2.4714823,42.3427593],[2.4715544,42.3427552],[2.4716209,42.342747],[2.4716874,42.3427348],[2.471754,42.3427225],[2.4718039,42.342702],[2.4718649,42.3426815],[2.4719203,42.3426692],[2.4719702,42.3426528],[2.4720201,42.3426323],[2.4720811,42.3426159],[2.472131,42.3425954],[2.4721865,42.3425749],[2.4722364,42.3425585],[2.4722918,42.3425421],[2.4723528,42.3425298],[2.4724138,42.3425216],[2.4724692,42.3425135],[2.4725413,42.3425094],[2.4726078,42.3425094],[2.4726633,42.3425257],[2.4727076,42.3425544],[2.4727465,42.3425831],[2.4727908,42.3426036],[2.4728407,42.34262],[2.4729017,42.3426323],[2.4729627,42.3426405],[2.4730237,42.3426487],[2.4730958,42.3426487],[2.4731568,42.3426487],[2.4732122,42.3426487],[2.4732843,42.3426487],[2.4733397,42.3426487],[2.4734007,42.3426487],[2.4734617,42.342661],[2.4735172,42.3426692],[2.4735837,42.3426733],[2.4736447,42.3426856],[2.4737001,42.3426979],[2.4737611,42.3426979],[2.4738166,42.3426815],[2.473811,42.3426364],[2.4737722,42.3426036],[2.47375,42.3425585],[2.4737445,42.3425094],[2.4737888,42.3424807],[2.4738554,42.3424807],[2.4739164,42.3424889],[2.4739885,42.3425135],[2.4740494,42.3425298],[2.4740993,42.3425462],[2.4741603,42.3425503],[2.4742102,42.3425626],[2.4742601,42.3425954],[2.4744542,42.3427307],[2.474493,42.3427593],[2.4745318,42.3427921],[2.4745651,42.3428331],[2.4745817,42.3428782],[2.4745873,42.3429274],[2.4745207,42.3429479],[2.4744542,42.3429602],[2.4744653,42.3430011],[2.4745318,42.3430011],[2.4745928,42.3430011],[2.4746483,42.3429847],[2.4747037,42.3429643],[2.4747536,42.3429479],[2.4748201,42.3429356],[2.4748867,42.3429315],[2.4749477,42.3429315],[2.4750087,42.3429438],[2.4750586,42.3429602],[2.4750974,42.3429888],[2.4751473,42.3430093],[2.4751972,42.3430216],[2.4752582,42.3430462],[2.4753136,42.3430544],[2.4753691,42.3430667],[2.4754245,42.343079],[2.4754855,42.3430954],[2.4755409,42.3431159],[2.4755853,42.3431446],[2.475613,42.3431856],[2.4756463,42.3432265],[2.4756685,42.3432716],[2.4756851,42.3433208],[2.4756906,42.3433659],[2.4757017,42.3434109],[2.4757073,42.343456],[2.4757073,42.3435052],[2.4757073,42.3435503],[2.4756906,42.3435995],[2.4756685,42.3436445],[2.4756352,42.3436855],[2.4756075,42.3437306],[2.4754689,42.3439396],[2.475417,42.3440188],[2.4751528,42.3439888],[2.4750918,42.3439765],[2.4750364,42.343956],[2.4749754,42.3439355],[2.4749199,42.3439109],[2.474859,42.3438822],[2.4748201,42.3438453],[2.4747813,42.3438085],[2.4747425,42.3437757],[2.4746926,42.343747],[2.4741881,42.3434355],[2.4741382,42.3434109],[2.4740772,42.3433864],[2.4740217,42.3433618],[2.4739774,42.3433372],[2.4739275,42.3433085],[2.473872,42.3432716],[2.4738221,42.3432511],[2.4737722,42.3432224],[2.4737112,42.3432019],[2.4736558,42.3431856],[2.4735948,42.3431774],[2.4735282,42.3431692],[2.4734673,42.3431651],[2.4734007,42.3431569],[2.4733342,42.3431569],[2.4732732,42.3431569],[2.4732122,42.3431569],[2.4731512,42.3431569],[2.4730902,42.343161],[2.4730181,42.3431651],[2.4729461,42.3431692],[2.4728629,42.3431815],[2.4727742,42.3431937],[2.4727021,42.343206],[2.4726134,42.3432101],[2.4725524,42.3432101],[2.4724803,42.3432019],[2.4724304,42.3431856],[2.4723639,42.3431569],[2.4723195,42.3431282],[2.4722696,42.3430954],[2.4722142,42.3430831],[2.4721476,42.3430749],[2.4720645,42.3430626],[2.472009,42.3430544],[2.4719425,42.3430544],[2.4718815,42.3430544],[2.4718205,42.3430544],[2.4717595,42.3430544],[2.471693,42.3430544],[2.4716265,42.3430544],[2.4715655,42.3430544],[2.4714934,42.3430462],[2.4714324,42.3430257],[2.4713769,42.3430011],[2.471327,42.3429765],[2.4712827,42.3429438],[2.4712439,42.3429069],[2.4712196,42.3428506]]]]},"properties":{"natural":"scrub"}},
{"type":"Feature","geometry":{"type":"MultiPolygon","coordinates":[[[[2.6334286,42.3161264],[2.6334325,42.3161062],[2.6334521,42.3160917],[2.6334756,42.3160787],[2.633501,42.3160686],[2.6335303,42.3160584],[2.6335617,42.3160512],[2.6335871,42.3160411],[2.6336125,42.3160338],[2.633638,42.3160266],[2.6336654,42.3160179],[2.6336849,42.3160049],[2.6337045,42.3159904],[2.6337182,42.3159745],[2.6337436,42.3159601],[2.6337651,42.315947],[2.6337847,42.315934],[2.6338121,42.3159239],[2.6338395,42.3159152],[2.6338767,42.3159094],[2.633906,42.3159022],[2.6339314,42.3158979],[2.6339667,42.3158921],[2.633996,42.3158906],[2.6340254,42.3158848],[2.6340586,42.3158805],[2.634086,42.3158776],[2.6341173,42.3158747],[2.6341428,42.3158747],[2.6341721,42.3158747],[2.6341995,42.3158761],[2.634221,42.3158877],[2.6342367,42.3159065],[2.6342484,42.3159268],[2.6342484,42.315947],[2.6342328,42.3159644],[2.6342015,42.3159745],[2.634176,42.3159818],[2.6341486,42.3159919],[2.6341193,42.3160035],[2.6340919,42.3160121],[2.6340684,42.3160266],[2.6340508,42.3160469],[2.6340293,42.3160642],[2.6340117,42.3160801],[2.6339921,42.3160961],[2.6339275,42.316125],[2.6338943,42.3161366],[2.633863,42.3161395],[2.6338317,42.3161395],[2.6338023,42.3161395],[2.6337749,42.3161395],[2.6337417,42.3161424],[2.6337084,42.3161481],[2.6336771,42.3161554],[2.6336477,42.3161626],[2.6336203,42.3161684],[2.633589,42.3161756],[2.6335617,42.3161814],[2.6335303,42.3161843],[2.633501,42.3161843],[2.6334716,42.3161829],[2.6334462,42.3161684],[2.6334306,42.3161481],[2.6334286,42.3161264]]]]},"properties":{"natural":"grassland"}}
]}
