{"type":"FeatureCollection","features":[
{"type":"Feature","geometry":{"type":"Point","coordinates":[6.9077423,47.2395654]},"properties":{"ele":"969","mountain_pass":"yes","name":"Col de la Vierge","natural":"saddle"}},
{"type":"Feature","geometry":{"type":"Point","coordinates":[6.9076832,47.2396428]},"properties":{"historic":"wayside_shrine","religion":"christian"}},
{"type":"Feature","geometry":{"type":"Point","coordinates":[6.9013125,47.2118]},"properties":{"addr:city":"Le Noirmont","addr:housenumber":"1","addr:postcode":"2340","addr:street":"La Bouège","name":"Auberge de la Bouège","tourism":"guest_house"}},
{"type":"Feature","geometry":{"type":"Point","coordinates":[6.9520862,47.2614824]},"properties":{"ele":"493","hiking":"yes","information":"guidepost","mtb":"yes","name":"Goumois","tourism":"information"}},
{"type":"Feature","geometry":{"type":"Point","coordinates":[6.9513908,47.2469873]},"properties":{"fireplace":"yes","tourism":"picnic_site"}},
{"type":"Feature","geometry":{"type":"Point","coordinates":[6.9261146,47.2239525]},"properties":{"ele":"544","hiking":"yes","information":"guidepost","name":"La Goule","tourism":"information"}},
{"type":"Feature","geometry":{"type":"Point","coordinates":[6.9237057,47.2207128]},"properties":{"description":"Point de vue sur le Doubs","description:de":"Aussicht auf den Fluss Doubs","tourism":"viewpoint"}},
{"type":"Feature","geometry":{"type":"Point","coordinates":[6.9518248,47.2617245]},"properties":{"addr:city":"Goumois","addr:housenumber":"16","addr:postcode":"2354","addr:street":"Principale","name":"Hôtel du Doubs","tourism":"hotel"}},
{"type":"Feature","geometry":{"type":"Point","coordinates":[6.9522336,47.2614484]},"properties":{"board_type":"history","information":"board","name":"Vallée du Doubs – La Ronde des Verriers","tourism":"information"}},
{"type":"Feature","geometry":{"type":"Point","coordinates":[6.951635,47.2616642]},"properties":{"hiking":"yes","information":"guidepost","tourism":"information"}},
{"type":"Feature","geometry":{"type":"Point","coordinates":[6.9509491,47.2644388]},"properties":{"tourism":"picnic_site"}},
{"type":"Feature","geometry":{"type":"Point","coordinates":[6.9509461,47.261732]},"properties":{"information":"board","tourism":"information"}},
{"type":"Feature","geometry":{"type":"Point","coordinates":[6.8931406,47.2320735]},"properties":{"ele":"1021","natural":"peak"}},
{"type":"Feature","geometry":{"type":"Point","coordinates":[6.9259625,47.2302678]},"properties":{"name":"Grotte de Pâques","natural":"cave_entrance"}},
{"type":"Feature","geometry":{"type":"Point","coordinates":[6.9390784,47.2417689]},"properties":{"historic":"wayside_cross","name":"Croix du Seuillerot"}},
{"type":"Feature","geometry":{"type":"Point","coordinates":[6.9488235,47.2462601]},"properties":{"name":"Corniche de Goumois","tourism":"viewpoint"}},
{"type":"Feature","geometry":{"type":"Point","coordinates":[6.90696,47.23315]},"properties":{"boules":"petanque","leisure":"pitch","source":"data.gouv.fr:Le ministère des droits des femmes, de la ville, de la jeunesse et des sports - 11/2015","sport":"boules"}},
{"type":"Feature","geometry":{"type":"Point","coordinates":[6.9510897,47.2618467]},"properties":{"leisure":"slipway","name":"Goumois","source":"data.gouv.fr:Le ministère des droits des femmes, de la ville, de la jeunesse et des sports - 11/2015","whitewater":"put_in"}},
{"type":"Feature","geometry":{"type":"Point","coordinates":[6.9486326,47.2612184]},"properties":{"denomination":"catholic","historic":"wayside_cross","religion":"christian"}},
{"type":"Feature","geometry":{"type":"Point","coordinates":[6.9186509,47.2386109]},"properties":{"denomination":"catholic","historic":"wayside_cross","religion":"christian"}},
{"type":"Feature","geometry":{"type":"Point","coordinates":[6.9183558,47.2383213]},"properties":{"historic":"memorial"}},
{"type":"Feature","geometry":{"type":"Point","coordinates":[6.9140324,47.2249181]},"properties":{"name":"Gîte d'Etape","tourism":"hostel"}},
{"type":"Feature","geometry":{"type":"Point","coordinates":[6.9511141,47.2643241]},"properties":{"board_type":"geology","information":"board","name":"Rocher du Singe","tourism":"information"}},
{"type":"Feature","geometry":{"type":"Point","coordinates":[6.9254033,47.2241159]},"properties":{"denotation":"agricultural","leaf_cycle":"deciduous","leaf_type":"broadleaved","natural":"tree"}},
{"type":"Feature","geometry":{"type":"Point","coordinates":[6.9252679,47.2240776]},"properties":{"denotation":"agricultural","leaf_cycle":"deciduous","leaf_type":"broadleaved","natural":"tree"}},
{"type":"Feature","geometry":{"type":"Point","coordinates":[6.9537268,47.2566551]},"properties":{"denotation":"agricultural","leaf_cycle":"deciduous","leaf_type":"broadleaved","natural":"tree"}},
{"type":"Feature","geometry":{"type":"Point","coordinates":[6.9536296,47.2567366]},"properties":{"denotation":"agricultural","leaf_cycle":"deciduous","leaf_type":"broadleaved","natural":"tree"}},
{"type":"Feature","geometry":{"type":"Point","coordinates":[6.9534545,47.2566233]},"properties":{"denotation":"agricultural","leaf_cycle":"deciduous","leaf_type":"broadleaved","natural":"tree"}},
{"type":"Feature","geometry":{"type":"Point","coordinates":[6.9533747,47.2566156]},"properties":{"denotation":"agricultural","leaf_cycle":"deciduous","leaf_type":"broadleaved","natural":"tree"}},
{"type":"Feature","geometry":{"type":"Point","coordinates":[6.9545723,47.255668]},"properties":{"denotation":"agricultural","leaf_cycle":"deciduous","leaf_type":"broadleaved","natural":"tree"}},
{"type":"Feature","geometry":{"type":"Point","coordinates":[6.9544838,47.2557727]},"properties":{"denotation":"agricultural","leaf_cycle":"deciduous","leaf_type":"broadleaved","natural":"tree"}},
{"type":"Feature","geometry":{"type":"Point","coordinates":[6.9543229,47.2559352]},"properties":{"denotation":"agricultural","leaf_cycle":"deciduous","leaf_type":"broadleaved","natural":"tree"}},
{"type":"Feature","geometry":{"type":"Point","coordinates":[6.9540165,47.2561422]},"properties":{"denotation":"agricultural","leaf_cycle":"deciduous","leaf_type":"broadleaved","natural":"tree"}},
{"type":"Feature","geometry":{"type":"Point","coordinates":[6.9264447,47.2244269]},"properties":{"description":"Parcours des Gabelous – Etape C: La Goule","information":"board","name":"Les Chemins de la contrebande franco-suisse - Les Gabelous","tourism":"information"}},
{"type":"Feature","geometry":{"type":"Point","coordinates":[6.9264326,47.2244155]},"properties":{"board_type":"nature","description":"Paysage abrupt marqué par la éboulements","information":"board","name":"Réserve naturelle du Doubs – La Goule","tourism":"information"}},
{"type":"Feature","geometry":{"type":"Point","coordinates":[6.9264413,47.224406]},"properties":{"leisure":"picnic_table"}},
{"type":"Feature","geometry":{"type":"Point","coordinates":[6.9254476,47.2243017]},"properties":{"board_type":"history","information":"board","name":"Vallée du Doubs – La Ronde des Verriers – Randonnée pédestre","tourism":"information"}},
{"type":"Feature","geometry":{"type":"Point","coordinates":[6.9254301,47.2242889]},"properties":{"board_type":"history","description":"Parcours des Gabelous – Etape C","information":"board","name":"Les Chemins de la Contrebande franco-suisse – Les Gabelous","tourism":"information"}},
{"type":"Feature","geometry":{"type":"Point","coordinates":[6.9258298,47.2241222]},"properties":{"board_type":"history","description":"Surveillance de la frontière","information":"board","name":"Parcours des Gabelous – Etape C","tourism":"information"}},
{"type":"Feature","geometry":{"type":"Point","coordinates":[6.9520862,47.2614817]},"properties":{"hiking":"yes","information":"map","map_size":"region","map_type":"topo","name":"La Suisse à pied","tourism":"information"}},
{"type":"Feature","geometry":{"type":"Point","coordinates":[6.9522854,47.2614366]},"properties":{"board_type":"notice","information":"board","name":"Navigation sur le Doubs","tourism":"information"}},
{"type":"Feature","geometry":{"type":"Point","coordinates":[6.9511141,47.2643266]},"properties":{"hiking":"yes","information":"guidepost","mtb":"yes","tourism":"information"}},
{"type":"Feature","geometry":{"type":"Point","coordinates":[6.9511445,47.2643797]},"properties":{"board_type":"geology","information":"board","name":"Le rocher du singe de Goumois","tourism":"information"}},
{"type":"Feature","geometry":{"type":"Point","coordinates":[6.9544362,47.2423542]},"properties":{"information":"guidepost","mtb":"yes","tourism":"information"}},
{"type":"Feature","geometry":{"type":"Point","coordinates":[6.9525285,47.2475311]},"properties":{"hiking":"yes","information":"guidepost","mtb":"yes","tourism":"information"}},
{"type":"Feature","geometry":{"type":"Point","coordinates":[6.9538066,47.2421628]},"properties":{"board_type":"nature","information":"board","name":"Le Doubs","tourism":"information"}},
{"type":"Feature","geometry":{"type":"Point","coordinates":[6.9539964,47.2421583]},"properties":{"hiking":"yes","information":"guidepost","mtb":"yes","tourism":"information"}},
{"type":"Feature","geometry":{"type":"Point","coordinates":[6.9555983,47.2427532]},"properties":{"board_type":"nature","information":"board","name":"Bienvenue dans la Réserve forestière du Theusseret!","tourism":"information"}},
{"type":"Feature","geometry":{"type":"Point","coordinates":[6.9554977,47.2427073]},"properties":{"ele":"507","hiking":"yes","information":"guidepost","name":"Le Theusseret","scooter":"yes","tourism":"information"}},
{"type":"Feature","geometry":{"type":"Point","coordinates":[6.9544748,47.2423299]},"properties":{"board_type":"nature","information":"board","name":"Mousses et fougères – Evolution des végétaux","tourism":"information"}},
{"type":"Feature","geometry":{"type":"Point","coordinates":[6.955717,47.2427655]},"properties":{"board_type":"history","information":"board","name":"Quelques exemples dʼindustries anciennes","tourism":"information"}},
{"type":"Feature","geometry":{"type":"Point","coordinates":[6.9557773,47.2429126]},"properties":{"board_type":"nature","description":"Autrefois moulin et scierie au cœur de la foret","information":"board","name":"Réserve Naturelle du Doubs – le Theusseret","tourism":"information"}},
{"type":"Feature","geometry":{"type":"Point","coordinates":[6.9561367,47.2433596]},"properties":{"board_type":"history","information":"board","name":"Centre lʼEau-Vive","tourism":"information"}},
{"type":"Feature","geometry":{"type":"Point","coordinates":[6.9488901,47.2462343]},"properties":{"board_type":"history","information":"board","name":"Le Pays Horloger","tourism":"information"}},
{"type":"Feature","geometry":{"type":"Point","coordinates":[6.9488442,47.246265]},"properties":{"board_type":"nature","information":"board","name":"Panorama de Goumois","tourism":"information"}},
{"type":"Feature","geometry":{"type":"Point","coordinates":[6.9464392,47.2598859]},"properties":{"board_type":"history","information":"board","name":"Le Pays Horloger","tourism":"information"}},
{"type":"Feature","geometry":{"type":"Point","coordinates":[6.9448829,47.254025]},"properties":{"denotation":"agricultural","leaf_cycle":"evergreen","leaf_type":"needleleaved","natural":"tree"}},
{"type":"Feature","geometry":{"type":"Point","coordinates":[6.945666,47.2357271]},"properties":{"direction":"180-270","tourism":"viewpoint"}},
{"type":"Feature","geometry":{"type":"Point","coordinates":[6.9470249,47.2364873]},"properties":{"direction":"315-45","tourism":"viewpoint"}},
{"type":"Feature","geometry":{"type":"Point","coordinates":[6.9583583,47.2471019]},"properties":{"hiking":"yes","information":"guidepost","tourism":"information"}},
{"type":"Feature","geometry":{"type":"Point","coordinates":[6.9571365,47.2471399]},"properties":{"hiking":"yes","information":"guidepost","tourism":"information"}},
{"type":"Feature","geometry":{"type":"Point","coordinates":[6.9557264,47.2484506]},"properties":{"hiking":"yes","information":"guidepost","tourism":"information"}},
{"type":"Feature","geometry":{"type":"Point","coordinates":[6.9556969,47.2484839]},"properties":{"hiking":"yes","information":"guidepost","tourism":"information"}},
{"type":"Feature","geometry":{"type":"Point","coordinates":[6.9458458,47.2358266]},"properties":{"leisure":"firepit"}},
{"type":"Feature","geometry":{"type":"Point","coordinates":[6.9566068,47.243401]},"properties":{"hiking":"yes","information":"guidepost","tourism":"information"}},
{"type":"Feature","geometry":{"type":"Point","coordinates":[6.9551842,47.2417585]},"properties":{"board_type":"nature","information":"board","name":"Lʼécosystème forestier","tourism":"information"}},
{"type":"Feature","geometry":{"type":"Point","coordinates":[6.9537161,47.2415644]},"properties":{"board_type":"nature","information":"board","name":"Il était une fois …","tourism":"information"}},
{"type":"Feature","geometry":{"type":"Point","coordinates":[6.9552243,47.2426543]},"properties":{"information":"guidepost","mtb":"yes","tourism":"information"}},
{"type":"Feature","geometry":{"type":"Point","coordinates":[6.9491882,47.2389282]},"properties":{"board_type":"nature","information":"board","name":"La faune forestière","tourism":"information"}},
{"type":"Feature","geometry":{"type":"Point","coordinates":[6.9514553,47.2403798]},"properties":{"board_type":"nature","information":"board","name":"Une réserve, mais plusieurs fôrets","tourism":"information"}},
{"type":"Feature","geometry":{"type":"Point","coordinates":[6.9520031,47.2412147]},"properties":{"hiking":"yes","information":"guidepost","tourism":"information"}},
{"type":"Feature","geometry":{"type":"Point","coordinates":[6.9469753,47.2364481]},"properties":{"board_type":"nature","information":"board","name":"Une ouverture sur le monde","tourism":"information"}},
{"type":"Feature","geometry":{"type":"Point","coordinates":[6.9470172,47.2364602]},"properties":{"leisure":"firepit"}},
{"type":"Feature","geometry":{"type":"Point","coordinates":[6.9502097,47.2363818]},"properties":{"direction":"270-0","tourism":"viewpoint"}},
{"type":"Feature","geometry":{"type":"Point","coordinates":[6.9459588,47.2359336]},"properties":{"hiking":"yes","information":"guidepost","tourism":"information"}},
{"type":"Feature","geometry":{"type":"Point","coordinates":[6.9462414,47.236421]},"properties":{"hiking":"yes","information":"guidepost","tourism":"information"}},
{"type":"Feature","geometry":{"type":"Point","coordinates":[6.9456077,47.2357695]},"properties":{"board_type":"nature","information":"board","name":"Quand les arbres perdent pied …","tourism":"information"}},
{"type":"Feature","geometry":{"type":"Point","coordinates":[6.9456989,47.2356145]},"properties":{"leisure":"picnic_table"}},
{"type":"Feature","geometry":{"type":"Point","coordinates":[6.9480875,47.2360481]},"properties":{"hiking":"yes","information":"guidepost","tourism":"information"}},
{"type":"Feature","geometry":{"type":"Point","coordinates":[6.9457848,47.2359862]},"properties":{"hiking":"yes","information":"guidepost","tourism":"information"}},
{"type":"Feature","geometry":{"type":"Point","coordinates":[6.950598,47.2570377]},"properties":{"hiking":"yes","information":"guidepost","mtb":"yes","tourism":"information"}},
{"type":"Feature","geometry":{"type":"Point","coordinates":[6.9520484,47.25232]},"properties":{"historic":"ruins","name":"Château de Franquemont"}},
{"type":"Feature","geometry":{"type":"Point","coordinates":[6.9521667,47.2520788]},"properties":{"leisure":"firepit"}},
{"type":"Feature","geometry":{"type":"Point","coordinates":[6.9565357,47.2494315]},"properties":{"denotation":"agricultural","leaf_cycle":"evergreen","leaf_type":"needleleaved","natural":"tree"}},
{"type":"Feature","geometry":{"type":"Point","coordinates":[6.9565511,47.2494122]},"properties":{"denomination":"catholic","historic":"wayside_shrine","religion":"christian"}},
{"type":"Feature","geometry":{"type":"Point","coordinates":[6.9428498,47.2347847]},"properties":{"leisure":"picnic_table"}},
{"type":"Feature","geometry":{"type":"Point","coordinates":[6.94277,47.2347341]},"properties":{"leisure":"firepit"}},
{"type":"Feature","geometry":{"type":"Point","coordinates":[6.942829,47.2347155]},"properties":{"information":"guidepost","mtb":"yes","scooter":"yes","tourism":"information"}},
{"type":"Feature","geometry":{"type":"Point","coordinates":[6.9439892,47.238761]},"properties":{"leisure":"picnic_table","tourism":"picnic_site"}},
{"type":"Feature","geometry":{"type":"Point","coordinates":[6.9441185,47.2388302]},"properties":{"leisure":"firepit"}},
{"type":"Feature","geometry":{"type":"Point","coordinates":[6.9519977,47.2466761]},"properties":{"leisure":"picnic_table"}},
{"type":"Feature","geometry":{"type":"Point","coordinates":[6.9519227,47.2467186]},"properties":{"leisure":"firepit"}},
{"type":"Feature","geometry":{"type":"Point","coordinates":[6.9069591,47.2373288]},"properties":{"covered":"no","leisure":"picnic_table"}},
{"type":"Feature","geometry":{"type":"Point","coordinates":[6.9279098,47.2269565]},"properties":{"hiking":"yes","information":"guidepost","tourism":"information"}},
{"type":"Feature","geometry":{"type":"Point","coordinates":[6.9405591,47.2310829]},"properties":{"information":"board","tourism":"information"}},
{"type":"Feature","geometry":{"type":"Point","coordinates":[6.940244,47.2309145]},"properties":{"covered":"no","leisure":"picnic_table"}},
{"type":"Feature","geometry":{"type":"Point","coordinates":[6.9064151,47.2134831]},"properties":{"tourism":"picnic_site"}},
{"type":"Feature","geometry":{"type":"Point","coordinates":[6.9065495,47.2135477]},"properties":{"leisure":"firepit"}},
{"type":"Feature","geometry":{"type":"Point","coordinates":[6.9403327,47.2313545]},"properties":{"tourism":"picnic_site"}},
{"type":"Feature","geometry":{"type":"Point","coordinates":[6.940533,47.2325607]},"properties":{"leisure":"picnic_table"}},
{"type":"Feature","geometry":{"type":"Point","coordinates":[6.9497933,47.2652559]},"properties":{"tourism":"picnic_site"}},
{"type":"Feature","geometry":{"type":"Point","coordinates":[6.9005099,47.2124365]},"properties":{"tourism":"picnic_site"}},
{"type":"Feature","geometry":{"type":"Point","coordinates":[6.8956798,47.2591104]},"properties":{"historic":"memorial","memorial":"war_memorial","ref:FR:MemorialGenWeb":"48914"}},
{"type":"Feature","geometry":{"type":"Point","coordinates":[6.9499838,47.2614386]},"properties":{"historic":"memorial","memorial":"war_memorial","ref:FR:MemorialGenWeb":"49165"}},
{"type":"Feature","geometry":{"type":"LineString","coordinates":[[6.9518566999999999,47.2621819],[6.9519799,47.2621815],[6.9519789,47.2620652],[6.9518558,47.2620657],[6.9518566999999999,47.2621819]]},"properties":{"addr:city":"Goumois","addr:housenumber":"16a","addr:postcode":"2354","addr:street":"Principale","building":"yes","tourism":"hotel"}},
{"type":"Feature","geometry":{"type":"LineString","coordinates":[[6.9549168,47.2426467],[6.9547415,47.2425353],[6.9542058,47.2423351],[6.9535024,47.2422397],[6.9527757,47.2421371],[6.9518223,47.2418393],[6.9511916,47.2414858],[6.950605,47.2410768],[6.9495494,47.2401062],[6.9485905,47.2395408],[6.947276,47.239059],[6.9441286,47.2383173],[6.9432375,47.2379869],[6.9429788,47.2378284],[6.9428254,47.2377153],[6.9426674,47.2375212],[6.9426448,47.237397],[6.9426649,47.2370858],[6.9430456,47.2361889],[6.9429176,47.2354759],[6.9429422,47.2352413],[6.9427133,47.2347285],[6.9427104,47.2346496]]},"properties":{"admin_level":"2","boundary":"administrative","source":"swissBOUNDARIES3D swisstopo 2011"}},
{"type":"Feature","geometry":{"type":"LineString","coordinates":[[6.8932664,47.2076686],[6.8922794,47.2073036],[6.8918159,47.2070657],[6.8909503,47.2062718],[6.8906657,47.2060915],[6.8898512,47.2052025],[6.8896719,47.205055]]},"properties":{"admin_level":"2","boundary":"administrative","source":"swissBOUNDARIES3D swisstopo 2011"}},
{"type":"Feature","geometry":{"type":"LineString","coordinates":[[6.9427104,47.2346496],[6.9427017,47.2344127],[6.942354,47.2337429],[6.9417831,47.2329434],[6.9415915,47.2325244],[6.9411237,47.2319988],[6.9408341,47.2317529],[6.939663,47.2310291],[6.9391987,47.2308319],[6.938598,47.2306836],[6.9377499,47.2305711],[6.937132,47.2305621],[6.9366887,47.2306654],[6.9363017,47.2308148],[6.9356734,47.2309173],[6.9344982,47.2309149],[6.9338543,47.2308644],[6.9330765,47.230717],[6.9321086,47.2304384],[6.931447,47.2303033],[6.9309787,47.2301329],[6.9288899,47.2291271],[6.9278093,47.22849],[6.9272562,47.2280513],[6.9270698,47.2278031],[6.9269586,47.2274158],[6.9269697,47.2269481],[6.9271417,47.2262275],[6.9270806,47.2257145],[6.9269478,47.2253901],[6.9262376,47.224411],[6.9259157,47.2242432],[6.9239617,47.2221872],[6.921685,47.2208745],[6.921344,47.2205078],[6.9207846,47.2203299],[6.9203139,47.2202693],[6.9194142,47.2200556],[6.918182,47.2196984],[6.9172063,47.2192991],[6.9143678,47.2183561],[6.9135955,47.2182212],[6.9130242,47.2182248],[6.9129917,47.2186166],[6.9116982,47.2183753],[6.9116393,47.2183157],[6.9113259,47.2183682],[6.9100846,47.2180018],[6.9097476,47.2177772],[6.9084508,47.2164858],[6.9081442,47.2161228],[6.9074636,47.2150007],[6.9071629,47.214653],[6.9067708,47.2143193],[6.9062206,47.2140235],[6.9049887,47.213524],[6.9042848,47.2131546],[6.9020804,47.2123465],[6.9014549,47.2120764],[6.9010524,47.2117993],[6.9001759,47.2110216],[6.8993599,47.2105212],[6.8987455,47.2100587],[6.8962176,47.2087767],[6.8944958,47.2081848],[6.893526,47.2077646],[6.8932664,47.2076686]]},"properties":{"admin_level":"2","boundary":"administrative","source":"swissBOUNDARIES3D swisstopo 2011"}},
{"type":"Feature","geometry":{"type":"LineString","coordinates":[[6.9452192,47.288962],[6.9446011,47.288543],[6.9440422,47.2880819],[6.9411014,47.286621],[6.940793,47.2863723],[6.9407057,47.2862388],[6.9406562,47.2858833],[6.9407773,47.2852299],[6.9410597,47.2848256],[6.941897,47.2841271],[6.9424591,47.2837759],[6.942541,47.283632],[6.9427085,47.2832876],[6.9429984,47.2830628],[6.9431572,47.2828702],[6.9445299,47.2818644],[6.9453473,47.280915],[6.9454437,47.2806402],[6.9452336,47.2800663],[6.9453616,47.2797971],[6.945356,47.2796864],[6.9450693,47.2792516],[6.9451121,47.2789163],[6.9458338,47.2777636],[6.9462708,47.2772483],[6.9465533,47.2771443],[6.9482013,47.2750061],[6.9484344,47.2745277],[6.9487977,47.2741092],[6.9491335,47.2735215],[6.949545,47.2729528],[6.9496923,47.2722354],[6.9505587,47.2715542],[6.9507995,47.2712728],[6.9508475,47.2710868],[6.9510139,47.270957],[6.9514218,47.2704227],[6.9518389,47.2700404],[6.9519332,47.2698429],[6.9519377,47.2693305],[6.9519142,47.2689474],[6.9514466,47.2682985],[6.9506673,47.2674789],[6.9501171,47.2668636],[6.95003,47.2660564],[6.9499747,47.2656113],[6.9503944,47.2648816],[6.9506565,47.2640485],[6.9513022,47.2630843],[6.95144,47.2622165],[6.9513874,47.2616546],[6.9511031,47.2606925],[6.9510514,47.260155],[6.9510252,47.2596683],[6.9508921,47.2594126],[6.9506577,47.2591583],[6.9503906,47.2588677],[6.9501818,47.2583921],[6.9498701,47.2577333],[6.9494609,47.2568796],[6.949356,47.2564852],[6.9481356,47.2554227],[6.9466856,47.2542754],[6.9463987,47.2538802],[6.9468381,47.2531046],[6.9470135,47.2522955],[6.9470746,47.2517873],[6.9473441,47.2505003],[6.947556,47.2501486],[6.9490804,47.248868],[6.9501825,47.2482475],[6.9511997,47.2477985],[6.9520967,47.2472141],[6.9532025,47.2460332],[6.9539322,47.2451062],[6.9544754,47.244639],[6.9548534,47.2444625],[6.9547548,47.2444153],[6.954862,47.2442493],[6.9554344,47.2440475],[6.9556667,47.2437751],[6.9556998,47.2436187],[6.9556322,47.2432073],[6.9554611,47.2429925],[6.9549168,47.2426467]]},"properties":{"admin_level":"2","boundary":"administrative","source":"swissBOUNDARIES3D swisstopo 2011"}},
{"type":"Feature","geometry":{"type":"LineString","coordinates":[[6.9449696,47.2602223],[6.9449896,47.2602173],[6.9450176,47.2602183],[6.9450486,47.2602363],[6.9450476,47.2602513],[6.9450396,47.2602693],[6.9450496,47.2603063],[6.9450236,47.2603213],[6.9450006,47.2603223],[6.9449846,47.2603183],[6.9449586,47.2603063],[6.9449406,47.2602843],[6.9449386,47.2602543],[6.9449596,47.2602283],[6.9449696,47.2602223]]},"properties":{"access":"private","leisure":"swimming_pool","source":"cadastre-dgi-fr source : Direction Générale des Impôts - Cadastre. Mise à jour : 2012"}},
{"type":"Feature","geometry":{"type":"LineString","coordinates":[[6.945478,47.26176],[6.945469,47.261758],[6.945467,47.261755],[6.94546,47.261751],[6.945452,47.261749],[6.945444,47.261747],[6.945435,47.261746],[6.945426,47.261745],[6.945417,47.261743],[6.945413,47.261739],[6.945412,47.261733],[6.945415,47.261726],[6.945425,47.26172],[6.945438,47.261716],[6.945454,47.261717],[6.945471,47.261718],[6.945487,47.261721],[6.945499,47.261728],[6.945507,47.261734],[6.945511,47.261742],[6.945509,47.26175],[6.945504,47.261755],[6.945496,47.261759],[6.945486,47.261761],[6.945478,47.26176]]},"properties":{"access":"private","leisure":"swimming_pool","source":"cadastre-dgi-fr source : Direction Générale des Impôts - Cadastre. Mise à jour : 2012"}},
{"type":"Feature","geometry":{"type":"LineString","coordinates":[[6.9435684,47.2586181],[6.9436292,47.2586115],[6.9436465,47.2586845],[6.9435858,47.2586912],[6.9435684,47.2586181]]},"properties":{"access":"private","leisure":"swimming_pool","source":"cadastre-dgi-fr source : Direction Générale des Impôts - Cadastre. Mise à jour : 2012"}},
{"type":"Feature","geometry":{"type":"LineString","coordinates":[[6.949554,47.2642171],[6.949552,47.2642261],[6.949547,47.2642351],[6.949537,47.2642421],[6.949526,47.2642461],[6.949512,47.2642481],[6.949499,47.2642471],[6.949486,47.2642431],[6.949476,47.2642371],[6.949469,47.2642291],[6.949466,47.2642201],[6.949468,47.2642111],[6.949473,47.2642021],[6.949483,47.2641951],[6.949495,47.2641901],[6.949508,47.2641891],[6.949521,47.2641891],[6.949534,47.2641931],[6.949544,47.2642001],[6.949551,47.2642081],[6.949554,47.2642171]]},"properties":{"leisure":"swimming_pool","source":"cadastre-dgi-fr source : Direction Générale des Impôts - Cadastre. Mise à jour : 2012"}},
{"type":"Feature","geometry":{"type":"LineString","coordinates":[[6.9456697,47.252429],[6.9456094,47.2524092],[6.9455807,47.2524495],[6.945641,47.2524693],[6.9456697,47.252429]]},"properties":{"building":"yes","tourism":"chalet"}},
{"type":"Feature","geometry":{"type":"LineString","coordinates":[[6.9454573,47.2525345],[6.9454981,47.2525701],[6.9455506,47.2525423],[6.9455099,47.2525068],[6.9454573,47.2525345]]},"properties":{"building":"yes","tourism":"chalet"}},
{"type":"Feature","geometry":{"type":"LineString","coordinates":[[6.9457709,47.2523808],[6.9458287,47.2523557],[6.9457923,47.252317],[6.9457345,47.2523421],[6.9457709,47.2523808]]},"properties":{"building":"yes","tourism":"chalet"}},
{"type":"Feature","geometry":{"type":"LineString","coordinates":[[6.94601,47.2523619],[6.9460888,47.2523635],[6.9460905,47.2523222],[6.9460117,47.2523207],[6.94601,47.2523619]]},"properties":{"building":"yes","tourism":"chalet"}},
{"type":"Feature","geometry":{"type":"LineString","coordinates":[[6.9461584,47.2523519],[6.9462269,47.2523519],[6.9462269,47.2523107],[6.9461584,47.2523107],[6.9461584,47.2523519]]},"properties":{"building":"yes","tourism":"chalet"}},
{"type":"Feature","geometry":{"type":"LineString","coordinates":[[6.9516626,47.242328],[6.9514623,47.2422347],[6.9511297,47.242049],[6.9509916,47.2419257],[6.9509071,47.2418541],[6.9504189,47.2415585],[6.9501087,47.2412633],[6.9493296,47.2405726],[6.9488901,47.2402853],[6.9485548,47.2400744],[6.94824,47.2399927],[6.948687,47.2402992],[6.9486882,47.2404267],[6.9491877,47.2407635],[6.9496883,47.2412916],[6.9507388,47.2420292],[6.9514467,47.2423283],[6.9516626,47.242328]]},"properties":{"natural":"wetland"}},
{"type":"Feature","geometry":{"type":"LineString","coordinates":[[6.9241266,47.2577259],[6.9246939,47.2579244],[6.9248474,47.2579827],[6.9249748,47.2580319],[6.9250923,47.2580827],[6.9251539,47.2581192],[6.9252115,47.2581602],[6.9252725999999999,47.2582121],[6.9253364,47.2582782],[6.9251673,47.2583595],[6.9251056,47.2585188],[6.9254637,47.2588874],[6.9256937,47.2589571],[6.9256756,47.2590042],[6.925652,47.2590538],[6.9256219,47.2590981],[6.9255844,47.25914],[6.9255419,47.2591766],[6.9254965,47.2592078],[6.9253839,47.259272],[6.9253148,47.2593148],[6.9252397,47.2593653],[6.9251974,47.2593982],[6.9239238,47.2579489],[6.9241266,47.2577259]]},"properties":{"leaf_cycle":"mixed","leaf_type":"mixed","natural":"scrub"}},
{"type":"Feature","geometry":{"type":"LineString","coordinates":[[6.9387515,47.2410651],[6.9390434,47.2414128],[6.939142,47.2415258],[6.9393576,47.2419232],[6.9394501,47.2422537],[6.9394131,47.2426679],[6.9397274,47.2430276]]},"properties":{"natural":"cliff"}},
{"type":"Feature","geometry":{"type":"LineString","coordinates":[[6.9498541,47.2459128],[6.9495672,47.2461155],[6.9494587,47.2461596],[6.9493367,47.246197],[6.9493139,47.2461947],[6.949228,47.2461979],[6.9489699,47.2462138],[6.9489504,47.2462188],[6.9488566,47.2462898],[6.9488351,47.2462948],[6.9487211,47.246298],[6.9486929,47.2463062],[6.9486822,47.246319],[6.9486305,47.2465673],[6.9486111,47.2466503],[6.9484985,47.2467223],[6.9479711,47.2468398],[6.9471679,47.2471758],[6.9461124,47.2477275],[6.9456454,47.2480698],[6.9449263,47.2485453],[6.9443005,47.2488877],[6.9437307,47.2493062]]},"properties":{"natural":"cliff"}},
{"type":"Feature","geometry":{"type":"LineString","coordinates":[[6.9481791,47.2615594],[6.9480495,47.2618652],[6.9478147,47.2618194],[6.9479443,47.2615136],[6.9481791,47.2615594]]},"properties":{"leisure":"pitch","sport":"tennis"}},
{"type":"Feature","geometry":{"type":"LineString","coordinates":[[6.951347,47.2523491],[6.9513363,47.2522326],[6.9514221,47.2521161],[6.951744,47.2519158]]},"properties":{"natural":"cliff"}},
{"type":"Feature","geometry":{"type":"LineString","coordinates":[[6.9507033,47.2534269],[6.9507033,47.253274],[6.9507408,47.2531356],[6.9509876,47.2529536]]},"properties":{"natural":"cliff"}},
{"type":"Feature","geometry":{"type":"LineString","coordinates":[[6.9533157,47.2479176],[6.9533104,47.2478521],[6.9531012,47.2474733],[6.9530904,47.2473568],[6.9532192,47.2471929],[6.9532138,47.2469344],[6.9532728,47.2467559],[6.9535035,47.2465338]]},"properties":{"natural":"cliff"}},
{"type":"Feature","geometry":{"type":"LineString","coordinates":[[6.9536591,47.2480414],[6.9535732,47.2478302],[6.9536966,47.2477392],[6.9535464,47.2473859],[6.9535625,47.2473095],[6.9536698,47.2472585],[6.9538414,47.24704]]},"properties":{"natural":"cliff"}},
{"type":"Feature","geometry":{"type":"LineString","coordinates":[[6.9539541,47.2490501],[6.9536966,47.2487879],[6.9538039,47.2485112],[6.9538253,47.2482235],[6.9538629,47.2475935]]},"properties":{"natural":"cliff"}},
{"type":"Feature","geometry":{"type":"LineString","coordinates":[[6.9536161,47.2495599],[6.9536483,47.2494834],[6.9536912,47.249396],[6.9535893,47.2490647],[6.9534981,47.2487297],[6.9536108,47.248675]]},"properties":{"natural":"cliff"}},
{"type":"Feature","geometry":{"type":"LineString","coordinates":[[6.9512236,47.2537109],[6.9510895,47.2534014],[6.9511592,47.2532303],[6.9512719,47.2530191],[6.9515455,47.2528116],[6.9517869,47.2525931],[6.9516635,47.2522982],[6.9517815,47.2521489],[6.9519854,47.2519086],[6.952436,47.2517374],[6.9525593,47.2515371],[6.9527149,47.2514971],[6.9527847,47.2514498],[6.9527686,47.2512386],[6.9525701,47.2511075],[6.9525593,47.2509254],[6.952672,47.2504083],[6.952967,47.2501534],[6.9531816,47.2497056],[6.9531602,47.2491521],[6.9532782,47.2487442]]},"properties":{"natural":"cliff"}},
{"type":"Feature","geometry":{"type":"LineString","coordinates":[[6.9512533,47.2626804],[6.9512276,47.2626746],[6.9512129,47.2626658],[6.9512043,47.2626237],[6.9512057,47.2625807],[6.9512182,47.2625554],[6.9512403,47.2625318],[6.9512699,47.2625126],[6.9512963,47.2624981],[6.9513081,47.2625008],[6.9513255,47.2625181],[6.951334,47.2625347],[6.9513309,47.262569],[6.9513224,47.2625993],[6.9512965,47.262654],[6.9512766,47.26267],[6.9512533,47.2626804]]},"properties":{"natural":"grassland","place":"islet"}},
{"type":"Feature","geometry":{"type":"LineString","coordinates":[[6.8966199,47.2093767],[6.8966165,47.209437],[6.8966393,47.2094752],[6.8967132,47.2094949],[6.8967687,47.2094474],[6.8967915,47.2094338],[6.8968368,47.2094315],[6.8968797,47.2094199],[6.8969451,47.2094174],[6.8969521,47.2094057],[6.896937,47.209396],[6.8969092,47.2093868],[6.8968093,47.2093811],[6.8967154,47.2093855],[6.8966199,47.2093767]]},"properties":{"natural":"shingle"}},
{"type":"Feature","geometry":{"type":"LineString","coordinates":[[6.8906422,47.2065733],[6.8906607,47.2066468],[6.8909048,47.2067707],[6.8909758,47.206829],[6.8910429,47.2068573],[6.8911147,47.2068971],[6.8911998,47.2069047],[6.8912132,47.2068965],[6.8911488,47.2068053],[6.8910684,47.2067543],[6.8910442,47.2067188],[6.8909463,47.2066368],[6.8908603,47.2066083],[6.8907583,47.2065859],[6.8906422,47.2065733]]},"properties":{"natural":"grassland"}},
{"type":"Feature","geometry":{"type":"LineString","coordinates":[[6.8979308,47.2097444],[6.8979509,47.2098437],[6.8979749,47.209911],[6.89803,47.2099731],[6.8981829,47.2100387],[6.8984076,47.2101357],[6.8984444,47.210117],[6.8984123,47.2100378],[6.8983734,47.2099731],[6.8983845,47.2099342],[6.8979308,47.2097444]]},"properties":{"natural":"grassland"}},
{"type":"Feature","geometry":{"type":"LineString","coordinates":[[6.9067204,47.2152486],[6.9066024,47.2152595],[6.9065058,47.2152923],[6.9064307,47.2153634],[6.906428,47.2154618],[6.9064683,47.2156148],[6.9065702,47.2158243],[6.9066989,47.2160448],[6.9069216,47.2163217],[6.9071335,47.2166077],[6.9074285,47.2170122],[6.9076726,47.2172991],[6.9077584,47.2173975],[6.9078697,47.2174922],[6.9079556,47.2175387],[6.9080548,47.2175751],[6.9081742,47.2175915],[6.9082922,47.2175924],[6.9084491,47.2175696],[6.9085188,47.2175469],[6.9086033,47.2175396],[6.9086838,47.2175397],[6.9086234,47.2174731],[6.9085309,47.217453],[6.9084893,47.2174722],[6.908441,47.2175168],[6.9083485,47.2175316],[6.9082519,47.217546],[6.9081902,47.217545],[6.9081286,47.2175186],[6.9080856,47.2174849],[6.9080789,47.2174448],[6.9080481,47.2174357],[6.9079877,47.217433],[6.9079395,47.2174039],[6.9078831,47.2173856],[6.9078483,47.217362],[6.9078442,47.2173273],[6.9078416,47.2172882],[6.9078509,47.2172385],[6.9078248,47.2172217],[6.9077648,47.2172066],[6.9077225,47.2171843],[6.9076987,47.2171543],[6.9077028,47.2171169],[6.9077262,47.217085],[6.9077785,47.2170664],[6.9078097,47.2170598],[6.9078302,47.2170554],[6.9079006,47.2170541],[6.9079468,47.2170832],[6.907979,47.2171105],[6.9079763,47.2171506],[6.9080012,47.2171752],[6.9081071,47.2171916],[6.9081795,47.2172208],[6.9082211,47.2172545],[6.9082466,47.2173082],[6.9082466,47.2173428],[6.9083042,47.2173528],[6.9083498,47.2173674],[6.9083726,47.217331],[6.9084021,47.21731],[6.9084625,47.21731],[6.9084432,47.2172417],[6.9081339,47.2168118],[6.9077396,47.2162761],[6.9075207,47.2158775],[6.9072583,47.2154455],[6.9071254,47.2152869],[6.9068961,47.2152595],[6.9067204,47.2152486]]},"properties":{"natural":"wetland"}},
{"type":"Feature","geometry":{"type":"LineString","coordinates":[[6.9125186,47.2190891],[6.9126843,47.2191956],[6.9129311,47.219293],[6.9130987,47.2194051],[6.9133133,47.2193477],[6.9134447,47.219385],[6.9135989,47.2193249],[6.9136606,47.2193386],[6.9137773,47.2194297],[6.9139664,47.2194588],[6.9142681,47.2195699],[6.9144613,47.2196364],[6.9147643,47.2197139],[6.9149025,47.219692],[6.9150205,47.2197284],[6.9153343,47.2198906],[6.9156642,47.2199844],[6.9159016,47.2201219],[6.9161993,47.2202604],[6.9161531,47.2201798],[6.9160035,47.2200846],[6.9160209,47.2199653],[6.915978,47.2199343],[6.9159552,47.2198869],[6.9157796,47.2198168],[6.9155406,47.2197427],[6.9148018,47.2195671],[6.9140944,47.2193901],[6.9139939,47.2193545],[6.9138759,47.2193267],[6.9136881,47.2192775],[6.9135761,47.2192684],[6.9135325,47.2192534],[6.9133743,47.2192229],[6.9132274,47.2192088],[6.9131939,47.2191924],[6.9131181,47.2191915],[6.9129981,47.2191733],[6.9129002,47.2191446],[6.9127084,47.2191227],[6.9125186,47.2190891]]},"properties":{"natural":"scrub"}},
{"type":"Feature","geometry":{"type":"LineString","coordinates":[[6.9181484,47.2151366],[6.9182941,47.214784]]},"properties":{"leaf_cycle":"deciduous","leaf_type":"broadleaved","natural":"tree_row"}},
{"type":"Feature","geometry":{"type":"LineString","coordinates":[[6.9088581,47.2168373],[6.909361,47.2174306],[6.9094301,47.2175041],[6.9095394,47.2176375],[6.909718,47.2178317],[6.9097714,47.21776],[6.9097714,47.2177218],[6.9097486,47.217678],[6.909699,47.2176325],[6.9096588,47.2175851],[6.9096172,47.2175204],[6.9096091,47.2174703],[6.9096319,47.2174239],[6.9096601,47.2174002],[6.9097325,47.2173756],[6.9097821,47.2173629],[6.9098425,47.2173629],[6.9099149,47.2173856],[6.9102502,47.2174995],[6.9105506,47.2175842],[6.9111219,47.2177372],[6.9115725,47.2178247],[6.9122538,47.2179832],[6.9127446,47.2180761],[6.9131362,47.2181544],[6.9138547,47.218356],[6.9137931,47.2183033],[6.9136646,47.2182537],[6.9127304,47.2180048],[6.9122626,47.2178876],[6.9112561,47.217663],[6.9107866,47.2175551],[6.9103409,47.2174378],[6.9097164,47.2172362],[6.9092458,47.2170671],[6.9090325,47.2169502],[6.9088581,47.2168373]]},"properties":{"natural":"grassland"}},
{"type":"Feature","geometry":{"type":"LineString","coordinates":[[6.911256,47.2180287],[6.911253,47.2180362],[6.911254,47.2180488],[6.9112574,47.2180679],[6.9112505,47.2180751],[6.9112379,47.2180765],[6.9112205,47.2180975],[6.9112218,47.2181162],[6.9112273,47.218123],[6.9112399,47.218128],[6.911256,47.2181248],[6.9112694,47.2181057],[6.9112788,47.2180902],[6.9112924,47.2180858],[6.9113083,47.2180829],[6.9113231,47.2180734],[6.9113304,47.2180529],[6.9113296,47.218045],[6.9113251,47.2180397],[6.9113165,47.2180385],[6.9113076,47.2180401],[6.9112983,47.2180524],[6.9112899,47.2180546],[6.9112808,47.218051],[6.9112768,47.2180351],[6.9112677,47.218029],[6.911256,47.2180287]]},"properties":{"natural":"water","water":"pond"}},
{"type":"Feature","geometry":{"type":"LineString","coordinates":[[6.9108953,47.2180146],[6.9109023,47.2180013],[6.9109195,47.2179933],[6.9109403,47.2179937],[6.9109568,47.2180024],[6.9109626,47.218016],[6.9109556,47.2180293],[6.9109384,47.2180373],[6.9109176,47.2180368],[6.9109011,47.2180282],[6.9108953,47.2180146]]},"properties":{"natural":"water","water":"pond"}},
{"type":"Feature","geometry":{"type":"LineString","coordinates":[[6.9119185,47.2182455],[6.9119346,47.2182847],[6.9119802,47.2183211],[6.912066,47.2183521],[6.9121505,47.2183721],[6.9122457,47.2183831],[6.9123048,47.2183776],[6.912349,47.2183758],[6.9123866,47.2183876],[6.9124201,47.2184104],[6.9124697,47.2184304],[6.9125395,47.2184514],[6.9125958,47.2184532],[6.912636,47.2184386],[6.9126883,47.2184013],[6.9127339,47.2183849],[6.9127969,47.218373],[6.9129109,47.2183812],[6.9129485,47.2183867],[6.9129653,47.218381],[6.9129713,47.2183726],[6.9129706,47.2183621],[6.9129619,47.2183539],[6.9128814,47.2183239],[6.9128171,47.2183111],[6.9127017,47.2183157],[6.9126159,47.2183202],[6.9125555,47.2183056],[6.9125059,47.2182965],[6.9124241,47.2182665],[6.9122887,47.2182027],[6.9122136,47.2181717],[6.9121452,47.2181544],[6.9120848,47.2181535],[6.9120211,47.2181635],[6.9119802,47.2181799],[6.9119453,47.2181991],[6.9119246,47.2182218],[6.9119185,47.2182455]]},"properties":{"natural":"water","water":"pond"}},
{"type":"Feature","geometry":{"type":"LineString","coordinates":[[6.9161054,47.219099],[6.9162275,47.2191728],[6.916324,47.2192256],[6.9163777,47.219242],[6.9164354,47.2192493],[6.9165574,47.2192338],[6.9166888,47.2192356],[6.9165802,47.2191573],[6.9164126,47.219109],[6.9162422,47.2190936],[6.9161054,47.219099]]},"properties":{"natural":"grassland"}},
{"type":"Feature","geometry":{"type":"LineString","coordinates":[[6.9235176,47.2235622],[6.9235419,47.2236286],[6.923621,47.2237097],[6.9237296,47.2237889],[6.9237953,47.2238727],[6.9238917,47.2239618],[6.923857,47.2239046],[6.9238585,47.2238525],[6.9239402,47.2238326],[6.9240343,47.2237942],[6.9240649,47.2237588],[6.9240634,47.2237129],[6.9240099,47.2236914],[6.9239508,47.2236813],[6.9238785,47.2236805],[6.9237473,47.2236585],[6.9236512,47.2236354],[6.9236311,47.2236186],[6.9235499,47.223589],[6.9235176,47.2235622]]},"properties":{"natural":"grassland"}},
{"type":"Feature","geometry":{"type":"LineString","coordinates":[[6.925576,47.2233483],[6.9255973,47.22338],[6.9256152,47.2234155],[6.925636,47.2234624],[6.9256581,47.2235166],[6.9256897,47.223579],[6.9257567,47.2237027],[6.9259811,47.2239271],[6.9260295,47.2239756],[6.9260382,47.2239672],[6.9260425,47.2239574],[6.9260445,47.2239467],[6.9260437,47.2239361],[6.9260409,47.2239243],[6.9260362,47.2239134],[6.9260297,47.2239025],[6.9259357,47.2237812],[6.9258989,47.223727],[6.9258533,47.2236536],[6.9256634,47.2233217],[6.925576,47.2233483]]},"properties":{"natural":"scrub"}},
{"type":"Feature","geometry":{"type":"LineString","coordinates":[[6.9255975,47.2239426],[6.9255716,47.2239449],[6.925528,47.2239487],[6.9255368,47.2239888],[6.9255596,47.2240207],[6.9255931,47.2240562],[6.9256085,47.2240931],[6.925638,47.2241377],[6.9256603,47.2241593],[6.9256964,47.2241901],[6.9257332,47.224217],[6.925756,47.2241974],[6.9257731,47.2241748],[6.9257725,47.2241564],[6.9257567,47.2241148],[6.9256675,47.2240357],[6.9256414,47.2239861],[6.9255975,47.2239426]]},"properties":{"natural":"shingle"}},
{"type":"Feature","geometry":{"type":"LineString","coordinates":[[6.925479,47.2238427],[6.9254892,47.2238677],[6.925528,47.2239487],[6.9255716,47.2239449],[6.9255725,47.2238276],[6.925479,47.2238427]]},"properties":{"natural":"bare_rock"}},
{"type":"Feature","geometry":{"type":"LineString","coordinates":[[6.9343418,47.2308976],[6.934492,47.2309964],[6.9346073,47.2310219],[6.9349855,47.2310001],[6.9354174,47.2309946],[6.9356936,47.2309564],[6.9363883,47.2308726],[6.9371286,47.2308307],[6.9372909,47.2308289],[6.9375229,47.2308034],[6.9376905,47.2307924],[6.9382296,47.2307551],[6.9382431,47.2307168],[6.9381438,47.2306786],[6.9379355,47.2306206],[6.9377931,47.2306046],[6.9372386,47.2305903],[6.9366343,47.230622],[6.9359421,47.2307584],[6.9353838,47.230807],[6.9349093,47.2308402],[6.9343418,47.2308976]]},"properties":{"natural":"scrub"}},
{"type":"Feature","geometry":{"type":"LineString","coordinates":[[6.938229,47.2310494],[6.9383839,47.2311075],[6.938577,47.2310902],[6.9387192,47.2311503],[6.9388994,47.2311765],[6.9392288,47.2312733],[6.9390812,47.2311193],[6.9389927,47.2310693],[6.9388989,47.2310365],[6.9387687,47.2310247],[6.9386414,47.2310301],[6.9385757,47.2310511],[6.9384013,47.2310593],[6.938229,47.2310494]]},"properties":{"natural":"grassland"}},
{"type":"Feature","geometry":{"type":"LineString","coordinates":[[6.9405866,47.2320936],[6.9407735,47.2324113],[6.9411306,47.2327398],[6.9414865,47.2333438],[6.94162,47.233498],[6.9417541,47.2335399],[6.9416857,47.2333368],[6.9414228,47.2328815],[6.9411197,47.2324389],[6.9408944,47.2323132],[6.9405866,47.2320936]]},"properties":{"natural":"grassland"}},
{"type":"Feature","geometry":{"type":"LineString","coordinates":[[6.9323368,47.2307515],[6.9323811,47.230817],[6.9324321,47.2308434],[6.9325206,47.2308698],[6.9325769,47.2308771],[6.9326292,47.2308917],[6.9327164,47.2308981],[6.9328116,47.2308881],[6.9328599,47.2308726],[6.9328572,47.2308562],[6.9327673,47.2308198],[6.9326788,47.2307806],[6.9326131,47.2307715],[6.9325635,47.230746],[6.9324683,47.2306995],[6.932416,47.2306777],[6.9323784,47.2306886],[6.9323489,47.2307168],[6.9323368,47.2307515]]},"properties":{"natural":"grassland","place":"islet"}},
{"type":"Feature","geometry":{"type":"LineString","coordinates":[[6.9312143,47.2303699],[6.9313404,47.2304327],[6.9314718,47.2304764],[6.931563,47.2305156],[6.931622,47.2305547],[6.9317253,47.2306012],[6.9318835,47.2306522],[6.9320324,47.230674],[6.9321638,47.2306913],[6.9322376,47.230695],[6.9322617,47.2306877],[6.9322778,47.2306613],[6.9322591,47.2306322],[6.9321437,47.2305757],[6.9319265,47.2304956],[6.9318178,47.2304691],[6.9316649,47.2304318],[6.9315389,47.2303881],[6.9313766,47.2303289],[6.9313002,47.2303025],[6.9312251,47.2303016],[6.9311942,47.2303234],[6.9312143,47.2303699]]},"properties":{"natural":"grassland","place":"islet"}},
{"type":"Feature","geometry":{"type":"LineString","coordinates":[[6.94221,47.2344031],[6.9422409,47.2344751],[6.9422905,47.2345324],[6.9423147,47.2345443],[6.942367,47.2345534],[6.9424126,47.2345297],[6.9424139,47.2345106],[6.9424072,47.2344432],[6.9423844,47.2343722],[6.9423978,47.2343403],[6.9423991,47.2343075],[6.9423683,47.2342847],[6.94232,47.2342511],[6.9422959,47.2342492],[6.9422851,47.2342711],[6.9422798,47.2343075],[6.9422489,47.2343157],[6.9422328,47.2343667],[6.94221,47.2344031]]},"properties":{"natural":"grassland","place":"islet"}},
{"type":"Feature","geometry":{"type":"LineString","coordinates":[[6.9551188,47.2439277],[6.9550826,47.2439578],[6.9550545,47.2439946],[6.955029,47.2440361],[6.9550337,47.2440433],[6.9550612,47.2440493],[6.9551175,47.2440356],[6.9551651,47.2440138],[6.9552107,47.2439974],[6.9552275,47.2439792],[6.9552235,47.2439591],[6.9552335,47.2439355],[6.9552489,47.243917],[6.9552426,47.2439106],[6.9552054,47.2439163],[6.9551712,47.2439182],[6.9551188,47.2439277]]},"properties":{"natural":"grassland","place":"islet"}},
{"type":"Feature","geometry":{"type":"LineString","coordinates":[[6.9552127,47.2437939],[6.9551812,47.2438166],[6.9551591,47.2438435],[6.9551269,47.2438936],[6.9551416,47.2439022],[6.9551913,47.2438831],[6.9552275,47.2438603],[6.9552429,47.2438471],[6.9552617,47.2438189],[6.9552523,47.2438044],[6.9552349,47.2437943],[6.9552127,47.2437939]]},"properties":{"natural":"grassland","place":"islet"}},
{"type":"Feature","geometry":{"type":"LineString","coordinates":[[6.9552241,47.2437251],[6.9552664,47.2437097],[6.9553019,47.2436874],[6.9553093,47.2436714],[6.955316,47.2436569],[6.9553294,47.2436482],[6.9553556,47.2436213],[6.9553743,47.2435854],[6.9553998,47.2435672],[6.9554199,47.2435412],[6.9554219,47.2435116],[6.9554206,47.2434757],[6.9554139,47.2434456],[6.9554172,47.2434283],[6.9554025,47.2434183],[6.9553703,47.2434124],[6.9553381,47.2434192],[6.9553227,47.2434383],[6.9553086,47.2434743],[6.95531,47.2434893],[6.9552838,47.2435007],[6.9552509,47.2435189],[6.9552416,47.2435394],[6.9552489,47.2435594],[6.9552697,47.2435822],[6.9552751,47.243599],[6.9552691,47.2436223],[6.9552496,47.2436423],[6.9552141,47.2436682],[6.9551986,47.2436883],[6.9551946,47.2437097],[6.9552060000000008,47.2437229],[6.9552241,47.2437251]]},"properties":{"natural":"grassland","place":"islet"}},
{"type":"Feature","geometry":{"type":"LineString","coordinates":[[6.9428202,47.2370411],[6.9427867,47.2370885],[6.9427559,47.2371603],[6.942725,47.2372733],[6.9427049,47.2373698],[6.9426995,47.2374709],[6.9427163,47.2375246],[6.9427787,47.2375738],[6.9428283,47.2376111],[6.94289,47.2376548],[6.9428954,47.2377395],[6.9429503,47.2377923],[6.9429678,47.2377909],[6.942957,47.2377227],[6.9429409,47.2376776],[6.9429336,47.2376225],[6.9429369,47.237527300000007],[6.942945,47.2374882],[6.9429617,47.2374468],[6.9429899,47.2374381],[6.9429161,47.2372319],[6.9428202,47.2370411]]},"properties":{"natural":"grassland"}},
{"type":"Feature","geometry":{"type":"LineString","coordinates":[[6.943063,47.2377878],[6.9430523,47.237821],[6.9430536,47.2378474],[6.9430724,47.2378706],[6.9430965,47.2378907],[6.9432092,47.2379571],[6.9433011,47.2379913],[6.9432481,47.2378925],[6.943063,47.2377878]]},"properties":{"natural":"grassland"}},
{"type":"Feature","geometry":{"type":"LineString","coordinates":[[6.9499858,47.2594026],[6.9499785,47.259426],[6.950032,47.2594531],[6.9500401,47.2594736],[6.9500367,47.2594995],[6.9500535,47.2595473],[6.9500756,47.2595769],[6.9501105,47.2596001],[6.9501346,47.2596179],[6.9501366,47.2595833],[6.9501534,47.2595409],[6.9501915,47.259489],[6.9502111,47.2594777],[6.9502281,47.259471],[6.9502453,47.2594609],[6.9502533,47.2594399],[6.950254,47.2594099],[6.9502466,47.2593858],[6.9502331999999999,47.2593753],[6.9502138,47.2593657],[6.9502071,47.2593544],[6.950205,47.2593052],[6.9501963,47.2592879],[6.9501762,47.2592724],[6.9501427,47.2592606],[6.9501219,47.2592606],[6.9500964,47.2592743],[6.9500589,47.2592997],[6.95003,47.2593125],[6.9499911,47.2593298],[6.9499697,47.2593635],[6.9499717,47.2593707],[6.9499831,47.2593821],[6.9499858,47.2594026]]},"properties":{"natural":"grassland"}},
{"type":"Feature","geometry":{"type":"LineString","coordinates":[[6.9499785,47.259426],[6.949971,47.2594499],[6.949965,47.2594904],[6.9499677,47.2595364],[6.9499724,47.2595828],[6.9499905,47.2596215],[6.950026,47.2596661],[6.9500468,47.2596925],[6.9500548,47.2597075],[6.9500703,47.2597157],[6.9500884,47.2597143],[6.9501098,47.2596779],[6.9501279,47.2596447],[6.9501346,47.2596179],[6.9501105,47.2596001],[6.9500756,47.2595769],[6.9500535,47.2595473],[6.9500367,47.2594995],[6.9500401,47.2594736],[6.950032,47.2594531],[6.9499785,47.259426]]},"properties":{"leaf_cycle":"deciduous","leaf_type":"broadleaved","natural":"wood"}},
{"type":"Feature","geometry":{"type":"LineString","coordinates":[[6.95037,47.2600197],[6.9503734,47.2600643],[6.9503915,47.260103],[6.9504143,47.260133],[6.9504478,47.2601631],[6.9505108,47.2602254],[6.9505262,47.2602336],[6.950541,47.2602363],[6.9505551,47.2602309],[6.9505591,47.2602195],[6.950543,47.2601471],[6.9505289,47.2600834],[6.9505115,47.2600452],[6.9504954,47.2600142],[6.9504746,47.2599801],[6.9504545,47.2599601],[6.950427,47.2599423],[6.9503955,47.2599291],[6.9503807,47.2599273],[6.9503723,47.2599275],[6.9503663,47.259933],[6.9503646,47.2599428],[6.9503673,47.2599633],[6.95037,47.2600197]]},"properties":{"leaf_cycle":"deciduous","leaf_type":"broadleaved","natural":"wood","place":"islet"}},
{"type":"Feature","geometry":{"type":"LineString","coordinates":[[6.9501936,47.2599],[6.9501762,47.2599169],[6.9501742,47.2599382],[6.950191,47.2599665],[6.9502151,47.2599942],[6.9502473,47.2600165],[6.9502694,47.2600279],[6.9502902,47.2600347],[6.9503083,47.2600343],[6.9503237,47.2600265],[6.9503298,47.2600138],[6.9503291,47.2599897],[6.9503204,47.2599614],[6.9503029,47.259931],[6.9502862,47.2599132],[6.9502594,47.2598982],[6.9502191,47.2598932],[6.9501936,47.2599]]},"properties":{"leaf_cycle":"deciduous","leaf_type":"broadleaved","natural":"scrub","place":"islet"}},
{"type":"Feature","geometry":{"type":"LineString","coordinates":[[6.9504129,47.2598295],[6.950488,47.2598536],[6.9505276,47.2598814],[6.9505443,47.2598641],[6.9505732,47.25986],[6.9506315,47.2598704],[6.9507147,47.259915],[6.9508045,47.2599815],[6.9508957,47.2600174],[6.9509507,47.2600593],[6.9510037,47.2601294],[6.9510546,47.2602468],[6.9510788,47.2602563],[6.9510359,47.260047900000007],[6.9509319,47.2597216],[6.9508984,47.2596379],[6.9508629,47.2595692],[6.9507841,47.2594466],[6.9507435,47.2593921],[6.9506744,47.2593261],[6.9506107,47.2592979],[6.9505477,47.2592938],[6.9504932,47.2593112],[6.9504552,47.2593439],[6.9504129,47.2594062],[6.950376,47.2594832],[6.950359,47.2595451],[6.9503633,47.2595919],[6.950376,47.2596552],[6.9503693,47.2597089],[6.950368,47.2597685],[6.9503935,47.259814],[6.9504129,47.2598295]]},"properties":{"natural":"grassland"}},
{"type":"Feature","geometry":{"type":"LineString","coordinates":[[6.9505276,47.2598814],[6.9505443,47.2598641],[6.9505732,47.25986],[6.9506315,47.2598704],[6.9507147,47.259915],[6.9508045,47.2599815],[6.9508957,47.2600174],[6.9509507,47.2600593],[6.9510037,47.2601294],[6.9510546,47.2602468],[6.9510788,47.2602563],[6.9511686,47.2606941],[6.9511633,47.2607091],[6.9511349,47.2607075],[6.951113,47.2606923],[6.9510526,47.2606063],[6.9510312,47.2605517],[6.9509882,47.2604984],[6.950938,47.2604734],[6.9508964,47.2604593],[6.9507907,47.2603871],[6.9507502,47.2603428],[6.9507093,47.2602773],[6.9506811,47.2602113],[6.9506583,47.2601571],[6.9506436,47.2600998],[6.9506329,47.2600543],[6.950606,47.2600074],[6.9505852,47.2599619],[6.9505531,47.2599223],[6.9505276,47.2598814]]},"properties":{"leaf_cycle":"deciduous","leaf_type":"broadleaved","natural":"wood"}},
{"type":"Feature","geometry":{"type":"LineString","coordinates":[[6.9499911,47.2593298],[6.9499697,47.2593635],[6.9499717,47.2593707],[6.9499831,47.2593821],[6.9499858,47.2594026],[6.9499785,47.259426],[6.949971,47.2594499],[6.949965,47.2594904],[6.9499677,47.2595364],[6.9499724,47.2595828],[6.9499905,47.2596215],[6.950026,47.2596661],[6.9500468,47.2596925],[6.9500548,47.2597075],[6.9500703,47.2597157],[6.9500884,47.2597143],[6.9501098,47.2596779],[6.9501279,47.2596447],[6.9501346,47.2596179],[6.9501366,47.2595833],[6.9501534,47.2595409],[6.9501883,47.2594909],[6.9501915,47.259489],[6.9502111,47.2594777],[6.9502252,47.2594727],[6.9502281,47.259471],[6.9502453,47.2594609],[6.9502533,47.2594399],[6.950254,47.2594099],[6.9502466,47.2593858],[6.9502331999999999,47.2593753],[6.9502138,47.2593657],[6.9502071,47.2593544],[6.950205,47.2593052],[6.9501963,47.2592879],[6.9501762,47.2592724],[6.9501427,47.2592606],[6.9501219,47.2592606],[6.9500964,47.2592743],[6.9500589,47.2592997],[6.95003,47.2593125],[6.9499911,47.2593298]]},"properties":{"place":"islet"}},
{"type":"Feature","geometry":{"type":"LineString","coordinates":[[6.9504932,47.2593112],[6.9504552,47.2593439],[6.9504129,47.2594062],[6.950376,47.2594832],[6.950359,47.2595451],[6.9503633,47.2595919],[6.950376,47.2596552],[6.9503693,47.2597089],[6.950368,47.2597685],[6.9503935,47.259814],[6.9504129,47.2598295],[6.950488,47.2598536],[6.9505276,47.2598814],[6.9505531,47.2599223],[6.9505852,47.2599619],[6.950606,47.2600074],[6.9506329,47.2600543],[6.9506436,47.2600998],[6.9506583,47.2601571],[6.9506811,47.2602113],[6.9507093,47.2602773],[6.9507502,47.2603428],[6.9507907,47.2603871],[6.9508964,47.2604593],[6.950938,47.2604734],[6.9509882,47.2604984],[6.9510312,47.2605517],[6.9510526,47.2606063],[6.951113,47.2606923],[6.9511349,47.2607075],[6.9511633,47.2607091],[6.9511686,47.2606941],[6.9510788,47.2602563],[6.9510359,47.260047900000007],[6.9509319,47.2597216],[6.9508984,47.2596379],[6.9508629,47.2595692],[6.9507841,47.2594466],[6.9507435,47.2593921],[6.9506744,47.2593261],[6.9506107,47.2592979],[6.9505477,47.2592938],[6.9504932,47.2593112]]},"properties":{"name":"L'Île","place":"islet","source":"cadastre-dgi-fr source : Direction Générale des Impôts - Cadastre. Mise à jour : 2010"}},
{"type":"Feature","geometry":{"type":"LineString","coordinates":[[6.9285563,47.2289337],[6.928558,47.2289487],[6.928567,47.2289606],[6.9286642,47.2290052],[6.9287829,47.229058],[6.9288875,47.2290995],[6.9289358,47.2291145],[6.928966,47.2291168],[6.9289921,47.2291133],[6.9288292,47.2290464],[6.9286874,47.22899],[6.9285563,47.2289337]]},"properties":{"natural":"shingle"}},
{"type":"Feature","geometry":{"type":"LineString","coordinates":[[6.9282659,47.2288134],[6.9282687,47.228823],[6.9283296,47.2288495],[6.9284787,47.2289204],[6.9284785,47.2289105],[6.928339,47.2288426],[6.9282659,47.2288134]]},"properties":{"natural":"shingle"}},
{"type":"Feature","geometry":{"type":"LineString","coordinates":[[6.9280116,47.228693],[6.9280641,47.2286792],[6.9280761,47.2287056],[6.9280889,47.2287288],[6.9280989,47.2287397],[6.928114,47.2287525],[6.928208,47.2287901],[6.9282104,47.2287998],[6.9281097,47.2287611],[6.9280882,47.2287479],[6.9280116,47.228693]]},"properties":{"natural":"shingle"}},
{"type":"Feature","geometry":{"type":"LineString","coordinates":[[6.9540688,47.2561249],[6.9540996,47.2561304],[6.9541251,47.2561299],[6.9541486,47.2561222],[6.9541841,47.2560995],[6.9542304,47.2560635],[6.9542632,47.2560348],[6.9542887,47.2560043],[6.9542954,47.2559875],[6.9542934,47.2559702],[6.954284,47.2559588],[6.9542626,47.2559506],[6.9542391,47.2559488],[6.9542163,47.2559524],[6.9541928,47.2559606],[6.9541596,47.2559791],[6.9541284,47.2560009],[6.9541013,47.2560228],[6.954058,47.2560612],[6.9540446,47.2560812],[6.9540426,47.2560917],[6.954044,47.2561058],[6.954052,47.2561154],[6.9540688,47.2561249]]},"properties":{"natural":"water","water":"pond"}},
{"type":"Feature","geometry":{"type":"LineString","coordinates":[[6.9506149,47.261708],[6.9507737,47.2617025],[6.9509202,47.2616953],[6.9509648,47.2615834],[6.9509903,47.2614641],[6.9509809,47.2613767],[6.95095,47.261243],[6.9509085,47.2610928],[6.9508494,47.2609567],[6.9507491,47.2609841],[6.9507542,47.2612248],[6.9505906,47.2613249],[6.9506149,47.261708]]},"properties":{"leaf_cycle":"deciduous","leaf_type":"broadleaved","natural":"scrub"}},
{"type":"Feature","geometry":{"type":"LineString","coordinates":[[6.9503046,47.2640852],[6.9503251,47.2640912],[6.950368,47.2641481],[6.9503921,47.2641554],[6.9504129,47.2641431],[6.9504136,47.2640157],[6.9504384,47.2639274],[6.9504566,47.2638239],[6.9503854,47.2639201],[6.9503385,47.2640075],[6.9503046,47.2640852]]},"properties":{"natural":"grassland"}},
{"type":"Feature","geometry":{"type":"LineString","coordinates":[[6.9498503,47.2595564],[6.9498121,47.2594139],[6.9497933,47.2591036],[6.9498664,47.2590247],[6.9498792,47.258943],[6.9496612,47.2589894],[6.9496639,47.2588301],[6.9495566,47.2587509],[6.9495754,47.2586426],[6.9494922,47.2585243],[6.9493031,47.2585388],[6.9492111,47.2586839],[6.9493801,47.2588556],[6.9492253,47.2590704],[6.9494623,47.2595746],[6.9498503,47.2595564]]},"properties":{"natural":"scrub"}},
{"type":"Feature","geometry":{"type":"LineString","coordinates":[[6.9499849,47.2483795],[6.950116,47.2484828],[6.949942,47.2485805],[6.9505099,47.2489045],[6.9507596,47.2488152],[6.950891,47.2487615],[6.9509467,47.2487351],[6.950991,47.2487113],[6.9510181,47.2486923],[6.9510359,47.2486761],[6.9510409,47.2486707],[6.9510576,47.2486509],[6.9510731,47.2486256],[6.9510861,47.2486008],[6.9511388,47.2485141],[6.9511575,47.2484867],[6.9511804,47.2484606],[6.9512122,47.2484315],[6.9512404,47.2484133],[6.9513738,47.2483386],[6.9514617,47.2482804],[6.9515059,47.248244],[6.9515711,47.2481842],[6.9516072,47.2481566],[6.9516501,47.248132],[6.9517077,47.248106],[6.9517701,47.2480851],[6.9517856,47.2480799],[6.951232,47.247744],[6.9508427,47.2479103],[6.9503143,47.2482044],[6.9499849,47.2483795]]},"properties":{"name":"Camping FSCK","tourism":"camp_site"}},
{"type":"Feature","geometry":{"type":"LineString","coordinates":[[6.9455864,47.2578427],[6.9456755,47.2580209],[6.9457834,47.2581352],[6.9462178,47.2582102],[6.9462164,47.2581558],[6.9462158,47.2581322],[6.9462092,47.2580628],[6.9461978,47.2580127],[6.946183,47.2579717],[6.9461428,47.2579044],[6.9460985,47.2578508],[6.9460342,47.2577975],[6.9459752,47.2577615],[6.9455864,47.2578427]]},"properties":{"leisure":"garden"}},
{"type":"Feature","geometry":{"type":"LineString","coordinates":[[6.9429905,47.2585261],[6.9431367,47.2590522],[6.9438049,47.258978],[6.9437419,47.2588616],[6.9437657,47.2588105],[6.9437765,47.2587668],[6.9437791,47.2587136],[6.943774,47.2586645],[6.9437644,47.2586062],[6.943749,47.2585402],[6.9437188,47.2584478],[6.9429905,47.2585261]]},"properties":{"leisure":"garden"}},
{"type":"Feature","geometry":{"type":"LineString","coordinates":[[6.9477314,47.2479212],[6.9478977,47.247853],[6.9479419,47.2477974],[6.9480291,47.2477519],[6.9481672,47.2477437],[6.9481914,47.2477292],[6.9481578,47.2476909],[6.9479687,47.2477091],[6.9478132,47.2477383],[6.9477649,47.2477319],[6.947789,47.24767],[6.9477649,47.2476354],[6.9477139,47.2476254],[6.9476201,47.2476481],[6.9475771,47.2477055],[6.9475584,47.2477683],[6.9475999,47.2478621],[6.9476295,47.247913],[6.9477314,47.2479212]]},"properties":{"natural":"scree"}},
{"type":"Feature","geometry":{"type":"LineString","coordinates":[[6.9490376,47.2476154],[6.9491355,47.2476545],[6.9493179,47.24767],[6.9494574,47.2476263],[6.949558,47.2475553],[6.9496974,47.2474988],[6.9497712,47.2474488],[6.9497377,47.2474096],[6.9496237,47.247395],[6.9495606,47.2473513],[6.9495794,47.2473104],[6.9496183,47.2472639],[6.9495741,47.2472348],[6.9494748,47.2472421],[6.9494627,47.2472048],[6.9494788,47.2471638],[6.9494212,47.2471447],[6.9493219,47.247152],[6.9492656,47.2471957],[6.9492844,47.2472749],[6.9492736,47.2473222],[6.9491744,47.247345],[6.9491677,47.2473923],[6.9492133,47.2474488],[6.9492066,47.2475006],[6.9491529,47.2475107],[6.9491033,47.247487],[6.9490591,47.2474742],[6.9490188,47.247497],[6.9490376,47.2476154]]},"properties":{"natural":"scree"}},
{"type":"Feature","geometry":{"type":"LineString","coordinates":[[6.9276376,47.2279483],[6.927625,47.2279462],[6.9276148,47.2279415],[6.9276066,47.2279347],[6.9276014,47.2279274],[6.9275955,47.2279183],[6.9275908,47.2279096],[6.927586,47.2278969],[6.9275845,47.2278843],[6.927586,47.2278718],[6.9275883,47.2278651],[6.9275937,47.2278596],[6.9276034,47.2278582],[6.9276175,47.2278614],[6.9276321,47.2278706],[6.9276441,47.2278818],[6.927652,47.2278928],[6.9276565,47.2279029],[6.9276599,47.2279143],[6.9276617,47.2279246],[6.9276599,47.227933],[6.9276552,47.2279405],[6.9276468,47.2279463],[6.9276376,47.2279483]]},"properties":{"natural":"water","water":"pond"}},
{"type":"Feature","geometry":{"type":"LineString","coordinates":[[6.9551317,47.2426162],[6.9552731,47.2426681],[6.9553187,47.2426076],[6.9553022,47.2425755],[6.9552917,47.2425531],[6.9552065,47.2425216],[6.9551317,47.2426162]]},"properties":{"access":"customers","amenity":"parking","fee":"no","maxstay":"unlimited","parking":"surface","surface":"gravel"}},
{"type":"Feature","geometry":{"type":"LineString","coordinates":[[6.9543182,47.2427375],[6.9543139,47.2427689],[6.9543447,47.2427626],[6.9543754,47.2427585],[6.9544195,47.2427591],[6.954393,47.2427316],[6.9543779,47.2427175],[6.9543611,47.2427348],[6.9543497,47.2427396],[6.9543182,47.2427375]]},"properties":{"natural":"bare_rock"}},
{"type":"Feature","geometry":{"type":"LineString","coordinates":[[6.9546507,47.2424378],[6.9547541,47.2424807],[6.9547555,47.2424788],[6.9548116,47.242408],[6.9547543,47.2423983],[6.9544831,47.2423522],[6.9544634,47.2423901],[6.9546507,47.2424378]]},"properties":{"leisure":"outdoor_seating"}},
{"type":"Feature","geometry":{"type":"LineString","coordinates":[[6.9589339,47.2456066],[6.95896,47.2455358],[6.9589339,47.2454737],[6.9589926,47.2454206],[6.9590187,47.2453364],[6.9590383,47.2452699],[6.9590644,47.2452079],[6.9591754,47.2452035],[6.9592406,47.2452389],[6.9593255,47.2453585],[6.9593712,47.2454427],[6.9594234,47.2455269]]},"properties":{"natural":"cliff"}},
{"type":"Feature","geometry":{"type":"LineString","coordinates":[[6.9591754,47.2452035],[6.9592145,47.2451104],[6.9593842,47.2450129],[6.9594495,47.2449509],[6.9594887,47.2448845],[6.9595213,47.2448446]]},"properties":{"natural":"cliff"}},
{"type":"Feature","geometry":{"type":"LineString","coordinates":[[6.9590905,47.2441844],[6.9592472,47.2440382],[6.9593842,47.2439762],[6.959443,47.2439186],[6.9594756,47.2438344]]},"properties":{"natural":"cliff"}},
{"type":"Feature","geometry":{"type":"LineString","coordinates":[[6.9585227,47.2431919],[6.9585358,47.2430679],[6.9585097,47.2429482],[6.9584248,47.2428375],[6.9583661,47.2427311],[6.9582421,47.2426071],[6.9584379,47.2425716],[6.9587512,47.2427666],[6.9590514,47.242966],[6.9592341,47.2432097]]},"properties":{"natural":"cliff"}},
{"type":"Feature","geometry":{"type":"LineString","coordinates":[[6.9457109,47.2358885],[6.9456876,47.2358532],[6.9456674,47.2358113],[6.945652,47.2357681],[6.9456413,47.2357281],[6.9456386,47.2357048],[6.9456446,47.2356766],[6.9456581,47.235652],[6.9456849,47.2356306],[6.9457244,47.2356187],[6.945767,47.2356093],[6.945822,47.2355867],[6.9459491,47.2355271],[6.9460081,47.2355002],[6.9460939,47.2354744],[6.9461524,47.2354623],[6.9462327,47.2354407],[6.9463092,47.2354111],[6.9463601,47.2353957],[6.9464214,47.2353832],[6.9465291,47.2353624],[6.9466403,47.2353375],[6.9467474,47.2353051]]},"properties":{"natural":"cliff"}},
{"type":"Feature","geometry":{"type":"LineString","coordinates":[[6.9447438,47.2359008],[6.9447495,47.2357912],[6.944738,47.2355877],[6.944836,47.2354781],[6.9448129,47.2353725],[6.9450089,47.2351924],[6.9447957,47.2352237],[6.9447726,47.2351611],[6.9451011,47.2351102]]},"properties":{"natural":"cliff"}},
{"type":"Feature","geometry":{"type":"LineString","coordinates":[[6.9501826,47.265583],[6.950149,47.2657227],[6.9503314,47.2657385],[6.9504491,47.2654265],[6.9502728,47.2653826],[6.9501826,47.265583]]},"properties":{"leaf_cycle":"deciduous","leaf_type":"broadleaved","natural":"scrub"}},
{"type":"Feature","geometry":{"type":"LineString","coordinates":[[6.9442143,47.2543299],[6.9441506,47.2543932],[6.9440997,47.2544501],[6.94405,47.2545156],[6.9440058,47.2545748],[6.9439676,47.2546353],[6.9439363,47.2546976],[6.9439166,47.2547614],[6.9439059,47.2548137],[6.9439017,47.25487],[6.9439019,47.2549252],[6.9439072,47.2549771],[6.9439193,47.2550285],[6.9439421,47.2550899],[6.9439676,47.2551437],[6.943991,47.2551865],[6.944022,47.2552334],[6.9440541,47.2552729],[6.944097,47.2553121],[6.9441526,47.2553508],[6.9442199,47.2553928],[6.944333,47.2554527],[6.9445671,47.2555767],[6.9446361,47.2556141],[6.9447199,47.2555146],[6.9446153,47.255485],[6.944506,47.2554495],[6.9443746,47.2554008],[6.9442827,47.2553581],[6.9441956,47.2553048],[6.9441251,47.2552456],[6.9440795,47.2551847],[6.944048,47.2551168],[6.9440266,47.2550609],[6.9440085,47.255004],[6.9439991,47.2549521],[6.943993,47.2548938],[6.9439971,47.2548283],[6.9440104,47.2547684],[6.9440319,47.2547063],[6.9440614,47.2546449],[6.9440956,47.2545903],[6.9441272,47.2545461],[6.944166,47.2544979],[6.9442291,47.2544346],[6.9443008,47.2543668],[6.9442143,47.2543299]]},"properties":{"leaf_cycle":"deciduous","leaf_type":"broadleaved","natural":"scrub"}},
{"type":"Feature","geometry":{"type":"LineString","coordinates":[[6.943991,47.2551865],[6.9435619,47.255414],[6.9439146,47.255709],[6.9441012,47.2555946],[6.944333,47.2554527],[6.9442199,47.2553928],[6.9441526,47.2553508],[6.944097,47.2553121],[6.9440541,47.2552729],[6.944022,47.2552334],[6.943991,47.2551865]]},"properties":{"leisure":"garden"}},
{"type":"Feature","geometry":{"type":"LineString","coordinates":[[6.9413866,47.254897],[6.9411392,47.2552306],[6.9413222,47.2553876],[6.9421598,47.2553623],[6.9421517,47.2553244],[6.9421436,47.2552559],[6.9421304,47.255124],[6.9421121,47.2550322],[6.9420994,47.2549707],[6.942086,47.2549257],[6.9420686,47.2548831],[6.9420367,47.2548219],[6.9419938,47.2547536],[6.9417674,47.2547977],[6.9413866,47.254897]]},"properties":{"leisure":"garden"}},
{"type":"Feature","geometry":{"type":"LineString","coordinates":[[6.9479607,47.2574557],[6.9481609,47.2574523],[6.948237,47.2574464],[6.9483867,47.2574253],[6.9483919,47.2574221],[6.9483932,47.257417],[6.94839,47.2574129],[6.9483847,47.2574104],[6.9483322,47.2574111],[6.9482785,47.2574024],[6.9482517,47.2573902],[6.9482343,47.2573733],[6.9482202,47.2573483],[6.9482202,47.2573214],[6.9482343,47.2572709],[6.9483174,47.257088],[6.9483127,47.2570702],[6.948294,47.2570597],[6.9482631,47.2570529],[6.9482229,47.2570556],[6.948184,47.2570679],[6.9481545,47.2570884],[6.9481317,47.2571221],[6.9481149,47.2571653],[6.9480405,47.257341],[6.948017,47.2573815],[6.9479983,47.2574033],[6.9479641,47.257432],[6.9479506,47.2574388],[6.947947,47.2574436],[6.947946,47.2574489],[6.9479483,47.2574527],[6.947954,47.2574548],[6.9479607,47.2574557]]},"properties":{"leaf_cycle":"deciduous","leaf_type":"broadleaved","natural":"scrub"}},
{"type":"Feature","geometry":{"type":"LineString","coordinates":[[6.9356319,47.2565828],[6.9357312,47.2566037],[6.9357681,47.2566137],[6.9358049,47.2566274],[6.9358358,47.2566442],[6.935868,47.2566638],[6.9359213,47.2567007],[6.9359575,47.2567282],[6.9359833,47.2567457],[6.9360252,47.256766],[6.9360658,47.2567758],[6.9361067,47.2567803],[6.9361576,47.256781],[6.9361972,47.2567767],[6.9362388,47.2567628],[6.9362877,47.2567348],[6.9365184,47.2565892],[6.936623,47.25654],[6.936672,47.2565229],[6.9367276,47.2565081],[6.9367779,47.2565004],[6.9368349,47.2564936],[6.9369469,47.2564824],[6.9370129,47.2564722],[6.9370706,47.2564574],[6.9371286,47.2564371],[6.9380057,47.2560949]]},"properties":{"leaf_cycle":"mixed","leaf_type":"mixed","natural":"tree_row"}},
{"type":"Feature","geometry":{"type":"LineString","coordinates":[[6.9308281,47.2560995],[6.9307012,47.2561948],[6.9329309,47.257625],[6.9330919,47.2575085],[6.9308281,47.2560995]]},"properties":{"leaf_cycle":"deciduous","leaf_type":"broadleaved","natural":"scrub"}},
{"type":"Feature","geometry":{"type":"LineString","coordinates":[[6.934036,47.2580765],[6.9338536,47.2582075],[6.9351572,47.2589357],[6.9352591,47.2588629],[6.934036,47.2580765]]},"properties":{"leaf_cycle":"deciduous","leaf_type":"broadleaved","natural":"scrub"}},
{"type":"Feature","geometry":{"type":"LineString","coordinates":[[6.9427758,47.2636698],[6.9428028,47.2637654],[6.9438194,47.2643241],[6.9454933,47.2653363],[6.9455094,47.2650924],[6.9441128,47.264249],[6.9440058,47.2642709],[6.9429798,47.2636348],[6.9427758,47.2636698]]},"properties":{"leaf_cycle":"deciduous","leaf_type":"broadleaved","natural":"scrub"}},
{"type":"Feature","geometry":{"type":"LineString","coordinates":[[6.9400074,47.261964999999999],[6.9403435,47.2619634],[6.9393696,47.2613753],[6.9392092,47.2615122],[6.9400074,47.261964999999999]]},"properties":{"leaf_cycle":"deciduous","leaf_type":"broadleaved","natural":"scrub"}},
{"type":"Feature","geometry":{"type":"LineString","coordinates":[[6.9480841,47.2642327],[6.9482812,47.2643601],[6.9482665,47.2644957],[6.9484207,47.2645458],[6.9485682,47.2644857],[6.9485924,47.2643779],[6.9486058,47.2641226],[6.9484998,47.2641199],[6.9483711,47.2639688],[6.9483161,47.2639551],[6.9481109,47.2641053],[6.9480841,47.2642327]]},"properties":{"leaf_cycle":"deciduous","leaf_type":"broadleaved","natural":"scrub"}},
{"type":"Feature","geometry":{"type":"LineString","coordinates":[[6.9494186,47.2656096],[6.9494356,47.2655259],[6.9494547,47.2654609],[6.9494838,47.2653842],[6.9495207,47.2653058],[6.949558,47.2652447],[6.9494937,47.2652248],[6.9492176,47.2653089],[6.9491255,47.2655638],[6.9494186,47.2656096]]},"properties":{"leisure":"garden"}},
{"type":"Feature","geometry":{"type":"LineString","coordinates":[[6.9162503,47.239181],[6.9164718,47.2393635],[6.9166327,47.2390904],[6.916361,47.2389862],[6.9162503,47.239181]]},"properties":{"leaf_cycle":"deciduous","leaf_type":"broadleaved","natural":"scrub"}},
{"type":"Feature","geometry":{"type":"LineString","coordinates":[[6.9282357,47.2548965],[6.9286636,47.2549953],[6.9288902,47.2548319],[6.928486,47.2544762],[6.9283522,47.2545233],[6.9283434,47.2545525],[6.9283336,47.254583],[6.9283137,47.2546322],[6.9282988,47.254669],[6.92828,47.2547168],[6.9282609,47.2547725],[6.9282471,47.254834],[6.9282357,47.2548965]]},"properties":{"leisure":"garden"}},
{"type":"Feature","geometry":{"type":"LineString","coordinates":[[6.928325,47.2539156],[6.9282141,47.2539141],[6.9281821,47.2540059],[6.9283015,47.2543618],[6.9282655,47.2545538],[6.9283522,47.2545233],[6.928486,47.2544762],[6.9289827,47.2543012],[6.928803,47.2541866],[6.928325,47.2539156]]},"properties":{"leaf_cycle":"mixed","leaf_type":"mixed","natural":"scrub"}},
{"type":"Feature","geometry":{"type":"LineString","coordinates":[[6.926664,47.2522731],[6.9265976,47.2523054],[6.9267089,47.2524156],[6.9267806,47.2525053],[6.9269756,47.252829],[6.9271025,47.2529745],[6.9275471,47.2532758],[6.927612,47.2532371],[6.927364,47.2530355],[6.9272378,47.2529279],[6.9271274,47.2528165],[6.9268492,47.2524789],[6.926664,47.2522731]]},"properties":{"leaf_cycle":"deciduous","leaf_type":"broadleaved","natural":"scrub"}},
{"type":"Feature","geometry":{"type":"LineString","coordinates":[[6.9150062,47.2390679],[6.9152302,47.2392303],[6.915021,47.2396976],[6.9163495,47.2400297],[6.9164718,47.2401976],[6.9172722,47.2404594],[6.9176155,47.2404448],[6.9183719,47.2406087],[6.9185878,47.2404275],[6.918632,47.2402678],[6.9184926,47.2402658],[6.918392,47.2402585],[6.9182888,47.2402467],[6.9181359,47.240223],[6.9178891,47.2401829],[6.9176732,47.2401429],[6.9174761,47.2401023],[6.9172253,47.24004],[6.9170281,47.2399807],[6.9168028,47.239907],[6.9166097,47.2398342],[6.9164615,47.2397723],[6.91629,47.239698],[6.9161296,47.2396257],[6.9159982,47.2395715],[6.915824,47.239512],[6.91562,47.2394577],[6.9154195,47.2394122],[6.9154053,47.2392738],[6.9154939,47.2392428],[6.916249,47.2394077],[6.9162798,47.2393394],[6.9150062,47.2390679]]},"properties":{"leaf_cycle":"deciduous","leaf_type":"broadleaved","natural":"scrub"}},
{"type":"Feature","geometry":{"type":"LineString","coordinates":[[6.9071119,47.2332946],[6.9076799,47.2335553],[6.9077683,47.2334665],[6.9072003,47.2332058],[6.9071119,47.2332946]]},"properties":{"leisure":"pitch","source":"data.gouv.fr:Le ministère des droits des femmes, de la ville, de la jeunesse et des sports - 11/2015","sport":"soccer"}},
{"type":"Feature","geometry":{"type":"LineString","coordinates":[[6.8926371,47.248963],[6.8934703,47.2490392],[6.8939799,47.2491703],[6.8947309,47.2495605],[6.8948201,47.249496],[6.8945567,47.2492779],[6.8940792,47.249054],[6.8935883,47.2489029],[6.8929634,47.2488391],[6.8913809,47.2476483],[6.8913584,47.2477566],[6.8926499,47.2487553],[6.8926371,47.248963]]},"properties":{"natural":"wood"}},
{"type":"Feature","geometry":{"type":"LineString","coordinates":[[6.9524743,47.2377824],[6.9529801,47.2380724],[6.9521796,47.2382376],[6.9520104,47.2379581],[6.9524743,47.2377824]]},"properties":{"natural":"bare_rock"}},
{"type":"Feature","geometry":{"type":"LineString","coordinates":[[6.955385,47.2423112],[6.9550359,47.2422063],[6.9548262,47.242021],[6.9544164,47.2420642],[6.9542401,47.2418476]]},"properties":{"natural":"cliff"}},
{"type":"Feature","geometry":{"type":"LineString","coordinates":[[6.9561568,47.2402141],[6.9559713,47.2402808],[6.9557081,47.2401763],[6.9552656,47.2401789],[6.9547452,47.2400328]]},"properties":{"natural":"cliff"}},
{"type":"Feature","geometry":{"type":"LineString","coordinates":[[6.9566326,47.2394471],[6.9565988,47.2395369],[6.956163,47.2395261],[6.9549787,47.2397774],[6.9547828,47.2395293]]},"properties":{"natural":"cliff"}},
{"type":"Feature","geometry":{"type":"LineString","coordinates":[[6.9520808,47.2396573],[6.9514028,47.239416],[6.9514438,47.2392633],[6.9507936,47.2388738],[6.9502668,47.2387141],[6.9503344,47.238539],[6.9495768,47.2383469],[6.9492688,47.2380847],[6.9483349,47.237676]]},"properties":{"natural":"cliff"}},
{"type":"Feature","geometry":{"type":"LineString","coordinates":[[6.9565178,47.2411916],[6.956328,47.2409929],[6.9562257,47.2406237],[6.9559494,47.2405146],[6.9545887,47.2405448]]},"properties":{"natural":"cliff"}},
{"type":"Feature","geometry":{"type":"LineString","coordinates":[[6.9510381,47.2395764],[6.950494,47.2391378],[6.9501664,47.2388621]]},"properties":{"natural":"cliff"}},
{"type":"Feature","geometry":{"type":"LineString","coordinates":[[6.9521232,47.2393516],[6.9519152,47.2389909],[6.9515101,47.238508],[6.9514009,47.2381747],[6.9510265,47.2379573],[6.9511346,47.2376924]]},"properties":{"natural":"cliff"}},
{"type":"Feature","geometry":{"type":"LineString","coordinates":[[6.9500292,47.23798],[6.9496141,47.2378793],[6.9495687,47.2377892]]},"properties":{"natural":"cliff"}},
{"type":"Feature","geometry":{"type":"LineString","coordinates":[[6.8898547,47.2281824],[6.8897903,47.2280895],[6.8895194,47.2280166],[6.8893906,47.227911],[6.8894041,47.2275285],[6.8896186,47.2275831],[6.8898573,47.2276869],[6.8899137,47.2276596],[6.8899378,47.2274902],[6.8901417,47.2272316],[6.8900076,47.2271405],[6.8897635,47.2272553],[6.8898547,47.2273718],[6.889565,47.2274866],[6.8894497,47.2274301],[6.8894094,47.2272625],[6.8893048,47.2272024],[6.889514,47.226962],[6.8898305,47.2269875],[6.8899727,47.2269365],[6.8899298,47.2268418],[6.8902275,47.2267015],[6.8903214,47.2265194],[6.8900532,47.2265194],[6.8897474,47.2263718],[6.8899888,47.2262571],[6.889624,47.2260677],[6.8894926,47.2260167],[6.889565,47.2258728],[6.8899566,47.2259802],[6.8900451,47.225942],[6.8902677,47.226013],[6.8905413,47.2260276],[6.8905896,47.2258199],[6.8906245,47.2257398],[6.8908364,47.2257817],[6.890831,47.2260039],[6.890721,47.226197],[6.8910858,47.2262862],[6.8911368,47.2263536],[6.8909973,47.2264392],[6.8909463,47.2265522],[6.8907747,47.2267416],[6.8907532,47.2268163],[6.8906513,47.2269092],[6.8906271,47.2270531],[6.8904555,47.2271879],[6.890249,47.2272298],[6.8901417,47.2273318],[6.8900451,47.2275649],[6.8899244,47.2280603],[6.8898922,47.2281642],[6.8898547,47.2281824]]},"properties":{"natural":"wood","source":"BDOrtho IGN - available 2023 at the latest"}},
{"type":"Feature","geometry":{"type":"LineString","coordinates":[[6.9291353,47.2507528],[6.92893,47.2503384],[6.929291,47.2502567],[6.9295122,47.2506783],[6.9291353,47.2507528]]},"properties":{"leisure":"pitch","sport":"equestrian"}},
{"type":"Feature","geometry":{"type":"MultiPolygon","coordinates":[[[[6.9518558,47.2620657],[6.9519789,47.2620652],[6.9519799,47.2621815],[6.9518566999999999,47.2621819],[6.9518558,47.2620657]]]]},"properties":{"addr:city":"Goumois","addr:housenumber":"16a","addr:postcode":"2354","addr:street":"Principale","building":"yes","tourism":"hotel"}},
{"type":"Feature","geometry":{"type":"MultiPolygon","coordinates":[[[[6.9449386,47.2602543],[6.9449596,47.2602283],[6.9449696,47.2602223],[6.9449896,47.2602173],[6.9450176,47.2602183],[6.9450486,47.2602363],[6.9450476,47.2602513],[6.9450396,47.2602693],[6.9450496,47.2603063],[6.9450236,47.2603213],[6.9450006,47.2603223],[6.9449846,47.2603183],[6.9449586,47.2603063],[6.9449406,47.2602843],[6.9449386,47.2602543]]]]},"properties":{"access":"private","leisure":"swimming_pool","source":"cadastre-dgi-fr source : Direction Générale des Impôts - Cadastre. Mise à jour : 2012"}},
{"type":"Feature","geometry":{"type":"MultiPolygon","coordinates":[[[[6.945412,47.261733],[6.945415,47.261726],[6.945425,47.26172],[6.945438,47.261716],[6.945454,47.261717],[6.945471,47.261718],[6.945487,47.261721],[6.945499,47.261728],[6.945507,47.261734],[6.945511,47.261742],[6.945509,47.26175],[6.945504,47.261755],[6.945496,47.261759],[6.945486,47.261761],[6.945478,47.26176],[6.945469,47.261758],[6.945467,47.261755],[6.94546,47.261751],[6.945452,47.261749],[6.945444,47.261747],[6.945435,47.261746],[6.945426,47.261745],[6.945417,47.261743],[6.945413,47.261739],[6.945412,47.261733]]]]},"properties":{"access":"private","leisure":"swimming_pool","source":"cadastre-dgi-fr source : Direction Générale des Impôts - Cadastre. Mise à jour : 2012"}},
{"type":"Feature","geometry":{"type":"MultiPolygon","coordinates":[[[[6.9435684,47.2586181],[6.9436292,47.2586115],[6.9436465,47.2586845],[6.9435858,47.2586912],[6.9435684,47.2586181]]]]},"properties":{"access":"private","leisure":"swimming_pool","source":"cadastre-dgi-fr source : Direction Générale des Impôts - Cadastre. Mise à jour : 2012"}},
{"type":"Feature","geometry":{"type":"MultiPolygon","coordinates":[[[[6.949466,47.2642201],[6.949468,47.2642111],[6.949473,47.2642021],[6.949483,47.2641951],[6.949495,47.2641901],[6.949508,47.2641891],[6.949521,47.2641891],[6.949534,47.2641931],[6.949544,47.2642001],[6.949551,47.2642081],[6.949554,47.2642171],[6.949552,47.2642261],[6.949547,47.2642351],[6.949537,47.2642421],[6.949526,47.2642461],[6.949512,47.2642481],[6.949499,47.2642471],[6.949486,47.2642431],[6.949476,47.2642371],[6.949469,47.2642291],[6.949466,47.2642201]]]]},"properties":{"leisure":"swimming_pool","source":"cadastre-dgi-fr source : Direction Générale des Impôts - Cadastre. Mise à jour : 2012"}},
{"type":"Feature","geometry":{"type":"MultiPolygon","coordinates":[[[[6.9455807,47.2524495],[6.9456094,47.2524092],[6.9456697,47.252429],[6.945641,47.2524693],[6.9455807,47.2524495]]]]},"properties":{"building":"yes","tourism":"chalet"}},
{"type":"Feature","geometry":{"type":"MultiPolygon","coordinates":[[[[6.9454573,47.2525345],[6.9455099,47.2525068],[6.9455506,47.2525423],[6.9454981,47.2525701],[6.9454573,47.2525345]]]]},"properties":{"building":"yes","tourism":"chalet"}},
{"type":"Feature","geometry":{"type":"MultiPolygon","coordinates":[[[[6.9457345,47.2523421],[6.9457923,47.252317],[6.9458287,47.2523557],[6.9457709,47.2523808],[6.9457345,47.2523421]]]]},"properties":{"building":"yes","tourism":"chalet"}},
{"type":"Feature","geometry":{"type":"MultiPolygon","coordinates":[[[[6.94601,47.2523619],[6.9460117,47.2523207],[6.9460905,47.2523222],[6.9460888,47.2523635],[6.94601,47.2523619]]]]},"properties":{"building":"yes","tourism":"chalet"}},
{"type":"Feature","geometry":{"type":"MultiPolygon","coordinates":[[[[6.9461584,47.2523107],[6.9462269,47.2523107],[6.9462269,47.2523519],[6.9461584,47.2523519],[6.9461584,47.2523107]]]]},"properties":{"building":"yes","tourism":"chalet"}},
{"type":"Feature","geometry":{"type":"MultiPolygon","coordinates":[[[[6.94824,47.2399927],[6.9485548,47.2400744],[6.9488901,47.2402853],[6.9493296,47.2405726],[6.9501087,47.2412633],[6.9504189,47.2415585],[6.9509071,47.2418541],[6.9509916,47.2419257],[6.9511297,47.242049],[6.9514623,47.2422347],[6.9516626,47.242328],[6.9514467,47.2423283],[6.9507388,47.2420292],[6.9496883,47.2412916],[6.9491877,47.2407635],[6.9486882,47.2404267],[6.948687,47.2402992],[6.94824,47.2399927]]]]},"properties":{"natural":"wetland"}},
{"type":"Feature","geometry":{"type":"MultiPolygon","coordinates":[[[[6.9239238,47.2579489],[6.9241266,47.2577259],[6.9246939,47.2579244],[6.9248474,47.2579827],[6.9249748,47.2580319],[6.9250923,47.2580827],[6.9251539,47.2581192],[6.9252115,47.2581602],[6.9252725999999999,47.2582121],[6.9253364,47.2582782],[6.9251673,47.2583595],[6.9251056,47.2585188],[6.9254637,47.2588874],[6.9256937,47.2589571],[6.9256756,47.2590042],[6.925652,47.2590538],[6.9256219,47.2590981],[6.9255844,47.25914],[6.9255419,47.2591766],[6.9254965,47.2592078],[6.9253839,47.259272],[6.9253148,47.2593148],[6.9252397,47.2593653],[6.9251974,47.2593982],[6.9239238,47.2579489]]]]},"properties":{"leaf_cycle":"mixed","leaf_type":"mixed","natural":"scrub"}},
{"type":"Feature","geometry":{"type":"MultiPolygon","coordinates":[[[[6.9478147,47.2618194],[6.9479443,47.2615136],[6.9481791,47.2615594],[6.9480495,47.2618652],[6.9478147,47.2618194]]]]},"properties":{"leisure":"pitch","sport":"tennis"}},
{"type":"Feature","geometry":{"type":"MultiPolygon","coordinates":[[[[6.9512043,47.2626237],[6.9512057,47.2625807],[6.9512182,47.2625554],[6.9512403,47.2625318],[6.9512699,47.2625126],[6.9512963,47.2624981],[6.9513081,47.2625008],[6.9513255,47.2625181],[6.951334,47.2625347],[6.9513309,47.262569],[6.9513224,47.2625993],[6.9512965,47.262654],[6.9512766,47.26267],[6.9512533,47.2626804],[6.9512276,47.2626746],[6.9512129,47.2626658],[6.9512043,47.2626237]]]]},"properties":{"natural":"grassland","place":"islet"}},
{"type":"Feature","geometry":{"type":"MultiPolygon","coordinates":[[[[6.8966165,47.209437],[6.8966199,47.2093767],[6.8967154,47.2093855],[6.8968093,47.2093811],[6.8969092,47.2093868],[6.896937,47.209396],[6.8969521,47.2094057],[6.8969451,47.2094174],[6.8968797,47.2094199],[6.8968368,47.2094315],[6.8967915,47.2094338],[6.8967687,47.2094474],[6.8967132,47.2094949],[6.8966393,47.2094752],[6.8966165,47.209437]]]]},"properties":{"natural":"shingle"}},
{"type":"Feature","geometry":{"type":"MultiPolygon","coordinates":[[[[6.8906422,47.2065733],[6.8907583,47.2065859],[6.8908603,47.2066083],[6.8909463,47.2066368],[6.8910442,47.2067188],[6.8910684,47.2067543],[6.8911488,47.2068053],[6.8912132,47.2068965],[6.8911998,47.2069047],[6.8911147,47.2068971],[6.8910429,47.2068573],[6.8909758,47.206829],[6.8909048,47.2067707],[6.8906607,47.2066468],[6.8906422,47.2065733]]]]},"properties":{"natural":"grassland"}},
{"type":"Feature","geometry":{"type":"MultiPolygon","coordinates":[[[[6.8979308,47.2097444],[6.8983845,47.2099342],[6.8983734,47.2099731],[6.8984123,47.2100378],[6.8984444,47.210117],[6.8984076,47.2101357],[6.8981829,47.2100387],[6.89803,47.2099731],[6.8979749,47.209911],[6.8979509,47.2098437],[6.8979308,47.2097444]]]]},"properties":{"natural":"grassland"}},
{"type":"Feature","geometry":{"type":"MultiPolygon","coordinates":[[[[6.906428,47.2154618],[6.9064307,47.2153634],[6.9065058,47.2152923],[6.9066024,47.2152595],[6.9067204,47.2152486],[6.9068961,47.2152595],[6.9071254,47.2152869],[6.9072583,47.2154455],[6.9075207,47.2158775],[6.9077396,47.2162761],[6.9081339,47.2168118],[6.9084432,47.2172417],[6.9084625,47.21731],[6.9084021,47.21731],[6.9083726,47.217331],[6.9083498,47.2173674],[6.9083042,47.2173528],[6.9082466,47.2173428],[6.9082466,47.2173082],[6.9082211,47.2172545],[6.9081795,47.2172208],[6.9081071,47.2171916],[6.9080012,47.2171752],[6.9079763,47.2171506],[6.907979,47.2171105],[6.9079468,47.2170832],[6.9079006,47.2170541],[6.9078302,47.2170554],[6.9078097,47.2170598],[6.9077785,47.2170664],[6.9077262,47.217085],[6.9077028,47.2171169],[6.9076987,47.2171543],[6.9077225,47.2171843],[6.9077648,47.2172066],[6.9078248,47.2172217],[6.9078509,47.2172385],[6.9078416,47.2172882],[6.9078442,47.2173273],[6.9078483,47.217362],[6.9078831,47.2173856],[6.9079395,47.2174039],[6.9079877,47.217433],[6.9080481,47.2174357],[6.9080789,47.2174448],[6.9080856,47.2174849],[6.9081286,47.2175186],[6.9081902,47.217545],[6.9082519,47.217546],[6.9083485,47.2175316],[6.908441,47.2175168],[6.9084893,47.2174722],[6.9085309,47.217453],[6.9086234,47.2174731],[6.9086838,47.2175397],[6.9086033,47.2175396],[6.9085188,47.2175469],[6.9084491,47.2175696],[6.9082922,47.2175924],[6.9081742,47.2175915],[6.9080548,47.2175751],[6.9079556,47.2175387],[6.9078697,47.2174922],[6.9077584,47.2173975],[6.9076726,47.2172991],[6.9074285,47.2170122],[6.9071335,47.2166077],[6.9069216,47.2163217],[6.9066989,47.2160448],[6.9065702,47.2158243],[6.9064683,47.2156148],[6.906428,47.2154618]]]]},"properties":{"natural":"wetland"}},
{"type":"Feature","geometry":{"type":"MultiPolygon","coordinates":[[[[6.9125186,47.2190891],[6.9127084,47.2191227],[6.9129002,47.2191446],[6.9129981,47.2191733],[6.9131181,47.2191915],[6.9131939,47.2191924],[6.9132274,47.2192088],[6.9133743,47.2192229],[6.9135325,47.2192534],[6.9135761,47.2192684],[6.9136881,47.2192775],[6.9138759,47.2193267],[6.9139939,47.2193545],[6.9140944,47.2193901],[6.9148018,47.2195671],[6.9155406,47.2197427],[6.9157796,47.2198168],[6.9159552,47.2198869],[6.915978,47.2199343],[6.9160209,47.2199653],[6.9160035,47.2200846],[6.9161531,47.2201798],[6.9161993,47.2202604],[6.9159016,47.2201219],[6.9156642,47.2199844],[6.9153343,47.2198906],[6.9150205,47.2197284],[6.9149025,47.219692],[6.9147643,47.2197139],[6.9144613,47.2196364],[6.9142681,47.2195699],[6.9139664,47.2194588],[6.9137773,47.2194297],[6.9136606,47.2193386],[6.9135989,47.2193249],[6.9134447,47.219385],[6.9133133,47.2193477],[6.9130987,47.2194051],[6.9129311,47.219293],[6.9126843,47.2191956],[6.9125186,47.2190891]]]]},"properties":{"natural":"scrub"}},
{"type":"Feature","geometry":{"type":"MultiPolygon","coordinates":[[[[6.9088581,47.2168373],[6.9090325,47.2169502],[6.9092458,47.2170671],[6.9097164,47.2172362],[6.9103409,47.2174378],[6.9107866,47.2175551],[6.9112561,47.217663],[6.9122626,47.2178876],[6.9127304,47.2180048],[6.9136646,47.2182537],[6.9137931,47.2183033],[6.9138547,47.218356],[6.9131362,47.2181544],[6.9127446,47.2180761],[6.9122538,47.2179832],[6.9115725,47.2178247],[6.9111219,47.2177372],[6.9105506,47.2175842],[6.9102502,47.2174995],[6.9099149,47.2173856],[6.9098425,47.2173629],[6.9097821,47.2173629],[6.9097325,47.2173756],[6.9096601,47.2174002],[6.9096319,47.2174239],[6.9096091,47.2174703],[6.9096172,47.2175204],[6.9096588,47.2175851],[6.909699,47.2176325],[6.9097486,47.217678],[6.9097714,47.2177218],[6.9097714,47.21776],[6.909718,47.2178317],[6.9095394,47.2176375],[6.9094301,47.2175041],[6.909361,47.2174306],[6.9088581,47.2168373]]]]},"properties":{"natural":"grassland"}},
{"type":"Feature","geometry":{"type":"MultiPolygon","coordinates":[[[[6.9112205,47.2180975],[6.9112379,47.2180765],[6.9112505,47.2180751],[6.9112574,47.2180679],[6.911254,47.2180488],[6.911253,47.2180362],[6.911256,47.2180287],[6.9112677,47.218029],[6.9112768,47.2180351],[6.9112808,47.218051],[6.9112899,47.2180546],[6.9112983,47.2180524],[6.9113076,47.2180401],[6.9113165,47.2180385],[6.9113251,47.2180397],[6.9113296,47.218045],[6.9113304,47.2180529],[6.9113231,47.2180734],[6.9113083,47.2180829],[6.9112924,47.2180858],[6.9112788,47.2180902],[6.9112694,47.2181057],[6.911256,47.2181248],[6.9112399,47.218128],[6.9112273,47.218123],[6.9112218,47.2181162],[6.9112205,47.2180975]]]]},"properties":{"natural":"water","water":"pond"}},
{"type":"Feature","geometry":{"type":"MultiPolygon","coordinates":[[[[6.9108953,47.2180146],[6.9109023,47.2180013],[6.9109195,47.2179933],[6.9109403,47.2179937],[6.9109568,47.2180024],[6.9109626,47.218016],[6.9109556,47.2180293],[6.9109384,47.2180373],[6.9109176,47.2180368],[6.9109011,47.2180282],[6.9108953,47.2180146]]]]},"properties":{"natural":"water","water":"pond"}},
{"type":"Feature","geometry":{"type":"MultiPolygon","coordinates":[[[[6.9096091,47.2174703],[6.9096319,47.2174239],[6.9096601,47.2174002],[6.9097325,47.2173756],[6.9097821,47.2173629],[6.9098425,47.2173629],[6.9099149,47.2173856],[6.9102502,47.2174995],[6.9105506,47.2175842],[6.9111219,47.2177372],[6.9115725,47.2178247],[6.9122538,47.2179832],[6.9127446,47.2180761],[6.9131362,47.2181544],[6.9138547,47.218356],[6.9138296,47.2183671],[6.9137947,47.2183812],[6.913727,47.2183922],[6.9136586,47.2183958],[6.9135835,47.2183949],[6.9134706,47.2183817],[6.9133025,47.218358],[6.9131738,47.2183503],[6.9131128,47.2183553],[6.9130752,47.2183726],[6.9130632,47.2183885],[6.9130645,47.2184063],[6.9130702,47.2184361],[6.9131047,47.2184691],[6.9132268,47.2185197],[6.9134273,47.2185939],[6.9135244,47.2186322],[6.9136331,47.2186609],[6.9137236,47.2186837],[6.9137853,47.2187046],[6.9138376,47.2187183],[6.9139117,47.2187431],[6.9140588,47.2187957],[6.9141863,47.2188301],[6.9143979,47.2188822],[6.9147786,47.2189748],[6.9149749,47.2190371],[6.9150875,47.2190653],[6.9154782,47.219178],[6.9154882,47.2191844],[6.9154895,47.2191935],[6.9154855,47.2192013],[6.9154755,47.2192085],[6.9154591,47.2192094],[6.9151492,47.21913],[6.9148689,47.2190544],[6.9146678,47.219017],[6.9144706,47.2189706],[6.9142172,47.2189128],[6.91408,47.2188939],[6.9138725,47.2188513],[6.9137679,47.2188385],[6.9136593,47.2188349],[6.9135594,47.2188212],[6.9134903,47.2188057],[6.9133079,47.2187798],[6.91309,47.2187483],[6.9129364,47.2187333],[6.9128794,47.2187146],[6.91252,47.2186586],[6.9124429,47.2186386],[6.9124006,47.2186322],[6.9123584,47.2186322],[6.9122994,47.2186326],[6.9122102,47.2186176],[6.9120922,47.2185903],[6.9119956,47.2185794],[6.9118769,47.218552],[6.911725,47.2185231],[6.9115531,47.2184887],[6.9114076,47.2184491],[6.9111621,47.2184008],[6.9109407,47.2183692],[6.9108611,47.2183412],[6.9107497,47.2183293],[6.9107102,47.2183157],[6.9106123,47.2183038],[6.9105586,47.2182815],[6.9103789,47.2182473],[6.9102344,47.2182166],[6.910165,47.2181909],[6.9101033,47.2181526],[6.9099934,47.2180747],[6.9098566,47.2179595],[6.9097699,47.2178804],[6.909718,47.2178317],[6.9097714,47.21776],[6.9097714,47.2177218],[6.9097486,47.217678],[6.909699,47.2176325],[6.9096588,47.2175851],[6.9096172,47.2175204],[6.9096091,47.2174703]],[[6.9108953,47.2180146],[6.9109011,47.2180282],[6.9109176,47.2180368],[6.9109384,47.2180373],[6.9109556,47.2180293],[6.9109626,47.218016],[6.9109568,47.2180024],[6.9109403,47.2179937],[6.9109195,47.2179933],[6.9109023,47.2180013],[6.9108953,47.2180146]],[[6.9112205,47.2180975],[6.9112218,47.2181162],[6.9112273,47.218123],[6.9112399,47.218128],[6.911256,47.2181248],[6.9112694,47.2181057],[6.9112788,47.2180902],[6.9112924,47.2180858],[6.9113083,47.2180829],[6.9113231,47.2180734],[6.9113304,47.2180529],[6.9113296,47.218045],[6.9113251,47.2180397],[6.9113165,47.2180385],[6.9113076,47.2180401],[6.9112983,47.2180524],[6.9112899,47.2180546],[6.9112808,47.218051],[6.9112768,47.2180351],[6.9112677,47.218029],[6.911256,47.2180287],[6.911253,47.2180362],[6.911254,47.2180488],[6.9112574,47.2180679],[6.9112505,47.2180751],[6.9112379,47.2180765],[6.9112205,47.2180975]],[[6.9119185,47.2182455],[6.9119346,47.2182847],[6.9119802,47.2183211],[6.912066,47.2183521],[6.9121505,47.2183721],[6.9122457,47.2183831],[6.9123048,47.2183776],[6.912349,47.2183758],[6.9123866,47.2183876],[6.9124201,47.2184104],[6.9124697,47.2184304],[6.9125395,47.2184514],[6.9125958,47.2184532],[6.912636,47.2184386],[6.9126883,47.2184013],[6.9127339,47.2183849],[6.9127969,47.218373],[6.9129109,47.2183812],[6.9129485,47.2183867],[6.9129653,47.218381],[6.9129713,47.2183726],[6.9129706,47.2183621],[6.9129619,47.2183539],[6.9128814,47.2183239],[6.9128171,47.2183111],[6.9127017,47.2183157],[6.9126159,47.2183202],[6.9125555,47.2183056],[6.9125059,47.2182965],[6.9124241,47.2182665],[6.9122887,47.2182027],[6.9122136,47.2181717],[6.9121452,47.2181544],[6.9120848,47.2181535],[6.9120211,47.2181635],[6.9119802,47.2181799],[6.9119453,47.2181991],[6.9119246,47.2182218],[6.9119185,47.2182455]]]]},"properties":{"natural":"wetland"}},
{"type":"Feature","geometry":{"type":"MultiPolygon","coordinates":[[[[6.9119185,47.2182455],[6.9119246,47.2182218],[6.9119453,47.2181991],[6.9119802,47.2181799],[6.9120211,47.2181635],[6.9120848,47.2181535],[6.9121452,47.2181544],[6.9122136,47.2181717],[6.9122887,47.2182027],[6.9124241,47.2182665],[6.9125059,47.2182965],[6.9125555,47.2183056],[6.9126159,47.2183202],[6.9127017,47.2183157],[6.9128171,47.2183111],[6.9128814,47.2183239],[6.9129619,47.2183539],[6.9129706,47.2183621],[6.9129713,47.2183726],[6.9129653,47.218381],[6.9129485,47.2183867],[6.9129109,47.2183812],[6.9127969,47.218373],[6.9127339,47.2183849],[6.9126883,47.2184013],[6.912636,47.2184386],[6.9125958,47.2184532],[6.9125395,47.2184514],[6.9124697,47.2184304],[6.9124201,47.2184104],[6.9123866,47.2183876],[6.912349,47.2183758],[6.9123048,47.2183776],[6.9122457,47.2183831],[6.9121505,47.2183721],[6.912066,47.2183521],[6.9119802,47.2183211],[6.9119346,47.2182847],[6.9119185,47.2182455]]]]},"properties":{"natural":"water","water":"pond"}},
{"type":"Feature","geometry":{"type":"MultiPolygon","coordinates":[[[[6.9161054,47.219099],[6.9162422,47.2190936],[6.9164126,47.219109],[6.9165802,47.2191573],[6.9166888,47.2192356],[6.9165574,47.2192338],[6.9164354,47.2192493],[6.9163777,47.219242],[6.916324,47.2192256],[6.9162275,47.2191728],[6.9161054,47.219099]]]]},"properties":{"natural":"grassland"}},
{"type":"Feature","geometry":{"type":"MultiPolygon","coordinates":[[[[6.9235176,47.2235622],[6.9235499,47.223589],[6.9236311,47.2236186],[6.9236512,47.2236354],[6.9237473,47.2236585],[6.9238785,47.2236805],[6.9239508,47.2236813],[6.9240099,47.2236914],[6.9240634,47.2237129],[6.9240649,47.2237588],[6.9240343,47.2237942],[6.9239402,47.2238326],[6.9238585,47.2238525],[6.923857,47.2239046],[6.9238917,47.2239618],[6.9237953,47.2238727],[6.9237296,47.2237889],[6.923621,47.2237097],[6.9235419,47.2236286],[6.9235176,47.2235622]]]]},"properties":{"natural":"grassland"}},
{"type":"Feature","geometry":{"type":"MultiPolygon","coordinates":[[[[6.925576,47.2233483],[6.9256634,47.2233217],[6.9258533,47.2236536],[6.9258989,47.223727],[6.9259357,47.2237812],[6.9260297,47.2239025],[6.9260362,47.2239134],[6.9260409,47.2239243],[6.9260437,47.2239361],[6.9260445,47.2239467],[6.9260425,47.2239574],[6.9260382,47.2239672],[6.9260295,47.2239756],[6.9259811,47.2239271],[6.9257567,47.2237027],[6.9256897,47.223579],[6.9256581,47.2235166],[6.925636,47.2234624],[6.9256152,47.2234155],[6.9255973,47.22338],[6.925576,47.2233483]]]]},"properties":{"natural":"scrub"}},
{"type":"Feature","geometry":{"type":"MultiPolygon","coordinates":[[[[6.925528,47.2239487],[6.9255716,47.2239449],[6.9255975,47.2239426],[6.9256414,47.2239861],[6.9256675,47.2240357],[6.9257567,47.2241148],[6.9257725,47.2241564],[6.9257731,47.2241748],[6.925756,47.2241974],[6.9257332,47.224217],[6.9256964,47.2241901],[6.9256603,47.2241593],[6.925638,47.2241377],[6.9256085,47.2240931],[6.9255931,47.2240562],[6.9255596,47.2240207],[6.9255368,47.2239888],[6.925528,47.2239487]]]]},"properties":{"natural":"shingle"}},
{"type":"Feature","geometry":{"type":"MultiPolygon","coordinates":[[[[6.925479,47.2238427],[6.9255725,47.2238276],[6.9255716,47.2239449],[6.925528,47.2239487],[6.9254892,47.2238677],[6.925479,47.2238427]]]]},"properties":{"natural":"bare_rock"}},
{"type":"Feature","geometry":{"type":"MultiPolygon","coordinates":[[[[6.9343418,47.2308976],[6.9349093,47.2308402],[6.9353838,47.230807],[6.9359421,47.2307584],[6.9366343,47.230622],[6.9372386,47.2305903],[6.9377931,47.2306046],[6.9379355,47.2306206],[6.9381438,47.2306786],[6.9382431,47.2307168],[6.9382296,47.2307551],[6.9376905,47.2307924],[6.9375229,47.2308034],[6.9372909,47.2308289],[6.9371286,47.2308307],[6.9363883,47.2308726],[6.9356936,47.2309564],[6.9354174,47.2309946],[6.9349855,47.2310001],[6.9346073,47.2310219],[6.934492,47.2309964],[6.9343418,47.2308976]]]]},"properties":{"natural":"scrub"}},
{"type":"Feature","geometry":{"type":"MultiPolygon","coordinates":[[[[6.938229,47.2310494],[6.9384013,47.2310593],[6.9385757,47.2310511],[6.9386414,47.2310301],[6.9387687,47.2310247],[6.9388989,47.2310365],[6.9389927,47.2310693],[6.9390812,47.2311193],[6.9392288,47.2312733],[6.9388994,47.2311765],[6.9387192,47.2311503],[6.938577,47.2310902],[6.9383839,47.2311075],[6.938229,47.2310494]]]]},"properties":{"natural":"grassland"}},
{"type":"Feature","geometry":{"type":"MultiPolygon","coordinates":[[[[6.9405866,47.2320936],[6.9408944,47.2323132],[6.9411197,47.2324389],[6.9414228,47.2328815],[6.9416857,47.2333368],[6.9417541,47.2335399],[6.94162,47.233498],[6.9414865,47.2333438],[6.9411306,47.2327398],[6.9407735,47.2324113],[6.9405866,47.2320936]]]]},"properties":{"natural":"grassland"}},
{"type":"Feature","geometry":{"type":"MultiPolygon","coordinates":[[[[6.9323368,47.2307515],[6.9323489,47.2307168],[6.9323784,47.2306886],[6.932416,47.2306777],[6.9324683,47.2306995],[6.9325635,47.230746],[6.9326131,47.2307715],[6.9326788,47.2307806],[6.9327673,47.2308198],[6.9328572,47.2308562],[6.9328599,47.2308726],[6.9328116,47.2308881],[6.9327164,47.2308981],[6.9326292,47.2308917],[6.9325769,47.2308771],[6.9325206,47.2308698],[6.9324321,47.2308434],[6.9323811,47.230817],[6.9323368,47.2307515]]]]},"properties":{"natural":"grassland","place":"islet"}},
{"type":"Feature","geometry":{"type":"MultiPolygon","coordinates":[[[[6.9311942,47.2303234],[6.9312251,47.2303016],[6.9313002,47.2303025],[6.9313766,47.2303289],[6.9315389,47.2303881],[6.9316649,47.2304318],[6.9318178,47.2304691],[6.9319265,47.2304956],[6.9321437,47.2305757],[6.9322591,47.2306322],[6.9322778,47.2306613],[6.9322617,47.2306877],[6.9322376,47.230695],[6.9321638,47.2306913],[6.9320324,47.230674],[6.9318835,47.2306522],[6.9317253,47.2306012],[6.931622,47.2305547],[6.931563,47.2305156],[6.9314718,47.2304764],[6.9313404,47.2304327],[6.9312143,47.2303699],[6.9311942,47.2303234]]]]},"properties":{"natural":"grassland","place":"islet"}},
{"type":"Feature","geometry":{"type":"MultiPolygon","coordinates":[[[[6.9251863,47.2240265],[6.9252229,47.2239888],[6.9252619,47.2239538],[6.9253111,47.22392],[6.9253643,47.2238915],[6.9254147,47.2238675],[6.925479,47.2238427],[6.9254892,47.2238677],[6.925528,47.2239487],[6.9255368,47.2239888],[6.9255596,47.2240207],[6.9255931,47.2240562],[6.9256085,47.2240931],[6.925638,47.2241377],[6.9256603,47.2241593],[6.9256964,47.2241901],[6.9257332,47.224217],[6.9257996,47.2242784],[6.9258526,47.224375],[6.9258948,47.2244105],[6.925927,47.2244451],[6.9259733,47.2244784],[6.9260243,47.224508],[6.9260826,47.2245316],[6.9261416,47.2245594],[6.9261761,47.2245862],[6.9263206,47.2247061],[6.9265512,47.224934],[6.9267136,47.2251596],[6.9268611,47.2253063],[6.9269617,47.2254766],[6.9270542,47.2256205],[6.927159,47.2257917],[6.9272286,47.2259775],[6.9272339,47.2261542],[6.9271817,47.2263853],[6.927081,47.2266296],[6.9270475,47.2268172],[6.9269881,47.2270546],[6.9269966,47.2274037],[6.9270263,47.2276857],[6.9271146,47.2279192],[6.9271723,47.2280275],[6.9272462,47.2281211],[6.9273144,47.2281933],[6.9274002,47.2282643],[6.9275102,47.2283518],[6.9276202,47.2284328],[6.9277529,47.2285285],[6.9279514,47.2286523],[6.9280116,47.228693],[6.9280882,47.2287479],[6.9281097,47.2287611],[6.9282104,47.2287998],[6.928208,47.2287901],[6.9282069,47.2287806],[6.9282074,47.2287737],[6.9282087,47.2287671],[6.9282109,47.2287606],[6.9282143,47.2287543],[6.9282185,47.2287483],[6.9282233,47.2287429],[6.9282306,47.228736],[6.9282391,47.2287288],[6.9282799,47.2286964],[6.9283066,47.2287118],[6.9283331,47.228727],[6.9282941,47.2287566],[6.9282833,47.2287657],[6.9282756,47.2287737],[6.9282702,47.2287805],[6.9282669,47.2287873],[6.9282652,47.2287934],[6.9282647,47.2288],[6.928265,47.228807],[6.9282659,47.2288134],[6.9282687,47.228823],[6.9283296,47.2288495],[6.9284787,47.2289204],[6.9284785,47.2289105],[6.9284791,47.2288968],[6.9284798,47.2288873],[6.9284818,47.2288775],[6.9284843,47.2288691],[6.9284879,47.2288606],[6.9284916,47.2288535],[6.9284962,47.2288463],[6.928503,47.2288387],[6.9285113,47.2288306],[6.9285292,47.228816],[6.9285799,47.2288452],[6.9286316,47.228875],[6.9285563,47.2289337],[6.928558,47.2289487],[6.928567,47.2289606],[6.9286642,47.2290052],[6.9287829,47.229058],[6.9288875,47.2290995],[6.9289358,47.2291145],[6.928966,47.2291168],[6.9289921,47.2291133],[6.9290997,47.2291575],[6.9293066,47.2292777],[6.9294756,47.2293483],[6.9295238,47.2293782],[6.9298041,47.2295489],[6.9301448,47.2297179],[6.930487,47.2299098],[6.9309743,47.2301377],[6.9312056,47.2302237],[6.9314763,47.2302996],[6.9320686,47.2304564],[6.9327119,47.2306432],[6.9333176,47.2307834],[6.9338423,47.2308516],[6.9341078,47.230894],[6.9343418,47.2308976],[6.934492,47.2309964],[6.9346073,47.2310219],[6.9349855,47.2310001],[6.9354174,47.2309946],[6.9356936,47.2309564],[6.9363883,47.2308726],[6.9371286,47.2308307],[6.9372909,47.2308289],[6.9375229,47.2308034],[6.9376905,47.2307924],[6.9382296,47.2307551],[6.9382431,47.2307168],[6.9381438,47.2306786],[6.9379355,47.2306206],[6.9379547,47.2305948],[6.9380526,47.2305975],[6.9382632,47.2306331],[6.938468,47.2306957],[6.938632,47.2307387],[6.9388211,47.2307715],[6.9392045,47.2308599],[6.9394769,47.2309691],[6.939668,47.2310936],[6.9397773,47.2311931],[6.9399427,47.2312967],[6.9403356,47.2314302],[6.940721,47.2317365],[6.9412777,47.2321264],[6.9414389,47.2323169],[6.9421268,47.2333468],[6.9427063,47.2344077],[6.9426969,47.234678099999999],[6.9428511,47.2350251],[6.9429691,47.2353055],[6.9429919,47.235596],[6.943008,47.2359093],[6.9430603,47.2361387],[6.943067,47.2362981],[6.9430482,47.2363463],[6.9429665,47.2364146],[6.9428873,47.2365539],[6.9428418,47.2366657],[6.9428498,47.2368654],[6.9428485,47.2369646],[6.9428202,47.2370411],[6.9427867,47.2370885],[6.9427559,47.2371603],[6.942725,47.2372733],[6.9427049,47.2373698],[6.9426995,47.2374709],[6.9427163,47.2375246],[6.9427787,47.2375738],[6.9428283,47.2376111],[6.94289,47.2376548],[6.9428954,47.2377395],[6.9429503,47.2377923],[6.9429678,47.2377909],[6.942957,47.2377227],[6.9429409,47.2376776],[6.9429336,47.2376225],[6.9429369,47.237527300000007],[6.942945,47.2374882],[6.9429617,47.2374468],[6.9429899,47.2374381],[6.9430187,47.2374404],[6.9430241,47.2374536],[6.9430228,47.2374713],[6.9430161,47.2374946],[6.9430093,47.2375319],[6.9430114,47.2375833],[6.943014,47.237648],[6.9430254,47.2376976],[6.943063,47.2377878],[6.9430523,47.237821],[6.9430536,47.2378474],[6.9430724,47.2378706],[6.9430965,47.2378907],[6.9432092,47.2379571],[6.9433011,47.2379913],[6.943391,47.2380326],[6.9442491,47.2383057],[6.9450305,47.2385056],[6.947276,47.239059],[6.9475429,47.2391234],[6.9487333,47.2395678],[6.9492664,47.239898],[6.9496682,47.2402286],[6.9501561,47.2406959],[6.9506039,47.2411391],[6.9512352,47.2414746],[6.9515206,47.2416502],[6.9520226,47.2418944],[6.9521986,47.2419761],[6.9523448,47.2420317],[6.9525801,47.2421027],[6.9527699,47.2421373],[6.9537932,47.2422608],[6.954231,47.2423305],[6.9543189,47.2423485],[6.9543926,47.2423651],[6.9544634,47.2423901],[6.9546507,47.2424378],[6.9547541,47.2424807],[6.9548173,47.2425069],[6.9548046,47.2425217],[6.9547929,47.2425356],[6.9547649,47.242524],[6.9546244,47.2424658],[6.9546026,47.242483],[6.9546162,47.2424883],[6.9545656,47.2425215],[6.9545137,47.2425601],[6.9544765,47.2425966],[6.9544505,47.2426303],[6.9544282,47.2426654],[6.9544101,47.2426972],[6.954393,47.2427316],[6.9543779,47.2427175],[6.9543611,47.2427348],[6.9543497,47.2427396],[6.9543182,47.2427375],[6.9542974,47.242733],[6.9541925,47.2427002],[6.9541398,47.2426827],[6.9540696,47.2426468],[6.954046,47.2426168],[6.9540077,47.242598],[6.9539675,47.2425948],[6.9539206,47.2425916],[6.9538777,47.2425802],[6.9538488,47.2425616],[6.9538012,47.2425456],[6.9537288,47.2425411],[6.9536697,47.2425531],[6.9533846,47.2425658],[6.9532661,47.2425843],[6.953126,47.2425656],[6.9528403,47.2425302],[6.9525963,47.242495],[6.9518137,47.2423695],[6.9516626,47.242328],[6.9514623,47.2422347],[6.9511297,47.242049],[6.9509916,47.2419257],[6.9509071,47.2418541],[6.9504189,47.2415585],[6.9501087,47.2412633],[6.9493296,47.2405726],[6.9488901,47.2402853],[6.9485548,47.2400744],[6.94824,47.2399927],[6.9475643,47.2397614],[6.9472647,47.2396707],[6.9469831,47.2395635],[6.946625,47.239414],[6.9462821,47.2392801],[6.9459437,47.23918],[6.9455963,47.2390918],[6.9452594,47.2390158],[6.9451232,47.2389794],[6.9449521,47.2389616],[6.9447957,47.2389059],[6.9447542,47.2388447],[6.9447635,47.238793],[6.9446974,47.2387694],[6.9445491,47.2387907],[6.9442597,47.238703],[6.9441168,47.2387229],[6.9438237,47.2386035],[6.9437738,47.2385317],[6.9436967,47.2384921],[6.9435726,47.2384197],[6.9432211,47.2383341],[6.9430523,47.2382685],[6.9429638,47.2382045],[6.9426379,47.2380901],[6.942579,47.238054],[6.9425292,47.2379744],[6.9425158,47.2378497],[6.9424572,47.2377254],[6.9423972,47.2375688],[6.9423596,47.2374814],[6.9423294,47.2373698],[6.9423106,47.237226],[6.9423227,47.2370939],[6.9423951,47.2368963],[6.9424649,47.2367397],[6.9425373,47.236543],[6.9425977,47.2362644],[6.9426057,47.2359302],[6.9425735,47.2355532],[6.942489,47.2353975],[6.9424447,47.2352127],[6.9423508,47.2348949],[6.9421188,47.2344141],[6.9419177,47.2340744],[6.9417541,47.2335399],[6.9416857,47.2333368],[6.9414228,47.2328815],[6.9411197,47.2324389],[6.9408944,47.2323132],[6.9405866,47.2320936],[6.9398425,47.2316945],[6.9392288,47.2312733],[6.9390812,47.2311193],[6.9389927,47.2310693],[6.9388989,47.2310365],[6.9387687,47.2310247],[6.9386414,47.2310301],[6.9385757,47.2310511],[6.9384013,47.2310593],[6.938229,47.2310494],[6.9378313,47.2310383],[6.9374438,47.2310365],[6.9370553,47.2310429],[6.9364474,47.2310914],[6.9355806,47.2311473],[6.9351622,47.2312458],[6.934956,47.2312596],[6.9343894,47.2311918],[6.9333783,47.2311318],[6.9327324,47.2310604],[6.9320265,47.2309584],[6.9312425,47.230675],[6.9309127,47.2305311],[6.9304083,47.2302979],[6.930235,47.2301848],[6.9301495,47.2301495],[6.9300583,47.230093],[6.9298883,47.2300013],[6.9297512,47.2298918],[6.92955,47.229736],[6.9293596,47.2296249],[6.9292496,47.2295402],[6.9291973,47.2295147],[6.929031,47.2294519],[6.9288392,47.2293199],[6.9286329,47.229227],[6.9283631,47.2291131],[6.9282103,47.2290457],[6.9280761,47.2289738],[6.9279608,47.2289],[6.9277503,47.2287616],[6.9275436,47.2286437],[6.9273654,47.2285275],[6.9272058,47.2284243],[6.9269563,47.2282561],[6.9268819,47.2281717],[6.9268168,47.2280813],[6.9267696,47.2279835],[6.9267216,47.2277944],[6.9266948,47.2275877],[6.9266982,47.2274051],[6.9267029,47.227258],[6.9267122,47.2270813],[6.9266917,47.2268408],[6.9268379,47.2261538],[6.926845,47.2260003],[6.9268249,47.2258227],[6.9268133,47.2256752],[6.9267458,47.2255212],[6.9265808,47.225339],[6.926443,47.2251446],[6.9261678,47.22487],[6.9259022,47.2245603],[6.9257393,47.2244251],[6.9255664,47.2242026],[6.9255133,47.2241477],[6.9254407,47.2240916],[6.9253752,47.2240535],[6.9253141,47.2240248],[6.925282,47.2240211],[6.9252565,47.2240243],[6.9252259,47.2240445],[6.9252168,47.2240404],[6.9251863,47.2240265]],[[6.9311942,47.2303234],[6.9312143,47.2303699],[6.9313404,47.2304327],[6.9314718,47.2304764],[6.931563,47.2305156],[6.931622,47.2305547],[6.9317253,47.2306012],[6.9318835,47.2306522],[6.9320324,47.230674],[6.9321638,47.2306913],[6.9322376,47.230695],[6.9322617,47.2306877],[6.9322778,47.2306613],[6.9322591,47.2306322],[6.9321437,47.2305757],[6.9319265,47.2304956],[6.9318178,47.2304691],[6.9316649,47.2304318],[6.9315389,47.2303881],[6.9313766,47.2303289],[6.9313002,47.2303025],[6.9312251,47.2303016],[6.9311942,47.2303234]],[[6.9323368,47.2307515],[6.9323811,47.230817],[6.9324321,47.2308434],[6.9325206,47.2308698],[6.9325769,47.2308771],[6.9326292,47.2308917],[6.9327164,47.2308981],[6.9328116,47.2308881],[6.9328599,47.2308726],[6.9328572,47.2308562],[6.9327673,47.2308198],[6.9326788,47.2307806],[6.9326131,47.2307715],[6.9325635,47.230746],[6.9324683,47.2306995],[6.932416,47.2306777],[6.9323784,47.2306886],[6.9323489,47.2307168],[6.9323368,47.2307515]],[[6.94221,47.2344031],[6.9422409,47.2344751],[6.9422905,47.2345324],[6.9423147,47.2345443],[6.942367,47.2345534],[6.9424126,47.2345297],[6.9424139,47.2345106],[6.9424072,47.2344432],[6.9423844,47.2343722],[6.9423978,47.2343403],[6.9423991,47.2343075],[6.9423683,47.2342847],[6.94232,47.2342511],[6.9422959,47.2342492],[6.9422851,47.2342711],[6.9422798,47.2343075],[6.9422489,47.2343157],[6.9422328,47.2343667],[6.94221,47.2344031]]]]},"properties":{"leaf_cycle":"mixed","leaf_type":"mixed","natural":"water","water":"river"}},
{"type":"Feature","geometry":{"type":"MultiPolygon","coordinates":[[[[6.94221,47.2344031],[6.9422328,47.2343667],[6.9422489,47.2343157],[6.9422798,47.2343075],[6.9422851,47.2342711],[6.9422959,47.2342492],[6.94232,47.2342511],[6.9423683,47.2342847],[6.9423991,47.2343075],[6.9423978,47.2343403],[6.9423844,47.2343722],[6.9424072,47.2344432],[6.9424139,47.2345106],[6.9424126,47.2345297],[6.942367,47.2345534],[6.9423147,47.2345443],[6.9422905,47.2345324],[6.9422409,47.2344751],[6.94221,47.2344031]]]]},"properties":{"natural":"grassland","place":"islet"}},
{"type":"Feature","geometry":{"type":"MultiPolygon","coordinates":[[[[6.955029,47.2440361],[6.9550545,47.2439946],[6.9550826,47.2439578],[6.9551188,47.2439277],[6.9551712,47.2439182],[6.9552054,47.2439163],[6.9552426,47.2439106],[6.9552489,47.243917],[6.9552335,47.2439355],[6.9552235,47.2439591],[6.9552275,47.2439792],[6.9552107,47.2439974],[6.9551651,47.2440138],[6.9551175,47.2440356],[6.9550612,47.2440493],[6.9550337,47.2440433],[6.955029,47.2440361]]]]},"properties":{"natural":"grassland","place":"islet"}},
{"type":"Feature","geometry":{"type":"MultiPolygon","coordinates":[[[[6.9551269,47.2438936],[6.9551591,47.2438435],[6.9551812,47.2438166],[6.9552127,47.2437939],[6.9552349,47.2437943],[6.9552523,47.2438044],[6.9552617,47.2438189],[6.9552429,47.2438471],[6.9552275,47.2438603],[6.9551913,47.2438831],[6.9551416,47.2439022],[6.9551269,47.2438936]]]]},"properties":{"natural":"grassland","place":"islet"}},
{"type":"Feature","geometry":{"type":"MultiPolygon","coordinates":[[[[6.9551946,47.2437097],[6.9551986,47.2436883],[6.9552141,47.2436682],[6.9552496,47.2436423],[6.9552691,47.2436223],[6.9552751,47.243599],[6.9552697,47.2435822],[6.9552489,47.2435594],[6.9552416,47.2435394],[6.9552509,47.2435189],[6.9552838,47.2435007],[6.95531,47.2434893],[6.9553086,47.2434743],[6.9553227,47.2434383],[6.9553381,47.2434192],[6.9553703,47.2434124],[6.9554025,47.2434183],[6.9554172,47.2434283],[6.9554139,47.2434456],[6.9554206,47.2434757],[6.9554219,47.2435116],[6.9554199,47.2435412],[6.9553998,47.2435672],[6.9553743,47.2435854],[6.9553556,47.2436213],[6.9553294,47.2436482],[6.955316,47.2436569],[6.9553093,47.2436714],[6.9553019,47.2436874],[6.9552664,47.2437097],[6.9552241,47.2437251],[6.9552060000000008,47.2437229],[6.9551946,47.2437097]]]]},"properties":{"natural":"grassland","place":"islet"}},
{"type":"Feature","geometry":{"type":"MultiPolygon","coordinates":[[[[6.9426995,47.2374709],[6.9427049,47.2373698],[6.942725,47.2372733],[6.9427559,47.2371603],[6.9427867,47.2370885],[6.9428202,47.2370411],[6.9429161,47.2372319],[6.9429899,47.2374381],[6.9429617,47.2374468],[6.942945,47.2374882],[6.9429369,47.237527300000007],[6.9429336,47.2376225],[6.9429409,47.2376776],[6.942957,47.2377227],[6.9429678,47.2377909],[6.9429503,47.2377923],[6.9428954,47.2377395],[6.94289,47.2376548],[6.9428283,47.2376111],[6.9427787,47.2375738],[6.9427163,47.2375246],[6.9426995,47.2374709]]]]},"properties":{"natural":"grassland"}},
{"type":"Feature","geometry":{"type":"MultiPolygon","coordinates":[[[[6.9430523,47.237821],[6.943063,47.2377878],[6.9432481,47.2378925],[6.9433011,47.2379913],[6.9432092,47.2379571],[6.9430965,47.2378907],[6.9430724,47.2378706],[6.9430536,47.2378474],[6.9430523,47.237821]]]]},"properties":{"natural":"grassland"}},
{"type":"Feature","geometry":{"type":"MultiPolygon","coordinates":[[[[6.9499697,47.2593635],[6.9499911,47.2593298],[6.95003,47.2593125],[6.9500589,47.2592997],[6.9500964,47.2592743],[6.9501219,47.2592606],[6.9501427,47.2592606],[6.9501762,47.2592724],[6.9501963,47.2592879],[6.950205,47.2593052],[6.9502071,47.2593544],[6.9502138,47.2593657],[6.9502331999999999,47.2593753],[6.9502466,47.2593858],[6.950254,47.2594099],[6.9502533,47.2594399],[6.9502453,47.2594609],[6.9502281,47.259471],[6.9502111,47.2594777],[6.9501915,47.259489],[6.9501534,47.2595409],[6.9501366,47.2595833],[6.9501346,47.2596179],[6.9501105,47.2596001],[6.9500756,47.2595769],[6.9500535,47.2595473],[6.9500367,47.2594995],[6.9500401,47.2594736],[6.950032,47.2594531],[6.9499785,47.259426],[6.9499858,47.2594026],[6.9499831,47.2593821],[6.9499717,47.2593707],[6.9499697,47.2593635]]]]},"properties":{"natural":"grassland"}},
{"type":"Feature","geometry":{"type":"MultiPolygon","coordinates":[[[[6.949965,47.2594904],[6.949971,47.2594499],[6.9499785,47.259426],[6.950032,47.2594531],[6.9500401,47.2594736],[6.9500367,47.2594995],[6.9500535,47.2595473],[6.9500756,47.2595769],[6.9501105,47.2596001],[6.9501346,47.2596179],[6.9501279,47.2596447],[6.9501098,47.2596779],[6.9500884,47.2597143],[6.9500703,47.2597157],[6.9500548,47.2597075],[6.9500468,47.2596925],[6.950026,47.2596661],[6.9499905,47.2596215],[6.9499724,47.2595828],[6.9499677,47.2595364],[6.949965,47.2594904]]]]},"properties":{"leaf_cycle":"deciduous","leaf_type":"broadleaved","natural":"wood"}},
{"type":"Feature","geometry":{"type":"MultiPolygon","coordinates":[[[[6.9503646,47.2599428],[6.9503663,47.259933],[6.9503723,47.2599275],[6.9503807,47.2599273],[6.9503955,47.2599291],[6.950427,47.2599423],[6.9504545,47.2599601],[6.9504746,47.2599801],[6.9504954,47.2600142],[6.9505115,47.2600452],[6.9505289,47.2600834],[6.950543,47.2601471],[6.9505591,47.2602195],[6.9505551,47.2602309],[6.950541,47.2602363],[6.9505262,47.2602336],[6.9505108,47.2602254],[6.9504478,47.2601631],[6.9504143,47.260133],[6.9503915,47.260103],[6.9503734,47.2600643],[6.95037,47.2600197],[6.9503673,47.2599633],[6.9503646,47.2599428]]]]},"properties":{"leaf_cycle":"deciduous","leaf_type":"broadleaved","natural":"wood","place":"islet"}},
{"type":"Feature","geometry":{"type":"MultiPolygon","coordinates":[[[[6.9501742,47.2599382],[6.9501762,47.2599169],[6.9501936,47.2599],[6.9502191,47.2598932],[6.9502594,47.2598982],[6.9502862,47.2599132],[6.9503029,47.259931],[6.9503204,47.2599614],[6.9503291,47.2599897],[6.9503298,47.2600138],[6.9503237,47.2600265],[6.9503083,47.2600343],[6.9502902,47.2600347],[6.9502694,47.2600279],[6.9502473,47.2600165],[6.9502151,47.2599942],[6.950191,47.2599665],[6.9501742,47.2599382]]]]},"properties":{"leaf_cycle":"deciduous","leaf_type":"broadleaved","natural":"scrub","place":"islet"}},
{"type":"Feature","geometry":{"type":"MultiPolygon","coordinates":[[[[6.950359,47.2595451],[6.950376,47.2594832],[6.9504129,47.2594062],[6.9504552,47.2593439],[6.9504932,47.2593112],[6.9505477,47.2592938],[6.9506107,47.2592979],[6.9506744,47.2593261],[6.9507435,47.2593921],[6.9507841,47.2594466],[6.9508629,47.2595692],[6.9508984,47.2596379],[6.9509319,47.2597216],[6.9510359,47.260047900000007],[6.9510788,47.2602563],[6.9510546,47.2602468],[6.9510037,47.2601294],[6.9509507,47.2600593],[6.9508957,47.2600174],[6.9508045,47.2599815],[6.9507147,47.259915],[6.9506315,47.2598704],[6.9505732,47.25986],[6.9505443,47.2598641],[6.9505276,47.2598814],[6.950488,47.2598536],[6.9504129,47.2598295],[6.9503935,47.259814],[6.950368,47.2597685],[6.9503693,47.2597089],[6.950376,47.2596552],[6.9503633,47.2595919],[6.950359,47.2595451]]]]},"properties":{"natural":"grassland"}},
{"type":"Feature","geometry":{"type":"MultiPolygon","coordinates":[[[[6.9505276,47.2598814],[6.9505443,47.2598641],[6.9505732,47.25986],[6.9506315,47.2598704],[6.9507147,47.259915],[6.9508045,47.2599815],[6.9508957,47.2600174],[6.9509507,47.2600593],[6.9510037,47.2601294],[6.9510546,47.2602468],[6.9510788,47.2602563],[6.9511686,47.2606941],[6.9511633,47.2607091],[6.9511349,47.2607075],[6.951113,47.2606923],[6.9510526,47.2606063],[6.9510312,47.2605517],[6.9509882,47.2604984],[6.950938,47.2604734],[6.9508964,47.2604593],[6.9507907,47.2603871],[6.9507502,47.2603428],[6.9507093,47.2602773],[6.9506811,47.2602113],[6.9506583,47.2601571],[6.9506436,47.2600998],[6.9506329,47.2600543],[6.950606,47.2600074],[6.9505852,47.2599619],[6.9505531,47.2599223],[6.9505276,47.2598814]]]]},"properties":{"leaf_cycle":"deciduous","leaf_type":"broadleaved","natural":"wood"}},
{"type":"Feature","geometry":{"type":"MultiPolygon","coordinates":[[[[6.949965,47.2594904],[6.949971,47.2594499],[6.9499785,47.259426],[6.9499858,47.2594026],[6.9499831,47.2593821],[6.9499717,47.2593707],[6.9499697,47.2593635],[6.9499911,47.2593298],[6.95003,47.2593125],[6.9500589,47.2592997],[6.9500964,47.2592743],[6.9501219,47.2592606],[6.9501427,47.2592606],[6.9501762,47.2592724],[6.9501963,47.2592879],[6.950205,47.2593052],[6.9502071,47.2593544],[6.9502138,47.2593657],[6.9502331999999999,47.2593753],[6.9502466,47.2593858],[6.950254,47.2594099],[6.9502533,47.2594399],[6.9502453,47.2594609],[6.9502281,47.259471],[6.9502252,47.2594727],[6.9502111,47.2594777],[6.9501915,47.259489],[6.9501883,47.2594909],[6.9501534,47.2595409],[6.9501366,47.2595833],[6.9501346,47.2596179],[6.9501279,47.2596447],[6.9501098,47.2596779],[6.9500884,47.2597143],[6.9500703,47.2597157],[6.9500548,47.2597075],[6.9500468,47.2596925],[6.950026,47.2596661],[6.9499905,47.2596215],[6.9499724,47.2595828],[6.9499677,47.2595364],[6.949965,47.2594904]]]]},"properties":{"place":"islet"}},
{"type":"Feature","geometry":{"type":"MultiPolygon","coordinates":[[[[6.9462119,47.2538065],[6.9462147,47.2535955],[6.9463638,47.253441],[6.9464949,47.2533268],[6.9466451,47.2530592],[6.9467215,47.252817],[6.9467877,47.2526017],[6.9468432,47.2524213],[6.9468616,47.2523615],[6.946958,47.2518209],[6.9469336,47.2515532],[6.9469751,47.2512452],[6.9471475,47.2504986],[6.9472336,47.2502646],[6.9474538,47.2499395],[6.947957,47.2494681],[6.9484764,47.2491364],[6.949007,47.2486601],[6.9496248,47.2483],[6.9501762,47.2480036],[6.9502942,47.2479727],[6.9504002,47.2479108],[6.9505658,47.247787],[6.9506322,47.2477114],[6.9507321,47.2476486],[6.9508731,47.2475898],[6.9510466,47.2474952],[6.9512062,47.247406],[6.9513349,47.2473431],[6.9514798,47.247294],[6.9516353,47.2472139],[6.9517346,47.2471347],[6.95198,47.2469298],[6.952263,47.2466394],[6.9522693,47.2466318],[6.9525661,47.2462762],[6.9527133,47.2461208],[6.9530838,47.2456924],[6.9537052,47.2449519],[6.9540985,47.244518],[6.9547914,47.243993],[6.9549834,47.2437941],[6.9550727,47.2435642],[6.9550566,47.2433163],[6.9550488,47.2432184],[6.9549251,47.2430719],[6.9548614,47.2429877],[6.9547864,47.2429314],[6.9544718,47.2427695],[6.954449,47.2427637],[6.9544195,47.2427591],[6.954393,47.2427316],[6.9544101,47.2426972],[6.9544282,47.2426654],[6.9544505,47.2426303],[6.9544765,47.2425966],[6.9545137,47.2425601],[6.9545656,47.2425215],[6.9546162,47.2424883],[6.954628,47.2424929],[6.9546373,47.2424859],[6.9547555,47.2425349],[6.9547628,47.2425269],[6.9549973,47.2426241],[6.9550106,47.2426376],[6.9550169,47.2426499],[6.9550236,47.2426963],[6.9550377,47.2427309],[6.9550525,47.2427521],[6.9550793,47.2427754],[6.9554159,47.2429877],[6.9554921,47.2430494],[6.9555956,47.2431333],[6.9557232,47.2432871],[6.9557968,47.2434156],[6.955832,47.2435522],[6.9557834,47.2436887],[6.9556858,47.2438203],[6.9554977,47.2440138],[6.9554105,47.2440738],[6.9551155,47.2441813],[6.9548701,47.2442587],[6.9548211,47.2443429],[6.9548305,47.2443807],[6.9548895,47.2444062],[6.954917,47.2444362],[6.9546545,47.2445478],[6.9543646,47.2447283],[6.9540728,47.2449913],[6.9537897,47.2453522],[6.9524171,47.2470407],[6.9522115,47.2472472],[6.9518176,47.2474833],[6.951232,47.247744],[6.9508427,47.2479103],[6.9503143,47.2482044],[6.9499849,47.2483795],[6.9494102,47.2486961],[6.9490844,47.2488829],[6.948815,47.2490874],[6.9486315,47.2493002],[6.9483006,47.2495697],[6.9480184,47.2498021],[6.9477503,47.2500399],[6.9475718,47.2502563],[6.9474005,47.2505445],[6.9473445,47.2507573],[6.9473335,47.2512436],[6.9471729,47.2517442],[6.9471307,47.2525087],[6.9469175,47.2530663],[6.9467439,47.2533995],[6.9465317,47.2537546],[6.9464828,47.2538711],[6.9464928,47.2539862],[6.9465351,47.2541178],[6.9466342,47.2542186],[6.946806,47.2543445],[6.9472029,47.254533],[6.9476839,47.2548774],[6.9481623,47.255294],[6.9488909,47.2560423],[6.949245,47.2561061],[6.9494722,47.2563176],[6.9495805,47.2564754],[6.9494802,47.2565746],[6.9495487,47.256765],[6.9496778,47.2568962],[6.9497216,47.2571826],[6.9500362,47.2576827],[6.9500622,47.2579126],[6.9501514,47.2581715],[6.9502982,47.2585425],[6.9504716,47.2588346],[6.9507059,47.2590904],[6.9508857,47.2592734],[6.9509793,47.259403],[6.9510694,47.2595501],[6.9511336,47.2596909],[6.9511619,47.2597776],[6.9511861,47.2598522],[6.9512035,47.2599387],[6.9512169,47.2600661],[6.9512922,47.2604045],[6.9513309,47.2605567],[6.9513671,47.2606304],[6.951366,47.2608485],[6.9514281,47.2611806],[6.951529,47.2614115],[6.9516063,47.2615756],[6.9516115,47.2616059],[6.9516225,47.2616665],[6.9516703,47.2619798],[6.9511244,47.2620534],[6.9511191,47.2618958],[6.9510897,47.2618467],[6.9510591,47.2617958],[6.9510231,47.2617476],[6.9510176,47.261717],[6.9510121,47.2616867],[6.9510066,47.2616565],[6.9510607,47.2616125],[6.9510982,47.2615433],[6.951111,47.2614814],[6.9511156,47.2614332],[6.9510815,47.2613058],[6.9510371,47.2611297],[6.950954,47.2610063],[6.9508563,47.2608356],[6.9507287,47.2607014],[6.950605,47.2605523],[6.950494,47.2604602],[6.9503774,47.2603537],[6.9502944,47.2603172],[6.9502339,47.2602691],[6.9502044,47.2602136],[6.9501426,47.2601503],[6.9500408,47.2600616],[6.9499498,47.2599336],[6.9498925,47.2597724],[6.9498503,47.2595564],[6.9498121,47.2594139],[6.9497933,47.2591036],[6.9498664,47.2590247],[6.9498792,47.258943],[6.9498995,47.2588132],[6.9498116,47.2584362],[6.9497651,47.2581869],[6.9496856,47.2577891],[6.9496526,47.2576928],[6.9496009,47.2576132],[6.9493062,47.2571645],[6.9492155,47.2568141],[6.9491359,47.2566948],[6.9490716,47.2565394],[6.9489016,47.2564238],[6.9485343,47.256066],[6.9481829,47.2557553],[6.9475654,47.2550977],[6.9470437,47.2547074],[6.9465257,47.2544337],[6.9464048,47.2543389],[6.9463299,47.2542471],[6.9462664,47.254151],[6.9462119,47.2538065]],[[6.949965,47.2594904],[6.9499677,47.2595364],[6.9499724,47.2595828],[6.9499905,47.2596215],[6.950026,47.2596661],[6.9500468,47.2596925],[6.9500548,47.2597075],[6.9500703,47.2597157],[6.9500884,47.2597143],[6.9501098,47.2596779],[6.9501279,47.2596447],[6.9501346,47.2596179],[6.9501366,47.2595833],[6.9501534,47.2595409],[6.9501883,47.2594909],[6.9501915,47.259489],[6.9502111,47.2594777],[6.9502252,47.2594727],[6.9502281,47.259471],[6.9502453,47.2594609],[6.9502533,47.2594399],[6.950254,47.2594099],[6.9502466,47.2593858],[6.9502331999999999,47.2593753],[6.9502138,47.2593657],[6.9502071,47.2593544],[6.950205,47.2593052],[6.9501963,47.2592879],[6.9501762,47.2592724],[6.9501427,47.2592606],[6.9501219,47.2592606],[6.9500964,47.2592743],[6.9500589,47.2592997],[6.95003,47.2593125],[6.9499911,47.2593298],[6.9499697,47.2593635],[6.9499717,47.2593707],[6.9499831,47.2593821],[6.9499858,47.2594026],[6.9499785,47.259426],[6.949971,47.2594499],[6.949965,47.2594904]],[[6.9501742,47.2599382],[6.950191,47.2599665],[6.9502151,47.2599942],[6.9502473,47.2600165],[6.9502694,47.2600279],[6.9502902,47.2600347],[6.9503083,47.2600343],[6.9503237,47.2600265],[6.9503298,47.2600138],[6.9503291,47.2599897],[6.9503204,47.2599614],[6.9503029,47.259931],[6.9502862,47.2599132],[6.9502594,47.2598982],[6.9502191,47.2598932],[6.9501936,47.2599],[6.9501762,47.2599169],[6.9501742,47.2599382]],[[6.950359,47.2595451],[6.9503633,47.2595919],[6.950376,47.2596552],[6.9503693,47.2597089],[6.950368,47.2597685],[6.9503935,47.259814],[6.9504129,47.2598295],[6.950488,47.2598536],[6.9505276,47.2598814],[6.9505531,47.2599223],[6.9505852,47.2599619],[6.950606,47.2600074],[6.9506329,47.2600543],[6.9506436,47.2600998],[6.9506583,47.2601571],[6.9506811,47.2602113],[6.9507093,47.2602773],[6.9507502,47.2603428],[6.9507907,47.2603871],[6.9508964,47.2604593],[6.950938,47.2604734],[6.9509882,47.2604984],[6.9510312,47.2605517],[6.9510526,47.2606063],[6.951113,47.2606923],[6.9511349,47.2607075],[6.9511633,47.2607091],[6.9511686,47.2606941],[6.9510788,47.2602563],[6.9510359,47.260047900000007],[6.9509319,47.2597216],[6.9508984,47.2596379],[6.9508629,47.2595692],[6.9507841,47.2594466],[6.9507435,47.2593921],[6.9506744,47.2593261],[6.9506107,47.2592979],[6.9505477,47.2592938],[6.9504932,47.2593112],[6.9504552,47.2593439],[6.9504129,47.2594062],[6.950376,47.2594832],[6.950359,47.2595451]],[[6.9503646,47.2599428],[6.9503673,47.2599633],[6.95037,47.2600197],[6.9503734,47.2600643],[6.9503915,47.260103],[6.9504143,47.260133],[6.9504478,47.2601631],[6.9505108,47.2602254],[6.9505262,47.2602336],[6.950541,47.2602363],[6.9505551,47.2602309],[6.9505591,47.2602195],[6.950543,47.2601471],[6.9505289,47.2600834],[6.9505115,47.2600452],[6.9504954,47.2600142],[6.9504746,47.2599801],[6.9504545,47.2599601],[6.950427,47.2599423],[6.9503955,47.2599291],[6.9503807,47.2599273],[6.9503723,47.2599275],[6.9503663,47.259933],[6.9503646,47.2599428]],[[6.955029,47.2440361],[6.9550337,47.2440433],[6.9550612,47.2440493],[6.9551175,47.2440356],[6.9551651,47.2440138],[6.9552107,47.2439974],[6.9552275,47.2439792],[6.9552235,47.2439591],[6.9552335,47.2439355],[6.9552489,47.243917],[6.9552426,47.2439106],[6.9552054,47.2439163],[6.9551712,47.2439182],[6.9551188,47.2439277],[6.9550826,47.2439578],[6.9550545,47.2439946],[6.955029,47.2440361]],[[6.9551269,47.2438936],[6.9551416,47.2439022],[6.9551913,47.2438831],[6.9552275,47.2438603],[6.9552429,47.2438471],[6.9552617,47.2438189],[6.9552523,47.2438044],[6.9552349,47.2437943],[6.9552127,47.2437939],[6.9551812,47.2438166],[6.9551591,47.2438435],[6.9551269,47.2438936]],[[6.9551946,47.2437097],[6.9552060000000008,47.2437229],[6.9552241,47.2437251],[6.9552664,47.2437097],[6.9553019,47.2436874],[6.9553093,47.2436714],[6.955316,47.2436569],[6.9553294,47.2436482],[6.9553556,47.2436213],[6.9553743,47.2435854],[6.9553998,47.2435672],[6.9554199,47.2435412],[6.9554219,47.2435116],[6.9554206,47.2434757],[6.9554139,47.2434456],[6.9554172,47.2434283],[6.9554025,47.2434183],[6.9553703,47.2434124],[6.9553381,47.2434192],[6.9553227,47.2434383],[6.9553086,47.2434743],[6.95531,47.2434893],[6.9552838,47.2435007],[6.9552509,47.2435189],[6.9552416,47.2435394],[6.9552489,47.2435594],[6.9552697,47.2435822],[6.9552751,47.243599],[6.9552691,47.2436223],[6.9552496,47.2436423],[6.9552141,47.2436682],[6.9551986,47.2436883],[6.9551946,47.2437097]]]]},"properties":{"natural":"water","water":"river"}},
{"type":"Feature","geometry":{"type":"MultiPolygon","coordinates":[[[[6.950359,47.2595451],[6.950376,47.2594832],[6.9504129,47.2594062],[6.9504552,47.2593439],[6.9504932,47.2593112],[6.9505477,47.2592938],[6.9506107,47.2592979],[6.9506744,47.2593261],[6.9507435,47.2593921],[6.9507841,47.2594466],[6.9508629,47.2595692],[6.9508984,47.2596379],[6.9509319,47.2597216],[6.9510359,47.260047900000007],[6.9510788,47.2602563],[6.9511686,47.2606941],[6.9511633,47.2607091],[6.9511349,47.2607075],[6.951113,47.2606923],[6.9510526,47.2606063],[6.9510312,47.2605517],[6.9509882,47.2604984],[6.950938,47.2604734],[6.9508964,47.2604593],[6.9507907,47.2603871],[6.9507502,47.2603428],[6.9507093,47.2602773],[6.9506811,47.2602113],[6.9506583,47.2601571],[6.9506436,47.2600998],[6.9506329,47.2600543],[6.950606,47.2600074],[6.9505852,47.2599619],[6.9505531,47.2599223],[6.9505276,47.2598814],[6.950488,47.2598536],[6.9504129,47.2598295],[6.9503935,47.259814],[6.950368,47.2597685],[6.9503693,47.2597089],[6.950376,47.2596552],[6.9503633,47.2595919],[6.950359,47.2595451]]]]},"properties":{"name":"L'Île","place":"islet","source":"cadastre-dgi-fr source : Direction Générale des Impôts - Cadastre. Mise à jour : 2010"}},
{"type":"Feature","geometry":{"type":"MultiPolygon","coordinates":[[[[6.9285563,47.2289337],[6.9286874,47.22899],[6.9288292,47.2290464],[6.9289921,47.2291133],[6.928966,47.2291168],[6.9289358,47.2291145],[6.9288875,47.2290995],[6.9287829,47.229058],[6.9286642,47.2290052],[6.928567,47.2289606],[6.928558,47.2289487],[6.9285563,47.2289337]]]]},"properties":{"natural":"shingle"}},
{"type":"Feature","geometry":{"type":"MultiPolygon","coordinates":[[[[6.9282659,47.2288134],[6.928339,47.2288426],[6.9284785,47.2289105],[6.9284787,47.2289204],[6.9283296,47.2288495],[6.9282687,47.228823],[6.9282659,47.2288134]]]]},"properties":{"natural":"shingle"}},
{"type":"Feature","geometry":{"type":"MultiPolygon","coordinates":[[[[6.9280116,47.228693],[6.9280641,47.2286792],[6.9280761,47.2287056],[6.9280889,47.2287288],[6.9280989,47.2287397],[6.928114,47.2287525],[6.928208,47.2287901],[6.9282104,47.2287998],[6.9281097,47.2287611],[6.9280882,47.2287479],[6.9280116,47.228693]]]]},"properties":{"natural":"shingle"}},
{"type":"Feature","geometry":{"type":"MultiPolygon","coordinates":[[[[6.9540426,47.2560917],[6.9540446,47.2560812],[6.954058,47.2560612],[6.9541013,47.2560228],[6.9541284,47.2560009],[6.9541596,47.2559791],[6.9541928,47.2559606],[6.9542163,47.2559524],[6.9542391,47.2559488],[6.9542626,47.2559506],[6.954284,47.2559588],[6.9542934,47.2559702],[6.9542954,47.2559875],[6.9542887,47.2560043],[6.9542632,47.2560348],[6.9542304,47.2560635],[6.9541841,47.2560995],[6.9541486,47.2561222],[6.9541251,47.2561299],[6.9540996,47.2561304],[6.9540688,47.2561249],[6.954052,47.2561154],[6.954044,47.2561058],[6.9540426,47.2560917]]]]},"properties":{"natural":"water","water":"pond"}},
{"type":"Feature","geometry":{"type":"MultiPolygon","coordinates":[[[[6.9505906,47.2613249],[6.9507542,47.2612248],[6.9507491,47.2609841],[6.9508494,47.2609567],[6.9509085,47.2610928],[6.95095,47.261243],[6.9509809,47.2613767],[6.9509903,47.2614641],[6.9509648,47.2615834],[6.9509202,47.2616953],[6.9507737,47.2617025],[6.9506149,47.261708],[6.9505906,47.2613249]]]]},"properties":{"leaf_cycle":"deciduous","leaf_type":"broadleaved","natural":"scrub"}},
{"type":"Feature","geometry":{"type":"MultiPolygon","coordinates":[[[[6.9503046,47.2640852],[6.9503385,47.2640075],[6.9503854,47.2639201],[6.9504566,47.2638239],[6.9504384,47.2639274],[6.9504136,47.2640157],[6.9504129,47.2641431],[6.9503921,47.2641554],[6.950368,47.2641481],[6.9503251,47.2640912],[6.9503046,47.2640852]]]]},"properties":{"natural":"grassland"}},
{"type":"Feature","geometry":{"type":"MultiPolygon","coordinates":[[[[6.9492111,47.2586839],[6.9493031,47.2585388],[6.9494922,47.2585243],[6.9495754,47.2586426],[6.9495566,47.2587509],[6.9496639,47.2588301],[6.9496612,47.2589894],[6.9498792,47.258943],[6.9498664,47.2590247],[6.9497933,47.2591036],[6.9498121,47.2594139],[6.9498503,47.2595564],[6.9494623,47.2595746],[6.9492253,47.2590704],[6.9493801,47.2588556],[6.9492111,47.2586839]]]]},"properties":{"natural":"scrub"}},
{"type":"Feature","geometry":{"type":"MultiPolygon","coordinates":[[[[6.949942,47.2485805],[6.950116,47.2484828],[6.9499849,47.2483795],[6.9503143,47.2482044],[6.9508427,47.2479103],[6.951232,47.247744],[6.9517856,47.2480799],[6.9517701,47.2480851],[6.9517077,47.248106],[6.9516501,47.248132],[6.9516072,47.2481566],[6.9515711,47.2481842],[6.9515059,47.248244],[6.9514617,47.2482804],[6.9513738,47.2483386],[6.9512404,47.2484133],[6.9512122,47.2484315],[6.9511804,47.2484606],[6.9511575,47.2484867],[6.9511388,47.2485141],[6.9510861,47.2486008],[6.9510731,47.2486256],[6.9510576,47.2486509],[6.9510409,47.2486707],[6.9510359,47.2486761],[6.9510181,47.2486923],[6.950991,47.2487113],[6.9509467,47.2487351],[6.950891,47.2487615],[6.9507596,47.2488152],[6.9505099,47.2489045],[6.949942,47.2485805]]]]},"properties":{"name":"Camping FSCK","tourism":"camp_site"}},
{"type":"Feature","geometry":{"type":"MultiPolygon","coordinates":[[[[6.9455864,47.2578427],[6.9459752,47.2577615],[6.9460342,47.2577975],[6.9460985,47.2578508],[6.9461428,47.2579044],[6.946183,47.2579717],[6.9461978,47.2580127],[6.9462092,47.2580628],[6.9462158,47.2581322],[6.9462164,47.2581558],[6.9462178,47.2582102],[6.9457834,47.2581352],[6.9456755,47.2580209],[6.9455864,47.2578427]]]]},"properties":{"leisure":"garden"}},
{"type":"Feature","geometry":{"type":"MultiPolygon","coordinates":[[[[6.9429905,47.2585261],[6.9437188,47.2584478],[6.943749,47.2585402],[6.9437644,47.2586062],[6.943774,47.2586645],[6.9437791,47.2587136],[6.9437765,47.2587668],[6.9437657,47.2588105],[6.9437419,47.2588616],[6.9438049,47.258978],[6.9431367,47.2590522],[6.9429905,47.2585261]]]]},"properties":{"leisure":"garden"}},
{"type":"Feature","geometry":{"type":"MultiPolygon","coordinates":[[[[6.9475584,47.2477683],[6.9475771,47.2477055],[6.9476201,47.2476481],[6.9477139,47.2476254],[6.9477649,47.2476354],[6.947789,47.24767],[6.9477649,47.2477319],[6.9478132,47.2477383],[6.9479687,47.2477091],[6.9481578,47.2476909],[6.9481914,47.2477292],[6.9481672,47.2477437],[6.9480291,47.2477519],[6.9479419,47.2477974],[6.9478977,47.247853],[6.9477314,47.2479212],[6.9476295,47.247913],[6.9475999,47.2478621],[6.9475584,47.2477683]]]]},"properties":{"natural":"scree"}},
{"type":"Feature","geometry":{"type":"MultiPolygon","coordinates":[[[[6.9490188,47.247497],[6.9490591,47.2474742],[6.9491033,47.247487],[6.9491529,47.2475107],[6.9492066,47.2475006],[6.9492133,47.2474488],[6.9491677,47.2473923],[6.9491744,47.247345],[6.9492736,47.2473222],[6.9492844,47.2472749],[6.9492656,47.2471957],[6.9493219,47.247152],[6.9494212,47.2471447],[6.9494788,47.2471638],[6.9494627,47.2472048],[6.9494748,47.2472421],[6.9495741,47.2472348],[6.9496183,47.2472639],[6.9495794,47.2473104],[6.9495606,47.2473513],[6.9496237,47.247395],[6.9497377,47.2474096],[6.9497712,47.2474488],[6.9496974,47.2474988],[6.949558,47.2475553],[6.9494574,47.2476263],[6.9493179,47.24767],[6.9491355,47.2476545],[6.9490376,47.2476154],[6.9490188,47.247497]]]]},"properties":{"natural":"scree"}},
{"type":"Feature","geometry":{"type":"MultiPolygon","coordinates":[[[[6.9275845,47.2278843],[6.927586,47.2278718],[6.9275883,47.2278651],[6.9275937,47.2278596],[6.9276034,47.2278582],[6.9276175,47.2278614],[6.9276321,47.2278706],[6.9276441,47.2278818],[6.927652,47.2278928],[6.9276565,47.2279029],[6.9276599,47.2279143],[6.9276617,47.2279246],[6.9276599,47.227933],[6.9276552,47.2279405],[6.9276468,47.2279463],[6.9276376,47.2279483],[6.927625,47.2279462],[6.9276148,47.2279415],[6.9276066,47.2279347],[6.9276014,47.2279274],[6.9275955,47.2279183],[6.9275908,47.2279096],[6.927586,47.2278969],[6.9275845,47.2278843]]]]},"properties":{"natural":"water","water":"pond"}},
{"type":"Feature","geometry":{"type":"MultiPolygon","coordinates":[[[[6.9551317,47.2426162],[6.9552065,47.2425216],[6.9552917,47.2425531],[6.9553022,47.2425755],[6.9553187,47.2426076],[6.9552731,47.2426681],[6.9551317,47.2426162]]]]},"properties":{"access":"customers","amenity":"parking","fee":"no","maxstay":"unlimited","parking":"surface","surface":"gravel"}},
{"type":"Feature","geometry":{"type":"MultiPolygon","coordinates":[[[[6.9544831,47.2423522],[6.9544986,47.2423226],[6.9548276,47.2423511],[6.9553339,47.2425122],[6.9554421,47.2426635],[6.9554189,47.2426925],[6.9553777,47.2427441],[6.9552114,47.2427118],[6.9550793,47.2427754],[6.9550525,47.2427521],[6.9550377,47.2427309],[6.9550236,47.2426963],[6.9550169,47.2426499],[6.9550106,47.2426376],[6.9549973,47.2426241],[6.9550965,47.2426652],[6.9551114,47.2426487],[6.9551073,47.242647],[6.9550949,47.2426609],[6.9547929,47.2425356],[6.9548046,47.2425217],[6.9548173,47.2425069],[6.9547541,47.2424807],[6.9547555,47.2424788],[6.9551186,47.2426114],[6.9551935,47.2425168],[6.9549731,47.2424363],[6.9549543,47.2424601],[6.9548116,47.242408],[6.9547543,47.2423983],[6.9544831,47.2423522]],[[6.9551317,47.2426162],[6.9552731,47.2426681],[6.9553187,47.2426076],[6.9553022,47.2425755],[6.9552917,47.2425531],[6.9552065,47.2425216],[6.9551317,47.2426162]]]]},"properties":{"natural":"grassland"}},
{"type":"Feature","geometry":{"type":"MultiPolygon","coordinates":[[[[6.9543139,47.2427689],[6.9543182,47.2427375],[6.9543497,47.2427396],[6.9543611,47.2427348],[6.9543779,47.2427175],[6.954393,47.2427316],[6.9544195,47.2427591],[6.9543754,47.2427585],[6.9543447,47.2427626],[6.9543139,47.2427689]]]]},"properties":{"natural":"bare_rock"}},
{"type":"Feature","geometry":{"type":"MultiPolygon","coordinates":[[[[6.9544634,47.2423901],[6.9544831,47.2423522],[6.9547543,47.2423983],[6.9548116,47.242408],[6.9547555,47.2424788],[6.9547541,47.2424807],[6.9546507,47.2424378],[6.9544634,47.2423901]]]]},"properties":{"leisure":"outdoor_seating"}},
{"type":"Feature","geometry":{"type":"MultiPolygon","coordinates":[[[[6.950149,47.2657227],[6.9501826,47.265583],[6.9502728,47.2653826],[6.9504491,47.2654265],[6.9503314,47.2657385],[6.950149,47.2657227]]]]},"properties":{"leaf_cycle":"deciduous","leaf_type":"broadleaved","natural":"scrub"}},
{"type":"Feature","geometry":{"type":"MultiPolygon","coordinates":[[[[6.9439017,47.25487],[6.9439059,47.2548137],[6.9439166,47.2547614],[6.9439363,47.2546976],[6.9439676,47.2546353],[6.9440058,47.2545748],[6.94405,47.2545156],[6.9440997,47.2544501],[6.9441506,47.2543932],[6.9442143,47.2543299],[6.9443008,47.2543668],[6.9442291,47.2544346],[6.944166,47.2544979],[6.9441272,47.2545461],[6.9440956,47.2545903],[6.9440614,47.2546449],[6.9440319,47.2547063],[6.9440104,47.2547684],[6.9439971,47.2548283],[6.943993,47.2548938],[6.9439991,47.2549521],[6.9440085,47.255004],[6.9440266,47.2550609],[6.944048,47.2551168],[6.9440795,47.2551847],[6.9441251,47.2552456],[6.9441956,47.2553048],[6.9442827,47.2553581],[6.9443746,47.2554008],[6.944506,47.2554495],[6.9446153,47.255485],[6.9447199,47.2555146],[6.9446361,47.2556141],[6.9445671,47.2555767],[6.944333,47.2554527],[6.9442199,47.2553928],[6.9441526,47.2553508],[6.944097,47.2553121],[6.9440541,47.2552729],[6.944022,47.2552334],[6.943991,47.2551865],[6.9439676,47.2551437],[6.9439421,47.2550899],[6.9439193,47.2550285],[6.9439072,47.2549771],[6.9439019,47.2549252],[6.9439017,47.25487]]]]},"properties":{"leaf_cycle":"deciduous","leaf_type":"broadleaved","natural":"scrub"}},
{"type":"Feature","geometry":{"type":"MultiPolygon","coordinates":[[[[6.9435619,47.255414],[6.943991,47.2551865],[6.944022,47.2552334],[6.9440541,47.2552729],[6.944097,47.2553121],[6.9441526,47.2553508],[6.9442199,47.2553928],[6.944333,47.2554527],[6.9441012,47.2555946],[6.9439146,47.255709],[6.9435619,47.255414]]]]},"properties":{"leisure":"garden"}},
{"type":"Feature","geometry":{"type":"MultiPolygon","coordinates":[[[[6.9411392,47.2552306],[6.9413866,47.254897],[6.9417674,47.2547977],[6.9419938,47.2547536],[6.9420367,47.2548219],[6.9420686,47.2548831],[6.942086,47.2549257],[6.9420994,47.2549707],[6.9421121,47.2550322],[6.9421304,47.255124],[6.9421436,47.2552559],[6.9421517,47.2553244],[6.9421598,47.2553623],[6.9413222,47.2553876],[6.9411392,47.2552306]]]]},"properties":{"leisure":"garden"}},
{"type":"Feature","geometry":{"type":"MultiPolygon","coordinates":[[[[6.947946,47.2574489],[6.947947,47.2574436],[6.9479506,47.2574388],[6.9479641,47.257432],[6.9479983,47.2574033],[6.948017,47.2573815],[6.9480405,47.257341],[6.9481149,47.2571653],[6.9481317,47.2571221],[6.9481545,47.2570884],[6.948184,47.2570679],[6.9482229,47.2570556],[6.9482631,47.2570529],[6.948294,47.2570597],[6.9483127,47.2570702],[6.9483174,47.257088],[6.9482343,47.2572709],[6.9482202,47.2573214],[6.9482202,47.2573483],[6.9482343,47.2573733],[6.9482517,47.2573902],[6.9482785,47.2574024],[6.9483322,47.2574111],[6.9483847,47.2574104],[6.94839,47.2574129],[6.9483932,47.257417],[6.9483919,47.2574221],[6.9483867,47.2574253],[6.948237,47.2574464],[6.9481609,47.2574523],[6.9479607,47.2574557],[6.947954,47.2574548],[6.9479483,47.2574527],[6.947946,47.2574489]]]]},"properties":{"leaf_cycle":"deciduous","leaf_type":"broadleaved","natural":"scrub"}},
{"type":"Feature","geometry":{"type":"MultiPolygon","coordinates":[[[[6.9307012,47.2561948],[6.9308281,47.2560995],[6.9330919,47.2575085],[6.9329309,47.257625],[6.9307012,47.2561948]]]]},"properties":{"leaf_cycle":"deciduous","leaf_type":"broadleaved","natural":"scrub"}},
{"type":"Feature","geometry":{"type":"MultiPolygon","coordinates":[[[[6.9338536,47.2582075],[6.934036,47.2580765],[6.9352591,47.2588629],[6.9351572,47.2589357],[6.9338536,47.2582075]]]]},"properties":{"leaf_cycle":"deciduous","leaf_type":"broadleaved","natural":"scrub"}},
{"type":"Feature","geometry":{"type":"MultiPolygon","coordinates":[[[[6.9427758,47.2636698],[6.9429798,47.2636348],[6.9440058,47.2642709],[6.9441128,47.264249],[6.9455094,47.2650924],[6.9454933,47.2653363],[6.9438194,47.2643241],[6.9428028,47.2637654],[6.9427758,47.2636698]]]]},"properties":{"leaf_cycle":"deciduous","leaf_type":"broadleaved","natural":"scrub"}},
{"type":"Feature","geometry":{"type":"MultiPolygon","coordinates":[[[[6.9392092,47.2615122],[6.9393696,47.2613753],[6.9403435,47.2619634],[6.9400074,47.261964999999999],[6.9392092,47.2615122]]]]},"properties":{"leaf_cycle":"deciduous","leaf_type":"broadleaved","natural":"scrub"}},
{"type":"Feature","geometry":{"type":"MultiPolygon","coordinates":[[[[6.9480841,47.2642327],[6.9481109,47.2641053],[6.9483161,47.2639551],[6.9483711,47.2639688],[6.9484998,47.2641199],[6.9486058,47.2641226],[6.9485924,47.2643779],[6.9485682,47.2644857],[6.9484207,47.2645458],[6.9482665,47.2644957],[6.9482812,47.2643601],[6.9480841,47.2642327]]]]},"properties":{"leaf_cycle":"deciduous","leaf_type":"broadleaved","natural":"scrub"}},
{"type":"Feature","geometry":{"type":"MultiPolygon","coordinates":[[[[6.9491255,47.2655638],[6.9492176,47.2653089],[6.9494937,47.2652248],[6.949558,47.2652447],[6.9495207,47.2653058],[6.9494838,47.2653842],[6.9494547,47.2654609],[6.9494356,47.2655259],[6.9494186,47.2656096],[6.9491255,47.2655638]]]]},"properties":{"leisure":"garden"}},
{"type":"Feature","geometry":{"type":"MultiPolygon","coordinates":[[[[6.9162503,47.239181],[6.916361,47.2389862],[6.9166327,47.2390904],[6.9164718,47.2393635],[6.9162503,47.239181]]]]},"properties":{"leaf_cycle":"deciduous","leaf_type":"broadleaved","natural":"scrub"}},
{"type":"Feature","geometry":{"type":"MultiPolygon","coordinates":[[[[6.9282357,47.2548965],[6.9282471,47.254834],[6.9282609,47.2547725],[6.92828,47.2547168],[6.9282988,47.254669],[6.9283137,47.2546322],[6.9283336,47.254583],[6.9283434,47.2545525],[6.9283522,47.2545233],[6.928486,47.2544762],[6.9288902,47.2548319],[6.9286636,47.2549953],[6.9282357,47.2548965]]]]},"properties":{"leisure":"garden"}},
{"type":"Feature","geometry":{"type":"MultiPolygon","coordinates":[[[[6.9281821,47.2540059],[6.9282141,47.2539141],[6.928325,47.2539156],[6.928803,47.2541866],[6.9289827,47.2543012],[6.928486,47.2544762],[6.9283522,47.2545233],[6.9282655,47.2545538],[6.9283015,47.2543618],[6.9281821,47.2540059]]]]},"properties":{"leaf_cycle":"mixed","leaf_type":"mixed","natural":"scrub"}},
{"type":"Feature","geometry":{"type":"MultiPolygon","coordinates":[[[[6.9265976,47.2523054],[6.926664,47.2522731],[6.9268492,47.2524789],[6.9271274,47.2528165],[6.9272378,47.2529279],[6.927364,47.2530355],[6.927612,47.2532371],[6.9275471,47.2532758],[6.9271025,47.2529745],[6.9269756,47.252829],[6.9267806,47.2525053],[6.9267089,47.2524156],[6.9265976,47.2523054]]]]},"properties":{"leaf_cycle":"deciduous","leaf_type":"broadleaved","natural":"scrub"}},
{"type":"Feature","geometry":{"type":"MultiPolygon","coordinates":[[[[6.9150062,47.2390679],[6.9162798,47.2393394],[6.916249,47.2394077],[6.9154939,47.2392428],[6.9154053,47.2392738],[6.9154195,47.2394122],[6.91562,47.2394577],[6.915824,47.239512],[6.9159982,47.2395715],[6.9161296,47.2396257],[6.91629,47.239698],[6.9164615,47.2397723],[6.9166097,47.2398342],[6.9168028,47.239907],[6.9170281,47.2399807],[6.9172253,47.24004],[6.9174761,47.2401023],[6.9176732,47.2401429],[6.9178891,47.2401829],[6.9181359,47.240223],[6.9182888,47.2402467],[6.918392,47.2402585],[6.9184926,47.2402658],[6.918632,47.2402678],[6.9185878,47.2404275],[6.9183719,47.2406087],[6.9176155,47.2404448],[6.9172722,47.2404594],[6.9164718,47.2401976],[6.9163495,47.2400297],[6.915021,47.2396976],[6.9152302,47.2392303],[6.9150062,47.2390679]]]]},"properties":{"leaf_cycle":"deciduous","leaf_type":"broadleaved","natural":"scrub"}},
{"type":"Feature","geometry":{"type":"MultiPolygon","coordinates":[[[[6.9071119,47.2332946],[6.9072003,47.2332058],[6.9077683,47.2334665],[6.9076799,47.2335553],[6.9071119,47.2332946]]]]},"properties":{"leisure":"pitch","source":"data.gouv.fr:Le ministère des droits des femmes, de la ville, de la jeunesse et des sports - 11/2015","sport":"soccer"}},
{"type":"Feature","geometry":{"type":"MultiPolygon","coordinates":[[[[6.8913584,47.2477566],[6.8913809,47.2476483],[6.8929634,47.2488391],[6.8935883,47.2489029],[6.8940792,47.249054],[6.8945567,47.2492779],[6.8948201,47.249496],[6.8947309,47.2495605],[6.8939799,47.2491703],[6.8934703,47.2490392],[6.8926371,47.248963],[6.8926499,47.2487553],[6.8913584,47.2477566]]]]},"properties":{"natural":"wood"}},
{"type":"Feature","geometry":{"type":"MultiPolygon","coordinates":[[[[6.9520104,47.2379581],[6.9524743,47.2377824],[6.9529801,47.2380724],[6.9521796,47.2382376],[6.9520104,47.2379581]]]]},"properties":{"natural":"bare_rock"}},
{"type":"Feature","geometry":{"type":"MultiPolygon","coordinates":[[[[6.8893048,47.2272024],[6.889514,47.226962],[6.8898305,47.2269875],[6.8899727,47.2269365],[6.8899298,47.2268418],[6.8902275,47.2267015],[6.8903214,47.2265194],[6.8900532,47.2265194],[6.8897474,47.2263718],[6.8899888,47.2262571],[6.889624,47.2260677],[6.8894926,47.2260167],[6.889565,47.2258728],[6.8899566,47.2259802],[6.8900451,47.225942],[6.8902677,47.226013],[6.8905413,47.2260276],[6.8905896,47.2258199],[6.8906245,47.2257398],[6.8908364,47.2257817],[6.890831,47.2260039],[6.890721,47.226197],[6.8910858,47.2262862],[6.8911368,47.2263536],[6.8909973,47.2264392],[6.8909463,47.2265522],[6.8907747,47.2267416],[6.8907532,47.2268163],[6.8906513,47.2269092],[6.8906271,47.2270531],[6.8904555,47.2271879],[6.890249,47.2272298],[6.8901417,47.2273318],[6.8900451,47.2275649],[6.8899244,47.2280603],[6.8898922,47.2281642],[6.8898547,47.2281824],[6.8897903,47.2280895],[6.8895194,47.2280166],[6.8893906,47.227911],[6.8894041,47.2275285],[6.8896186,47.2275831],[6.8898573,47.2276869],[6.8899137,47.2276596],[6.8899378,47.2274902],[6.8901417,47.2272316],[6.8900076,47.2271405],[6.8897635,47.2272553],[6.8898547,47.2273718],[6.889565,47.2274866],[6.8894497,47.2274301],[6.8894094,47.2272625],[6.8893048,47.2272024]]]]},"properties":{"natural":"wood","source":"BDOrtho IGN - available 2023 at the latest"}},
{"type":"Feature","geometry":{"type":"MultiPolygon","coordinates":[[[[6.92893,47.2503384],[6.929291,47.2502567],[6.9295122,47.2506783],[6.9291353,47.2507528],[6.92893,47.2503384]]]]},"properties":{"leisure":"pitch","sport":"equestrian"}}
]}
