{"type":"FeatureCollection","features":[
{"type":"Feature","geometry":{"type":"Point","coordinates":[-0.2947532,43.3972386]},"properties":{"description":"30 promenades et randonnées entre Luy, Gabas, Souye et Lées","hiking":"yes","information":"map","tourism":"information"}},
{"type":"Feature","geometry":{"type":"Point","coordinates":[-0.294726,43.3972071]},"properties":{"information":"guidepost","tourism":"information"}},
{"type":"Feature","geometry":{"type":"Point","coordinates":[-0.2878256,43.3609011]},"properties":{"leisure":"sports_centre","source":"Bing ; cadastre-dgi-fr source : Direction Générale des Impôts - Cadastre. Mise à jour : 2013"}},
{"type":"Feature","geometry":{"type":"Point","coordinates":[-0.2626843,43.349728]},"properties":{"name":"Camping municipal","tourism":"camp_site"}},
{"type":"Feature","geometry":{"type":"Point","coordinates":[-0.2613935,43.3477915]},"properties":{"addr:housenumber":"3","addr:postcode":"64160","addr:street":"Rue Bourgneuf","amenity":"restaurant","name":"Le Bourgneuf","tourism":"hotel","website":"https://www.hotel-bourgneuf.com/"}},
{"type":"Feature","geometry":{"type":"Point","coordinates":[-0.2644358,43.3422006]},"properties":{"addr:postcode":"64160","addr:street":"Place de la Hourquie","amenity":"bar","name":"Chez Curon","shop":"newsagent","tobacco":"yes","tourism":"hotel"}},
{"type":"Feature","geometry":{"type":"Point","coordinates":[-0.2649078,43.3407005]},"properties":{"addr:housenumber":"6","addr:postcode":"64160","addr:street":"Place de la Hourquie","amenity":"restaurant","name":"L'Amandier","tourism":"hotel","website":"https://www.hotel-restaurant-lamandier.com/"}},
{"type":"Feature","geometry":{"type":"Point","coordinates":[-0.2632937,43.3453984]},"properties":{"addr:housenumber":"15","addr:postcode":"64160","addr:street":"Place Sainte-Foy","amenity":"restaurant","name":"Hôtel de France","opening_hours":"24/7","tourism":"hotel"}},
{"type":"Feature","geometry":{"type":"Point","coordinates":[-0.2652719,43.3423748]},"properties":{"leisure":"fitness_centre","name":"Studio Pilates","wikidata":"Q120227531"}},
{"type":"Feature","geometry":{"type":"Point","coordinates":[-0.261662,43.3483023]},"properties":{"amenity":"restaurant","name":"Le Bourgneuf","tourism":"hotel","website":"https://www.hotel-bourgneuf.com/"}},
{"type":"Feature","geometry":{"type":"Point","coordinates":[-0.2603575,43.3446402]},"properties":{"leisure":"pitch","name":"Skate park","source":"data.gouv.fr:Le ministère des droits des femmes, de la ville, de la jeunesse et des sports - 2014","sport":"skateboard","surface":"asphalt"}},
{"type":"Feature","geometry":{"type":"Point","coordinates":[-0.2675933,43.3415483]},"properties":{"information":"guidepost","name":"Via Tolosana","ref":"GR 653","source":"cadastre-dgi-fr source : Direction Générale des Impôts - Cadastre. Mise à jour : 2015","tourism":"information"}},
{"type":"Feature","geometry":{"type":"Point","coordinates":[-0.2673521,43.3416095]},"properties":{"historic":"wayside_cross","source":"cadastre-dgi-fr source : Direction Générale des Impôts - Cadastre. Mise à jour : 2015"}},
{"type":"Feature","geometry":{"type":"Point","coordinates":[-0.3056127,43.3774365]},"properties":{"historic":"memorial","memorial":"war_memorial","name":"Monument aux Morts"}},
{"type":"Feature","geometry":{"type":"Point","coordinates":[-0.2632487,43.3449908]},"properties":{"historic":"memorial"}},
{"type":"Feature","geometry":{"type":"Point","coordinates":[-0.3100186,43.3530886]},"properties":{"historic":"memorial","memorial":"war_memorial"}},
{"type":"Feature","geometry":{"type":"Point","coordinates":[-0.26359,43.34167]},"properties":{"dance:teaching":"yes","leisure":"dance","source":"data.gouv.fr:Le ministère des droits des femmes, de la ville, de la jeunesse et des sports - 11/2015"}},
{"type":"Feature","geometry":{"type":"Point","coordinates":[-0.2979866,43.374419]},"properties":{"historic":"ruins","historic:civilization":"medieval","name":"Moulin"}},
{"type":"Feature","geometry":{"type":"Point","coordinates":[-0.2658328,43.3463191]},"properties":{"natural":"tree"}},
{"type":"Feature","geometry":{"type":"Point","coordinates":[-0.2624977,43.3491597]},"properties":{"access":"yes","leisure":"pitch","sport":"table_tennis"}},
{"type":"Feature","geometry":{"type":"Point","coordinates":[-0.2634082,43.3450075]},"properties":{"natural":"tree"}},
{"type":"Feature","geometry":{"type":"Point","coordinates":[-0.2634699,43.3449441]},"properties":{"natural":"tree"}},
{"type":"Feature","geometry":{"type":"Point","coordinates":[-0.2646814,43.3412976]},"properties":{"natural":"tree"}},
{"type":"Feature","geometry":{"type":"Point","coordinates":[-0.2647836,43.3412031]},"properties":{"natural":"tree"}},
{"type":"Feature","geometry":{"type":"Point","coordinates":[-0.2647461,43.3412378]},"properties":{"natural":"tree"}},
{"type":"Feature","geometry":{"type":"Point","coordinates":[-0.2646233,43.3413512]},"properties":{"natural":"tree"}},
{"type":"Feature","geometry":{"type":"Point","coordinates":[-0.2645622,43.3414077]},"properties":{"natural":"tree"}},
{"type":"Feature","geometry":{"type":"Point","coordinates":[-0.2645083,43.3414575]},"properties":{"natural":"tree"}},
{"type":"Feature","geometry":{"type":"Point","coordinates":[-0.2644525,43.3415091]},"properties":{"natural":"tree"}},
{"type":"Feature","geometry":{"type":"Point","coordinates":[-0.2644055,43.3415526]},"properties":{"natural":"tree"}},
{"type":"Feature","geometry":{"type":"Point","coordinates":[-0.2643466,43.341607]},"properties":{"natural":"tree"}},
{"type":"Feature","geometry":{"type":"Point","coordinates":[-0.2642815,43.3416671]},"properties":{"natural":"tree"}},
{"type":"Feature","geometry":{"type":"Point","coordinates":[-0.2642292,43.3417155]},"properties":{"natural":"tree"}},
{"type":"Feature","geometry":{"type":"Point","coordinates":[-0.2641748,43.3417657]},"properties":{"natural":"tree"}},
{"type":"Feature","geometry":{"type":"Point","coordinates":[-0.2638315,43.3416799]},"properties":{"natural":"tree"}},
{"type":"Feature","geometry":{"type":"Point","coordinates":[-0.2642593,43.3415561]},"properties":{"natural":"tree"}},
{"type":"Feature","geometry":{"type":"Point","coordinates":[-0.2643091,43.3415115]},"properties":{"natural":"tree"}},
{"type":"Feature","geometry":{"type":"Point","coordinates":[-0.2643629,43.3414632]},"properties":{"natural":"tree"}},
{"type":"Feature","geometry":{"type":"Point","coordinates":[-0.2644256,43.341407]},"properties":{"natural":"tree"}},
{"type":"Feature","geometry":{"type":"Point","coordinates":[-0.2644818,43.3413566]},"properties":{"natural":"tree"}},
{"type":"Feature","geometry":{"type":"Point","coordinates":[-0.2645492,43.3412962]},"properties":{"natural":"tree"}},
{"type":"Feature","geometry":{"type":"Point","coordinates":[-0.2641104,43.3416897]},"properties":{"natural":"tree"}},
{"type":"Feature","geometry":{"type":"Point","coordinates":[-0.2640179,43.3416399]},"properties":{"natural":"tree"}},
{"type":"Feature","geometry":{"type":"Point","coordinates":[-0.2640632,43.341599]},"properties":{"natural":"tree"}},
{"type":"Feature","geometry":{"type":"Point","coordinates":[-0.264135,43.3415343]},"properties":{"natural":"tree"}},
{"type":"Feature","geometry":{"type":"Point","coordinates":[-0.2641866,43.3414878]},"properties":{"natural":"tree"}},
{"type":"Feature","geometry":{"type":"Point","coordinates":[-0.2643389,43.3413505]},"properties":{"natural":"tree"}},
{"type":"Feature","geometry":{"type":"Point","coordinates":[-0.2643988,43.3412966]},"properties":{"natural":"tree"}},
{"type":"Feature","geometry":{"type":"Point","coordinates":[-0.2643585,43.3417979]},"properties":{"natural":"tree"}},
{"type":"Feature","geometry":{"type":"Point","coordinates":[-0.264408,43.3417522]},"properties":{"natural":"tree"}},
{"type":"Feature","geometry":{"type":"Point","coordinates":[-0.2644593,43.3417048]},"properties":{"natural":"tree"}},
{"type":"Feature","geometry":{"type":"Point","coordinates":[-0.2645231,43.3416459]},"properties":{"natural":"tree"}},
{"type":"Feature","geometry":{"type":"Point","coordinates":[-0.2646316,43.3415456]},"properties":{"natural":"tree"}},
{"type":"Feature","geometry":{"type":"Point","coordinates":[-0.2646859,43.3414954]},"properties":{"natural":"tree"}},
{"type":"Feature","geometry":{"type":"Point","coordinates":[-0.264754,43.3414326]},"properties":{"natural":"tree"}},
{"type":"Feature","geometry":{"type":"Point","coordinates":[-0.2648346,43.3413581]},"properties":{"natural":"tree"}},
{"type":"Feature","geometry":{"type":"Point","coordinates":[-0.2648475,43.3414988]},"properties":{"natural":"tree"}},
{"type":"Feature","geometry":{"type":"Point","coordinates":[-0.2649044,43.341439]},"properties":{"natural":"tree"}},
{"type":"Feature","geometry":{"type":"Point","coordinates":[-0.264781,43.3415687]},"properties":{"natural":"tree"}},
{"type":"Feature","geometry":{"type":"Point","coordinates":[-0.2649969,43.3415141]},"properties":{"natural":"tree"}},
{"type":"Feature","geometry":{"type":"Point","coordinates":[-0.2649292,43.3415817]},"properties":{"natural":"tree"}},
{"type":"Feature","geometry":{"type":"Point","coordinates":[-0.2648708,43.3416399]},"properties":{"natural":"tree"}},
{"type":"Feature","geometry":{"type":"Point","coordinates":[-0.2651967,43.3414653]},"properties":{"natural":"tree"}},
{"type":"Feature","geometry":{"type":"Point","coordinates":[-0.265138,43.3415352]},"properties":{"natural":"tree"}},
{"type":"Feature","geometry":{"type":"Point","coordinates":[-0.2650943,43.3415872]},"properties":{"natural":"tree"}},
{"type":"Feature","geometry":{"type":"Point","coordinates":[-0.2650344,43.3416585]},"properties":{"natural":"tree"}},
{"type":"Feature","geometry":{"type":"Point","coordinates":[-0.2653617,43.341472]},"properties":{"natural":"tree"}},
{"type":"Feature","geometry":{"type":"Point","coordinates":[-0.2652746,43.3415527]},"properties":{"natural":"tree"}},
{"type":"Feature","geometry":{"type":"Point","coordinates":[-0.2652141,43.3416087]},"properties":{"natural":"tree"}},
{"type":"Feature","geometry":{"type":"Point","coordinates":[-0.2654641,43.3415059]},"properties":{"natural":"tree"}},
{"type":"Feature","geometry":{"type":"Point","coordinates":[-0.2653952,43.3415629]},"properties":{"natural":"tree"}},
{"type":"Feature","geometry":{"type":"Point","coordinates":[-0.2643712,43.3411795]},"properties":{"natural":"tree"}},
{"type":"Feature","geometry":{"type":"Point","coordinates":[-0.2643021,43.341241]},"properties":{"natural":"tree"}},
{"type":"Feature","geometry":{"type":"Point","coordinates":[-0.264247,43.34129]},"properties":{"natural":"tree"}},
{"type":"Feature","geometry":{"type":"Point","coordinates":[-0.2641935,43.3413376]},"properties":{"natural":"tree"}},
{"type":"Feature","geometry":{"type":"Point","coordinates":[-0.2641459,43.34138]},"properties":{"natural":"tree"}},
{"type":"Feature","geometry":{"type":"Point","coordinates":[-0.2640919,43.3414279]},"properties":{"natural":"tree"}},
{"type":"Feature","geometry":{"type":"Point","coordinates":[-0.2640241,43.3414883]},"properties":{"natural":"tree"}},
{"type":"Feature","geometry":{"type":"Point","coordinates":[-0.2639709,43.3415356]},"properties":{"natural":"tree"}},
{"type":"Feature","geometry":{"type":"Point","coordinates":[-0.2644128,43.3411425]},"properties":{"natural":"tree"}},
{"type":"Feature","geometry":{"type":"Point","coordinates":[-0.2641654,43.3412147]},"properties":{"natural":"tree"}},
{"type":"Feature","geometry":{"type":"Point","coordinates":[-0.2642159,43.3411659]},"properties":{"natural":"tree"}},
{"type":"Feature","geometry":{"type":"Point","coordinates":[-0.2642955,43.3410889]},"properties":{"natural":"tree"}},
{"type":"Feature","geometry":{"type":"Point","coordinates":[-0.263983,43.3413746]},"properties":{"natural":"tree"}},
{"type":"Feature","geometry":{"type":"Point","coordinates":[-0.2639256,43.3414282]},"properties":{"natural":"tree"}},
{"type":"Feature","geometry":{"type":"Point","coordinates":[-0.2638784,43.3414722]},"properties":{"natural":"tree"}},
{"type":"Feature","geometry":{"type":"Point","coordinates":[-0.2639751,43.3412586]},"properties":{"natural":"tree"}},
{"type":"Feature","geometry":{"type":"Point","coordinates":[-0.2641957,43.3410539]},"properties":{"natural":"tree"}},
{"type":"Feature","geometry":{"type":"Point","coordinates":[-0.2641311,43.3411139]},"properties":{"natural":"tree"}},
{"type":"Feature","geometry":{"type":"Point","coordinates":[-0.2640751,43.3411658]},"properties":{"natural":"tree"}},
{"type":"Feature","geometry":{"type":"Point","coordinates":[-0.2640199,43.341217]},"properties":{"natural":"tree"}},
{"type":"Feature","geometry":{"type":"Point","coordinates":[-0.2639218,43.341308]},"properties":{"natural":"tree"}},
{"type":"Feature","geometry":{"type":"Point","coordinates":[-0.2638551,43.3413699]},"properties":{"natural":"tree"}},
{"type":"Feature","geometry":{"type":"Point","coordinates":[-0.2638006,43.3414205]},"properties":{"natural":"tree"}},
{"type":"Feature","geometry":{"type":"Point","coordinates":[-0.2639908,43.3411002]},"properties":{"natural":"tree"}},
{"type":"Feature","geometry":{"type":"Point","coordinates":[-0.2639372,43.3411516]},"properties":{"natural":"tree"}},
{"type":"Feature","geometry":{"type":"Point","coordinates":[-0.2638882,43.3411986]},"properties":{"natural":"tree"}},
{"type":"Feature","geometry":{"type":"Point","coordinates":[-0.2638288,43.3412556]},"properties":{"natural":"tree"}},
{"type":"Feature","geometry":{"type":"Point","coordinates":[-0.2636359,43.3412733]},"properties":{"natural":"tree"}},
{"type":"Feature","geometry":{"type":"Point","coordinates":[-0.2635793,43.34132]},"properties":{"natural":"tree"}},
{"type":"Feature","geometry":{"type":"Point","coordinates":[-0.2636832,43.3412342]},"properties":{"natural":"tree"}},
{"type":"Feature","geometry":{"type":"Point","coordinates":[-0.2637323,43.3411936]},"properties":{"natural":"tree"}},
{"type":"Feature","geometry":{"type":"Point","coordinates":[-0.2637884,43.3411473]},"properties":{"natural":"tree"}},
{"type":"Feature","geometry":{"type":"Point","coordinates":[-0.2638568,43.3410908]},"properties":{"natural":"tree"}},
{"type":"Feature","geometry":{"type":"Point","coordinates":[-0.2639146,43.341043]},"properties":{"natural":"tree"}},
{"type":"Feature","geometry":{"type":"Point","coordinates":[-0.2640809,43.3410138]},"properties":{"natural":"tree"}},
{"type":"Feature","geometry":{"type":"Point","coordinates":[-0.2636476,43.3411472]},"properties":{"natural":"tree"}},
{"type":"Feature","geometry":{"type":"Point","coordinates":[-0.2638315,43.3409981]},"properties":{"natural":"tree"}},
{"type":"Feature","geometry":{"type":"Point","coordinates":[-0.2637585,43.3410574]},"properties":{"natural":"tree"}},
{"type":"Feature","geometry":{"type":"Point","coordinates":[-0.2637008,43.3411041]},"properties":{"natural":"tree"}},
{"type":"Feature","geometry":{"type":"Point","coordinates":[-0.2635785,43.3412033]},"properties":{"natural":"tree"}},
{"type":"Feature","geometry":{"type":"Point","coordinates":[-0.2635322,43.3412408]},"properties":{"natural":"tree"}},
{"type":"Feature","geometry":{"type":"Point","coordinates":[-0.2634814,43.341282]},"properties":{"natural":"tree"}},
{"type":"Feature","geometry":{"type":"Point","coordinates":[-0.2636437,43.341006899999999]},"properties":{"natural":"tree"}},
{"type":"Feature","geometry":{"type":"Point","coordinates":[-0.2635678,43.3410771]},"properties":{"natural":"tree"}},
{"type":"Feature","geometry":{"type":"Point","coordinates":[-0.2635037,43.3411364]},"properties":{"natural":"tree"}},
{"type":"Feature","geometry":{"type":"Point","coordinates":[-0.2634497,43.3411863]},"properties":{"natural":"tree"}},
{"type":"Feature","geometry":{"type":"Point","coordinates":[-0.2634063,43.3412264]},"properties":{"natural":"tree"}},
{"type":"Feature","geometry":{"type":"Point","coordinates":[-0.2650119,43.3409921]},"properties":{"natural":"tree"}},
{"type":"Feature","geometry":{"type":"Point","coordinates":[-0.2650632,43.3409448]},"properties":{"natural":"tree"}},
{"type":"Feature","geometry":{"type":"Point","coordinates":[-0.2651162,43.3408957]},"properties":{"natural":"tree"}},
{"type":"Feature","geometry":{"type":"Point","coordinates":[-0.2649562,43.3410436]},"properties":{"natural":"tree"}},
{"type":"Feature","geometry":{"type":"Point","coordinates":[-0.2649848,43.3409055]},"properties":{"natural":"tree"}},
{"type":"Feature","geometry":{"type":"Point","coordinates":[-0.264928,43.3409564]},"properties":{"natural":"tree"}},
{"type":"Feature","geometry":{"type":"Point","coordinates":[-0.2648752,43.3410038]},"properties":{"natural":"tree"}},
{"type":"Feature","geometry":{"type":"Point","coordinates":[-0.2648173,43.3410557]},"properties":{"natural":"tree"}},
{"type":"Feature","geometry":{"type":"Point","coordinates":[-0.2647692,43.3410989]},"properties":{"natural":"tree"}},
{"type":"Feature","geometry":{"type":"Point","coordinates":[-0.2646898,43.3411701]},"properties":{"natural":"tree"}},
{"type":"Feature","geometry":{"type":"Point","coordinates":[-0.2646357,43.3412186]},"properties":{"natural":"tree"}},
{"type":"Feature","geometry":{"type":"Point","coordinates":[-0.2648051,43.3409133]},"properties":{"natural":"tree"}},
{"type":"Feature","geometry":{"type":"Point","coordinates":[-0.2647278,43.3409866]},"properties":{"natural":"tree"}},
{"type":"Feature","geometry":{"type":"Point","coordinates":[-0.264669,43.3410425]},"properties":{"natural":"tree"}},
{"type":"Feature","geometry":{"type":"Point","coordinates":[-0.2646208,43.3410882]},"properties":{"natural":"tree"}},
{"type":"Feature","geometry":{"type":"Point","coordinates":[-0.2645715,43.341135]},"properties":{"natural":"tree"}},
{"type":"Feature","geometry":{"type":"Point","coordinates":[-0.2645235,43.3411805]},"properties":{"natural":"tree"}},
{"type":"Feature","geometry":{"type":"Point","coordinates":[-0.2646562,43.340926]},"properties":{"natural":"tree"}},
{"type":"Feature","geometry":{"type":"Point","coordinates":[-0.2645917,43.3409834]},"properties":{"natural":"tree"}},
{"type":"Feature","geometry":{"type":"Point","coordinates":[-0.264527,43.3410409]},"properties":{"natural":"tree"}},
{"type":"Feature","geometry":{"type":"Point","coordinates":[-0.2644548,43.3411051]},"properties":{"natural":"tree"}},
{"type":"Feature","geometry":{"type":"Point","coordinates":[-0.2645288,43.3409113]},"properties":{"natural":"tree"}},
{"type":"Feature","geometry":{"type":"Point","coordinates":[-0.264482,43.3409587]},"properties":{"natural":"tree"}},
{"type":"Feature","geometry":{"type":"Point","coordinates":[-0.2644281,43.3410132]},"properties":{"natural":"tree"}},
{"type":"Feature","geometry":{"type":"Point","coordinates":[-0.2643813,43.3410606]},"properties":{"natural":"tree"}},
{"type":"Feature","geometry":{"type":"Point","coordinates":[-0.2643397,43.3409465]},"properties":{"natural":"tree"}},
{"type":"Feature","geometry":{"type":"Point","coordinates":[-0.2642033,43.340912]},"properties":{"natural":"tree"}},
{"type":"Feature","geometry":{"type":"Point","coordinates":[-0.2640849,43.3408821]},"properties":{"natural":"tree"}},
{"type":"Feature","geometry":{"type":"Point","coordinates":[-0.2665418,43.3410796]},"properties":{"natural":"tree"}},
{"type":"Feature","geometry":{"type":"Point","coordinates":[-0.2666572,43.3412688]},"properties":{"natural":"tree"}},
{"type":"Feature","geometry":{"type":"Point","coordinates":[-0.265331,43.3410323]},"properties":{"natural":"tree"}},
{"type":"Feature","geometry":{"type":"Point","coordinates":[-0.2651411,43.3411918]},"properties":{"natural":"tree"}},
{"type":"Feature","geometry":{"type":"Point","coordinates":[-0.265385,43.340987]},"properties":{"natural":"tree"}},
{"type":"Feature","geometry":{"type":"Point","coordinates":[-0.2652827,43.3410729]},"properties":{"natural":"tree"}},
{"type":"Feature","geometry":{"type":"Point","coordinates":[-0.2652143,43.3411303]},"properties":{"natural":"tree"}},
{"type":"Feature","geometry":{"type":"Point","coordinates":[-0.2654374,43.340943]},"properties":{"natural":"tree"}},
{"type":"Feature","geometry":{"type":"Point","coordinates":[-0.2651278,43.341083]},"properties":{"natural":"tree"}},
{"type":"Feature","geometry":{"type":"Point","coordinates":[-0.2650546,43.3411444]},"properties":{"natural":"tree"}},
{"type":"Feature","geometry":{"type":"Point","coordinates":[-0.2651962,43.3410255]},"properties":{"natural":"tree"}},
{"type":"Feature","geometry":{"type":"Point","coordinates":[-0.2652445,43.340985]},"properties":{"natural":"tree"}},
{"type":"Feature","geometry":{"type":"Point","coordinates":[-0.2652985,43.3409397]},"properties":{"natural":"tree"}},
{"type":"Feature","geometry":{"type":"Point","coordinates":[-0.2653509,43.3408957]},"properties":{"natural":"tree"}},
{"type":"Feature","geometry":{"type":"Point","coordinates":[-0.2655723,43.3414165]},"properties":{"natural":"tree"}},
{"type":"Feature","geometry":{"type":"Point","coordinates":[-0.2656418,43.3413592]},"properties":{"natural":"tree"}},
{"type":"Feature","geometry":{"type":"Point","coordinates":[-0.2657027,43.3413088]},"properties":{"natural":"tree"}},
{"type":"Feature","geometry":{"type":"Point","coordinates":[-0.2657597,43.3412617]},"properties":{"natural":"tree"}},
{"type":"Feature","geometry":{"type":"Point","coordinates":[-0.265813,43.3412177]},"properties":{"natural":"tree"}},
{"type":"Feature","geometry":{"type":"Point","coordinates":[-0.265878,43.341164]},"properties":{"natural":"tree"}},
{"type":"Feature","geometry":{"type":"Point","coordinates":[-0.2655977,43.3409572]},"properties":{"natural":"tree"}},
{"type":"Feature","geometry":{"type":"Point","coordinates":[-0.2656869,43.341023]},"properties":{"natural":"tree"}},
{"type":"Feature","geometry":{"type":"Point","coordinates":[-0.2657662,43.3410972]},"properties":{"natural":"tree"}},
{"type":"Feature","geometry":{"type":"Point","coordinates":[-0.2656625,43.3411932]},"properties":{"natural":"tree"}},
{"type":"Feature","geometry":{"type":"Point","coordinates":[-0.265609,43.3412429]},"properties":{"natural":"tree"}},
{"type":"Feature","geometry":{"type":"Point","coordinates":[-0.2655519,43.3412957]},"properties":{"natural":"tree"}},
{"type":"Feature","geometry":{"type":"Point","coordinates":[-0.2654909,43.3413522]},"properties":{"natural":"tree"}},
{"type":"Feature","geometry":{"type":"Point","coordinates":[-0.265363,43.3413385]},"properties":{"natural":"tree"}},
{"type":"Feature","geometry":{"type":"Point","coordinates":[-0.2654135,43.3412894]},"properties":{"natural":"tree"}},
{"type":"Feature","geometry":{"type":"Point","coordinates":[-0.2654682,43.341236]},"properties":{"natural":"tree"}},
{"type":"Feature","geometry":{"type":"Point","coordinates":[-0.2655232,43.3411825]},"properties":{"natural":"tree"}},
{"type":"Feature","geometry":{"type":"Point","coordinates":[-0.2655755,43.3411315]},"properties":{"natural":"tree"}},
{"type":"Feature","geometry":{"type":"Point","coordinates":[-0.2656324,43.341076]},"properties":{"natural":"tree"}},
{"type":"Feature","geometry":{"type":"Point","coordinates":[-0.2654832,43.3410653]},"properties":{"natural":"tree"}},
{"type":"Feature","geometry":{"type":"Point","coordinates":[-0.2655453,43.3410067]},"properties":{"natural":"tree"}},
{"type":"Feature","geometry":{"type":"Point","coordinates":[-0.2654292,43.3411164]},"properties":{"natural":"tree"}},
{"type":"Feature","geometry":{"type":"Point","coordinates":[-0.2653739,43.3411686]},"properties":{"natural":"tree"}},
{"type":"Feature","geometry":{"type":"Point","coordinates":[-0.2653233,43.3412164]},"properties":{"natural":"tree"}},
{"type":"Feature","geometry":{"type":"Point","coordinates":[-0.2652705,43.3412664]},"properties":{"natural":"tree"}},
{"type":"Feature","geometry":{"type":"Point","coordinates":[-0.264667,43.3418004]},"properties":{"natural":"tree"}},
{"type":"Feature","geometry":{"type":"Point","coordinates":[-0.2647193,43.3417511]},"properties":{"natural":"tree"}},
{"type":"Feature","geometry":{"type":"Point","coordinates":[-0.26462,43.3418448]},"properties":{"natural":"tree"}},
{"type":"Feature","geometry":{"type":"Point","coordinates":[-0.2644819,43.3419637]},"properties":{"natural":"tree"}},
{"type":"Feature","geometry":{"type":"Point","coordinates":[-0.2644135,43.342022299999999]},"properties":{"natural":"tree"}},
{"type":"Feature","geometry":{"type":"Point","coordinates":[-0.2614886,43.3409045]},"properties":{"natural":"tree"}},
{"type":"Feature","geometry":{"type":"Point","coordinates":[-0.2616264,43.3408984]},"properties":{"natural":"tree"}},
{"type":"Feature","geometry":{"type":"Point","coordinates":[-0.2617673,43.3408922]},"properties":{"natural":"tree"}},
{"type":"Feature","geometry":{"type":"Point","coordinates":[-0.2618869,43.340887]},"properties":{"natural":"tree"}},
{"type":"Feature","geometry":{"type":"Point","coordinates":[-0.2624515,43.3409065]},"properties":{"natural":"tree"}},
{"type":"Feature","geometry":{"type":"Point","coordinates":[-0.2612686,43.3410411]},"properties":{"natural":"tree"}},
{"type":"Feature","geometry":{"type":"Point","coordinates":[-0.261273,43.3411016]},"properties":{"natural":"tree"}},
{"type":"Feature","geometry":{"type":"Point","coordinates":[-0.2612762,43.341146]},"properties":{"natural":"tree"}},
{"type":"Feature","geometry":{"type":"Point","coordinates":[-0.2612798,43.3411951]},"properties":{"natural":"tree"}},
{"type":"Feature","geometry":{"type":"Point","coordinates":[-0.2612834,43.3412444]},"properties":{"natural":"tree"}},
{"type":"Feature","geometry":{"type":"Point","coordinates":[-0.2632561,43.3410567]},"properties":{"natural":"tree"}},
{"type":"Feature","geometry":{"type":"Point","coordinates":[-0.2632132,43.3410898]},"properties":{"natural":"tree"}},
{"type":"Feature","geometry":{"type":"Point","coordinates":[-0.263354,43.3410177]},"properties":{"natural":"tree"}},
{"type":"Feature","geometry":{"type":"Point","coordinates":[-0.2634084,43.3409668]},"properties":{"natural":"tree"}},
{"type":"Feature","geometry":{"type":"Point","coordinates":[-0.2634613,43.3409172]},"properties":{"natural":"tree"}},
{"type":"Feature","geometry":{"type":"Point","coordinates":[-0.2629651,43.3408743]},"properties":{"natural":"tree"}},
{"type":"Feature","geometry":{"type":"Point","coordinates":[-0.2632535,43.3409377]},"properties":{"natural":"tree"}},
{"type":"Feature","geometry":{"type":"Point","coordinates":[-0.2631877,43.3410118]},"properties":{"natural":"tree"}},
{"type":"Feature","geometry":{"type":"Point","coordinates":[-0.2627981,43.3411312]},"properties":{"natural":"tree"}},
{"type":"Feature","geometry":{"type":"Point","coordinates":[-0.2628697,43.3411969]},"properties":{"natural":"tree"}},
{"type":"Feature","geometry":{"type":"Point","coordinates":[-0.2629453,43.3412621]},"properties":{"natural":"tree"}},
{"type":"Feature","geometry":{"type":"Point","coordinates":[-0.2630214,43.3413337]},"properties":{"natural":"tree"}},
{"type":"Feature","geometry":{"type":"Point","coordinates":[-0.3067745,43.3766868]},"properties":{"denotation":"Planté_à_la_mémoire_d'Isabelle_Jordana,_professeur_des_écoles_et_directrice_de_l'école.","natural":"tree"}},
{"type":"Feature","geometry":{"type":"Point","coordinates":[-0.2597973,43.3783578]},"properties":{"information":"map","tourism":"information"}},
{"type":"Feature","geometry":{"type":"Point","coordinates":[-0.2596539,43.3782493]},"properties":{"historic":"wayside_cross"}},
{"type":"Feature","geometry":{"type":"Point","coordinates":[-0.3087039,43.3527711]},"properties":{"natural":"tree"}},
{"type":"Feature","geometry":{"type":"Point","coordinates":[-0.3087931,43.3529207]},"properties":{"bench":"yes","leisure":"picnic_table","material":"metal"}},
{"type":"Feature","geometry":{"type":"Point","coordinates":[-0.3094497,43.3532962]},"properties":{"natural":"tree"}},
{"type":"Feature","geometry":{"type":"Point","coordinates":[-0.3097493,43.3531608]},"properties":{"historic":"wayside_cross"}},
{"type":"Feature","geometry":{"type":"LineString","coordinates":[[-0.2987879,43.3979237],[-0.2982406,43.3980294],[-0.2985816,43.3980644],[-0.2985587,43.398121],[-0.2983477,43.3981692],[-0.2982695,43.3984213],[-0.2983084,43.3984818],[-0.2982599,43.3985011],[-0.298242,43.3986492],[-0.2983316,43.3987851],[-0.298265,43.3989793],[-0.2981976,43.3990157],[-0.2982626,43.399176],[-0.2982038,43.3993429],[-0.2980759,43.3994569],[-0.2979847,43.3994953],[-0.2979074,43.3996069],[-0.2980166,43.3996835],[-0.2980421,43.3997558],[-0.2979624,43.3998174],[-0.2980668,43.4000014],[-0.2979505,43.4001179],[-0.2979066,43.4002288],[-0.2977975,43.4002713],[-0.2974873,43.4005823],[-0.29725,43.4009872],[-0.2972401,43.4011177],[-0.2971462,43.4012628],[-0.2970682,43.4012975],[-0.2945201,43.4007723],[-0.2940491,43.4006685],[-0.2942704,43.4001271],[-0.2945623,43.3999227],[-0.2949473,43.3993633],[-0.2954001,43.3991191],[-0.2955594,43.3988633],[-0.2959164,43.3986789],[-0.2957933,43.3981952],[-0.2955524,43.3978719],[-0.2951485,43.3975335],[-0.2946936,43.396905],[-0.2946843,43.3967158],[-0.2946794,43.3965259],[-0.2950251,43.3963845],[-0.2950625,43.3963236],[-0.2953577,43.3962085],[-0.2954895,43.3961944],[-0.295789,43.3960719],[-0.2957426,43.3959573],[-0.2959159,43.39602],[-0.2960346,43.3961745],[-0.2962783,43.3966492],[-0.2962779,43.3967747],[-0.2963611,43.3969143],[-0.2965363,43.3970487],[-0.2966307,43.3971517],[-0.296654,43.3972341],[-0.296974,43.3974032],[-0.2972696,43.3974736],[-0.2974948,43.3973453],[-0.2976047,43.3972616],[-0.2977437,43.3972036],[-0.2979825,43.3971931],[-0.2983068,43.3972954],[-0.2983763,43.3973852],[-0.2984713,43.3974894],[-0.298821,43.3974599],[-0.2989874,43.3975417],[-0.2990091,43.3975986],[-0.2988661,43.3976525],[-0.2987504,43.3977219],[-0.2987457,43.3977904],[-0.298814,43.3978213],[-0.2988331,43.3978655],[-0.2987879,43.3979237]]},"properties":{"name":"Lac d'Anos","natural":"water","water":"lake"}},
{"type":"Feature","geometry":{"type":"LineString","coordinates":[[-0.2945483,43.3653382],[-0.293822,43.3650791],[-0.2933155,43.3658351],[-0.2940418,43.3660941],[-0.2945483,43.3653382]]},"properties":{"leisure":"pitch","source":"Bing ; cadastre-dgi-fr source : Direction Générale des Impôts - Cadastre. Mise à jour : 2013","sport":"soccer"}},
{"type":"Feature","geometry":{"type":"LineString","coordinates":[[-0.2611762,43.3630913],[-0.2600226,43.3626412],[-0.260436,43.362081],[-0.2615897,43.3625311],[-0.2611762,43.3630913]]},"properties":{"leisure":"pitch","lit":"yes","source":"data.gouv.fr:Le ministère des droits des femmes, de la ville, de la jeunesse et des sports - 2014","sport":"soccer","surface":"grass"}},
{"type":"Feature","geometry":{"type":"LineString","coordinates":[[-0.2624796,43.3426738],[-0.26197,43.3422115],[-0.2619633,43.3421061],[-0.2630174,43.3414927],[-0.2635686,43.3420242],[-0.2624796,43.3426738]]},"properties":{"leisure":"pitch","source":"data.gouv.fr:Le ministère des droits des femmes, de la ville, de la jeunesse et des sports - 2014","sport":"rugby_union","surface":"grass","wikidata":"Q120163276"}},
{"type":"Feature","geometry":{"type":"LineString","coordinates":[[-0.2674718,43.3403168],[-0.2660357,43.3404798],[-0.2658951,43.3398243],[-0.2670042,43.3396984],[-0.267331,43.3396606],[-0.2674718,43.3403168]]},"properties":{"leisure":"pitch","sport":"soccer"}},
{"type":"Feature","geometry":{"type":"LineString","coordinates":[[-0.2653925,43.342982],[-0.264785,43.3434872],[-0.2635981,43.3429761],[-0.2641265,43.3424319],[-0.2653925,43.342982]]},"properties":{"leisure":"pitch","source":"data.gouv.fr:Le ministère des droits des femmes, de la ville, de la jeunesse et des sports - 2014","sport":"rugby_union","surface":"grass","wikidata":"Q120179746"}},
{"type":"Feature","geometry":{"type":"LineString","coordinates":[[-0.2661148,43.3471069],[-0.2658199,43.3472401],[-0.2657131,43.3471152],[-0.2658053,43.3470735],[-0.2658893,43.3470355],[-0.266008,43.3469819],[-0.2661148,43.3471069]]},"properties":{"leisure":"pitch","name":"City-stade des Fors","source":"data.gouv.fr:Le ministère des droits des femmes, de la ville, de la jeunesse et des sports - 2014","sport":"multi","wikidata":"Q120227530"}},
{"type":"Feature","geometry":{"type":"LineString","coordinates":[[-0.2628431,43.3415292],[-0.2628851,43.3415442],[-0.2629371,43.3414732],[-0.2628451,43.3414372],[-0.2628801,43.3413912],[-0.2628691,43.3413872],[-0.2628851,43.3413662],[-0.2628491,43.3413522],[-0.2627531,43.3412662],[-0.2627271,43.3412822],[-0.2625041,43.3410832],[-0.2620671,43.3413442],[-0.2625021,43.3417322],[-0.2628431,43.3415292]]},"properties":{"building":"yes","building:levels":"0","leisure":"sports_centre","name":"Salle omnisport","roof:levels":"0","source":"data.gouv.fr:Le ministère des droits des femmes, de la ville, de la jeunesse et des sports - 11/2015","sport":"multi","surface":"concrete"}},
{"type":"Feature","geometry":{"type":"LineString","coordinates":[[-0.263018,43.341442],[-0.263428,43.341809],[-0.26357,43.341889],[-0.263615,43.341848],[-0.263488,43.34177],[-0.263619,43.341689],[-0.263568,43.341645],[-0.263554,43.341634],[-0.26359900000000005,43.341606],[-0.263612,43.341617],[-0.263625,43.341629],[-0.263762,43.341548],[-0.263658,43.341456],[-0.263552,43.341516],[-0.263507,43.341476],[-0.263498,43.341482],[-0.263486,43.34147],[-0.263494,43.341464],[-0.263474,43.341446],[-0.26346,43.341454],[-0.263438,43.341435],[-0.263453,43.341426],[-0.263423,43.341401],[-0.263373,43.341431],[-0.263329,43.34139],[-0.263379,43.341359],[-0.2632978,43.3412757],[-0.2631078,43.3413875],[-0.263018,43.341442]]},"properties":{"building":"yes","leisure":"pitch","name":"Salle Polyvalente","source":"data.gouv.fr:Le ministère des droits des femmes, de la ville, de la jeunesse et des sports - 11/2015","sport":"multi","surface":"concrete"}},
{"type":"Feature","geometry":{"type":"LineString","coordinates":[[-0.262994,43.356624],[-0.263303,43.356591],[-0.263195,43.356054],[-0.262886,43.356086],[-0.262994,43.356624]]},"properties":{"building":"yes","leisure":"pitch","name":"Manège","source":"data.gouv.fr:Le ministère des droits des femmes, de la ville, de la jeunesse et des sports - 2014","sport":"equestrian","surface":"sand","wall":"no"}},
{"type":"Feature","geometry":{"type":"LineString","coordinates":[[-0.262516,43.344791],[-0.26235,43.344997],[-0.262527,43.345071],[-0.262553,43.345034],[-0.262568,43.345041],[-0.262702,43.344866],[-0.262584,43.34482],[-0.262516,43.344791]]},"properties":{"building":"yes","information":"office","name":"Office du Tourisme","source":"cadastre-dgi-fr source : Direction Générale des Impôts - Cadastre. Mise à jour : 2013","tourism":"information"}},
{"type":"Feature","geometry":{"type":"LineString","coordinates":[[-0.309203,43.353351],[-0.309161,43.353311],[-0.309149,43.353318],[-0.309123,43.353293],[-0.309156,43.353274],[-0.309119,43.35324],[-0.309088,43.353257],[-0.309077,43.353247],[-0.309108,43.353228],[-0.309073,43.353194],[-0.309041,43.353212],[-0.309031,43.353203],[-0.309063,43.353185],[-0.309028,43.35315],[-0.308995,43.353169],[-0.308984,43.353158],[-0.309016,43.353138],[-0.30898,43.353104],[-0.308945,43.353124],[-0.308926,43.353104],[-0.308958,43.353085],[-0.308848,43.352983],[-0.308551,43.353149],[-0.308892,43.353474],[-0.308991,43.353419],[-0.309023,43.353448],[-0.309085,43.353415],[-0.309091,43.35342],[-0.309109,43.35341],[-0.309105,43.353405],[-0.309203,43.353351]]},"properties":{"building":"yes","leisure":"sports_centre","name":"Salle des Sports","source":"data.gouv.fr:Le ministère des droits des femmes, de la ville, de la jeunesse et des sports - 2014","sport":"multi","surface":"concrete"}},
{"type":"Feature","geometry":{"type":"LineString","coordinates":[[-0.2618894,43.3495739],[-0.2618109,43.3494183],[-0.2622361,43.3493048],[-0.2623147,43.3494604],[-0.2618894,43.3495739]]},"properties":{"leisure":"pitch","sport":"tennis"}},
{"type":"Feature","geometry":{"type":"LineString","coordinates":[[-0.2616582,43.3500447],[-0.2614391,43.3501009],[-0.26129,43.3497934],[-0.2615091,43.3497372],[-0.2616582,43.3500447]]},"properties":{"leisure":"pitch","sport":"tennis","wikidata":"Q120193647"}},
{"type":"Feature","geometry":{"type":"LineString","coordinates":[[-0.2862103,43.3789924],[-0.2861882,43.3790909],[-0.2860939,43.3790849],[-0.2860972,43.3790678],[-0.2859926,43.379053999999999],[-0.2859812,43.3790922],[-0.2859576,43.3791047],[-0.2859365,43.3791022],[-0.2858999,43.3790869],[-0.2859052,43.3790428],[-0.2857714,43.3790256],[-0.2857812,43.3789444],[-0.2862103,43.3789924]]},"properties":{"building":"yes","heritage":"3","heritage:operator":"mhs","historic":"castle","mhs:inscription_date":"1999-04-19","name":"Château de Bernadets","ref:mhs":"PA64000031","source":"cadastre-dgi-fr source : Direction Générale des Finances Publiques - Cadastre. Mise à jour : 2013","source:heritage":"data.gouv.fr, Ministère de la Culture - 2016","start_date":"C18","wikidata":"Q22997625"}},
{"type":"Feature","geometry":{"type":"LineString","coordinates":[[-0.2878197,43.3755532],[-0.2876485,43.3753856],[-0.2872083,43.3756234],[-0.2873796,43.3757909],[-0.2878197,43.3755532]]},"properties":{"leisure":"pitch","sport":"multi"}},
{"type":"Feature","geometry":{"type":"LineString","coordinates":[[-0.2654816,43.3429501],[-0.2647261,43.3435784],[-0.2646715,43.3435517],[-0.2646222,43.3435904],[-0.2634428,43.3431075],[-0.2641738,43.3423546],[-0.2654638,43.3428888],[-0.2654816,43.3429501]]},"properties":{"leisure":"sports_centre","name":"Stade des Cordeliers"}},
{"type":"Feature","geometry":{"type":"LineString","coordinates":[[-0.262489,43.3427411],[-0.2621949,43.342472],[-0.2617273,43.3420915],[-0.2616575,43.3421081],[-0.2616428,43.3420418],[-0.2616626,43.3418966],[-0.2616644,43.3415019],[-0.2625732,43.3409477],[-0.2627057,43.3410663],[-0.2630563,43.3413805],[-0.2629776,43.3414273],[-0.2636324,43.3420587],[-0.262489,43.3427411]]},"properties":{"leisure":"sports_centre"}},
{"type":"Feature","geometry":{"type":"LineString","coordinates":[[-0.2660483,43.3406077],[-0.2660188,43.3405222],[-0.265874,43.3398384],[-0.2657981,43.3395919],[-0.2656564,43.3389021],[-0.2660871,43.3388537],[-0.2660698,43.3387803],[-0.2659407,43.3381815],[-0.267258,43.3380312],[-0.2673872,43.33863],[-0.2671894,43.3386525],[-0.2672038,43.3387282],[-0.2673498,43.3394175],[-0.2673548,43.3394484],[-0.2670299,43.3394851],[-0.2670448,43.3395764],[-0.2669854,43.3395831],[-0.2670042,43.3396984],[-0.267331,43.3396606],[-0.2674117,43.3396515],[-0.2675735,43.3404058],[-0.2660483,43.3406077]]},"properties":{"leisure":"sports_centre","wikidata":"Q120163275"}},
{"type":"Feature","geometry":{"type":"LineString","coordinates":[[-0.2610889,43.3451833],[-0.2605888,43.3450358],[-0.260376,43.3454174],[-0.2603528,43.345459],[-0.2607228,43.3455681],[-0.2608529,43.3456065],[-0.2609334,43.345462],[-0.2610266,43.3452949],[-0.2610889,43.3451833]]},"properties":{"landuse":"recreation_ground","leisure":"pitch","name":"Terrain de foot à 7 de la gare","source":"data.gouv.fr:Le ministère des droits des femmes, de la ville, de la jeunesse et des sports - 2014","sport":"soccer","surface":"grass","wikidata":"Q120179747"}},
{"type":"Feature","geometry":{"type":"LineString","coordinates":[[-0.2611211,43.3448863],[-0.2609712,43.344775],[-0.2607344,43.3449433],[-0.2608843,43.3450547],[-0.2611211,43.3448863]]},"properties":{"leisure":"pitch","sport":"basketball","surface":"asphalt"}},
{"type":"Feature","geometry":{"type":"LineString","coordinates":[[-0.2608062,43.3446518],[-0.2609712,43.344775],[-0.2606247,43.3450205],[-0.26055,43.3449648],[-0.2604597,43.3448974],[-0.2605262,43.3448502],[-0.2607911,43.3446625],[-0.2608062,43.3446518]]},"properties":{"leisure":"pitch","source":"data.gouv.fr:Le ministère des droits des femmes, de la ville, de la jeunesse et des sports - 2014","sport":"handball","surface":"asphalt"}},
{"type":"Feature","geometry":{"type":"LineString","coordinates":[[-0.2613604,43.341181],[-0.2613434,43.3410059],[-0.2618367,43.3409806],[-0.2618537,43.3411557],[-0.2613604,43.341181]]},"properties":{"leisure":"pitch","source":"data.gouv.fr:Le ministère des droits des femmes, de la ville, de la jeunesse et des sports - 2014","sport":"handball","surface":"asphalt"}},
{"type":"Feature","geometry":{"type":"LineString","coordinates":[[-0.2636741,43.3421702],[-0.2633566,43.3424584],[-0.2632061,43.3423379],[-0.2635899,43.3420889],[-0.2636741,43.3421702]]},"properties":{"boules":"petanque","leisure":"pitch","source":"data.gouv.fr:Le ministère des droits des femmes, de la ville, de la jeunesse et des sports - 2014","sport":"boules","surface":"sand"}},
{"type":"Feature","geometry":{"type":"LineString","coordinates":[[-0.2670968,43.3415085],[-0.2669471,43.3416193],[-0.2666511,43.3414079],[-0.2668007,43.3412971],[-0.2670968,43.3415085]]},"properties":{"access":"private","leisure":"pitch","sport":"tennis"}},
{"type":"Feature","geometry":{"type":"LineString","coordinates":[[-0.261712,43.3491846],[-0.2616776,43.3491283],[-0.2617503,43.3491048],[-0.2617559,43.349114],[-0.2617717,43.349109],[-0.2617954,43.3491477],[-0.2617802,43.3491526],[-0.2617853,43.3491609],[-0.261712,43.3491846]]},"properties":{"leisure":"swimming_pool","sport":"swimming"}},
{"type":"Feature","geometry":{"type":"LineString","coordinates":[[-0.2627216,43.3561027],[-0.2624148,43.356136],[-0.2624765,43.3564706],[-0.2625303,43.3564938],[-0.2627255,43.3564691],[-0.2627833,43.35643],[-0.2627216,43.3561027]]},"properties":{"leisure":"pitch","name":"Carrière","source":"data.gouv.fr:Le ministère des droits des femmes, de la ville, de la jeunesse et des sports - 2014","sport":"equestrian","surface":"sand"}},
{"type":"Feature","geometry":{"type":"LineString","coordinates":[[-0.2632978,43.3412757],[-0.2631078,43.3413875],[-0.2630839,43.3413659],[-0.262718,43.3410369],[-0.2627956,43.3409913],[-0.2629195,43.3409184],[-0.2633093,43.3412689],[-0.2632978,43.3412757]]},"properties":{"leisure":"pitch","name":"Fronton","source":"data.gouv.fr:Le ministère des droits des femmes, de la ville, de la jeunesse et des sports - 2014","sport":"pelota","surface":"asphalt"}},
{"type":"Feature","geometry":{"type":"LineString","coordinates":[[-0.261767,43.3493257],[-0.2614826,43.3494209],[-0.2614167,43.3493167],[-0.2617011,43.3492215],[-0.261767,43.3493257]]},"properties":{"leisure":"swimming_pool","name":"Grand bassin","source":"data.gouv.fr:Le ministère des droits des femmes, de la ville, de la jeunesse et des sports - 2014","sport":"swimming"}},
{"type":"Feature","geometry":{"type":"LineString","coordinates":[[-0.2619144,43.3492803],[-0.2617982,43.3493171],[-0.2617362,43.3492137],[-0.261852,43.349177],[-0.2618636,43.3491965],[-0.2618795,43.3491915],[-0.2619163,43.3492528],[-0.2619009,43.3492577],[-0.2619144,43.3492803]]},"properties":{"leisure":"swimming_pool","name":"Petit bassin","source":"data.gouv.fr:Le ministère des droits des femmes, de la ville, de la jeunesse et des sports - 2014","sport":"swimming"}},
{"type":"Feature","geometry":{"type":"LineString","coordinates":[[-0.2722111,43.3732137],[-0.2721543,43.3731199],[-0.2720603,43.3730532],[-0.2719795,43.372915],[-0.2720319,43.3728515],[-0.2723597,43.3727292],[-0.2725411,43.3727403],[-0.2725936,43.3727975],[-0.2725062,43.3731422],[-0.272434,43.3731644],[-0.2723641,43.3731644],[-0.2723029,43.3732327],[-0.2722111,43.3732137]]},"properties":{"natural":"water"}},
{"type":"Feature","geometry":{"type":"LineString","coordinates":[[-0.3002974,43.3968492],[-0.3000134,43.3965859],[-0.3002338,43.396515],[-0.3003673,43.3963964],[-0.3005454,43.396304],[-0.3007276,43.3964426],[-0.300734,43.3965089],[-0.3007849,43.3965119],[-0.3006916,43.3965689],[-0.300609,43.3966598],[-0.3002974,43.3968492]]},"properties":{"natural":"water"}},
{"type":"Feature","geometry":{"type":"LineString","coordinates":[[-0.308799,43.3529683],[-0.308634,43.353059],[-0.30837,43.3528048],[-0.308535,43.3527142],[-0.308799,43.3529683]]},"properties":{"leisure":"pitch","sport":"tennis"}},
{"type":"Feature","geometry":{"type":"LineString","coordinates":[[-0.3094397,43.3531968],[-0.3092689,43.3531561],[-0.309199,43.3531643],[-0.3093019,43.3532703],[-0.3094397,43.3531968]]},"properties":{"leisure":"playground"}},
{"type":"Feature","geometry":{"type":"LineString","coordinates":[[-0.2663674,43.3412492],[-0.2662166,43.341282],[-0.2661944,43.341228],[-0.2663452,43.3411952],[-0.2663674,43.3412492]]},"properties":{"access":"private","leisure":"swimming_pool","source":"cadastre-dgi-fr source : Direction Générale des Impôts - Cadastre. Mise à jour : 2015"}},
{"type":"Feature","geometry":{"type":"LineString","coordinates":[[-0.307007,43.3506219],[-0.306891,43.3507705],[-0.3065053,43.3506114],[-0.3066213,43.3504628],[-0.307007,43.3506219]]},"properties":{"leisure":"pitch","sport":"tennis"}},
{"type":"Feature","geometry":{"type":"LineString","coordinates":[[-0.308634,43.353059],[-0.3084645,43.3531521],[-0.3082004,43.3528979],[-0.30837,43.3528048],[-0.308634,43.353059]]},"properties":{"leisure":"pitch","sport":"tennis"}},
{"type":"Feature","geometry":{"type":"LineString","coordinates":[[-0.3134215,43.3519854],[-0.313111,43.3522438],[-0.3132858,43.3523549],[-0.3135964,43.3520965],[-0.3134215,43.3519854]]},"properties":{"access":"private","leisure":"pitch","sport":"tennis"}},
{"type":"Feature","geometry":{"type":"LineString","coordinates":[[-0.3130951,43.3469311],[-0.3125268,43.3472522],[-0.3124774,43.3472401],[-0.3123298,43.3471192],[-0.3123305,43.3470685],[-0.3128988,43.3467474],[-0.3130951,43.3469311]]},"properties":{"leisure":"pitch","name":"Carrière de Pyrène Elevage","source":"data.gouv.fr:Le ministère des droits des femmes, de la ville, de la jeunesse et des sports - 2014","sport":"equestrian","surface":"sand"}},
{"type":"Feature","geometry":{"type":"LineString","coordinates":[[-0.3057972,43.3770095],[-0.3055836,43.3770803],[-0.3053876,43.3767681],[-0.3056012,43.3766973],[-0.3057972,43.3770095]]},"properties":{"leisure":"pitch","sport":"tennis"}},
{"type":"Feature","geometry":{"type":"LineString","coordinates":[[-0.2781326,43.3853953],[-0.2780892,43.3854513],[-0.2779663,43.3853962],[-0.2778794,43.3853773],[-0.2778645,43.3853286],[-0.277898,43.3851906],[-0.2780135,43.385297],[-0.2780929,43.3852961],[-0.2781065,43.385334],[-0.2780755,43.3853755],[-0.2781326,43.3853953]]},"properties":{"natural":"water"}},
{"type":"Feature","geometry":{"type":"LineString","coordinates":[[-0.3082383,43.3890651],[-0.3098507,43.3880562]]},"properties":{"natural":"tree_row"}},
{"type":"Feature","geometry":{"type":"LineString","coordinates":[[-0.3082383,43.3890651],[-0.3079119,43.389274],[-0.3074296,43.3884934],[-0.3077341,43.3883783],[-0.3082383,43.3890651]]},"properties":{"natural":"wood"}},
{"type":"Feature","geometry":{"type":"LineString","coordinates":[[-0.3039268,43.3403759],[-0.303745,43.3406193],[-0.3035095,43.3405712],[-0.3033318,43.3403429],[-0.3035591,43.3402016],[-0.3039268,43.3403759]]},"properties":{"natural":"heath"}},
{"type":"Feature","geometry":{"type":"LineString","coordinates":[[-0.3036085,43.3411707],[-0.3039924,43.341301],[-0.3042064,43.3410789],[-0.3046125,43.3408643],[-0.3039989,43.3405768],[-0.3039405,43.3405732],[-0.3036287,43.3411152],[-0.3036085,43.3411707]]},"properties":{"natural":"heath"}},
{"type":"Feature","geometry":{"type":"LineString","coordinates":[[-0.3153456,43.3420107],[-0.3156745,43.3422017],[-0.3159566,43.3420501],[-0.3157872,43.3419423],[-0.315747,43.3418487],[-0.3156799,43.3417979],[-0.3155646,43.341794],[-0.3153456,43.3420107]]},"properties":{"natural":"heath"}},
{"type":"Feature","geometry":{"type":"LineString","coordinates":[[-0.3156745,43.3422017],[-0.3159566,43.3420501],[-0.3162405,43.3418974],[-0.3161413,43.3418545],[-0.315932,43.3417687],[-0.3158033,43.3416809],[-0.3157336,43.3415736],[-0.3157282,43.3415053],[-0.3158328,43.3414176],[-0.316312,43.3416062],[-0.3162754,43.3416399],[-0.3165489,43.3418057],[-0.3164604,43.3418584],[-0.3157657,43.3423578],[-0.3159052,43.3424085],[-0.3157443,43.343021],[-0.3151113,43.3427947],[-0.3156745,43.3422017]]},"properties":{"leaf_type":"broadleaved","natural":"wood"}},
{"type":"Feature","geometry":{"type":"LineString","coordinates":[[-0.3139848,43.3422954],[-0.3138209,43.3424741],[-0.3136522,43.3426582],[-0.3139955,43.3428337],[-0.3135717,43.3435009],[-0.3142888,43.3437005],[-0.3147894,43.3425646],[-0.3139848,43.3422954]]},"properties":{"leaf_type":"broadleaved","natural":"wood"}},
{"type":"Feature","geometry":{"type":"LineString","coordinates":[[-0.3132373,43.3397854],[-0.3138828,43.3400208],[-0.3132531,43.3408197]]},"properties":{"natural":"tree_row"}},
{"type":"Feature","geometry":{"type":"LineString","coordinates":[[-0.3125187,43.3411612],[-0.3127053,43.3412986],[-0.3127053,43.3414273],[-0.3126624,43.3415853],[-0.3125042,43.3418057]]},"properties":{"natural":"tree_row"}},
{"type":"Feature","geometry":{"type":"LineString","coordinates":[[-0.3124961,43.3418799],[-0.3119677,43.3418311],[-0.3114957,43.3418389],[-0.3104174,43.3418974],[-0.3103477,43.3417648],[-0.309594,43.341794],[-0.3097241,43.3432892],[-0.3096543,43.3432824],[-0.3094997,43.3417782],[-0.3094907,43.3416906],[-0.309594,43.3416789],[-0.3103531,43.3416477],[-0.3119034,43.3410313],[-0.3116995,43.3406763],[-0.31178,43.3403954],[-0.3107702,43.3399546],[-0.3108025,43.3398521],[-0.3117532,43.3402393],[-0.3119072,43.3402014],[-0.3121823,43.339857],[-0.3119731,43.3396697],[-0.3120643,43.3396385],[-0.3125417,43.3400403],[-0.3126705,43.3399857],[-0.3129633,43.3397239],[-0.3130234,43.3397396],[-0.3131807,43.3398174],[-0.3126866,43.3401652],[-0.3125203,43.3401262],[-0.3122735,43.3400208],[-0.3120911,43.3401223],[-0.3119516,43.3403486],[-0.3125846,43.3406685],[-0.3128797,43.3407894],[-0.3130782,43.340807],[-0.3132531,43.3408197],[-0.3132901,43.340923],[-0.3134979,43.3409289],[-0.3140746,43.340926],[-0.3148109,43.3408479],[-0.3148753,43.3408577],[-0.315,43.340908399999999],[-0.3140531,43.3409786],[-0.3131157,43.3410079],[-0.3128368,43.3410625],[-0.3126544,43.3411445],[-0.3125187,43.3411612],[-0.3124023,43.3411757],[-0.3120321,43.3411913],[-0.3116539,43.3412556],[-0.3106239,43.3416458],[-0.3104416,43.3417131],[-0.3105274,43.3418272],[-0.3107715,43.3418213],[-0.3115386,43.3417667],[-0.3119355,43.3417697],[-0.3125042,43.3418057],[-0.3124961,43.3418799]]},"properties":{"leaf_type":"broadleaved","natural":"wood"}},
{"type":"Feature","geometry":{"type":"LineString","coordinates":[[-0.3066838,43.3405826],[-0.3069842,43.34061],[-0.3073168,43.3406217],[-0.3078693,43.3405514],[-0.3084433,43.3403837],[-0.3089851,43.3401418],[-0.3093714,43.3403134],[-0.308556,43.3416985]]},"properties":{"natural":"tree_row"}},
{"type":"Feature","geometry":{"type":"LineString","coordinates":[[-0.3015093,43.3431213],[-0.3014129,43.3431448],[-0.3016444,43.3434232],[-0.302352,43.3437408],[-0.3032076,43.3441953],[-0.304082,43.3445854],[-0.3036958,43.3448117],[-0.3038728,43.3448897],[-0.3057348,43.3437652],[-0.3055277,43.343772],[-0.3045809,43.3443084],[-0.3040713,43.3440783],[-0.3037548,43.3440314],[-0.3032881,43.3441446],[-0.3024298,43.3436764],[-0.3019899,43.3434775],[-0.3017539,43.343337],[-0.3016359,43.3432551],[-0.3015093,43.3431213]]},"properties":{"natural":"grassland"}},
{"type":"Feature","geometry":{"type":"LineString","coordinates":[[-0.3026176,43.3448136],[-0.3026632,43.3447454],[-0.3011068,43.3441557],[-0.3010569,43.3442148],[-0.3026176,43.3448136]]},"properties":{"leaf_type":"broadleaved","natural":"wood"}},
{"type":"Feature","geometry":{"type":"LineString","coordinates":[[-0.3098635,43.3441787],[-0.3097683,43.3443962],[-0.3092641,43.3442772],[-0.3089717,43.3441972],[-0.3088054,43.3441738],[-0.3086874,43.3442148],[-0.308623,43.3442714],[-0.3082743,43.3446693],[-0.3080732,43.3448995],[-0.3080839,43.3449619],[-0.3081885,43.3450028],[-0.3084353,43.3450497],[-0.3084004,43.3450945],[-0.3078237,43.3450009],[-0.3071719,43.3449073],[-0.3068581,43.3448156],[-0.3064504,43.3446595],[-0.3061661,43.3445893],[-0.3060588,43.3446264],[-0.3055868,43.3449092],[-0.3052086,43.345155],[-0.304597,43.3461849],[-0.3029019,43.3456426],[-0.3027678,43.3459781],[-0.3030762,43.3460659],[-0.3027543,43.3466491],[-0.3027222,43.3468695],[-0.3027436,43.3470119],[-0.3030762,43.3470626],[-0.3030816,43.3476107],[-0.3031053,43.3480205],[-0.3031111,43.3481198],[-0.3028405,43.3481397],[-0.3020516,43.3481978],[-0.3020516,43.3481549],[-0.3030548,43.3480847],[-0.3030172,43.3472694],[-0.3028831,43.3472694],[-0.3026712,43.3473357],[-0.3025827,43.3474059],[-0.3022072,43.3475951],[-0.3020033,43.3477239],[-0.3019497,43.3476771],[-0.3026578,43.3472791],[-0.3027114,43.3470841],[-0.3026605,43.346813],[-0.3026927,43.3466277],[-0.3027785,43.3464053],[-0.3029609,43.3461147],[-0.3026605,43.3460074],[-0.3027946,43.3456173],[-0.3022206,43.3453422],[-0.3019506,43.3452058],[-0.3020492,43.3451577],[-0.3028134,43.3455139],[-0.304577,43.346101],[-0.3052014,43.3450684],[-0.3061504,43.3444738],[-0.3070648,43.3448038],[-0.30779,43.3449289],[-0.3085023,43.344326],[-0.3084594,43.344287],[-0.3074026,43.3442655],[-0.3067133,43.3441621],[-0.3067079,43.3441153],[-0.3074911,43.3441797],[-0.3080651,43.3441914],[-0.3085747,43.344168],[-0.3088889,43.343971],[-0.3097791,43.3441641],[-0.3098635,43.3441787]]},"properties":{"leaf_type":"broadleaved","natural":"wood"}},
{"type":"Feature","geometry":{"type":"LineString","coordinates":[[-0.3026792,43.3429049],[-0.3027678,43.3429079],[-0.3026605,43.343181],[-0.3027168,43.3432005],[-0.302985,43.3431595],[-0.3032908,43.3431029],[-0.3033847,43.3430854],[-0.3034624,43.3430386],[-0.3034571,43.3429371],[-0.3042135,43.3429664],[-0.3041776,43.3431185],[-0.3039882,43.3430893],[-0.3035563,43.3431302],[-0.3030252,43.3432278],[-0.302639,43.3433604],[-0.3025371,43.3433331],[-0.3026792,43.3429049]]},"properties":{"leaf_type":"broadleaved","natural":"wood"}},
{"type":"Feature","geometry":{"type":"LineString","coordinates":[[-0.3057348,43.3437652],[-0.3057584,43.3436472],[-0.3058872,43.343497],[-0.3060508,43.3432434],[-0.30615,43.3430932],[-0.3060561,43.3430893],[-0.3059247,43.3433682],[-0.3058282,43.3434424],[-0.3056833,43.3434892],[-0.3055733,43.3435789],[-0.3054634,43.3436179],[-0.3053427,43.343614],[-0.3052995,43.3436537],[-0.3055277,43.343772],[-0.3057348,43.3437652]]},"properties":{"leaf_type":"broadleaved","natural":"wood"}},
{"type":"Feature","geometry":{"type":"LineString","coordinates":[[-0.3077271,43.3430649],[-0.3077078,43.3419695]]},"properties":{"natural":"tree_row"}},
{"type":"Feature","geometry":{"type":"LineString","coordinates":[[-0.3034356,43.3395195],[-0.3034383,43.3395702],[-0.3038651,43.3396682],[-0.3039131,43.3396697],[-0.3043905,43.3397282],[-0.3046024,43.339777],[-0.3049189,43.3399077],[-0.3054902,43.3402627],[-0.3061109,43.339592],[-0.3060074,43.3395542],[-0.305509,43.3401164],[-0.3050557,43.3398648],[-0.3048465,43.339775],[-0.304471,43.3396853],[-0.3040981,43.3396112],[-0.3039452,43.339578],[-0.3038488,43.3395562],[-0.3037387,43.3395546],[-0.3034356,43.3395195]]},"properties":{"natural":"grassland"}},
{"type":"Feature","geometry":{"type":"LineString","coordinates":[[-0.3028858,43.3423539],[-0.3018692,43.3427791],[-0.3013167,43.3430171],[-0.3013483,43.3430671],[-0.301939,43.3428259],[-0.3019229,43.3428006],[-0.3023842,43.3425928],[-0.3029113,43.3423763],[-0.3028858,43.3423539]]},"properties":{"leaf_type":"broadleaved","natural":"wood"}},
{"type":"Feature","geometry":{"type":"LineString","coordinates":[[-0.2992436,43.3409699],[-0.3000963,43.34045],[-0.3003672,43.3402647],[-0.3006113,43.3400793],[-0.3008285,43.339935],[-0.3010458,43.3398453],[-0.3012764,43.3397419],[-0.3014835,43.3396242],[-0.3014331,43.3395914],[-0.3014052,43.3395604],[-0.3011895,43.3396902],[-0.3011102,43.339738],[-0.3007588,43.3399135],[-0.300217,43.3402432],[-0.2999085,43.3404656],[-0.2991664,43.3409108],[-0.2991897,43.3409377],[-0.2992436,43.3409699]]},"properties":{"natural":"grassland"}},
{"type":"Feature","geometry":{"type":"LineString","coordinates":[[-0.2981141,43.3424817],[-0.2981336,43.3424543],[-0.2981067,43.3424251],[-0.2974141,43.341914],[-0.2973846,43.3419267],[-0.2978714,43.3423256],[-0.2978861,43.3423627],[-0.2978754,43.3423968],[-0.2978566,43.3424407],[-0.2976944,43.342427],[-0.2976903,43.3424592],[-0.2981141,43.3424817]]},"properties":{"leaf_type":"broadleaved","natural":"wood"}},
{"type":"Feature","geometry":{"type":"LineString","coordinates":[[-0.2982504,43.3425757],[-0.2974572,43.3425134],[-0.297462,43.3424803],[-0.2982698,43.3425271],[-0.2986184,43.3426026],[-0.2987163,43.3426358],[-0.298723,43.3426562],[-0.2986975,43.3426699],[-0.2986237,43.3426504],[-0.2982504,43.3425757]]},"properties":{"leaf_type":"broadleaved","natural":"wood"}},
{"type":"Feature","geometry":{"type":"LineString","coordinates":[[-0.2998978,43.345508],[-0.2998602,43.3455783],[-0.29879,43.3452311],[-0.2986908,43.3451608],[-0.2986157,43.3450594],[-0.298546,43.3450185],[-0.2984279,43.344997],[-0.298147,43.345018],[-0.2981302,43.3449755],[-0.2984548,43.344917],[-0.2985674,43.3448702],[-0.2986452,43.344798],[-0.2986479,43.3447103],[-0.2985916,43.3446205],[-0.2983153,43.3442499],[-0.2983528,43.3442324],[-0.2985942,43.3445113],[-0.2987337,43.3446966],[-0.2987954,43.3448448],[-0.2988115,43.3449482],[-0.2988249,43.345077],[-0.2987914,43.3451589],[-0.2998978,43.345508]]},"properties":{"leaf_type":"broadleaved","natural":"wood"}},
{"type":"Feature","geometry":{"type":"LineString","coordinates":[[-0.2991146,43.3439807],[-0.2989842,43.3440238],[-0.2986962,43.3435496],[-0.2985781,43.3434248],[-0.2984467,43.3433448],[-0.2983676,43.3433097],[-0.2982335,43.3433146],[-0.2980944,43.3433539],[-0.2980417,43.3433039],[-0.298373,43.3432541],[-0.2984682,43.3432697],[-0.298554,43.3433156],[-0.2987391,43.343497],[-0.2989617,43.3437857],[-0.2991146,43.3439807]]},"properties":{"leaf_type":"broadleaved","natural":"wood"}},
{"type":"Feature","geometry":{"type":"LineString","coordinates":[[-0.2995813,43.3427986],[-0.2995732,43.342902],[-0.2995169,43.3429293],[-0.2993265,43.3428181],[-0.2991521,43.3427245],[-0.2989966,43.3426601],[-0.2989134,43.3426328],[-0.2989376,43.3425685],[-0.2991629,43.3426504],[-0.2992165,43.3426523],[-0.2992138,43.3425782],[-0.2991253,43.3424865],[-0.2990261,43.3423441],[-0.2987739,43.3420047],[-0.2983609,43.3416048],[-0.2981114,43.341439],[-0.2982499,43.341359],[-0.2984011,43.3415541],[-0.298664,43.3418018],[-0.2987927,43.3419091],[-0.2993399,43.3416224],[-0.2993774,43.3416536],[-0.2993694,43.3416965],[-0.2992594,43.3417726],[-0.2989,43.3419364],[-0.2989724,43.3420788],[-0.2991602,43.3423246],[-0.2999434,43.3421569],[-0.2999809,43.3421647],[-0.2999986,43.3422414],[-0.2991897,43.3423831],[-0.2993399,43.3426796],[-0.2994794,43.3427616],[-0.2995813,43.3427986]]},"properties":{"leaf_type":"broadleaved","natural":"wood"}},
{"type":"Feature","geometry":{"type":"LineString","coordinates":[[-0.2974275,43.3395936],[-0.2961561,43.3403329]]},"properties":{"natural":"tree_row"}},
{"type":"Feature","geometry":{"type":"LineString","coordinates":[[-0.2918684,43.3426535],[-0.2918297,43.3427265],[-0.2918404,43.3428201],[-0.2917734,43.3428084],[-0.2916741,43.342783],[-0.2913871,43.3427869],[-0.2913578,43.3426274],[-0.2918945,43.3426079],[-0.2919065,43.3426369],[-0.2918684,43.3426535]]},"properties":{"leaf_type":"broadleaved","natural":"wood"}},
{"type":"Feature","geometry":{"type":"LineString","coordinates":[[-0.2912343,43.3394863],[-0.2915213,43.3394922],[-0.2918431,43.3394258],[-0.2920416,43.3393498],[-0.2922535,43.3392503],[-0.2923957,43.3390942],[-0.2924547,43.3389401],[-0.2926455,43.3382658],[-0.2926828,43.3382755],[-0.2928202,43.338333],[-0.2926692,43.3389557],[-0.2925915,43.3392503],[-0.2924895,43.3393771],[-0.2924064,43.3394902],[-0.292342,43.3398472],[-0.2922935,43.3398441],[-0.2922404,43.3398407],[-0.2921596,43.3398355],[-0.2921945,43.3396229],[-0.2921784,43.3394649],[-0.2920496,43.3394902],[-0.2917171,43.3395565],[-0.2915964,43.3395878],[-0.2915508,43.3396482],[-0.2916151,43.3401262],[-0.2915159,43.3401535],[-0.2914676,43.3396346],[-0.2914059,43.3396131],[-0.2912343,43.3396229],[-0.2912343,43.3394863]]},"properties":{"leaf_type":"broadleaved","natural":"wood"}},
{"type":"Feature","geometry":{"type":"LineString","coordinates":[[-0.3107071,43.3532708],[-0.3108063,43.3535185],[-0.3108895,43.3538189],[-0.3108385,43.3541348],[-0.3107688,43.3543552],[-0.3106535,43.3544781],[-0.310455,43.3545659],[-0.3100956,43.3547063],[-0.3097603,43.3547843],[-0.3096691,43.3548291],[-0.3094803,43.3549716],[-0.3095028,43.3550066],[-0.3095136,43.3550402],[-0.3096879,43.3549364],[-0.3098783,43.3548545],[-0.3101438,43.3548038],[-0.3104228,43.3547433],[-0.310581,43.3546614],[-0.31075,43.3545756],[-0.3108734,43.3544196],[-0.3109297,43.3542909],[-0.3109941,43.353971],[-0.3109968,43.353854],[-0.3109592,43.353735],[-0.3109404,43.3536619],[-0.3107889,43.3532465],[-0.310746,43.3531987],[-0.3106997,43.3531668],[-0.3106776,43.3531928],[-0.3107071,43.3532708]]},"properties":{"leaf_type":"broadleaved","natural":"wood"}},
{"type":"Feature","geometry":{"type":"LineString","coordinates":[[-0.311269,43.35297],[-0.3112623,43.3531012],[-0.3111416,43.3535556],[-0.3110504,43.353577],[-0.3109968,43.353538],[-0.3109163,43.3532962],[-0.3108064,43.3531714],[-0.3107232,43.3531236],[-0.3107634,43.3530992],[-0.3111577,43.3529802],[-0.311269,43.35297]]},"properties":{"leaf_type":"broadleaved","natural":"wood"}},
{"type":"Feature","geometry":{"type":"LineString","coordinates":[[-0.3024767,43.3527599],[-0.302128,43.3526048],[-0.3023306,43.3524185],[-0.302458,43.3523444],[-0.3026511,43.3522693],[-0.3031969,43.3520997],[-0.3034383,43.3520168],[-0.3036556,43.3520597],[-0.3037924,43.352204],[-0.3038326,43.3524068],[-0.3039318,43.3525648],[-0.3041491,43.3526506],[-0.3047846,43.3528728],[-0.3047772,43.3529401],[-0.3043476,43.3528125],[-0.3039774,43.3527189],[-0.3036985,43.3525785],[-0.3036153,43.3523951],[-0.3035241,43.3521943],[-0.3033793,43.3521455],[-0.3033042,43.3521572],[-0.3031701,43.3522216],[-0.3031567,43.3523308],[-0.3030843,43.3524459],[-0.3029045,43.3524927],[-0.3026363,43.3525843],[-0.302462,43.3527072],[-0.3029904,43.3529627],[-0.3031138,43.3530134],[-0.3031513,43.3530914],[-0.3032881,43.353185],[-0.3037816,43.3535361],[-0.3039774,43.3537038],[-0.3041169,43.3537565],[-0.3042859,43.3537155],[-0.3044012,43.3536141],[-0.3045955,43.3534321],[-0.3046492,43.3534992],[-0.3043503,43.3537389],[-0.3042269,43.3538111],[-0.3040043,43.3538754],[-0.303736,43.3536024],[-0.3033471,43.3533001],[-0.3029743,43.3530466],[-0.3026015,43.3528379],[-0.3024767,43.3527599]]},"properties":{"leaf_type":"broadleaved","natural":"wood"}},
{"type":"Feature","geometry":{"type":"LineString","coordinates":[[-0.3021911,43.3516989],[-0.3021079,43.3516345],[-0.3021321,43.3515877],[-0.3023225,43.3515214],[-0.3024432,43.351459],[-0.3025425,43.3513302],[-0.3026149,43.3510708],[-0.3029957,43.3512113],[-0.3028026,43.3514336],[-0.3026819,43.3515545],[-0.3024861,43.3515955],[-0.3023252,43.3516677],[-0.3021911,43.3516989]]},"properties":{"leaf_type":"broadleaved","natural":"wood"}},
{"type":"Feature","geometry":{"type":"LineString","coordinates":[[-0.3058164,43.3500798],[-0.3056189,43.3501795],[-0.3052998,43.3503004],[-0.3051052,43.3503411]]},"properties":{"natural":"tree_row"}},
{"type":"Feature","geometry":{"type":"LineString","coordinates":[[-0.3134054,43.3538891],[-0.3134993,43.3538793],[-0.3143066,43.3535341],[-0.3141618,43.3532338],[-0.3141618,43.3529451],[-0.3139794,43.3527345],[-0.3139043,43.3526097],[-0.3139751,43.3525912],[-0.3138426,43.3522196],[-0.3135964,43.3520965],[-0.3132858,43.3523549],[-0.3132471,43.3523873],[-0.3131667,43.3523561],[-0.3128046,43.3523464],[-0.3124559,43.3523249],[-0.3118846,43.352399],[-0.3119731,43.3527443],[-0.312236,43.3527384],[-0.3125793,43.3528515],[-0.3127456,43.3530076],[-0.3131334,43.3535257],[-0.3134054,43.3538891]]},"properties":{"leaf_type":"broadleaved","natural":"wood"}},
{"type":"Feature","geometry":{"type":"LineString","coordinates":[[-0.3147358,43.3480925],[-0.315181,43.3487323]]},"properties":{"natural":"tree_row"}},
{"type":"Feature","geometry":{"type":"LineString","coordinates":[[-0.3129333,43.3466842],[-0.3132874,43.3465574],[-0.3134671,43.3464872],[-0.3135502,43.3464677],[-0.3137407,43.3466374],[-0.3132123,43.3469651],[-0.3131492,43.3469368],[-0.3129333,43.3466842]]},"properties":{"leaf_type":"broadleaved","natural":"wood"}},
{"type":"Feature","geometry":{"type":"LineString","coordinates":[[-0.31649,43.3449287],[-0.3155994,43.3463721],[-0.3143328,43.3469596],[-0.3142369,43.3470041],[-0.3143697,43.347075],[-0.3153688,43.3476068],[-0.3153877,43.3475858],[-0.3154198,43.3475688],[-0.3143736,43.3469982],[-0.3156477,43.3464385],[-0.3161144,43.3473045],[-0.3168145,43.3476322],[-0.3168708,43.3476088],[-0.3167673,43.3475578],[-0.3161734,43.3472733],[-0.3157121,43.3464307],[-0.3157583,43.3463718],[-0.3157765,43.3463058],[-0.3166294,43.3449482],[-0.3165499,43.3449371],[-0.31649,43.3449287]]},"properties":{"natural":"grassland"}},
{"type":"Feature","geometry":{"type":"LineString","coordinates":[[-0.3049028,43.3489107],[-0.3048009,43.3490239],[-0.3047566,43.3490697],[-0.3047311,43.349136],[-0.3047124,43.3492296],[-0.3047227,43.3494363],[-0.3046587,43.3494208],[-0.3046533,43.3492355],[-0.3046533,43.349135],[-0.3046829,43.3490541],[-0.3047338,43.3489751],[-0.3048276,43.3488863],[-0.3049028,43.3489107]]},"properties":{"leaf_type":"broadleaved","natural":"wood"}},
{"type":"Feature","geometry":{"type":"LineString","coordinates":[[-0.3067938,43.348269],[-0.3067468,43.3482056],[-0.3064719,43.348269],[-0.3060977,43.3483509],[-0.3059019,43.3484299],[-0.3054956,43.3486484],[-0.3051576,43.3488395],[-0.3049766,43.348938],[-0.3050248,43.3489652],[-0.3052247,43.348859],[-0.3057034,43.348584],[-0.3060079,43.3484338],[-0.3061339,43.348389],[-0.3063405,43.3483324],[-0.3066918,43.3482563],[-0.3067884,43.3483734],[-0.3068568,43.3483412],[-0.3067938,43.348269]]},"properties":{"leaf_type":"broadleaved","natural":"wood"}},
{"type":"Feature","geometry":{"type":"LineString","coordinates":[[-0.315393,43.3502222],[-0.315865,43.3504916],[-0.3159428,43.3504253],[-0.31535,43.350121],[-0.3152722,43.3500703],[-0.3152561,43.3499923],[-0.3154276,43.3496112],[-0.3155458,43.3493486],[-0.315688,43.3493681],[-0.3157053,43.3493227],[-0.3157282,43.3492628],[-0.3155404,43.3492121],[-0.3153906,43.3492585],[-0.3152967,43.3496135],[-0.3151596,43.350072],[-0.315393,43.3502222]]},"properties":{"leaf_type":"broadleaved","natural":"wood"}},
{"type":"Feature","geometry":{"type":"LineString","coordinates":[[-0.3095645,43.3513107],[-0.3097978,43.3510923],[-0.3100392,43.3508504],[-0.310176,43.3506788],[-0.3102377,43.3505169],[-0.3103021,43.3500683],[-0.3106454,43.3502029],[-0.3105864,43.3503199],[-0.310581,43.3504136],[-0.3104442,43.350476],[-0.3103745,43.3505618],[-0.3102484,43.3507412],[-0.3101197,43.3508953],[-0.309602,43.3513497],[-0.3094819,43.3514412],[-0.3094116,43.3513966],[-0.3095645,43.3513107]]},"properties":{"leaf_type":"broadleaved","natural":"wood"}},
{"type":"Feature","geometry":{"type":"LineString","coordinates":[[-0.3084847,43.3501987],[-0.3087974,43.3499767],[-0.3094947,43.3492199],[-0.308564,43.3487849],[-0.3085801,43.3487342],[-0.3087115,43.3487303],[-0.3090002,43.3488652],[-0.3090414,43.3488844],[-0.3093342,43.3490151],[-0.3098059,43.3492257],[-0.3099132,43.3491419],[-0.310054,43.3491565],[-0.3101009,43.3491614],[-0.3103235,43.3492316],[-0.3103875,43.3485838],[-0.3104603,43.3485762],[-0.3103235,43.3495905],[-0.3102592,43.3495827],[-0.3096664,43.3492823],[-0.3095457,43.3493194],[-0.3093445,43.3495222],[-0.3089422,43.3499162],[-0.3086713,43.3501385],[-0.308551,43.3502308],[-0.3084847,43.3501987]]},"properties":{"leaf_type":"broadleaved","natural":"wood"}},
{"type":"Feature","geometry":{"type":"LineString","coordinates":[[-0.3064826,43.3496295],[-0.3065604,43.3495085],[-0.3065738,43.3494208],[-0.3069547,43.3493935],[-0.3069922,43.3492101],[-0.3071424,43.3490014],[-0.3074482,43.3487264],[-0.3075019,43.3487576],[-0.3071559,43.3490697],[-0.307062,43.3492374],[-0.3070325,43.3494754],[-0.3070003,43.3497758],[-0.3068152,43.3499337],[-0.3063646,43.3497348],[-0.3064826,43.3496295]]},"properties":{"leaf_type":"broadleaved","natural":"wood"}},
{"type":"Feature","geometry":{"type":"LineString","coordinates":[[-0.305737,43.3494812],[-0.3061527,43.3491185],[-0.3063485,43.3492569],[-0.3061132,43.3495035],[-0.3059623,43.349452],[-0.3054526,43.349844],[-0.305348,43.3497797],[-0.305737,43.3494812]]},"properties":{"leaf_type":"broadleaved","natural":"wood"}},
{"type":"Feature","geometry":{"type":"LineString","coordinates":[[-0.3091734,43.3479047],[-0.3103477,43.3484748],[-0.310455,43.3484807],[-0.3104603,43.3485762],[-0.3103875,43.3485838],[-0.3103289,43.3485899],[-0.3100848,43.3484768],[-0.3095672,43.3482212],[-0.3094062,43.348387],[-0.3093183,43.3483511],[-0.3085989,43.3480574],[-0.3084272,43.3483461],[-0.308277,43.3483246],[-0.3081885,43.3482739],[-0.3080168,43.3481998],[-0.3078613,43.3483617],[-0.307534,43.3481803],[-0.3073007,43.348153],[-0.3071317,43.3481783],[-0.3069145,43.3482349],[-0.3068635,43.3481764],[-0.30707,43.3480925],[-0.3072792,43.3480242],[-0.3074133,43.3479501],[-0.3076267,43.3478221],[-0.3081778,43.3480711],[-0.3081188,43.3481764],[-0.3083146,43.3482407],[-0.3085506,43.3479638],[-0.3089342,43.3481452],[-0.3091734,43.3479047]]},"properties":{"leaf_type":"broadleaved","natural":"wood"}},
{"type":"Feature","geometry":{"type":"LineString","coordinates":[[-0.3058362,43.3478897],[-0.3047445,43.3476439],[-0.3049511,43.3472343],[-0.3046855,43.3470646],[-0.304479,43.3469242],[-0.3043395,43.3468013],[-0.3043288,43.3467232],[-0.3044012,43.3467037],[-0.3044871,43.3467818],[-0.3049994,43.3471738],[-0.3057799,43.347363],[-0.3056163,43.3477707],[-0.3058362,43.3478409],[-0.3058362,43.3478897]]},"properties":{"leaf_type":"broadleaved","natural":"wood"}},
{"type":"Feature","geometry":{"type":"LineString","coordinates":[[-0.3187712,43.3553908],[-0.3183272,43.3554386],[-0.3181328,43.3554542],[-0.3179196,43.3554288],[-0.3174233,43.3553333],[-0.3168547,43.3552036],[-0.3165691,43.3550944],[-0.3160232,43.354874]]},"properties":{"natural":"tree_row"}},
{"type":"Feature","geometry":{"type":"LineString","coordinates":[[-0.3141509,43.3512321],[-0.3140459,43.3511941],[-0.3140721,43.3511558],[-0.3141771,43.3511938],[-0.3141509,43.3512321]]},"properties":{"access":"private","leisure":"swimming_pool"}},
{"type":"Feature","geometry":{"type":"LineString","coordinates":[[-0.3144123,43.3529695],[-0.3145242,43.3528867],[-0.3144806,43.3528555],[-0.3143686,43.3529383],[-0.3144123,43.3529695]]},"properties":{"access":"private","leisure":"swimming_pool"}},
{"type":"Feature","geometry":{"type":"LineString","coordinates":[[-0.3107183,43.3525953],[-0.3106424,43.3525345],[-0.3106094,43.3525563],[-0.3106853,43.3526171],[-0.3107183,43.3525953]]},"properties":{"access":"private","leisure":"swimming_pool"}},
{"type":"Feature","geometry":{"type":"LineString","coordinates":[[-0.3109524,43.3525416],[-0.3108662,43.3525089],[-0.3108843,43.3524837],[-0.3109704,43.3525164],[-0.3109524,43.3525416]]},"properties":{"access":"private","leisure":"swimming_pool"}},
{"type":"Feature","geometry":{"type":"LineString","coordinates":[[-0.3113207,43.3520095],[-0.3112287,43.3519837],[-0.311212,43.3520153],[-0.3113039,43.3520411],[-0.3113207,43.3520095]]},"properties":{"access":"private","leisure":"swimming_pool"}},
{"type":"Feature","geometry":{"type":"LineString","coordinates":[[-0.3131554,43.3514667],[-0.3132065,43.3514272],[-0.3131163,43.3513655],[-0.3130773,43.3513957],[-0.3131429,43.3514405],[-0.3131307,43.3514499],[-0.3131554,43.3514667]]},"properties":{"access":"private","leisure":"swimming_pool"}},
{"type":"Feature","geometry":{"type":"LineString","coordinates":[[-0.3130901,43.3521531],[-0.3129666,43.3521525],[-0.312967,43.3521154],[-0.3130904,43.3521161],[-0.3130901,43.3521531]]},"properties":{"access":"private","leisure":"swimming_pool"}},
{"type":"Feature","geometry":{"type":"LineString","coordinates":[[-0.3161206,43.3513454],[-0.3160097,43.3513027],[-0.3160378,43.3512641],[-0.3161487,43.3513068],[-0.3161206,43.3513454]]},"properties":{"access":"private","leisure":"swimming_pool"}},
{"type":"Feature","geometry":{"type":"LineString","coordinates":[[-0.316556,43.3517741],[-0.3164263,43.3517393],[-0.3164051,43.3517811],[-0.3165348,43.3518159],[-0.316556,43.3517741]]},"properties":{"access":"private","leisure":"swimming_pool"}},
{"type":"Feature","geometry":{"type":"LineString","coordinates":[[-0.3155984,43.3527961],[-0.3155051,43.3527582],[-0.3155295,43.3527265],[-0.3156227,43.3527644],[-0.3155984,43.3527961]]},"properties":{"access":"private","leisure":"swimming_pool"}},
{"type":"Feature","geometry":{"type":"LineString","coordinates":[[-0.3162487,43.3527707],[-0.3161297,43.3527337],[-0.3161055,43.3527749],[-0.3162245,43.3528119],[-0.3162487,43.3527707]]},"properties":{"access":"private","leisure":"swimming_pool"}},
{"type":"Feature","geometry":{"type":"LineString","coordinates":[[-0.3150313,43.3534936],[-0.3150477,43.3533892],[-0.3149687,43.3533826],[-0.3149522,43.353487],[-0.3150313,43.3534936]]},"properties":{"access":"private","leisure":"swimming_pool"}},
{"type":"Feature","geometry":{"type":"LineString","coordinates":[[-0.3144469,43.3539093],[-0.3143217,43.3539207],[-0.3143145,43.3538791],[-0.3144397,43.3538677],[-0.3144469,43.3539093]]},"properties":{"access":"private","leisure":"swimming_pool"}},
{"type":"Feature","geometry":{"type":"LineString","coordinates":[[-0.3151224,43.3541446],[-0.3149575,43.3541436],[-0.314958,43.3541002],[-0.3151229,43.3541012],[-0.3151224,43.3541446]]},"properties":{"access":"private","leisure":"swimming_pool"}},
{"type":"Feature","geometry":{"type":"LineString","coordinates":[[-0.3156571,43.3463892],[-0.3143147,43.347007],[-0.3153877,43.3475858]]},"properties":{"natural":"tree_row"}},
{"type":"Feature","geometry":{"type":"LineString","coordinates":[[-0.3168205,43.3476068],[-0.3161433,43.3472928],[-0.3156571,43.3463892],[-0.3165499,43.3449371]]},"properties":{"natural":"tree_row"}},
{"type":"Feature","geometry":{"type":"LineString","coordinates":[[-0.3148581,43.3766823],[-0.3149318,43.3764428],[-0.3154332,43.3765243],[-0.3153595,43.3767639],[-0.3148581,43.3766823]]},"properties":{"building":"yes","leisure":"pitch","source":"Le ministère de la ville, de la jeunesse et des sports - 2021-04","sport":"equestrian","surface":"sand"}},
{"type":"Feature","geometry":{"type":"LineString","coordinates":[[-0.2624806,43.3417685],[-0.2621327,43.3419756],[-0.2619838,43.3418453],[-0.2623317,43.3416382],[-0.2624806,43.3417685]]},"properties":{"leisure":"pitch","source":"data.gouv.fr:Le ministère des droits des femmes, de la ville, de la jeunesse et des sports - 11/2015","sport":"multi","surface":"asphalt"}},
{"type":"Feature","geometry":{"type":"LineString","coordinates":[[-0.2623317,43.3416382],[-0.2619838,43.3418453],[-0.2618389,43.3417166],[-0.2621868,43.3415095],[-0.2623317,43.3416382]]},"properties":{"building":"yes","covered":"yes","leisure":"pitch","source":"data.gouv.fr:Le ministère des droits des femmes, de la ville, de la jeunesse et des sports - 11/2015","sport":"tennis"}},
{"type":"Feature","geometry":{"type":"LineString","coordinates":[[-0.2621868,43.3415095],[-0.2618389,43.3417166],[-0.2616936,43.3415879],[-0.2620415,43.3413808],[-0.2621868,43.3415095]]},"properties":{"leisure":"pitch","source":"data.gouv.fr:Le ministère des droits des femmes, de la ville, de la jeunesse et des sports - 11/2015","sport":"tennis"}},
{"type":"Feature","geometry":{"type":"LineString","coordinates":[[-0.2618036,43.3413383],[-0.2617865,43.3411688],[-0.2614162,43.3411885],[-0.2614333,43.3413581],[-0.2618036,43.3413383]]},"properties":{"leisure":"pitch","sport":"handball","surface":"asphalt"}},
{"type":"Feature","geometry":{"type":"LineString","coordinates":[[-0.2608506,43.3411871],[-0.2608415,43.3410875],[-0.2605755,43.3411004],[-0.2605846,43.3412001],[-0.2608506,43.3411871]]},"properties":{"leisure":"pitch","source":"data.gouv.fr:Le ministère des droits des femmes, de la ville, de la jeunesse et des sports - 11/2015","sport":"basketball","surface":"asphalt"}},
{"type":"Feature","geometry":{"type":"LineString","coordinates":[[-0.261109,43.3411269],[-0.2611004,43.3410258],[-0.2608377,43.3410377],[-0.2608415,43.3410875],[-0.2608464,43.3411391],[-0.261109,43.3411269]]},"properties":{"leisure":"pitch","source":"data.gouv.fr:Le ministère des droits des femmes, de la ville, de la jeunesse et des sports - 11/2015","sport":"basketball","surface":"asphalt"}},
{"type":"Feature","geometry":{"type":"LineString","coordinates":[[-0.2611178,43.3412266],[-0.261109,43.3411269],[-0.2608464,43.3411391],[-0.2608506,43.3411871],[-0.2608552,43.3412388],[-0.2611178,43.3412266]]},"properties":{"leisure":"pitch","source":"data.gouv.fr:Le ministère des droits des femmes, de la ville, de la jeunesse et des sports - 11/2015","sport":"basketball","surface":"asphalt"}},
{"type":"Feature","geometry":{"type":"LineString","coordinates":[[-0.2671091,43.3469085],[-0.2669629,43.347129]]},"properties":{"natural":"tree_row"}},
{"type":"Feature","geometry":{"type":"LineString","coordinates":[[-0.2671534,43.3466842],[-0.266912,43.3470568]]},"properties":{"natural":"tree_row"}},
{"type":"Feature","geometry":{"type":"LineString","coordinates":[[-0.2672406,43.3467154],[-0.2671601,43.3468286]]},"properties":{"natural":"tree_row"}},
{"type":"Feature","geometry":{"type":"LineString","coordinates":[[-0.2673224,43.3463487],[-0.2672204,43.3465731]]},"properties":{"natural":"tree_row"}},
{"type":"Feature","geometry":{"type":"LineString","coordinates":[[-0.2674994,43.3462015],[-0.2674095,43.3463819]]},"properties":{"natural":"tree_row"}},
{"type":"Feature","geometry":{"type":"LineString","coordinates":[[-0.2676201,43.3459547],[-0.2674565,43.3461225]]},"properties":{"natural":"tree_row"}},
{"type":"Feature","geometry":{"type":"LineString","coordinates":[[-0.2678132,43.3457382],[-0.2676751,43.3458904]]},"properties":{"natural":"tree_row"}},
{"type":"Feature","geometry":{"type":"LineString","coordinates":[[-0.2678776,43.3458006],[-0.2677555,43.3459323]]},"properties":{"natural":"tree_row"}},
{"type":"Feature","geometry":{"type":"LineString","coordinates":[[-0.268119,43.3455363],[-0.2680559,43.3456105]]},"properties":{"natural":"tree_row"}},
{"type":"Feature","geometry":{"type":"LineString","coordinates":[[-0.2683416,43.3452613],[-0.2682169,43.3454369]]},"properties":{"natural":"tree_row"}},
{"type":"Feature","geometry":{"type":"LineString","coordinates":[[-0.2682236,43.345274],[-0.2679527,43.3456007]]},"properties":{"natural":"tree_row"}},
{"type":"Feature","geometry":{"type":"LineString","coordinates":[[-0.2684341,43.3449902],[-0.2683121,43.3451569]]},"properties":{"natural":"tree_row"}},
{"type":"Feature","geometry":{"type":"LineString","coordinates":[[-0.2685562,43.3449736],[-0.2684328,43.3451374]]},"properties":{"natural":"tree_row"}},
{"type":"Feature","geometry":{"type":"LineString","coordinates":[[-0.2685508,43.3448283],[-0.2684972,43.3449102]]},"properties":{"natural":"tree_row"}},
{"type":"Feature","geometry":{"type":"LineString","coordinates":[[-0.2686903,43.344759],[-0.2686273,43.3448673]]},"properties":{"natural":"tree_row"}},
{"type":"Feature","geometry":{"type":"LineString","coordinates":[[-0.2689357,43.3443894],[-0.2687828,43.3446313]]},"properties":{"natural":"tree_row"}},
{"type":"Feature","geometry":{"type":"LineString","coordinates":[[-0.2688217,43.3443923],[-0.2686232,43.3447044]]},"properties":{"natural":"tree_row"}},
{"type":"Feature","geometry":{"type":"LineString","coordinates":[[-0.2691731,43.3440461],[-0.2690148,43.3442684]]},"properties":{"natural":"tree_row"}},
{"type":"Feature","geometry":{"type":"LineString","coordinates":[[-0.2690953,43.3439954],[-0.268925,43.3442392]]},"properties":{"natural":"tree_row"}},
{"type":"Feature","geometry":{"type":"LineString","coordinates":[[-0.2621361,43.3492899],[-0.2619971,43.3490619],[-0.26193109999999999,43.3489634],[-0.2611855,43.3493057],[-0.2611908,43.3496363],[-0.2618694,43.3495914],[-0.2618894,43.3495739],[-0.2618109,43.3494183],[-0.2617903,43.3493788],[-0.2619475,43.3493347],[-0.2619531,43.3493449],[-0.2621361,43.3492899]]},"properties":{"leisure":"sports_centre","sport":"swimming","wikidata":"Q118526164"}},
{"type":"Feature","geometry":{"type":"LineString","coordinates":[[-0.2613356,43.3452233],[-0.2612439,43.3451973],[-0.2611832,43.3453107],[-0.2612749,43.3453367],[-0.2613356,43.3452233]]},"properties":{"leisure":"playground"}},
{"type":"Feature","geometry":{"type":"LineString","coordinates":[[-0.2760734,43.3435391],[-0.2756008,43.3436299],[-0.2750588,43.3436094],[-0.2738079,43.3438606],[-0.2735421,43.3438685],[-0.2732709,43.343851],[-0.2728683,43.3437851],[-0.2727619,43.34401],[-0.2727007,43.3441386],[-0.272609,43.3442909],[-0.2724883,43.3444235],[-0.2723783,43.3445445],[-0.272334,43.3446031],[-0.2718083,43.3445076],[-0.271681,43.3446049],[-0.2716514,43.344722],[-0.2718365,43.3447961],[-0.2721316,43.3448292],[-0.2720726,43.3449385],[-0.2720565,43.3450438],[-0.2719277,43.3451725],[-0.2718553,43.3452408],[-0.2717695,43.3453559],[-0.2715924,43.3453208],[-0.2714798,43.3452096],[-0.2714235,43.3451394],[-0.2712759,43.3450028],[-0.2711687,43.3448819],[-0.2710292,43.3447805],[-0.2709085,43.3447142],[-0.2707019,43.344681],[-0.2705991,43.3447976],[-0.2705588,43.3449637],[-0.2705822,43.3452628],[-0.2707958,43.3452993],[-0.2711418,43.3453871],[-0.2713618,43.3454398],[-0.2715254,43.34543],[-0.2716059,43.3455471],[-0.2714959,43.3456426],[-0.2715173,43.345785],[-0.2716032,43.3459489],[-0.2715951,43.3460835],[-0.2716059,43.3461985],[-0.2716863,43.3462512],[-0.2717105,43.3463429],[-0.2718392,43.3465243],[-0.2719331,43.3466199],[-0.2720135,43.3465965],[-0.2718982,43.3463097],[-0.2718741,43.3461868],[-0.272035,43.34614],[-0.2721289,43.3461049],[-0.2722737,43.3461322],[-0.2723488,43.3462805],[-0.2724937,43.346417],[-0.272601,43.3464599],[-0.2727243,43.3465574],[-0.2727217,43.3466725],[-0.2726412,43.3467623],[-0.2725875,43.3467135],[-0.2724561,43.3468481],[-0.2723622,43.3469027],[-0.2722925,43.3469788],[-0.272322,43.3470685],[-0.2724722,43.3470431],[-0.2725768,43.34693],[-0.2727941,43.3468052],[-0.2728558,43.346731],[-0.2730677,43.3467076],[-0.2731562,43.3467369],[-0.27325,43.3468832],[-0.2731347,43.3469515],[-0.2730837,43.3470568],[-0.2730301,43.3471036],[-0.2729282,43.3471095],[-0.2727914,43.347207],[-0.2727968,43.3472928],[-0.2726948,43.3473806],[-0.2726144,43.3474449],[-0.2724722,43.3475425],[-0.2723381,43.3475795],[-0.2722201,43.3475405],[-0.2721235,43.3475015],[-0.2720294,43.3475471],[-0.272094,43.3477765],[-0.2722174,43.3479482],[-0.2721477,43.3481705],[-0.2721316,43.3483383],[-0.2722925,43.348545],[-0.2725607,43.3485684],[-0.2726626,43.3484631],[-0.272845,43.3488142],[-0.2729845,43.349056],[-0.2730006,43.3491302],[-0.273191,43.3490873],[-0.2735263,43.3490073],[-0.2737033,43.3489371],[-0.2738294,43.3488629],[-0.2738374,43.3486738],[-0.2736309,43.3486464],[-0.2735531,43.3485587],[-0.2735209,43.3483656],[-0.2734351,43.3481959],[-0.2733412,43.3481335],[-0.2733386,43.3480398],[-0.2733171,43.3479053],[-0.2733359,43.3477726],[-0.2734619,43.3476575],[-0.2736363,43.3475249],[-0.2737999,43.347404],[-0.2740923,43.3472226],[-0.2743766,43.3469866],[-0.2745214,43.3467935],[-0.2746233,43.3466764],[-0.2747548,43.3465399],[-0.2747923,43.3464794],[-0.2749506,43.3463956],[-0.2748111,43.3461966],[-0.274677,43.3460913],[-0.2747253,43.3459645],[-0.2749345,43.3458162],[-0.2752778,43.3456699],[-0.2753744,43.3455783],[-0.2754763,43.3454222],[-0.2754977,43.3453403],[-0.2755272,43.3452935],[-0.2756935,43.3451999],[-0.2759242,43.3451843],[-0.2761441,43.3451862],[-0.2762756,43.3451843],[-0.2763534,43.3451608],[-0.2764503,43.3451396],[-0.2763857,43.3448646],[-0.2739394,43.3459118],[-0.2728933,43.3451979],[-0.2733439,43.3447532],[-0.2738965,43.344406],[-0.2752912,43.3438169],[-0.2761048,43.3436726],[-0.2760734,43.3435391]]},"properties":{"natural":"wood"}},
{"type":"Feature","geometry":{"type":"LineString","coordinates":[[-0.2717668,43.3425607],[-0.2713913,43.3426192],[-0.2711392,43.342506],[-0.2709514,43.3423344],[-0.2708441,43.3422622],[-0.2707019,43.3421647],[-0.2706644,43.3421374],[-0.2706161,43.3420359],[-0.2705705,43.3419208],[-0.2705678,43.3418565],[-0.2706,43.341796],[-0.2705598,43.3417492],[-0.2706108,43.341675],[-0.2706805,43.3416708],[-0.2707583,43.3416828],[-0.2708226,43.3417004],[-0.2708441,43.3417355],[-0.2709138,43.3417063],[-0.2708951,43.3416477],[-0.2709702,43.341636],[-0.2710265,43.341636],[-0.2711445,43.3416438],[-0.2712142,43.3415951],[-0.2712867,43.3416029],[-0.2713135,43.3416516],[-0.2714556,43.3416302],[-0.2716032,43.3416302],[-0.2716836,43.3416399],[-0.2717936,43.3416399],[-0.2718875,43.3416146],[-0.2718285,43.3415892],[-0.2719626,43.3415521],[-0.2720726,43.3415131],[-0.2721638,43.3414624],[-0.2723435,43.3414936],[-0.2723837,43.3415346],[-0.2724642,43.3416224],[-0.2725419,43.3416965],[-0.2726358,43.3417511],[-0.2726224,43.3418467],[-0.2726653,43.341913],[-0.2727136,43.3419676],[-0.2727297,43.3420515],[-0.2727056,43.3420964],[-0.2726895,43.3421335],[-0.2728236,43.3421764],[-0.2729604,43.3421978],[-0.273073,43.3421159],[-0.2730784,43.342073],[-0.2731615,43.342073],[-0.2732286,43.3419911],[-0.2732259,43.3418779],[-0.2732447,43.3417687],[-0.2732983,43.341675],[-0.2733788,43.3415561],[-0.2734083,43.3414566],[-0.2733547,43.3413532],[-0.2732849,43.3413395],[-0.2733037,43.341242],[-0.2734163,43.3411327],[-0.2734566,43.341121],[-0.2735585,43.3411854],[-0.2736872,43.3411698],[-0.2737811,43.341201],[-0.2738455,43.3411776],[-0.2737784,43.3408128],[-0.2739823,43.3408948],[-0.274221,43.3409455],[-0.2743578,43.3409591],[-0.2744731,43.3408596],[-0.2746287,43.3407602],[-0.2747226,43.3406529],[-0.2746743,43.3405573],[-0.2746689,43.3404773],[-0.2747682,43.3404402],[-0.2748484,43.3404194],[-0.2753827,43.3405258],[-0.275567,43.3405625],[-0.2755594,43.3406373],[-0.2755246,43.3407328],[-0.2754924,43.3407719],[-0.2754012,43.3407485],[-0.2752671,43.3407543],[-0.2751839,43.3407816],[-0.2749854,43.3408148],[-0.274854,43.3408284],[-0.2746743,43.3409162],[-0.2745295,43.3409552],[-0.2745777,43.3410781],[-0.274567,43.3411601],[-0.2744758,43.3411171],[-0.2744114,43.3410879],[-0.2743149,43.3411347],[-0.2741808,43.3411776],[-0.2740601,43.3412537],[-0.2739447,43.3413922],[-0.2739206,43.3414741],[-0.2738321,43.3415482],[-0.2737114,43.3416263],[-0.2735961,43.3416946],[-0.2735692,43.3417979],[-0.2735987,43.3418838],[-0.2735451,43.3419989],[-0.2735344,43.3420964],[-0.2734512,43.3422603],[-0.2733761,43.3424066],[-0.2733251,43.3425177],[-0.2733091,43.3426601],[-0.2732366,43.3428142],[-0.2731776,43.3428845],[-0.2731159,43.3429098],[-0.2732071,43.3429957],[-0.2731937,43.3430678],[-0.2731025,43.3431068],[-0.273006,43.3431927],[-0.2728745,43.3432278],[-0.2727807,43.3433039],[-0.2726868,43.3433721],[-0.2725875,43.3433994],[-0.2724963,43.343458],[-0.2724239,43.3435321],[-0.2723354,43.3435945],[-0.2723091,43.343609],[-0.272098,43.3435609],[-0.2723375,43.3434547],[-0.2724239,43.3433331],[-0.2724963,43.3431712],[-0.272558,43.343023],[-0.2726707,43.3428923],[-0.2728397,43.3428123],[-0.2729121,43.3427304],[-0.2728382,43.342638],[-0.2728102,43.342547],[-0.2727243,43.34243],[-0.272668,43.342389],[-0.2725473,43.3423714],[-0.2723864,43.3424144],[-0.2722576,43.3424573],[-0.2721503,43.3424982],[-0.271976,43.3425119],[-0.2718794,43.3425255],[-0.2717668,43.3425607]]},"properties":{"natural":"wood"}},
{"type":"Feature","geometry":{"type":"LineString","coordinates":[[-0.3057441,43.3771452],[-0.3058368,43.3771145],[-0.3057935,43.3770456],[-0.3057009,43.3770763],[-0.3057441,43.3771452]]},"properties":{"leisure":"playground"}},
{"type":"Feature","geometry":{"type":"LineString","coordinates":[[-0.3057756,43.3769392],[-0.3059457,43.3768826],[-0.3057928,43.3766397],[-0.30562279999999999,43.3766963],[-0.3057756,43.3769392]]},"properties":{"leisure":"pitch","source":"Le ministère de la ville, de la jeunesse et des sports - 2021-04","sport":"basketball","surface":"asphalt"}},
{"type":"Feature","geometry":{"type":"LineString","coordinates":[[-0.3140947,43.3759879],[-0.313805,43.3759548],[-0.3136414,43.3761575],[-0.3135073,43.3767151],[-0.3136736,43.3767638],[-0.3143656,43.3768652],[-0.3147975,43.3769101],[-0.3153527,43.3769724],[-0.3154694,43.3765104],[-0.3154251,43.3763505],[-0.3151046,43.3762423],[-0.3150375,43.3763408],[-0.3140947,43.3759879]]},"properties":{"leisure":"horse_riding","name":"Centre équestre du Brana"}},
{"type":"Feature","geometry":{"type":"LineString","coordinates":[[-0.3144354,43.3764987],[-0.3145172,43.3764626],[-0.3145909,43.3762521],[-0.3145641,43.3762287],[-0.3140277,43.3760415],[-0.3139633,43.376061],[-0.3139284,43.3761117],[-0.3138547,43.3762648],[-0.3138801,43.3763028],[-0.313911,43.3763242],[-0.3144354,43.3764987]]},"properties":{"leisure":"pitch","source":"Le ministère de la ville, de la jeunesse et des sports - 2021-04","sport":"equestrian","surface":"sand"}},
{"type":"Feature","geometry":{"type":"LineString","coordinates":[[-0.3139807,43.3767502],[-0.314092,43.3765221],[-0.3137876,43.3764178],[-0.3136709,43.3763544],[-0.3136669,43.3766196],[-0.313746,43.3766771],[-0.3139083,43.3767414],[-0.3139807,43.3767502]]},"properties":{"leisure":"pitch","source":"Le ministère de la ville, de la jeunesse et des sports - 2021-04","sport":"equestrian"}},
{"type":"Feature","geometry":{"type":"LineString","coordinates":[[-0.3064598,43.3779609],[-0.3064893,43.3778429],[-0.306382,43.3777445],[-0.3062667,43.3778186],[-0.3064384,43.3779765],[-0.3064598,43.3779609]]},"properties":{"boules":"petanque","leisure":"pitch","source":"Le ministère de la ville, de la jeunesse et des sports - 2021-04","sport":"boules"}},
{"type":"Feature","geometry":{"type":"LineString","coordinates":[[-0.2597432,43.3779306],[-0.2598551,43.3778708],[-0.2596947,43.3777123],[-0.2595828,43.3777722],[-0.2597432,43.3779306]]},"properties":{"leisure":"pitch","sport":"multi"}},
{"type":"Feature","geometry":{"type":"LineString","coordinates":[[-0.2595996,43.3777315],[-0.2594823,43.3777942],[-0.2594219,43.3776441],[-0.259499,43.3776194],[-0.2595279,43.3776515],[-0.2595996,43.3777315]]},"properties":{"leisure":"playground"}},
{"type":"Feature","geometry":{"type":"LineString","coordinates":[[-0.2595996,43.3777315],[-0.2597518,43.377648],[-0.2597156,43.3776022],[-0.2595279,43.3776515],[-0.2595996,43.3777315]]},"properties":{"boules":"petanque","leisure":"pitch","source":"Le ministère de la ville, de la jeunesse et des sports - 2021-04","sport":"boules"}},
{"type":"Feature","geometry":{"type":"LineString","coordinates":[[-0.2775282,43.380579],[-0.2773136,43.3802457],[-0.2762193,43.3806668],[-0.2764472,43.380926],[-0.2775282,43.380579]]},"properties":{"leisure":"pitch","source":"Le ministère de la ville, de la jeunesse et des sports - 2021-04","sport":"shooting"}},
{"type":"Feature","geometry":{"type":"LineString","coordinates":[[-0.2833896,43.3544815],[-0.2834596,43.3544407],[-0.2833192,43.3543135],[-0.2832493,43.3543544],[-0.2833896,43.3544815]]},"properties":{"boules":"petanque","leisure":"pitch","source":"Le ministère de la ville, de la jeunesse et des sports - 2021-04","sport":"boules"}},
{"type":"Feature","geometry":{"type":"LineString","coordinates":[[-0.3089823,43.352368],[-0.3088537,43.3522035],[-0.3089778,43.3521522],[-0.3091064,43.3523167],[-0.3089823,43.352368]]},"properties":{"leisure":"pitch","sport":"multi"}},
{"type":"Feature","geometry":{"type":"LineString","coordinates":[[-0.3088271,43.3528477],[-0.3087509,43.3528854],[-0.3085662,43.3527122],[-0.3086489,43.3526757],[-0.3088271,43.3528477]]},"properties":{"leisure":"pitch","sport":"boules"}},
{"type":"Feature","geometry":{"type":"LineString","coordinates":[[-0.2620237,43.3419657],[-0.261848,43.3420857],[-0.2618077,43.3420876],[-0.2617782,43.3420662],[-0.2617259,43.3420584],[-0.2617769,43.3418808],[-0.2619727,43.3419062],[-0.2620237,43.3419657]]},"properties":{"leisure":"pitch","sport":"skateboard"}},
{"type":"Feature","geometry":{"type":"LineString","coordinates":[[-0.2713721,43.3889155],[-0.2713082,43.3889327],[-0.2712571,43.3888326],[-0.271268,43.3888296],[-0.271268,43.3888204],[-0.2712727,43.3888121],[-0.2712847,43.3888092],[-0.2713008,43.3888218],[-0.2713214,43.3888163],[-0.2713721,43.3889155]]},"properties":{"access":"private","leisure":"swimming_pool"}},
{"type":"Feature","geometry":{"type":"MultiPolygon","coordinates":[[[[-0.2990091,43.3975986],[-0.2989874,43.3975417],[-0.298821,43.3974599],[-0.2984713,43.3974894],[-0.2983763,43.3973852],[-0.2983068,43.3972954],[-0.2979825,43.3971931],[-0.2977437,43.3972036],[-0.2976047,43.3972616],[-0.2974948,43.3973453],[-0.2972696,43.3974736],[-0.296974,43.3974032],[-0.296654,43.3972341],[-0.2966307,43.3971517],[-0.2965363,43.3970487],[-0.2963611,43.3969143],[-0.2962779,43.3967747],[-0.2962783,43.3966492],[-0.2960346,43.3961745],[-0.2959159,43.39602],[-0.2957426,43.3959573],[-0.295789,43.3960719],[-0.2954895,43.3961944],[-0.2953577,43.3962085],[-0.2950625,43.3963236],[-0.2950251,43.3963845],[-0.2946794,43.3965259],[-0.2946843,43.3967158],[-0.2946936,43.396905],[-0.2951485,43.3975335],[-0.2955524,43.3978719],[-0.2957933,43.3981952],[-0.2959164,43.3986789],[-0.2955594,43.3988633],[-0.2954001,43.3991191],[-0.2949473,43.3993633],[-0.2945623,43.3999227],[-0.2942704,43.4001271],[-0.2940491,43.4006685],[-0.2945201,43.4007723],[-0.2970682,43.4012975],[-0.2971462,43.4012628],[-0.2972401,43.4011177],[-0.29725,43.4009872],[-0.2974873,43.4005823],[-0.2977975,43.4002713],[-0.2979066,43.4002288],[-0.2979505,43.4001179],[-0.2980668,43.4000014],[-0.2979624,43.3998174],[-0.2980421,43.3997558],[-0.2980166,43.3996835],[-0.2979074,43.3996069],[-0.2979847,43.3994953],[-0.2980759,43.3994569],[-0.2982038,43.3993429],[-0.2982626,43.399176],[-0.2981976,43.3990157],[-0.298265,43.3989793],[-0.2983316,43.3987851],[-0.298242,43.3986492],[-0.2982599,43.3985011],[-0.2983084,43.3984818],[-0.2982695,43.3984213],[-0.2983477,43.3981692],[-0.2985587,43.398121],[-0.2985816,43.3980644],[-0.2982406,43.3980294],[-0.2987879,43.3979237],[-0.2988331,43.3978655],[-0.298814,43.3978213],[-0.2987457,43.3977904],[-0.2987504,43.3977219],[-0.2988661,43.3976525],[-0.2990091,43.3975986]]]]},"properties":{"name":"Lac d'Anos","natural":"water","water":"lake"}},
{"type":"Feature","geometry":{"type":"MultiPolygon","coordinates":[[[[-0.2945483,43.3653382],[-0.293822,43.3650791],[-0.2933155,43.3658351],[-0.2940418,43.3660941],[-0.2945483,43.3653382]]]]},"properties":{"leisure":"pitch","source":"Bing ; cadastre-dgi-fr source : Direction Générale des Impôts - Cadastre. Mise à jour : 2013","sport":"soccer"}},
{"type":"Feature","geometry":{"type":"MultiPolygon","coordinates":[[[[-0.2615897,43.3625311],[-0.260436,43.362081],[-0.2600226,43.3626412],[-0.2611762,43.3630913],[-0.2615897,43.3625311]]]]},"properties":{"leisure":"pitch","lit":"yes","source":"data.gouv.fr:Le ministère des droits des femmes, de la ville, de la jeunesse et des sports - 2014","sport":"soccer","surface":"grass"}},
{"type":"Feature","geometry":{"type":"MultiPolygon","coordinates":[[[[-0.2635686,43.3420242],[-0.2630174,43.3414927],[-0.2619633,43.3421061],[-0.26197,43.3422115],[-0.2624796,43.3426738],[-0.2635686,43.3420242]]]]},"properties":{"leisure":"pitch","source":"data.gouv.fr:Le ministère des droits des femmes, de la ville, de la jeunesse et des sports - 2014","sport":"rugby_union","surface":"grass","wikidata":"Q120163276"}},
{"type":"Feature","geometry":{"type":"MultiPolygon","coordinates":[[[[-0.2674718,43.3403168],[-0.267331,43.3396606],[-0.2670042,43.3396984],[-0.2658951,43.3398243],[-0.2660357,43.3404798],[-0.2674718,43.3403168]]]]},"properties":{"leisure":"pitch","sport":"soccer"}},
{"type":"Feature","geometry":{"type":"MultiPolygon","coordinates":[[[[-0.2653925,43.342982],[-0.2641265,43.3424319],[-0.2635981,43.3429761],[-0.264785,43.3434872],[-0.2653925,43.342982]]]]},"properties":{"leisure":"pitch","source":"data.gouv.fr:Le ministère des droits des femmes, de la ville, de la jeunesse et des sports - 2014","sport":"rugby_union","surface":"grass","wikidata":"Q120179746"}},
{"type":"Feature","geometry":{"type":"MultiPolygon","coordinates":[[[[-0.2661148,43.3471069],[-0.266008,43.3469819],[-0.2658893,43.3470355],[-0.2658053,43.3470735],[-0.2657131,43.3471152],[-0.2658199,43.3472401],[-0.2661148,43.3471069]]]]},"properties":{"leisure":"pitch","name":"City-stade des Fors","source":"data.gouv.fr:Le ministère des droits des femmes, de la ville, de la jeunesse et des sports - 2014","sport":"multi","wikidata":"Q120227530"}},
{"type":"Feature","geometry":{"type":"MultiPolygon","coordinates":[[[[-0.2629371,43.3414732],[-0.2628451,43.3414372],[-0.2628801,43.3413912],[-0.2628691,43.3413872],[-0.2628851,43.3413662],[-0.2628491,43.3413522],[-0.2627531,43.3412662],[-0.2627271,43.3412822],[-0.2625041,43.3410832],[-0.2620671,43.3413442],[-0.2625021,43.3417322],[-0.2628431,43.3415292],[-0.2628851,43.3415442],[-0.2629371,43.3414732]]]]},"properties":{"building":"yes","building:levels":"0","leisure":"sports_centre","name":"Salle omnisport","roof:levels":"0","source":"data.gouv.fr:Le ministère des droits des femmes, de la ville, de la jeunesse et des sports - 11/2015","sport":"multi","surface":"concrete"}},
{"type":"Feature","geometry":{"type":"MultiPolygon","coordinates":[[[[-0.263762,43.341548],[-0.263658,43.341456],[-0.263552,43.341516],[-0.263507,43.341476],[-0.263498,43.341482],[-0.263486,43.34147],[-0.263494,43.341464],[-0.263474,43.341446],[-0.26346,43.341454],[-0.263438,43.341435],[-0.263453,43.341426],[-0.263423,43.341401],[-0.263373,43.341431],[-0.263329,43.34139],[-0.263379,43.341359],[-0.2632978,43.3412757],[-0.2631078,43.3413875],[-0.263018,43.341442],[-0.263428,43.341809],[-0.26357,43.341889],[-0.263615,43.341848],[-0.263488,43.34177],[-0.263619,43.341689],[-0.263568,43.341645],[-0.263554,43.341634],[-0.26359900000000005,43.341606],[-0.263612,43.341617],[-0.263625,43.341629],[-0.263762,43.341548]]]]},"properties":{"building":"yes","leisure":"pitch","name":"Salle Polyvalente","source":"data.gouv.fr:Le ministère des droits des femmes, de la ville, de la jeunesse et des sports - 11/2015","sport":"multi","surface":"concrete"}},
{"type":"Feature","geometry":{"type":"MultiPolygon","coordinates":[[[[-0.263303,43.356591],[-0.263195,43.356054],[-0.262886,43.356086],[-0.262994,43.356624],[-0.263303,43.356591]]]]},"properties":{"building":"yes","leisure":"pitch","name":"Manège","source":"data.gouv.fr:Le ministère des droits des femmes, de la ville, de la jeunesse et des sports - 2014","sport":"equestrian","surface":"sand","wall":"no"}},
{"type":"Feature","geometry":{"type":"MultiPolygon","coordinates":[[[[-0.262702,43.344866],[-0.262584,43.34482],[-0.262516,43.344791],[-0.26235,43.344997],[-0.262527,43.345071],[-0.262553,43.345034],[-0.262568,43.345041],[-0.262702,43.344866]]]]},"properties":{"building":"yes","information":"office","name":"Office du Tourisme","source":"cadastre-dgi-fr source : Direction Générale des Impôts - Cadastre. Mise à jour : 2013","tourism":"information"}},
{"type":"Feature","geometry":{"type":"MultiPolygon","coordinates":[[[[-0.309203,43.353351],[-0.309161,43.353311],[-0.309149,43.353318],[-0.309123,43.353293],[-0.309156,43.353274],[-0.309119,43.35324],[-0.309088,43.353257],[-0.309077,43.353247],[-0.309108,43.353228],[-0.309073,43.353194],[-0.309041,43.353212],[-0.309031,43.353203],[-0.309063,43.353185],[-0.309028,43.35315],[-0.308995,43.353169],[-0.308984,43.353158],[-0.309016,43.353138],[-0.30898,43.353104],[-0.308945,43.353124],[-0.308926,43.353104],[-0.308958,43.353085],[-0.308848,43.352983],[-0.308551,43.353149],[-0.308892,43.353474],[-0.308991,43.353419],[-0.309023,43.353448],[-0.309085,43.353415],[-0.309091,43.35342],[-0.309109,43.35341],[-0.309105,43.353405],[-0.309203,43.353351]]]]},"properties":{"building":"yes","leisure":"sports_centre","name":"Salle des Sports","source":"data.gouv.fr:Le ministère des droits des femmes, de la ville, de la jeunesse et des sports - 2014","sport":"multi","surface":"concrete"}},
{"type":"Feature","geometry":{"type":"MultiPolygon","coordinates":[[[[-0.2623147,43.3494604],[-0.2622361,43.3493048],[-0.2618109,43.3494183],[-0.2618894,43.3495739],[-0.2623147,43.3494604]]]]},"properties":{"leisure":"pitch","sport":"tennis"}},
{"type":"Feature","geometry":{"type":"MultiPolygon","coordinates":[[[[-0.2616582,43.3500447],[-0.2615091,43.3497372],[-0.26129,43.3497934],[-0.2614391,43.3501009],[-0.2616582,43.3500447]]]]},"properties":{"leisure":"pitch","sport":"tennis","wikidata":"Q120193647"}},
{"type":"Feature","geometry":{"type":"MultiPolygon","coordinates":[[[[-0.2862103,43.3789924],[-0.2857812,43.3789444],[-0.2857714,43.3790256],[-0.2859052,43.3790428],[-0.2858999,43.3790869],[-0.2859365,43.3791022],[-0.2859576,43.3791047],[-0.2859812,43.3790922],[-0.2859926,43.379053999999999],[-0.2860972,43.3790678],[-0.2860939,43.3790849],[-0.2861882,43.3790909],[-0.2862103,43.3789924]]]]},"properties":{"building":"yes","heritage":"3","heritage:operator":"mhs","historic":"castle","mhs:inscription_date":"1999-04-19","name":"Château de Bernadets","ref:mhs":"PA64000031","source":"cadastre-dgi-fr source : Direction Générale des Finances Publiques - Cadastre. Mise à jour : 2013","source:heritage":"data.gouv.fr, Ministère de la Culture - 2016","start_date":"C18","wikidata":"Q22997625"}},
{"type":"Feature","geometry":{"type":"MultiPolygon","coordinates":[[[[-0.2878197,43.3755532],[-0.2876485,43.3753856],[-0.2872083,43.3756234],[-0.2873796,43.3757909],[-0.2878197,43.3755532]]]]},"properties":{"leisure":"pitch","sport":"multi"}},
{"type":"Feature","geometry":{"type":"MultiPolygon","coordinates":[[[[-0.2654816,43.3429501],[-0.2654638,43.3428888],[-0.2641738,43.3423546],[-0.2634428,43.3431075],[-0.2646222,43.3435904],[-0.2646715,43.3435517],[-0.2647261,43.3435784],[-0.2654816,43.3429501]]]]},"properties":{"leisure":"sports_centre","name":"Stade des Cordeliers"}},
{"type":"Feature","geometry":{"type":"MultiPolygon","coordinates":[[[[-0.2636324,43.3420587],[-0.2629776,43.3414273],[-0.2630563,43.3413805],[-0.2627057,43.3410663],[-0.2625732,43.3409477],[-0.2616644,43.3415019],[-0.2616626,43.3418966],[-0.2616428,43.3420418],[-0.2616575,43.3421081],[-0.2617273,43.3420915],[-0.2621949,43.342472],[-0.262489,43.3427411],[-0.2636324,43.3420587]]]]},"properties":{"leisure":"sports_centre"}},
{"type":"Feature","geometry":{"type":"MultiPolygon","coordinates":[[[[-0.2675735,43.3404058],[-0.2674117,43.3396515],[-0.267331,43.3396606],[-0.2670042,43.3396984],[-0.2669854,43.3395831],[-0.2670448,43.3395764],[-0.2670299,43.3394851],[-0.2673548,43.3394484],[-0.2673498,43.3394175],[-0.2672038,43.3387282],[-0.2671894,43.3386525],[-0.2673872,43.33863],[-0.267258,43.3380312],[-0.2659407,43.3381815],[-0.2660698,43.3387803],[-0.2660871,43.3388537],[-0.2656564,43.3389021],[-0.2657981,43.3395919],[-0.265874,43.3398384],[-0.2660188,43.3405222],[-0.2660483,43.3406077],[-0.2675735,43.3404058]]]]},"properties":{"leisure":"sports_centre","wikidata":"Q120163275"}},
{"type":"Feature","geometry":{"type":"MultiPolygon","coordinates":[[[[-0.2610889,43.3451833],[-0.2605888,43.3450358],[-0.260376,43.3454174],[-0.2603528,43.345459],[-0.2607228,43.3455681],[-0.2608529,43.3456065],[-0.2609334,43.345462],[-0.2610266,43.3452949],[-0.2610889,43.3451833]]]]},"properties":{"landuse":"recreation_ground","leisure":"pitch","name":"Terrain de foot à 7 de la gare","source":"data.gouv.fr:Le ministère des droits des femmes, de la ville, de la jeunesse et des sports - 2014","sport":"soccer","surface":"grass","wikidata":"Q120179747"}},
{"type":"Feature","geometry":{"type":"MultiPolygon","coordinates":[[[[-0.2611211,43.3448863],[-0.2609712,43.344775],[-0.2607344,43.3449433],[-0.2608843,43.3450547],[-0.2611211,43.3448863]]]]},"properties":{"leisure":"pitch","sport":"basketball","surface":"asphalt"}},
{"type":"Feature","geometry":{"type":"MultiPolygon","coordinates":[[[[-0.2609712,43.344775],[-0.2608062,43.3446518],[-0.2607911,43.3446625],[-0.2605262,43.3448502],[-0.2604597,43.3448974],[-0.26055,43.3449648],[-0.2606247,43.3450205],[-0.2609712,43.344775]]]]},"properties":{"leisure":"pitch","source":"data.gouv.fr:Le ministère des droits des femmes, de la ville, de la jeunesse et des sports - 2014","sport":"handball","surface":"asphalt"}},
{"type":"Feature","geometry":{"type":"MultiPolygon","coordinates":[[[[-0.2618537,43.3411557],[-0.2618367,43.3409806],[-0.2613434,43.3410059],[-0.2613604,43.341181],[-0.2618537,43.3411557]]]]},"properties":{"leisure":"pitch","source":"data.gouv.fr:Le ministère des droits des femmes, de la ville, de la jeunesse et des sports - 2014","sport":"handball","surface":"asphalt"}},
{"type":"Feature","geometry":{"type":"MultiPolygon","coordinates":[[[[-0.2636741,43.3421702],[-0.2635899,43.3420889],[-0.2632061,43.3423379],[-0.2633566,43.3424584],[-0.2636741,43.3421702]]]]},"properties":{"boules":"petanque","leisure":"pitch","source":"data.gouv.fr:Le ministère des droits des femmes, de la ville, de la jeunesse et des sports - 2014","sport":"boules","surface":"sand"}},
{"type":"Feature","geometry":{"type":"MultiPolygon","coordinates":[[[[-0.2670968,43.3415085],[-0.2668007,43.3412971],[-0.2666511,43.3414079],[-0.2669471,43.3416193],[-0.2670968,43.3415085]]]]},"properties":{"access":"private","leisure":"pitch","sport":"tennis"}},
{"type":"Feature","geometry":{"type":"MultiPolygon","coordinates":[[[[-0.2617954,43.3491477],[-0.2617717,43.349109],[-0.2617559,43.349114],[-0.2617503,43.3491048],[-0.2616776,43.3491283],[-0.261712,43.3491846],[-0.2617853,43.3491609],[-0.2617802,43.3491526],[-0.2617954,43.3491477]]]]},"properties":{"leisure":"swimming_pool","sport":"swimming"}},
{"type":"Feature","geometry":{"type":"MultiPolygon","coordinates":[[[[-0.2627833,43.35643],[-0.2627216,43.3561027],[-0.2624148,43.356136],[-0.2624765,43.3564706],[-0.2625303,43.3564938],[-0.2627255,43.3564691],[-0.2627833,43.35643]]]]},"properties":{"leisure":"pitch","name":"Carrière","source":"data.gouv.fr:Le ministère des droits des femmes, de la ville, de la jeunesse et des sports - 2014","sport":"equestrian","surface":"sand"}},
{"type":"Feature","geometry":{"type":"MultiPolygon","coordinates":[[[[-0.2633093,43.3412689],[-0.2629195,43.3409184],[-0.2627956,43.3409913],[-0.262718,43.3410369],[-0.2630839,43.3413659],[-0.2631078,43.3413875],[-0.2632978,43.3412757],[-0.2633093,43.3412689]]]]},"properties":{"leisure":"pitch","name":"Fronton","source":"data.gouv.fr:Le ministère des droits des femmes, de la ville, de la jeunesse et des sports - 2014","sport":"pelota","surface":"asphalt"}},
{"type":"Feature","geometry":{"type":"MultiPolygon","coordinates":[[[[-0.261767,43.3493257],[-0.2617011,43.3492215],[-0.2614167,43.3493167],[-0.2614826,43.3494209],[-0.261767,43.3493257]]]]},"properties":{"leisure":"swimming_pool","name":"Grand bassin","source":"data.gouv.fr:Le ministère des droits des femmes, de la ville, de la jeunesse et des sports - 2014","sport":"swimming"}},
{"type":"Feature","geometry":{"type":"MultiPolygon","coordinates":[[[[-0.2619163,43.3492528],[-0.2618795,43.3491915],[-0.2618636,43.3491965],[-0.261852,43.349177],[-0.2617362,43.3492137],[-0.2617982,43.3493171],[-0.2619144,43.3492803],[-0.2619009,43.3492577],[-0.2619163,43.3492528]]]]},"properties":{"leisure":"swimming_pool","name":"Petit bassin","source":"data.gouv.fr:Le ministère des droits des femmes, de la ville, de la jeunesse et des sports - 2014","sport":"swimming"}},
{"type":"Feature","geometry":{"type":"MultiPolygon","coordinates":[[[[-0.2725936,43.3727975],[-0.2725411,43.3727403],[-0.2723597,43.3727292],[-0.2720319,43.3728515],[-0.2719795,43.372915],[-0.2720603,43.3730532],[-0.2721543,43.3731199],[-0.2722111,43.3732137],[-0.2723029,43.3732327],[-0.2723641,43.3731644],[-0.272434,43.3731644],[-0.2725062,43.3731422],[-0.2725936,43.3727975]]]]},"properties":{"natural":"water"}},
{"type":"Feature","geometry":{"type":"MultiPolygon","coordinates":[[[[-0.3007849,43.3965119],[-0.300734,43.3965089],[-0.3007276,43.3964426],[-0.3005454,43.396304],[-0.3003673,43.3963964],[-0.3002338,43.396515],[-0.3000134,43.3965859],[-0.3002974,43.3968492],[-0.300609,43.3966598],[-0.3006916,43.3965689],[-0.3007849,43.3965119]]]]},"properties":{"natural":"water"}},
{"type":"Feature","geometry":{"type":"MultiPolygon","coordinates":[[[[-0.308799,43.3529683],[-0.308535,43.3527142],[-0.30837,43.3528048],[-0.308634,43.353059],[-0.308799,43.3529683]]]]},"properties":{"leisure":"pitch","sport":"tennis"}},
{"type":"Feature","geometry":{"type":"MultiPolygon","coordinates":[[[[-0.3094397,43.3531968],[-0.3092689,43.3531561],[-0.309199,43.3531643],[-0.3093019,43.3532703],[-0.3094397,43.3531968]]]]},"properties":{"leisure":"playground"}},
{"type":"Feature","geometry":{"type":"MultiPolygon","coordinates":[[[[-0.2663674,43.3412492],[-0.2663452,43.3411952],[-0.2661944,43.341228],[-0.2662166,43.341282],[-0.2663674,43.3412492]]]]},"properties":{"access":"private","leisure":"swimming_pool","source":"cadastre-dgi-fr source : Direction Générale des Impôts - Cadastre. Mise à jour : 2015"}},
{"type":"Feature","geometry":{"type":"MultiPolygon","coordinates":[[[[-0.307007,43.3506219],[-0.3066213,43.3504628],[-0.3065053,43.3506114],[-0.306891,43.3507705],[-0.307007,43.3506219]]]]},"properties":{"leisure":"pitch","sport":"tennis"}},
{"type":"Feature","geometry":{"type":"MultiPolygon","coordinates":[[[[-0.308634,43.353059],[-0.30837,43.3528048],[-0.3082004,43.3528979],[-0.3084645,43.3531521],[-0.308634,43.353059]]]]},"properties":{"leisure":"pitch","sport":"tennis"}},
{"type":"Feature","geometry":{"type":"MultiPolygon","coordinates":[[[[-0.3135964,43.3520965],[-0.3134215,43.3519854],[-0.313111,43.3522438],[-0.3132858,43.3523549],[-0.3135964,43.3520965]]]]},"properties":{"access":"private","leisure":"pitch","sport":"tennis"}},
{"type":"Feature","geometry":{"type":"MultiPolygon","coordinates":[[[[-0.3130951,43.3469311],[-0.3128988,43.3467474],[-0.3123305,43.3470685],[-0.3123298,43.3471192],[-0.3124774,43.3472401],[-0.3125268,43.3472522],[-0.3130951,43.3469311]]]]},"properties":{"leisure":"pitch","name":"Carrière de Pyrène Elevage","source":"data.gouv.fr:Le ministère des droits des femmes, de la ville, de la jeunesse et des sports - 2014","sport":"equestrian","surface":"sand"}},
{"type":"Feature","geometry":{"type":"MultiPolygon","coordinates":[[[[-0.3057972,43.3770095],[-0.3056012,43.3766973],[-0.3053876,43.3767681],[-0.3055836,43.3770803],[-0.3057972,43.3770095]]]]},"properties":{"leisure":"pitch","sport":"tennis"}},
{"type":"Feature","geometry":{"type":"MultiPolygon","coordinates":[[[[-0.2781326,43.3853953],[-0.2780755,43.3853755],[-0.2781065,43.385334],[-0.2780929,43.3852961],[-0.2780135,43.385297],[-0.277898,43.3851906],[-0.2778645,43.3853286],[-0.2778794,43.3853773],[-0.2779663,43.3853962],[-0.2780892,43.3854513],[-0.2781326,43.3853953]]]]},"properties":{"natural":"water"}},
{"type":"Feature","geometry":{"type":"MultiPolygon","coordinates":[[[[-0.3082383,43.3890651],[-0.3077341,43.3883783],[-0.3074296,43.3884934],[-0.3079119,43.389274],[-0.3082383,43.3890651]]]]},"properties":{"natural":"wood"}},
{"type":"Feature","geometry":{"type":"MultiPolygon","coordinates":[[[[-0.3039268,43.3403759],[-0.3035591,43.3402016],[-0.3033318,43.3403429],[-0.3035095,43.3405712],[-0.303745,43.3406193],[-0.3039268,43.3403759]]]]},"properties":{"natural":"heath"}},
{"type":"Feature","geometry":{"type":"MultiPolygon","coordinates":[[[[-0.3048896,43.3409108],[-0.3039268,43.3403759],[-0.303745,43.3406193],[-0.3035095,43.3405712],[-0.3033318,43.3403429],[-0.3035591,43.3402016],[-0.3034624,43.3401769],[-0.3039131,43.3396697],[-0.3038651,43.3396682],[-0.3035188,43.340013],[-0.3031843,43.3402889],[-0.3029723,43.3401085],[-0.3028579,43.3401574],[-0.3033442,43.3407005],[-0.3020922,43.3418875],[-0.3024409,43.342024],[-0.3029716,43.3420028],[-0.3030581,43.341948],[-0.3031471,43.3415137],[-0.3031208,43.3413829],[-0.3030615,43.3411649],[-0.3030816,43.3411113],[-0.3032559,43.340926],[-0.3033391,43.3409864],[-0.303292,43.3411374],[-0.3032948,43.3413637],[-0.3034234,43.3414784],[-0.3035081,43.3414975],[-0.3037223,43.3415676],[-0.3036979,43.3419045],[-0.3038046,43.3419127],[-0.3038237,43.341727],[-0.3038354,43.3415868],[-0.3039668,43.3415691],[-0.3042851,43.341162],[-0.3048896,43.3409108]],[[-0.3046125,43.3408643],[-0.3042064,43.3410789],[-0.3039924,43.341301],[-0.3036085,43.3411707],[-0.3036287,43.3411152],[-0.3039405,43.3405732],[-0.3039989,43.3405768],[-0.3046125,43.3408643]]]]},"properties":{"leaf_type":"broadleaved","natural":"wood"}},
{"type":"Feature","geometry":{"type":"MultiPolygon","coordinates":[[[[-0.3046125,43.3408643],[-0.3039989,43.3405768],[-0.3039405,43.3405732],[-0.3036287,43.3411152],[-0.3036085,43.3411707],[-0.3039924,43.341301],[-0.3042064,43.3410789],[-0.3046125,43.3408643]]]]},"properties":{"natural":"heath"}},
{"type":"Feature","geometry":{"type":"MultiPolygon","coordinates":[[[[-0.3159566,43.3420501],[-0.3157872,43.3419423],[-0.315747,43.3418487],[-0.3156799,43.3417979],[-0.3155646,43.341794],[-0.3153456,43.3420107],[-0.3156745,43.3422017],[-0.3159566,43.3420501]]]]},"properties":{"natural":"heath"}},
{"type":"Feature","geometry":{"type":"MultiPolygon","coordinates":[[[[-0.3165489,43.3418057],[-0.3162754,43.3416399],[-0.316312,43.3416062],[-0.3158328,43.3414176],[-0.3157282,43.3415053],[-0.3157336,43.3415736],[-0.3158033,43.3416809],[-0.315932,43.3417687],[-0.3161413,43.3418545],[-0.3162405,43.3418974],[-0.3159566,43.3420501],[-0.3156745,43.3422017],[-0.3151113,43.3427947],[-0.3157443,43.343021],[-0.3159052,43.3424085],[-0.3157657,43.3423578],[-0.3164604,43.3418584],[-0.3165489,43.3418057]]]]},"properties":{"leaf_type":"broadleaved","natural":"wood"}},
{"type":"Feature","geometry":{"type":"MultiPolygon","coordinates":[[[[-0.3147894,43.3425646],[-0.3139848,43.3422954],[-0.3138209,43.3424741],[-0.3136522,43.3426582],[-0.3139955,43.3428337],[-0.3135717,43.3435009],[-0.3142888,43.3437005],[-0.3147894,43.3425646]]]]},"properties":{"leaf_type":"broadleaved","natural":"wood"}},
{"type":"Feature","geometry":{"type":"MultiPolygon","coordinates":[[[[-0.315,43.340908399999999],[-0.3148753,43.3408577],[-0.3148109,43.3408479],[-0.3140746,43.340926],[-0.3134979,43.3409289],[-0.3132901,43.340923],[-0.3132531,43.3408197],[-0.3130782,43.340807],[-0.3128797,43.3407894],[-0.3125846,43.3406685],[-0.3119516,43.3403486],[-0.3120911,43.3401223],[-0.3122735,43.3400208],[-0.3125203,43.3401262],[-0.3126866,43.3401652],[-0.3131807,43.3398174],[-0.3130234,43.3397396],[-0.3129633,43.3397239],[-0.3126705,43.3399857],[-0.3125417,43.3400403],[-0.3120643,43.3396385],[-0.3119731,43.3396697],[-0.3121823,43.339857],[-0.3119072,43.3402014],[-0.3117532,43.3402393],[-0.3108025,43.3398521],[-0.3107702,43.3399546],[-0.31178,43.3403954],[-0.3116995,43.3406763],[-0.3119034,43.3410313],[-0.3103531,43.3416477],[-0.309594,43.3416789],[-0.3094907,43.3416906],[-0.3094997,43.3417782],[-0.3096543,43.3432824],[-0.3097241,43.3432892],[-0.309594,43.341794],[-0.3103477,43.3417648],[-0.3104174,43.3418974],[-0.3114957,43.3418389],[-0.3119677,43.3418311],[-0.3124961,43.3418799],[-0.3125042,43.3418057],[-0.3119355,43.3417697],[-0.3115386,43.3417667],[-0.3107715,43.3418213],[-0.3105274,43.3418272],[-0.3104416,43.3417131],[-0.3106239,43.3416458],[-0.3116539,43.3412556],[-0.3120321,43.3411913],[-0.3124023,43.3411757],[-0.3125187,43.3411612],[-0.3126544,43.3411445],[-0.3128368,43.3410625],[-0.3131157,43.3410079],[-0.3140531,43.3409786],[-0.315,43.340908399999999]]]]},"properties":{"leaf_type":"broadleaved","natural":"wood"}},
{"type":"Feature","geometry":{"type":"MultiPolygon","coordinates":[[[[-0.3075528,43.3379627],[-0.3075072,43.3379354],[-0.3072578,43.3382495],[-0.3066194,43.3396268],[-0.3065711,43.3396658],[-0.3064236,43.3396229],[-0.3062466,43.3395722],[-0.3049138,43.3390866],[-0.3048785,43.3391426],[-0.3060074,43.3395542],[-0.3061109,43.339592],[-0.3062385,43.3396385],[-0.3065255,43.3397302],[-0.3067374,43.3398062],[-0.3070754,43.3398706],[-0.3073946,43.3399116],[-0.3074643,43.3398628],[-0.307188,43.3398472],[-0.3067482,43.3397672],[-0.3066811,43.3397185],[-0.306665,43.339656],[-0.3072953,43.338271],[-0.3074257,43.3381149],[-0.3075528,43.3379627]]]]},"properties":{"area":"yes","barrier":"hedge","leaf_type":"broadleaved","natural":"heath"}},
{"type":"Feature","geometry":{"type":"MultiPolygon","coordinates":[[[[-0.3057348,43.3437652],[-0.3055277,43.343772],[-0.3045809,43.3443084],[-0.3040713,43.3440783],[-0.3037548,43.3440314],[-0.3032881,43.3441446],[-0.3024298,43.3436764],[-0.3019899,43.3434775],[-0.3017539,43.343337],[-0.3016359,43.3432551],[-0.3015093,43.3431213],[-0.3014129,43.3431448],[-0.3016444,43.3434232],[-0.302352,43.3437408],[-0.3032076,43.3441953],[-0.304082,43.3445854],[-0.3036958,43.3448117],[-0.3038728,43.3448897],[-0.3057348,43.3437652]]]]},"properties":{"natural":"grassland"}},
{"type":"Feature","geometry":{"type":"MultiPolygon","coordinates":[[[[-0.3026632,43.3447454],[-0.3011068,43.3441557],[-0.3010569,43.3442148],[-0.3026176,43.3448136],[-0.3026632,43.3447454]]]]},"properties":{"leaf_type":"broadleaved","natural":"wood"}},
{"type":"Feature","geometry":{"type":"MultiPolygon","coordinates":[[[[-0.3098635,43.3441787],[-0.3097791,43.3441641],[-0.3088889,43.343971],[-0.3085747,43.344168],[-0.3080651,43.3441914],[-0.3074911,43.3441797],[-0.3067079,43.3441153],[-0.3067133,43.3441621],[-0.3074026,43.3442655],[-0.3084594,43.344287],[-0.3085023,43.344326],[-0.30779,43.3449289],[-0.3070648,43.3448038],[-0.3061504,43.3444738],[-0.3052014,43.3450684],[-0.304577,43.346101],[-0.3028134,43.3455139],[-0.3020492,43.3451577],[-0.3019506,43.3452058],[-0.3022206,43.3453422],[-0.3027946,43.3456173],[-0.3026605,43.3460074],[-0.3029609,43.3461147],[-0.3027785,43.3464053],[-0.3026927,43.3466277],[-0.3026605,43.346813],[-0.3027114,43.3470841],[-0.3026578,43.3472791],[-0.3019497,43.3476771],[-0.3020033,43.3477239],[-0.3022072,43.3475951],[-0.3025827,43.3474059],[-0.3026712,43.3473357],[-0.3028831,43.3472694],[-0.3030172,43.3472694],[-0.3030548,43.3480847],[-0.3020516,43.3481549],[-0.3020516,43.3481978],[-0.3028405,43.3481397],[-0.3031111,43.3481198],[-0.3031053,43.3480205],[-0.3030816,43.3476107],[-0.3030762,43.3470626],[-0.3027436,43.3470119],[-0.3027222,43.3468695],[-0.3027543,43.3466491],[-0.3030762,43.3460659],[-0.3027678,43.3459781],[-0.3029019,43.3456426],[-0.304597,43.3461849],[-0.3052086,43.345155],[-0.3055868,43.3449092],[-0.3060588,43.3446264],[-0.3061661,43.3445893],[-0.3064504,43.3446595],[-0.3068581,43.3448156],[-0.3071719,43.3449073],[-0.3078237,43.3450009],[-0.3084004,43.3450945],[-0.3084353,43.3450497],[-0.3081885,43.3450028],[-0.3080839,43.3449619],[-0.3080732,43.3448995],[-0.3082743,43.3446693],[-0.308623,43.3442714],[-0.3086874,43.3442148],[-0.3088054,43.3441738],[-0.3089717,43.3441972],[-0.3092641,43.3442772],[-0.3097683,43.3443962],[-0.3098635,43.3441787]]]]},"properties":{"leaf_type":"broadleaved","natural":"wood"}},
{"type":"Feature","geometry":{"type":"MultiPolygon","coordinates":[[[[-0.3042135,43.3429664],[-0.3034571,43.3429371],[-0.3034624,43.3430386],[-0.3033847,43.3430854],[-0.3032908,43.3431029],[-0.302985,43.3431595],[-0.3027168,43.3432005],[-0.3026605,43.343181],[-0.3027678,43.3429079],[-0.3026792,43.3429049],[-0.3025371,43.3433331],[-0.302639,43.3433604],[-0.3030252,43.3432278],[-0.3035563,43.3431302],[-0.3039882,43.3430893],[-0.3041776,43.3431185],[-0.3042135,43.3429664]]]]},"properties":{"leaf_type":"broadleaved","natural":"wood"}},
{"type":"Feature","geometry":{"type":"MultiPolygon","coordinates":[[[[-0.30615,43.3430932],[-0.3060561,43.3430893],[-0.3059247,43.3433682],[-0.3058282,43.3434424],[-0.3056833,43.3434892],[-0.3055733,43.3435789],[-0.3054634,43.3436179],[-0.3053427,43.343614],[-0.3052995,43.3436537],[-0.3055277,43.343772],[-0.3057348,43.3437652],[-0.3057584,43.3436472],[-0.3058872,43.343497],[-0.3060508,43.3432434],[-0.30615,43.3430932]]]]},"properties":{"leaf_type":"broadleaved","natural":"wood"}},
{"type":"Feature","geometry":{"type":"MultiPolygon","coordinates":[[[[-0.3061109,43.339592],[-0.3060074,43.3395542],[-0.305509,43.3401164],[-0.3050557,43.3398648],[-0.3048465,43.339775],[-0.304471,43.3396853],[-0.3040981,43.3396112],[-0.3039452,43.339578],[-0.3038488,43.3395562],[-0.3037387,43.3395546],[-0.3034356,43.3395195],[-0.3034383,43.3395702],[-0.3038651,43.3396682],[-0.3039131,43.3396697],[-0.3043905,43.3397282],[-0.3046024,43.339777],[-0.3049189,43.3399077],[-0.3054902,43.3402627],[-0.3061109,43.339592]]]]},"properties":{"natural":"grassland"}},
{"type":"Feature","geometry":{"type":"MultiPolygon","coordinates":[[[[-0.3029113,43.3423763],[-0.3028858,43.3423539],[-0.3018692,43.3427791],[-0.3013167,43.3430171],[-0.3013483,43.3430671],[-0.301939,43.3428259],[-0.3019229,43.3428006],[-0.3023842,43.3425928],[-0.3029113,43.3423763]]]]},"properties":{"leaf_type":"broadleaved","natural":"wood"}},
{"type":"Feature","geometry":{"type":"MultiPolygon","coordinates":[[[[-0.3014835,43.3396242],[-0.3014331,43.3395914],[-0.3014052,43.3395604],[-0.3011895,43.3396902],[-0.3011102,43.339738],[-0.3007588,43.3399135],[-0.300217,43.3402432],[-0.2999085,43.3404656],[-0.2991664,43.3409108],[-0.2991897,43.3409377],[-0.2992436,43.3409699],[-0.3000963,43.34045],[-0.3003672,43.3402647],[-0.3006113,43.3400793],[-0.3008285,43.339935],[-0.3010458,43.3398453],[-0.3012764,43.3397419],[-0.3014835,43.3396242]]]]},"properties":{"natural":"grassland"}},
{"type":"Feature","geometry":{"type":"MultiPolygon","coordinates":[[[[-0.2981336,43.3424543],[-0.2981067,43.3424251],[-0.2974141,43.341914],[-0.2973846,43.3419267],[-0.2978714,43.3423256],[-0.2978861,43.3423627],[-0.2978754,43.3423968],[-0.2978566,43.3424407],[-0.2976944,43.342427],[-0.2976903,43.3424592],[-0.2981141,43.3424817],[-0.2981336,43.3424543]]]]},"properties":{"leaf_type":"broadleaved","natural":"wood"}},
{"type":"Feature","geometry":{"type":"MultiPolygon","coordinates":[[[[-0.298723,43.3426562],[-0.2987163,43.3426358],[-0.2986184,43.3426026],[-0.2982698,43.3425271],[-0.297462,43.3424803],[-0.2974572,43.3425134],[-0.2982504,43.3425757],[-0.2986237,43.3426504],[-0.2986975,43.3426699],[-0.298723,43.3426562]]]]},"properties":{"leaf_type":"broadleaved","natural":"wood"}},
{"type":"Feature","geometry":{"type":"MultiPolygon","coordinates":[[[[-0.2998978,43.345508],[-0.2987914,43.3451589],[-0.2988249,43.345077],[-0.2988115,43.3449482],[-0.2987954,43.3448448],[-0.2987337,43.3446966],[-0.2985942,43.3445113],[-0.2983528,43.3442324],[-0.2983153,43.3442499],[-0.2985916,43.3446205],[-0.2986479,43.3447103],[-0.2986452,43.344798],[-0.2985674,43.3448702],[-0.2984548,43.344917],[-0.2981302,43.3449755],[-0.298147,43.345018],[-0.2984279,43.344997],[-0.298546,43.3450185],[-0.2986157,43.3450594],[-0.2986908,43.3451608],[-0.29879,43.3452311],[-0.2998602,43.3455783],[-0.2998978,43.345508]]]]},"properties":{"leaf_type":"broadleaved","natural":"wood"}},
{"type":"Feature","geometry":{"type":"MultiPolygon","coordinates":[[[[-0.2991146,43.3439807],[-0.2989617,43.3437857],[-0.2987391,43.343497],[-0.298554,43.3433156],[-0.2984682,43.3432697],[-0.298373,43.3432541],[-0.2980417,43.3433039],[-0.2980944,43.3433539],[-0.2982335,43.3433146],[-0.2983676,43.3433097],[-0.2984467,43.3433448],[-0.2985781,43.3434248],[-0.2986962,43.3435496],[-0.2989842,43.3440238],[-0.2991146,43.3439807]]]]},"properties":{"leaf_type":"broadleaved","natural":"wood"}},
{"type":"Feature","geometry":{"type":"MultiPolygon","coordinates":[[[[-0.2999986,43.3422414],[-0.2999809,43.3421647],[-0.2999434,43.3421569],[-0.2991602,43.3423246],[-0.2989724,43.3420788],[-0.2989,43.3419364],[-0.2992594,43.3417726],[-0.2993694,43.3416965],[-0.2993774,43.3416536],[-0.2993399,43.3416224],[-0.2987927,43.3419091],[-0.298664,43.3418018],[-0.2984011,43.3415541],[-0.2982499,43.341359],[-0.2981114,43.341439],[-0.2983609,43.3416048],[-0.2987739,43.3420047],[-0.2990261,43.3423441],[-0.2991253,43.3424865],[-0.2992138,43.3425782],[-0.2992165,43.3426523],[-0.2991629,43.3426504],[-0.2989376,43.3425685],[-0.2989134,43.3426328],[-0.2989966,43.3426601],[-0.2991521,43.3427245],[-0.2993265,43.3428181],[-0.2995169,43.3429293],[-0.2995732,43.342902],[-0.2995813,43.3427986],[-0.2994794,43.3427616],[-0.2993399,43.3426796],[-0.2991897,43.3423831],[-0.2999986,43.3422414]]]]},"properties":{"leaf_type":"broadleaved","natural":"wood"}},
{"type":"Feature","geometry":{"type":"MultiPolygon","coordinates":[[[[-0.2919065,43.3426369],[-0.2918945,43.3426079],[-0.2913578,43.3426274],[-0.2913871,43.3427869],[-0.2916741,43.342783],[-0.2917734,43.3428084],[-0.2918404,43.3428201],[-0.2918297,43.3427265],[-0.2918684,43.3426535],[-0.2919065,43.3426369]]]]},"properties":{"leaf_type":"broadleaved","natural":"wood"}},
{"type":"Feature","geometry":{"type":"MultiPolygon","coordinates":[[[[-0.2928202,43.338333],[-0.2926828,43.3382755],[-0.2926455,43.3382658],[-0.2924547,43.3389401],[-0.2923957,43.3390942],[-0.2922535,43.3392503],[-0.2920416,43.3393498],[-0.2918431,43.3394258],[-0.2915213,43.3394922],[-0.2912343,43.3394863],[-0.2912343,43.3396229],[-0.2914059,43.3396131],[-0.2914676,43.3396346],[-0.2915159,43.3401535],[-0.2916151,43.3401262],[-0.2915508,43.3396482],[-0.2915964,43.3395878],[-0.2917171,43.3395565],[-0.2920496,43.3394902],[-0.2921784,43.3394649],[-0.2921945,43.3396229],[-0.2921596,43.3398355],[-0.2922404,43.3398407],[-0.2922935,43.3398441],[-0.292342,43.3398472],[-0.2924064,43.3394902],[-0.2924895,43.3393771],[-0.2925915,43.3392503],[-0.2926692,43.3389557],[-0.2928202,43.338333]]]]},"properties":{"leaf_type":"broadleaved","natural":"wood"}},
{"type":"Feature","geometry":{"type":"MultiPolygon","coordinates":[[[[-0.3109968,43.353854],[-0.3109592,43.353735],[-0.3109404,43.3536619],[-0.3107889,43.3532465],[-0.310746,43.3531987],[-0.3106997,43.3531668],[-0.3106776,43.3531928],[-0.3107071,43.3532708],[-0.3108063,43.3535185],[-0.3108895,43.3538189],[-0.3108385,43.3541348],[-0.3107688,43.3543552],[-0.3106535,43.3544781],[-0.310455,43.3545659],[-0.3100956,43.3547063],[-0.3097603,43.3547843],[-0.3096691,43.3548291],[-0.3094803,43.3549716],[-0.3095028,43.3550066],[-0.3095136,43.3550402],[-0.3096879,43.3549364],[-0.3098783,43.3548545],[-0.3101438,43.3548038],[-0.3104228,43.3547433],[-0.310581,43.3546614],[-0.31075,43.3545756],[-0.3108734,43.3544196],[-0.3109297,43.3542909],[-0.3109941,43.353971],[-0.3109968,43.353854]]]]},"properties":{"leaf_type":"broadleaved","natural":"wood"}},
{"type":"Feature","geometry":{"type":"MultiPolygon","coordinates":[[[[-0.311269,43.35297],[-0.3111577,43.3529802],[-0.3107634,43.3530992],[-0.3107232,43.3531236],[-0.3108064,43.3531714],[-0.3109163,43.3532962],[-0.3109968,43.353538],[-0.3110504,43.353577],[-0.3111416,43.3535556],[-0.3112623,43.3531012],[-0.311269,43.35297]]]]},"properties":{"leaf_type":"broadleaved","natural":"wood"}},
{"type":"Feature","geometry":{"type":"MultiPolygon","coordinates":[[[[-0.3047846,43.3528728],[-0.3041491,43.3526506],[-0.3039318,43.3525648],[-0.3038326,43.3524068],[-0.3037924,43.352204],[-0.3036556,43.3520597],[-0.3034383,43.3520168],[-0.3031969,43.3520997],[-0.3026511,43.3522693],[-0.302458,43.3523444],[-0.3023306,43.3524185],[-0.302128,43.3526048],[-0.3024767,43.3527599],[-0.3026015,43.3528379],[-0.3029743,43.3530466],[-0.3033471,43.3533001],[-0.303736,43.3536024],[-0.3040043,43.3538754],[-0.3042269,43.3538111],[-0.3043503,43.3537389],[-0.3046492,43.3534992],[-0.3045955,43.3534321],[-0.3044012,43.3536141],[-0.3042859,43.3537155],[-0.3041169,43.3537565],[-0.3039774,43.3537038],[-0.3037816,43.3535361],[-0.3032881,43.353185],[-0.3031513,43.3530914],[-0.3031138,43.3530134],[-0.3029904,43.3529627],[-0.302462,43.3527072],[-0.3026363,43.3525843],[-0.3029045,43.3524927],[-0.3030843,43.3524459],[-0.3031567,43.3523308],[-0.3031701,43.3522216],[-0.3033042,43.3521572],[-0.3033793,43.3521455],[-0.3035241,43.3521943],[-0.3036153,43.3523951],[-0.3036985,43.3525785],[-0.3039774,43.3527189],[-0.3043476,43.3528125],[-0.3047772,43.3529401],[-0.3047846,43.3528728]]]]},"properties":{"leaf_type":"broadleaved","natural":"wood"}},
{"type":"Feature","geometry":{"type":"MultiPolygon","coordinates":[[[[-0.3029957,43.3512113],[-0.3026149,43.3510708],[-0.3025425,43.3513302],[-0.3024432,43.351459],[-0.3023225,43.3515214],[-0.3021321,43.3515877],[-0.3021079,43.3516345],[-0.3021911,43.3516989],[-0.3023252,43.3516677],[-0.3024861,43.3515955],[-0.3026819,43.3515545],[-0.3028026,43.3514336],[-0.3029957,43.3512113]]]]},"properties":{"leaf_type":"broadleaved","natural":"wood"}},
{"type":"Feature","geometry":{"type":"MultiPolygon","coordinates":[[[[-0.3049538,43.3500722],[-0.3048572,43.3500293],[-0.3045353,43.3499142],[-0.3034839,43.3496763],[-0.3034088,43.3496958],[-0.3032318,43.3497797],[-0.3031647,43.3498713],[-0.303162,43.3500761],[-0.3031459,43.3502263],[-0.3030628,43.3503219],[-0.3028643,43.3503979],[-0.3027248,43.3504487],[-0.3026283,43.3506944],[-0.3025612,43.3507471],[-0.3022635,43.3506242],[-0.3021616,43.3505618],[-0.3019309,43.3504194],[-0.3016895,43.3502263],[-0.3015581,43.3500976],[-0.3014213,43.3498908],[-0.301432,43.3497543],[-0.3014722,43.3495788],[-0.3016171,43.3493506],[-0.3016654,43.3492335],[-0.3013033,43.3491809],[-0.301373,43.3489293],[-0.301019,43.3488629],[-0.3009734,43.3488025],[-0.3010136,43.3486484],[-0.3007025,43.3486133],[-0.300571,43.3485801],[-0.3004316,43.3484904],[-0.300284,43.348348],[-0.2998602,43.3478955],[-0.3002411,43.3477024],[-0.3002116,43.3476692],[-0.2998146,43.3478584],[-0.2993372,43.3473162],[-0.2992353,43.3473786],[-0.2989483,43.3470958],[-0.2987981,43.3469612],[-0.2986828,43.3468773],[-0.2985621,43.3468383],[-0.2984145,43.3467525],[-0.298326,43.3466413],[-0.2981946,43.3466296],[-0.2980873,43.3465145],[-0.2977413,43.3460815],[-0.2974543,43.3457577],[-0.29717,43.3456153],[-0.2969098,43.3455412],[-0.2968776,43.3455627],[-0.2970788,43.345668],[-0.297288,43.3457694],[-0.297465,43.3460113],[-0.2977118,43.3463331],[-0.29798,43.3466823],[-0.2980927,43.3468637],[-0.2980766,43.3469007],[-0.2972236,43.3472479],[-0.2969903,43.3468754],[-0.2968776,43.3468949],[-0.2969232,43.3469905],[-0.2971914,43.347365],[-0.2975589,43.3477921],[-0.2975986,43.3479815],[-0.2978959,43.3484497],[-0.2980202,43.3484338],[-0.2981517,43.3483909],[-0.2982938,43.3483987],[-0.298546,43.3485099],[-0.2987498,43.3485431],[-0.2990395,43.3485684],[-0.2992353,43.3486601],[-0.2995572,43.3489995],[-0.2996859,43.3493174],[-0.2989482,43.3496442],[-0.2989933,43.3496893],[-0.2996939,43.3493798],[-0.3003672,43.3501678],[-0.3005254,43.3504779],[-0.3006837,43.3507412],[-0.3009868,43.3511547],[-0.3013167,43.3515935],[-0.3013864,43.3519017],[-0.3012899,43.3521036],[-0.3011906,43.3521094],[-0.3010713,43.3520538],[-0.30085,43.3519953],[-0.3006783,43.3519427],[-0.3006059,43.351771],[-0.3005281,43.3516169],[-0.3004047,43.3514765],[-0.3003672,43.3511918],[-0.3003618,43.3509499],[-0.3002384,43.3507471],[-0.3000855,43.3505793],[-0.2997798,43.3506671],[-0.299423,43.3501522],[-0.2993318,43.3501834],[-0.2997288,43.3508329],[-0.2998549,43.3508602],[-0.3000078,43.3511411],[-0.3002894,43.3513907],[-0.3005335,43.3517827],[-0.3005201,43.3519212],[-0.3004691,43.3519719],[-0.3002974,43.351964099999999],[-0.3001204,43.3519466],[-0.2997664,43.3518393],[-0.299753,43.3518744],[-0.3001419,43.3519904],[-0.3005107,43.3520304],[-0.3008661,43.3520987],[-0.3010364,43.3521484],[-0.3013743,43.3523191],[-0.3016131,43.352481],[-0.301888,43.3526536],[-0.3019537,43.3526692],[-0.3020516,43.3525375],[-0.3016412,43.3520909],[-0.3015769,43.3519544],[-0.3016734,43.351849],[-0.301947,43.3517554],[-0.3019309,43.3516579],[-0.3016573,43.3515526],[-0.3010672,43.350158],[-0.3008741,43.3498616],[-0.3011665,43.3497953],[-0.3012604,43.3498811],[-0.3013891,43.3500293],[-0.3015769,43.3502322],[-0.3018665,43.3504877],[-0.3022045,43.3506691],[-0.3025612,43.3508231],[-0.3031701,43.350948],[-0.3032801,43.3506144],[-0.3033337,43.350437],[-0.3032908,43.350238],[-0.3032398,43.3500332],[-0.3033203,43.3499864],[-0.304251,43.3502868],[-0.3043664,43.3500391],[-0.3045997,43.3500722],[-0.304715,43.3501288],[-0.3047445,43.350238],[-0.30470970000000005,43.3503648],[-0.3047767,43.3503979],[-0.3049538,43.3500722]],[[-0.3013784,43.3496392],[-0.3010833,43.349725],[-0.3010216,43.3495963],[-0.30085,43.3496295],[-0.3009385,43.3497836],[-0.3006998,43.3498499],[-0.3006354,43.3497036],[-0.3003967,43.3497582],[-0.3003055,43.349686],[-0.3002787,43.3494851],[-0.3002371,43.3494058],[-0.2998549,43.3486757],[-0.3003216,43.3485255],[-0.3004718,43.3486816],[-0.3005523,43.3487771],[-0.3008527,43.3488629],[-0.3010578,43.3489234],[-0.3013784,43.3496392]]]]},"properties":{"leaf_type":"broadleaved","natural":"wood"}},
{"type":"Feature","geometry":{"type":"MultiPolygon","coordinates":[[[[-0.3143066,43.3535341],[-0.3141618,43.3532338],[-0.3141618,43.3529451],[-0.3139794,43.3527345],[-0.3139043,43.3526097],[-0.3139751,43.3525912],[-0.3138426,43.3522196],[-0.3135964,43.3520965],[-0.3132858,43.3523549],[-0.3132471,43.3523873],[-0.3131667,43.3523561],[-0.3128046,43.3523464],[-0.3124559,43.3523249],[-0.3118846,43.352399],[-0.3119731,43.3527443],[-0.312236,43.3527384],[-0.3125793,43.3528515],[-0.3127456,43.3530076],[-0.3131334,43.3535257],[-0.3134054,43.3538891],[-0.3134993,43.3538793],[-0.3143066,43.3535341]]]]},"properties":{"leaf_type":"broadleaved","natural":"wood"}},
{"type":"Feature","geometry":{"type":"MultiPolygon","coordinates":[[[[-0.3137407,43.3466374],[-0.3135502,43.3464677],[-0.3134671,43.3464872],[-0.3132874,43.3465574],[-0.3129333,43.3466842],[-0.3131492,43.3469368],[-0.3132123,43.3469651],[-0.3137407,43.3466374]]]]},"properties":{"leaf_type":"broadleaved","natural":"wood"}},
{"type":"Feature","geometry":{"type":"MultiPolygon","coordinates":[[[[-0.3168708,43.3476088],[-0.3167673,43.3475578],[-0.3161734,43.3472733],[-0.3157121,43.3464307],[-0.3157583,43.3463718],[-0.3157765,43.3463058],[-0.3166294,43.3449482],[-0.3165499,43.3449371],[-0.31649,43.3449287],[-0.3155994,43.3463721],[-0.3143328,43.3469596],[-0.3142369,43.3470041],[-0.3143697,43.347075],[-0.3153688,43.3476068],[-0.3153877,43.3475858],[-0.3154198,43.3475688],[-0.3143736,43.3469982],[-0.3156477,43.3464385],[-0.3161144,43.3473045],[-0.3168145,43.3476322],[-0.3168708,43.3476088]]]]},"properties":{"natural":"grassland"}},
{"type":"Feature","geometry":{"type":"MultiPolygon","coordinates":[[[[-0.3049028,43.3489107],[-0.3048276,43.3488863],[-0.3047338,43.3489751],[-0.3046829,43.3490541],[-0.3046533,43.349135],[-0.3046533,43.3492355],[-0.3046587,43.3494208],[-0.3047227,43.3494363],[-0.3047124,43.3492296],[-0.3047311,43.349136],[-0.3047566,43.3490697],[-0.3048009,43.3490239],[-0.3049028,43.3489107]]]]},"properties":{"leaf_type":"broadleaved","natural":"wood"}},
{"type":"Feature","geometry":{"type":"MultiPolygon","coordinates":[[[[-0.3068568,43.3483412],[-0.3067938,43.348269],[-0.3067468,43.3482056],[-0.3064719,43.348269],[-0.3060977,43.3483509],[-0.3059019,43.3484299],[-0.3054956,43.3486484],[-0.3051576,43.3488395],[-0.3049766,43.348938],[-0.3050248,43.3489652],[-0.3052247,43.348859],[-0.3057034,43.348584],[-0.3060079,43.3484338],[-0.3061339,43.348389],[-0.3063405,43.3483324],[-0.3066918,43.3482563],[-0.3067884,43.3483734],[-0.3068568,43.3483412]]]]},"properties":{"leaf_type":"broadleaved","natural":"wood"}},
{"type":"Feature","geometry":{"type":"MultiPolygon","coordinates":[[[[-0.3159428,43.3504253],[-0.31535,43.350121],[-0.3152722,43.3500703],[-0.3152561,43.3499923],[-0.3154276,43.3496112],[-0.3155458,43.3493486],[-0.315688,43.3493681],[-0.3157053,43.3493227],[-0.3157282,43.3492628],[-0.3155404,43.3492121],[-0.3153906,43.3492585],[-0.3152967,43.3496135],[-0.3151596,43.350072],[-0.315393,43.3502222],[-0.315865,43.3504916],[-0.3159428,43.3504253]]]]},"properties":{"leaf_type":"broadleaved","natural":"wood"}},
{"type":"Feature","geometry":{"type":"MultiPolygon","coordinates":[[[[-0.3106454,43.3502029],[-0.3103021,43.3500683],[-0.3102377,43.3505169],[-0.310176,43.3506788],[-0.3100392,43.3508504],[-0.3097978,43.3510923],[-0.3095645,43.3513107],[-0.3094116,43.3513966],[-0.3094819,43.3514412],[-0.309602,43.3513497],[-0.3101197,43.3508953],[-0.3102484,43.3507412],[-0.3103745,43.3505618],[-0.3104442,43.350476],[-0.310581,43.3504136],[-0.3105864,43.3503199],[-0.3106454,43.3502029]]]]},"properties":{"leaf_type":"broadleaved","natural":"wood"}},
{"type":"Feature","geometry":{"type":"MultiPolygon","coordinates":[[[[-0.3104603,43.3485762],[-0.3103875,43.3485838],[-0.3103235,43.3492316],[-0.3101009,43.3491614],[-0.310054,43.3491565],[-0.3099132,43.3491419],[-0.3098059,43.3492257],[-0.3093342,43.3490151],[-0.3090414,43.3488844],[-0.3090002,43.3488652],[-0.3087115,43.3487303],[-0.3085801,43.3487342],[-0.308564,43.3487849],[-0.3094947,43.3492199],[-0.3087974,43.3499767],[-0.3084847,43.3501987],[-0.308551,43.3502308],[-0.3086713,43.3501385],[-0.3089422,43.3499162],[-0.3093445,43.3495222],[-0.3095457,43.3493194],[-0.3096664,43.3492823],[-0.3102592,43.3495827],[-0.3103235,43.3495905],[-0.3104603,43.3485762]]]]},"properties":{"leaf_type":"broadleaved","natural":"wood"}},
{"type":"Feature","geometry":{"type":"MultiPolygon","coordinates":[[[[-0.3075019,43.3487576],[-0.3074482,43.3487264],[-0.3071424,43.3490014],[-0.3069922,43.3492101],[-0.3069547,43.3493935],[-0.3065738,43.3494208],[-0.3065604,43.3495085],[-0.3064826,43.3496295],[-0.3063646,43.3497348],[-0.3068152,43.3499337],[-0.3070003,43.3497758],[-0.3070325,43.3494754],[-0.307062,43.3492374],[-0.3071559,43.3490697],[-0.3075019,43.3487576]]]]},"properties":{"leaf_type":"broadleaved","natural":"wood"}},
{"type":"Feature","geometry":{"type":"MultiPolygon","coordinates":[[[[-0.3063485,43.3492569],[-0.3061527,43.3491185],[-0.305737,43.3494812],[-0.305348,43.3497797],[-0.3054526,43.349844],[-0.3059623,43.349452],[-0.3061132,43.3495035],[-0.3063485,43.3492569]]]]},"properties":{"leaf_type":"broadleaved","natural":"wood"}},
{"type":"Feature","geometry":{"type":"MultiPolygon","coordinates":[[[[-0.3104603,43.3485762],[-0.310455,43.3484807],[-0.3103477,43.3484748],[-0.3091734,43.3479047],[-0.3089342,43.3481452],[-0.3085506,43.3479638],[-0.3083146,43.3482407],[-0.3081188,43.3481764],[-0.3081778,43.3480711],[-0.3076267,43.3478221],[-0.3074133,43.3479501],[-0.3072792,43.3480242],[-0.30707,43.3480925],[-0.3068635,43.3481764],[-0.3069145,43.3482349],[-0.3071317,43.3481783],[-0.3073007,43.348153],[-0.307534,43.3481803],[-0.3078613,43.3483617],[-0.3080168,43.3481998],[-0.3081885,43.3482739],[-0.308277,43.3483246],[-0.3084272,43.3483461],[-0.3085989,43.3480574],[-0.3093183,43.3483511],[-0.3094062,43.348387],[-0.3095672,43.3482212],[-0.3100848,43.3484768],[-0.3103289,43.3485899],[-0.3103875,43.3485838],[-0.3104603,43.3485762]]]]},"properties":{"leaf_type":"broadleaved","natural":"wood"}},
{"type":"Feature","geometry":{"type":"MultiPolygon","coordinates":[[[[-0.3058362,43.3478409],[-0.3056163,43.3477707],[-0.3057799,43.347363],[-0.3049994,43.3471738],[-0.3044871,43.3467818],[-0.3044012,43.3467037],[-0.3043288,43.3467232],[-0.3043395,43.3468013],[-0.304479,43.3469242],[-0.3046855,43.3470646],[-0.3049511,43.3472343],[-0.3047445,43.3476439],[-0.3058362,43.3478897],[-0.3058362,43.3478409]]]]},"properties":{"leaf_type":"broadleaved","natural":"wood"}},
{"type":"Feature","geometry":{"type":"MultiPolygon","coordinates":[[[[-0.3141771,43.3511938],[-0.3140721,43.3511558],[-0.3140459,43.3511941],[-0.3141509,43.3512321],[-0.3141771,43.3511938]]]]},"properties":{"access":"private","leisure":"swimming_pool"}},
{"type":"Feature","geometry":{"type":"MultiPolygon","coordinates":[[[[-0.3145242,43.3528867],[-0.3144806,43.3528555],[-0.3143686,43.3529383],[-0.3144123,43.3529695],[-0.3145242,43.3528867]]]]},"properties":{"access":"private","leisure":"swimming_pool"}},
{"type":"Feature","geometry":{"type":"MultiPolygon","coordinates":[[[[-0.3107183,43.3525953],[-0.3106424,43.3525345],[-0.3106094,43.3525563],[-0.3106853,43.3526171],[-0.3107183,43.3525953]]]]},"properties":{"access":"private","leisure":"swimming_pool"}},
{"type":"Feature","geometry":{"type":"MultiPolygon","coordinates":[[[[-0.3109704,43.3525164],[-0.3108843,43.3524837],[-0.3108662,43.3525089],[-0.3109524,43.3525416],[-0.3109704,43.3525164]]]]},"properties":{"access":"private","leisure":"swimming_pool"}},
{"type":"Feature","geometry":{"type":"MultiPolygon","coordinates":[[[[-0.3113207,43.3520095],[-0.3112287,43.3519837],[-0.311212,43.3520153],[-0.3113039,43.3520411],[-0.3113207,43.3520095]]]]},"properties":{"access":"private","leisure":"swimming_pool"}},
{"type":"Feature","geometry":{"type":"MultiPolygon","coordinates":[[[[-0.3132065,43.3514272],[-0.3131163,43.3513655],[-0.3130773,43.3513957],[-0.3131429,43.3514405],[-0.3131307,43.3514499],[-0.3131554,43.3514667],[-0.3132065,43.3514272]]]]},"properties":{"access":"private","leisure":"swimming_pool"}},
{"type":"Feature","geometry":{"type":"MultiPolygon","coordinates":[[[[-0.3130904,43.3521161],[-0.312967,43.3521154],[-0.3129666,43.3521525],[-0.3130901,43.3521531],[-0.3130904,43.3521161]]]]},"properties":{"access":"private","leisure":"swimming_pool"}},
{"type":"Feature","geometry":{"type":"MultiPolygon","coordinates":[[[[-0.3161487,43.3513068],[-0.3160378,43.3512641],[-0.3160097,43.3513027],[-0.3161206,43.3513454],[-0.3161487,43.3513068]]]]},"properties":{"access":"private","leisure":"swimming_pool"}},
{"type":"Feature","geometry":{"type":"MultiPolygon","coordinates":[[[[-0.316556,43.3517741],[-0.3164263,43.3517393],[-0.3164051,43.3517811],[-0.3165348,43.3518159],[-0.316556,43.3517741]]]]},"properties":{"access":"private","leisure":"swimming_pool"}},
{"type":"Feature","geometry":{"type":"MultiPolygon","coordinates":[[[[-0.3156227,43.3527644],[-0.3155295,43.3527265],[-0.3155051,43.3527582],[-0.3155984,43.3527961],[-0.3156227,43.3527644]]]]},"properties":{"access":"private","leisure":"swimming_pool"}},
{"type":"Feature","geometry":{"type":"MultiPolygon","coordinates":[[[[-0.3162487,43.3527707],[-0.3161297,43.3527337],[-0.3161055,43.3527749],[-0.3162245,43.3528119],[-0.3162487,43.3527707]]]]},"properties":{"access":"private","leisure":"swimming_pool"}},
{"type":"Feature","geometry":{"type":"MultiPolygon","coordinates":[[[[-0.3150477,43.3533892],[-0.3149687,43.3533826],[-0.3149522,43.353487],[-0.3150313,43.3534936],[-0.3150477,43.3533892]]]]},"properties":{"access":"private","leisure":"swimming_pool"}},
{"type":"Feature","geometry":{"type":"MultiPolygon","coordinates":[[[[-0.3144469,43.3539093],[-0.3144397,43.3538677],[-0.3143145,43.3538791],[-0.3143217,43.3539207],[-0.3144469,43.3539093]]]]},"properties":{"access":"private","leisure":"swimming_pool"}},
{"type":"Feature","geometry":{"type":"MultiPolygon","coordinates":[[[[-0.3151229,43.3541012],[-0.314958,43.3541002],[-0.3149575,43.3541436],[-0.3151224,43.3541446],[-0.3151229,43.3541012]]]]},"properties":{"access":"private","leisure":"swimming_pool"}},
{"type":"Feature","geometry":{"type":"MultiPolygon","coordinates":[[[[-0.3154332,43.3765243],[-0.3149318,43.3764428],[-0.3148581,43.3766823],[-0.3153595,43.3767639],[-0.3154332,43.3765243]]]]},"properties":{"building":"yes","leisure":"pitch","source":"Le ministère de la ville, de la jeunesse et des sports - 2021-04","sport":"equestrian","surface":"sand"}},
{"type":"Feature","geometry":{"type":"MultiPolygon","coordinates":[[[[-0.2625845,43.3410121],[-0.2625523,43.3409849],[-0.2618307,43.341436],[-0.2618628,43.3414632],[-0.2625845,43.3410121]]]]},"properties":{"area":"yes","lanes":"3","leisure":"track","source":"data.gouv.fr:Le ministère des droits des femmes, de la ville, de la jeunesse et des sports - 11/2015","sport":"athletics","surface":"asphalt"}},
{"type":"Feature","geometry":{"type":"MultiPolygon","coordinates":[[[[-0.2624806,43.3417685],[-0.2623317,43.3416382],[-0.2619838,43.3418453],[-0.2621327,43.3419756],[-0.2624806,43.3417685]]]]},"properties":{"leisure":"pitch","source":"data.gouv.fr:Le ministère des droits des femmes, de la ville, de la jeunesse et des sports - 11/2015","sport":"multi","surface":"asphalt"}},
{"type":"Feature","geometry":{"type":"MultiPolygon","coordinates":[[[[-0.2623317,43.3416382],[-0.2621868,43.3415095],[-0.2618389,43.3417166],[-0.2619838,43.3418453],[-0.2623317,43.3416382]]]]},"properties":{"building":"yes","covered":"yes","leisure":"pitch","source":"data.gouv.fr:Le ministère des droits des femmes, de la ville, de la jeunesse et des sports - 11/2015","sport":"tennis"}},
{"type":"Feature","geometry":{"type":"MultiPolygon","coordinates":[[[[-0.2621868,43.3415095],[-0.2620415,43.3413808],[-0.2616936,43.3415879],[-0.2618389,43.3417166],[-0.2621868,43.3415095]]]]},"properties":{"leisure":"pitch","source":"data.gouv.fr:Le ministère des droits des femmes, de la ville, de la jeunesse et des sports - 11/2015","sport":"tennis"}},
{"type":"Feature","geometry":{"type":"MultiPolygon","coordinates":[[[[-0.2618036,43.3413383],[-0.2617865,43.3411688],[-0.2614162,43.3411885],[-0.2614333,43.3413581],[-0.2618036,43.3413383]]]]},"properties":{"leisure":"pitch","sport":"handball","surface":"asphalt"}},
{"type":"Feature","geometry":{"type":"MultiPolygon","coordinates":[[[[-0.2608506,43.3411871],[-0.2608415,43.3410875],[-0.2605755,43.3411004],[-0.2605846,43.3412001],[-0.2608506,43.3411871]]]]},"properties":{"leisure":"pitch","source":"data.gouv.fr:Le ministère des droits des femmes, de la ville, de la jeunesse et des sports - 11/2015","sport":"basketball","surface":"asphalt"}},
{"type":"Feature","geometry":{"type":"MultiPolygon","coordinates":[[[[-0.261109,43.3411269],[-0.2611004,43.3410258],[-0.2608377,43.3410377],[-0.2608415,43.3410875],[-0.2608464,43.3411391],[-0.261109,43.3411269]]]]},"properties":{"leisure":"pitch","source":"data.gouv.fr:Le ministère des droits des femmes, de la ville, de la jeunesse et des sports - 11/2015","sport":"basketball","surface":"asphalt"}},
{"type":"Feature","geometry":{"type":"MultiPolygon","coordinates":[[[[-0.2611178,43.3412266],[-0.261109,43.3411269],[-0.2608464,43.3411391],[-0.2608506,43.3411871],[-0.2608552,43.3412388],[-0.2611178,43.3412266]]]]},"properties":{"leisure":"pitch","source":"data.gouv.fr:Le ministère des droits des femmes, de la ville, de la jeunesse et des sports - 11/2015","sport":"basketball","surface":"asphalt"}},
{"type":"Feature","geometry":{"type":"MultiPolygon","coordinates":[[[[-0.2619504,43.3409501],[-0.2619482,43.3409302],[-0.2612071,43.3409725],[-0.2612093,43.3409924],[-0.2619504,43.3409501]]]]},"properties":{"area":"yes","leisure":"track","source":"data.gouv.fr:Le ministère des droits des femmes, de la ville, de la jeunesse et des sports - 11/2015","sport":"athletics","surface":"asphalt"}},
{"type":"Feature","geometry":{"type":"MultiPolygon","coordinates":[[[[-0.2621361,43.3492899],[-0.2619971,43.3490619],[-0.26193109999999999,43.3489634],[-0.2611855,43.3493057],[-0.2611908,43.3496363],[-0.2618694,43.3495914],[-0.2618894,43.3495739],[-0.2618109,43.3494183],[-0.2617903,43.3493788],[-0.2619475,43.3493347],[-0.2619531,43.3493449],[-0.2621361,43.3492899]]]]},"properties":{"leisure":"sports_centre","sport":"swimming","wikidata":"Q118526164"}},
{"type":"Feature","geometry":{"type":"MultiPolygon","coordinates":[[[[-0.2613356,43.3452233],[-0.2612439,43.3451973],[-0.2611832,43.3453107],[-0.2612749,43.3453367],[-0.2613356,43.3452233]]]]},"properties":{"leisure":"playground"}},
{"type":"Feature","geometry":{"type":"MultiPolygon","coordinates":[[[[-0.2764503,43.3451396],[-0.2763857,43.3448646],[-0.2739394,43.3459118],[-0.2728933,43.3451979],[-0.2733439,43.3447532],[-0.2738965,43.344406],[-0.2752912,43.3438169],[-0.2761048,43.3436726],[-0.2760734,43.3435391],[-0.2756008,43.3436299],[-0.2750588,43.3436094],[-0.2738079,43.3438606],[-0.2735421,43.3438685],[-0.2732709,43.343851],[-0.2728683,43.3437851],[-0.2727619,43.34401],[-0.2727007,43.3441386],[-0.272609,43.3442909],[-0.2724883,43.3444235],[-0.2723783,43.3445445],[-0.272334,43.3446031],[-0.2718083,43.3445076],[-0.271681,43.3446049],[-0.2716514,43.344722],[-0.2718365,43.3447961],[-0.2721316,43.3448292],[-0.2720726,43.3449385],[-0.2720565,43.3450438],[-0.2719277,43.3451725],[-0.2718553,43.3452408],[-0.2717695,43.3453559],[-0.2715924,43.3453208],[-0.2714798,43.3452096],[-0.2714235,43.3451394],[-0.2712759,43.3450028],[-0.2711687,43.3448819],[-0.2710292,43.3447805],[-0.2709085,43.3447142],[-0.2707019,43.344681],[-0.2705991,43.3447976],[-0.2705588,43.3449637],[-0.2705822,43.3452628],[-0.2707958,43.3452993],[-0.2711418,43.3453871],[-0.2713618,43.3454398],[-0.2715254,43.34543],[-0.2716059,43.3455471],[-0.2714959,43.3456426],[-0.2715173,43.345785],[-0.2716032,43.3459489],[-0.2715951,43.3460835],[-0.2716059,43.3461985],[-0.2716863,43.3462512],[-0.2717105,43.3463429],[-0.2718392,43.3465243],[-0.2719331,43.3466199],[-0.2720135,43.3465965],[-0.2718982,43.3463097],[-0.2718741,43.3461868],[-0.272035,43.34614],[-0.2721289,43.3461049],[-0.2722737,43.3461322],[-0.2723488,43.3462805],[-0.2724937,43.346417],[-0.272601,43.3464599],[-0.2727243,43.3465574],[-0.2727217,43.3466725],[-0.2726412,43.3467623],[-0.2725875,43.3467135],[-0.2724561,43.3468481],[-0.2723622,43.3469027],[-0.2722925,43.3469788],[-0.272322,43.3470685],[-0.2724722,43.3470431],[-0.2725768,43.34693],[-0.2727941,43.3468052],[-0.2728558,43.346731],[-0.2730677,43.3467076],[-0.2731562,43.3467369],[-0.27325,43.3468832],[-0.2731347,43.3469515],[-0.2730837,43.3470568],[-0.2730301,43.3471036],[-0.2729282,43.3471095],[-0.2727914,43.347207],[-0.2727968,43.3472928],[-0.2726948,43.3473806],[-0.2726144,43.3474449],[-0.2724722,43.3475425],[-0.2723381,43.3475795],[-0.2722201,43.3475405],[-0.2721235,43.3475015],[-0.2720294,43.3475471],[-0.272094,43.3477765],[-0.2722174,43.3479482],[-0.2721477,43.3481705],[-0.2721316,43.3483383],[-0.2722925,43.348545],[-0.2725607,43.3485684],[-0.2726626,43.3484631],[-0.272845,43.3488142],[-0.2729845,43.349056],[-0.2730006,43.3491302],[-0.273191,43.3490873],[-0.2735263,43.3490073],[-0.2737033,43.3489371],[-0.2738294,43.3488629],[-0.2738374,43.3486738],[-0.2736309,43.3486464],[-0.2735531,43.3485587],[-0.2735209,43.3483656],[-0.2734351,43.3481959],[-0.2733412,43.3481335],[-0.2733386,43.3480398],[-0.2733171,43.3479053],[-0.2733359,43.3477726],[-0.2734619,43.3476575],[-0.2736363,43.3475249],[-0.2737999,43.347404],[-0.2740923,43.3472226],[-0.2743766,43.3469866],[-0.2745214,43.3467935],[-0.2746233,43.3466764],[-0.2747548,43.3465399],[-0.2747923,43.3464794],[-0.2749506,43.3463956],[-0.2748111,43.3461966],[-0.274677,43.3460913],[-0.2747253,43.3459645],[-0.2749345,43.3458162],[-0.2752778,43.3456699],[-0.2753744,43.3455783],[-0.2754763,43.3454222],[-0.2754977,43.3453403],[-0.2755272,43.3452935],[-0.2756935,43.3451999],[-0.2759242,43.3451843],[-0.2761441,43.3451862],[-0.2762756,43.3451843],[-0.2763534,43.3451608],[-0.2764503,43.3451396]]]]},"properties":{"natural":"wood"}},
{"type":"Feature","geometry":{"type":"MultiPolygon","coordinates":[[[[-0.275567,43.3405625],[-0.2753827,43.3405258],[-0.2748484,43.3404194],[-0.2747682,43.3404402],[-0.2746689,43.3404773],[-0.2746743,43.3405573],[-0.2747226,43.3406529],[-0.2746287,43.3407602],[-0.2744731,43.3408596],[-0.2743578,43.3409591],[-0.274221,43.3409455],[-0.2739823,43.3408948],[-0.2737784,43.3408128],[-0.2738455,43.3411776],[-0.2737811,43.341201],[-0.2736872,43.3411698],[-0.2735585,43.3411854],[-0.2734566,43.341121],[-0.2734163,43.3411327],[-0.2733037,43.341242],[-0.2732849,43.3413395],[-0.2733547,43.3413532],[-0.2734083,43.3414566],[-0.2733788,43.3415561],[-0.2732983,43.341675],[-0.2732447,43.3417687],[-0.2732259,43.3418779],[-0.2732286,43.3419911],[-0.2731615,43.342073],[-0.2730784,43.342073],[-0.273073,43.3421159],[-0.2729604,43.3421978],[-0.2728236,43.3421764],[-0.2726895,43.3421335],[-0.2727056,43.3420964],[-0.2727297,43.3420515],[-0.2727136,43.3419676],[-0.2726653,43.341913],[-0.2726224,43.3418467],[-0.2726358,43.3417511],[-0.2725419,43.3416965],[-0.2724642,43.3416224],[-0.2723837,43.3415346],[-0.2723435,43.3414936],[-0.2721638,43.3414624],[-0.2720726,43.3415131],[-0.2719626,43.3415521],[-0.2718285,43.3415892],[-0.2718875,43.3416146],[-0.2717936,43.3416399],[-0.2716836,43.3416399],[-0.2716032,43.3416302],[-0.2714556,43.3416302],[-0.2713135,43.3416516],[-0.2712867,43.3416029],[-0.2712142,43.3415951],[-0.2711445,43.3416438],[-0.2710265,43.341636],[-0.2709702,43.341636],[-0.2708951,43.3416477],[-0.2709138,43.3417063],[-0.2708441,43.3417355],[-0.2708226,43.3417004],[-0.2707583,43.3416828],[-0.2706805,43.3416708],[-0.2706108,43.341675],[-0.2705598,43.3417492],[-0.2706,43.341796],[-0.2705678,43.3418565],[-0.2705705,43.3419208],[-0.2706161,43.3420359],[-0.2706644,43.3421374],[-0.2707019,43.3421647],[-0.2708441,43.3422622],[-0.2709514,43.3423344],[-0.2711392,43.342506],[-0.2713913,43.3426192],[-0.2717668,43.3425607],[-0.2718794,43.3425255],[-0.271976,43.3425119],[-0.2721503,43.3424982],[-0.2722576,43.3424573],[-0.2723864,43.3424144],[-0.2725473,43.3423714],[-0.272668,43.342389],[-0.2727243,43.34243],[-0.2728102,43.342547],[-0.2728382,43.342638],[-0.2729121,43.3427304],[-0.2728397,43.3428123],[-0.2726707,43.3428923],[-0.272558,43.343023],[-0.2724963,43.3431712],[-0.2724239,43.3433331],[-0.2723375,43.3434547],[-0.272098,43.3435609],[-0.2723091,43.343609],[-0.2723354,43.3435945],[-0.2724239,43.3435321],[-0.2724963,43.343458],[-0.2725875,43.3433994],[-0.2726868,43.3433721],[-0.2727807,43.3433039],[-0.2728745,43.3432278],[-0.273006,43.3431927],[-0.2731025,43.3431068],[-0.2731937,43.3430678],[-0.2732071,43.3429957],[-0.2731159,43.3429098],[-0.2731776,43.3428845],[-0.2732366,43.3428142],[-0.2733091,43.3426601],[-0.2733251,43.3425177],[-0.2733761,43.3424066],[-0.2734512,43.3422603],[-0.2735344,43.3420964],[-0.2735451,43.3419989],[-0.2735987,43.3418838],[-0.2735692,43.3417979],[-0.2735961,43.3416946],[-0.2737114,43.3416263],[-0.2738321,43.3415482],[-0.2739206,43.3414741],[-0.2739447,43.3413922],[-0.2740601,43.3412537],[-0.2741808,43.3411776],[-0.2743149,43.3411347],[-0.2744114,43.3410879],[-0.2744758,43.3411171],[-0.274567,43.3411601],[-0.2745777,43.3410781],[-0.2745295,43.3409552],[-0.2746743,43.3409162],[-0.274854,43.3408284],[-0.2749854,43.3408148],[-0.2751839,43.3407816],[-0.2752671,43.3407543],[-0.2754012,43.3407485],[-0.2754924,43.3407719],[-0.2755246,43.3407328],[-0.2755594,43.3406373],[-0.275567,43.3405625]]]]},"properties":{"natural":"wood"}},
{"type":"Feature","geometry":{"type":"MultiPolygon","coordinates":[[[[-0.3058368,43.3771145],[-0.3057935,43.3770456],[-0.3057009,43.3770763],[-0.3057441,43.3771452],[-0.3058368,43.3771145]]]]},"properties":{"leisure":"playground"}},
{"type":"Feature","geometry":{"type":"MultiPolygon","coordinates":[[[[-0.3059457,43.3768826],[-0.3057928,43.3766397],[-0.30562279999999999,43.3766963],[-0.3057756,43.3769392],[-0.3059457,43.3768826]]]]},"properties":{"leisure":"pitch","source":"Le ministère de la ville, de la jeunesse et des sports - 2021-04","sport":"basketball","surface":"asphalt"}},
{"type":"Feature","geometry":{"type":"MultiPolygon","coordinates":[[[[-0.3154694,43.3765104],[-0.3154251,43.3763505],[-0.3151046,43.3762423],[-0.3150375,43.3763408],[-0.3140947,43.3759879],[-0.313805,43.3759548],[-0.3136414,43.3761575],[-0.3135073,43.3767151],[-0.3136736,43.3767638],[-0.3143656,43.3768652],[-0.3147975,43.3769101],[-0.3153527,43.3769724],[-0.3154694,43.3765104]]]]},"properties":{"leisure":"horse_riding","name":"Centre équestre du Brana"}},
{"type":"Feature","geometry":{"type":"MultiPolygon","coordinates":[[[[-0.3145909,43.3762521],[-0.3145641,43.3762287],[-0.3140277,43.3760415],[-0.3139633,43.376061],[-0.3139284,43.3761117],[-0.3138547,43.3762648],[-0.3138801,43.3763028],[-0.313911,43.3763242],[-0.3144354,43.3764987],[-0.3145172,43.3764626],[-0.3145909,43.3762521]]]]},"properties":{"leisure":"pitch","source":"Le ministère de la ville, de la jeunesse et des sports - 2021-04","sport":"equestrian","surface":"sand"}},
{"type":"Feature","geometry":{"type":"MultiPolygon","coordinates":[[[[-0.314092,43.3765221],[-0.3137876,43.3764178],[-0.3136709,43.3763544],[-0.3136669,43.3766196],[-0.313746,43.3766771],[-0.3139083,43.3767414],[-0.3139807,43.3767502],[-0.314092,43.3765221]]]]},"properties":{"leisure":"pitch","source":"Le ministère de la ville, de la jeunesse et des sports - 2021-04","sport":"equestrian"}},
{"type":"Feature","geometry":{"type":"MultiPolygon","coordinates":[[[[-0.3064893,43.3778429],[-0.306382,43.3777445],[-0.3062667,43.3778186],[-0.3064384,43.3779765],[-0.3064598,43.3779609],[-0.3064893,43.3778429]]]]},"properties":{"boules":"petanque","leisure":"pitch","source":"Le ministère de la ville, de la jeunesse et des sports - 2021-04","sport":"boules"}},
{"type":"Feature","geometry":{"type":"MultiPolygon","coordinates":[[[[-0.2598551,43.3778708],[-0.2596947,43.3777123],[-0.2595828,43.3777722],[-0.2597432,43.3779306],[-0.2598551,43.3778708]]]]},"properties":{"leisure":"pitch","sport":"multi"}},
{"type":"Feature","geometry":{"type":"MultiPolygon","coordinates":[[[[-0.2595996,43.3777315],[-0.2595279,43.3776515],[-0.259499,43.3776194],[-0.2594219,43.3776441],[-0.2594823,43.3777942],[-0.2595996,43.3777315]]]]},"properties":{"leisure":"playground"}},
{"type":"Feature","geometry":{"type":"MultiPolygon","coordinates":[[[[-0.2597518,43.377648],[-0.2597156,43.3776022],[-0.2595279,43.3776515],[-0.2595996,43.3777315],[-0.2597518,43.377648]]]]},"properties":{"boules":"petanque","leisure":"pitch","source":"Le ministère de la ville, de la jeunesse et des sports - 2021-04","sport":"boules"}},
{"type":"Feature","geometry":{"type":"MultiPolygon","coordinates":[[[[-0.2775282,43.380579],[-0.2773136,43.3802457],[-0.2762193,43.3806668],[-0.2764472,43.380926],[-0.2775282,43.380579]]]]},"properties":{"leisure":"pitch","source":"Le ministère de la ville, de la jeunesse et des sports - 2021-04","sport":"shooting"}},
{"type":"Feature","geometry":{"type":"MultiPolygon","coordinates":[[[[-0.2834596,43.3544407],[-0.2833192,43.3543135],[-0.2832493,43.3543544],[-0.2833896,43.3544815],[-0.2834596,43.3544407]]]]},"properties":{"boules":"petanque","leisure":"pitch","source":"Le ministère de la ville, de la jeunesse et des sports - 2021-04","sport":"boules"}},
{"type":"Feature","geometry":{"type":"MultiPolygon","coordinates":[[[[-0.3091064,43.3523167],[-0.3089778,43.3521522],[-0.3088537,43.3522035],[-0.3089823,43.352368],[-0.3091064,43.3523167]]]]},"properties":{"leisure":"pitch","sport":"multi"}},
{"type":"Feature","geometry":{"type":"MultiPolygon","coordinates":[[[[-0.3088271,43.3528477],[-0.3086489,43.3526757],[-0.3085662,43.3527122],[-0.3087509,43.3528854],[-0.3088271,43.3528477]]]]},"properties":{"leisure":"pitch","sport":"boules"}},
{"type":"Feature","geometry":{"type":"MultiPolygon","coordinates":[[[[-0.2620237,43.3419657],[-0.2619727,43.3419062],[-0.2617769,43.3418808],[-0.2617259,43.3420584],[-0.2617782,43.3420662],[-0.2618077,43.3420876],[-0.261848,43.3420857],[-0.2620237,43.3419657]]]]},"properties":{"leisure":"pitch","sport":"skateboard"}},
{"type":"Feature","geometry":{"type":"MultiPolygon","coordinates":[[[[-0.2713721,43.3889155],[-0.2713214,43.3888163],[-0.2713008,43.3888218],[-0.2712847,43.3888092],[-0.2712727,43.3888121],[-0.271268,43.3888204],[-0.271268,43.3888296],[-0.2712571,43.3888326],[-0.2713082,43.3889327],[-0.2713721,43.3889155]]]]},"properties":{"access":"private","leisure":"swimming_pool"}}
]}
