{"type":"FeatureCollection","features":[
{"type":"Feature","geometry":{"type":"Point","coordinates":[0.0238657,42.6847945]},"properties":{"ele":"3325","name":"Mallo de Marmorés / Cilindro de Marboré","name:an":"Mallo de Marmorés / Cilindro de Marboré","name:es":"Cilindro de Marboré","name:fr":"Cylindre du Marboré","natural":"peak","prominence":"251","source":"bing;local knowledge","wikidata":"Q507593","wikipedia":"an:Mallo de Marmorés"}},
{"type":"Feature","geometry":{"type":"Point","coordinates":[0.0002861,42.6853412]},"properties":{"alt_name":"Pico del Hombro","ele":"3073","name":"Punda dero Espaldador","name:an":"Punda dero Espaldador","name:es":"Espalda de Marboré","name:fr":"Épaule du Marboré","natural":"peak","source":"Instituto Geográfico Nacional","source:date":"201011"}},
{"type":"Feature","geometry":{"type":"Point","coordinates":[0.0024152,42.6866993]},"properties":{"alt_name":"Pico de la Espalda","ele":"3098","name":"Punda dera Ula","name:an":"Punda dera Ula","name:es":"Picos de la Cascada Occidental","name:fr":"Pic occidental de la Cascade","natural":"peak","source":"Instituto Geográfico Nacional","source:date":"201011","wikidata":"Q3382405"}},
{"type":"Feature","geometry":{"type":"Point","coordinates":[-0.0134033,42.6954075]},"properties":{"waterway":"waterfall"}},
{"type":"Feature","geometry":{"type":"Point","coordinates":[-0.0132084,42.6950559]},"properties":{"waterway":"waterfall"}},
{"type":"Feature","geometry":{"type":"Point","coordinates":[0.0116476,42.6928281]},"properties":{"ele":"3251","name":"Pico Plan de Marmorés / Marboré","name:an":"Pico Plan de Marmorés / Marboré","name:es":"Pico Marboré","name:fr":"Pic du Marboré","natural":"peak","wikidata":"Q2746829","wikipedia":"fr:Pic Marboré"}},
{"type":"Feature","geometry":{"type":"Point","coordinates":[-0.0170776,42.685787]},"properties":{"ele":"3012","name":"Tour du Marboré","name:an":"Punda dero Faixón / Torre de Marboré","name:es":"La Torre de Marboré","natural":"peak","prominence":"74","source:prominence":"CNIG map. Key col: Collado de la Cascada 2938m","wikidata":"Q3091125","wikipedia":"en:Tour du Marboré"}},
{"type":"Feature","geometry":{"type":"Point","coordinates":[0.068431,42.5439232]},"properties":{"ele":"1484","natural":"peak","source":"CNIG"}},
{"type":"Feature","geometry":{"type":"Point","coordinates":[-0.0035768,42.6848376]},"properties":{"ele":"2931","name":"Col de la Cascade","natural":"saddle"}},
{"type":"Feature","geometry":{"type":"Point","coordinates":[-0.0124404,42.6939438]},"properties":{"waterway":"waterfall"}},
{"type":"Feature","geometry":{"type":"Point","coordinates":[0.0188935,42.6854521]},"properties":{"ele":"3093","name":"Tozalón dera Nieu","name:an":"Tozalón dera Nieu","name:es":"Tuqueta de Marboré","natural":"peak","source":"Instituto Geográfico Nacional"}},
{"type":"Feature","geometry":{"type":"Point","coordinates":[0.0078224,42.6899584]},"properties":{"alt_name":"Pic Oriental","ele":"3161","name":"Punda deras Crepas","name:an":"Punda deras Crepas","name:es":"Picos de la Cascada Oriental","name:fr":"Pic oriental de la Cascade","natural":"peak","source":"Instituto Geográfico Nacional","wikidata":"Q3382406"}},
{"type":"Feature","geometry":{"type":"Point","coordinates":[0.0051176,42.6888393]},"properties":{"ele":"3111","name":"Picos de la Cascada Central","name:fr":"Pic Brulle","natural":"peak","source":"Instituto Geográfico Nacional","wikidata":"Q3382290"}},
{"type":"Feature","geometry":{"type":"Point","coordinates":[-0.0044501,42.69332]},"properties":{"height":"423","image":"http://upload.wikimedia.org/wikipedia/commons/8/89/Gavarnie_Falls.JPG","name":"La Grande Cascade de Gavarnie","name:de":"Gavarnie-Fälle","name:es":"Cascada de Gavarnie","name:lt":"Gavarni krioklys","name:pl":"Wodospad Gavarnie","name:uk":"Водоспад Гаварні","tourism":"attraction","waterway":"waterfall","wheelchair":"no","wikidata":"Q1496402","wikipedia":"fr:Cascade de Gavarnie"}},
{"type":"Feature","geometry":{"type":"Point","coordinates":[-0.0104888,42.692671]},"properties":{"waterway":"waterfall"}},
{"type":"Feature","geometry":{"type":"Point","coordinates":[0.0195401,42.6848792]},"properties":{"ele":"3081","natural":"saddle","source":"Instituto Geográfico Nacional"}},
{"type":"Feature","geometry":{"type":"Point","coordinates":[0.0136696,42.6861702]},"properties":{"ele":"2929","natural":"sinkhole","source":"Instituto Geográfico Nacional"}},
{"type":"Feature","geometry":{"type":"Point","coordinates":[0.0123036,42.6841619]},"properties":{"ele":"2922","natural":"peak","source":"Instituto Geográfico Nacional"}},
{"type":"Feature","geometry":{"type":"Point","coordinates":[0.0086284,42.6865169]},"properties":{"ele":"2983","name":"Pic Occidental","natural":"peak","source":"Instituto Geográfico Nacional"}},
{"type":"Feature","geometry":{"type":"Point","coordinates":[0.0065045,42.6890228]},"properties":{"ele":"3088","natural":"saddle","source":"Instituto Geográfico Nacional"}},
{"type":"Feature","geometry":{"type":"Point","coordinates":[0.0093313,42.6900557]},"properties":{"ele":"3138","natural":"saddle","source":"Instituto Geográfico Nacional"}},
{"type":"Feature","geometry":{"type":"Point","coordinates":[0.0191226,42.6893609]},"properties":{"ele":"3177","natural":"saddle","source":"Instituto Geográfico Nacional"}},
{"type":"Feature","geometry":{"type":"Point","coordinates":[0.0201701,42.6886543]},"properties":{"ele":"3175","natural":"saddle","source":"Instituto Geográfico Nacional"}},
{"type":"Feature","geometry":{"type":"Point","coordinates":[0.0195289,42.6890466]},"properties":{"ele":"3182","natural":"peak","source":"Instituto Geográfico Nacional"}},
{"type":"Feature","geometry":{"type":"Point","coordinates":[0.0213055,42.6877047]},"properties":{"ele":"3202","natural":"peak","source":"Instituto Geográfico Nacional"}},
{"type":"Feature","geometry":{"type":"Point","coordinates":[0.0216197,42.6873832]},"properties":{"ele":"3194","name":"Cuello de Marboré","natural":"saddle","source":"Instituto Geográfico Nacional"}},
{"type":"Feature","geometry":{"type":"Point","coordinates":[0.0466557,42.689981]},"properties":{"ele":"2573","natural":"peak","source":"Instituto Geográfico Nacional"}},
{"type":"Feature","geometry":{"type":"Point","coordinates":[0.0477773,42.6924402]},"properties":{"ele":"2613","natural":"peak","source":"Instituto Geográfico Nacional"}},
{"type":"Feature","geometry":{"type":"Point","coordinates":[0.0469512,42.6916201]},"properties":{"ele":"2598","natural":"peak","source":"Instituto Geográfico Nacional"}},
{"type":"Feature","geometry":{"type":"Point","coordinates":[0.0445553,42.6920289]},"properties":{"ele":"2631","natural":"peak","source":"Instituto Geográfico Nacional"}},
{"type":"Feature","geometry":{"type":"Point","coordinates":[0.039964,42.6934027]},"properties":{"ele":"2594","natural":"peak","source":"Instituto Geográfico Nacional"}},
{"type":"Feature","geometry":{"type":"Point","coordinates":[0.0387869,42.6936592]},"properties":{"ele":"2594","natural":"peak","source":"Instituto Geográfico Nacional"}},
{"type":"Feature","geometry":{"type":"Point","coordinates":[0.0280642,42.6951469]},"properties":{"ele":"2713","natural":"peak","source":"Instituto Geográfico Nacional"}},
{"type":"Feature","geometry":{"type":"Point","coordinates":[0.0309987,42.6903575]},"properties":{"ele":"2624","natural":"peak","source":"Instituto Geográfico Nacional"}},
{"type":"Feature","geometry":{"type":"Point","coordinates":[0.0390818,42.6896581]},"properties":{"ele":"2522","natural":"peak","source":"Instituto Geográfico Nacional"}},
{"type":"Feature","geometry":{"type":"Point","coordinates":[-0.0050754,42.684927]},"properties":{"ele":"2955","natural":"peak","source":"Instituto Geográfico Nacional"}},
{"type":"Feature","geometry":{"type":"Point","coordinates":[-0.0092047,42.6846917]},"properties":{"ele":"2933","natural":"saddle"}},
{"type":"Feature","geometry":{"type":"Point","coordinates":[0.0152289,42.6919828]},"properties":{"tourism":"viewpoint"}},
{"type":"Feature","geometry":{"type":"Point","coordinates":[0.0461215,42.6901959]},"properties":{"ele":"2567","natural":"saddle","source":"Instituto Geográfico Nacional"}},
{"type":"Feature","geometry":{"type":"Point","coordinates":[0.0403288,42.6892856]},"properties":{"ele":"2512","natural":"peak","source":"Instituto Geográfico Nacional"}},
{"type":"Feature","geometry":{"type":"Point","coordinates":[0.0308579,42.6902852]},"properties":{"ele":"2615","natural":"saddle","source":"Instituto Geográfico Nacional"}},
{"type":"Feature","geometry":{"type":"Point","coordinates":[0.0655168,42.6943455]},"properties":{"ele":"2238","name":"Punta el Garién","natural":"peak","source":"Instituto Geográfico Nacional"}},
{"type":"Feature","geometry":{"type":"Point","coordinates":[0.0654681,42.6945316]},"properties":{"ele":"2227","name":"Punta el Garién","natural":"saddle","source":"Instituto Geográfico Nacional"}},
{"type":"Feature","geometry":{"type":"Point","coordinates":[-0.0071476,42.6850234]},"properties":{"heritage":"1","heritage:operator":"whc","name":"Pirineos - Monte Perdido","name:fr":"Pyrénées - Mont Perdu","natural":"massif","source":"https://whc.unesco.org/en/list/773"}},
{"type":"Feature","geometry":{"type":"Point","coordinates":[0.0487963,42.6920322]},"properties":{"name":"Valley view","tourism":"viewpoint"}},
{"type":"Feature","geometry":{"type":"Point","coordinates":[0.0222164,42.6837685]},"properties":{"natural":"cliff"}},
{"type":"Feature","geometry":{"type":"LineString","coordinates":[[0.0377866,42.6973134],[0.0378527,42.6973617],[0.0381209,42.6972513],[0.0383395,42.6971893],[0.0384709,42.6970798],[0.0386077,42.6970256],[0.0386868,42.6970335],[0.0390328,42.6969083],[0.039061,42.6968768],[0.0391173,42.6968679],[0.0394258,42.6968492],[0.0397329,42.696725],[0.0400668,42.6965486],[0.0404759,42.6962696],[0.0406744,42.6962213],[0.0408433,42.6962204],[0.0409868,42.6960912],[0.0410646,42.6959927],[0.0413382,42.6958498],[0.0415541,42.6956201],[0.0417499,42.6955067],[0.0419632,42.6954624],[0.0425251,42.6952041],[0.0426847,42.6951085],[0.0428577,42.6950553],[0.0430146,42.6948996],[0.0432868,42.6948424],[0.0433713,42.6947379],[0.0433914,42.6945694],[0.0433579,42.6945171],[0.0431889,42.6944422],[0.0429422,42.6945083],[0.042859,42.694456],[0.0427289,42.69446],[0.0431916,42.6941524],[0.0435175,42.6938892],[0.0434598,42.6938252],[0.043032,42.6938567],[0.0428885,42.6939572],[0.0427665,42.6939779],[0.0424446,42.6941297],[0.0423762,42.6941159],[0.0422434,42.6941771],[0.0421898,42.6941623],[0.0418304,42.6943091],[0.0418076,42.6942076],[0.0419752,42.6940637],[0.0418934,42.693971],[0.0412336,42.694183],[0.0410995,42.694317],[0.0407991,42.6944609],[0.0403257,42.6945418],[0.0403136,42.6945142],[0.0403498,42.6944462],[0.0402596,42.6943589],[0.040146,42.6943584],[0.0400682,42.6944422],[0.0392623,42.6947126],[0.0391656,42.6946206],[0.0391026,42.6945989],[0.0391048,42.6944875],[0.0392185,42.6943203],[0.0393748,42.6942244],[0.0394714,42.6940982],[0.0394995,42.6939671],[0.039525,42.6938587],[0.039399,42.6938419],[0.0393024,42.6937759],[0.0390449,42.6938094],[0.0389859,42.6938636],[0.0389349,42.693838],[0.0387941,42.6938557],[0.0386949,42.6938163],[0.038715,42.6939109],[0.038652,42.6939375],[0.0385876,42.6939632],[0.0385393,42.6940262],[0.038487,42.6941386],[0.0383972,42.6942066],[0.0382912,42.6942539],[0.0382724,42.6943111],[0.0383288,42.6943841],[0.0383972,42.6944314],[0.0383368,42.69466],[0.0381745,42.6947419],[0.0381356,42.694872],[0.0382025,42.6949633],[0.0383962,42.6949633],[0.0387231,42.6949764],[0.038951,42.695009],[0.0391267,42.6949548],[0.0391307,42.6949863],[0.0389926,42.6950592],[0.0383154,42.6953441],[0.0382188,42.695559],[0.0383234,42.695624],[0.0384173,42.6957403],[0.0385407,42.6957699],[0.0384937,42.6958281],[0.0382563,42.6959532],[0.0382322,42.6960893],[0.0380927,42.6961987],[0.0380941,42.6962805],[0.0381745,42.6962884],[0.0380431,42.6963633],[0.0379747,42.6964402],[0.0375777,42.6966038],[0.0369944,42.6968127],[0.0370078,42.6969507],[0.0371164,42.6971962],[0.0374535,42.6973214],[0.0377866,42.6973134]]},"properties":{"alt_name":"Ibón de Marboré","ele":"2590","name":"Lago de Marboré","name:es":"Lago de Marboré","name:fr":"Lac Glacé","natural":"water","water":"lake","wikidata":"Q41319183"}},
{"type":"Feature","geometry":{"type":"LineString","coordinates":[[0.0354589,42.6831273],[0.0348981,42.683203],[0.0342148,42.6832125],[0.033712,42.6833168],[0.0335187,42.6834494],[0.0335129,42.6837722],[0.0333305,42.6838156],[0.0329894,42.6837968],[0.0326173,42.6837404],[0.0323309,42.6839355],[0.0315495,42.6841902],[0.0311661,42.6840958],[0.0307824,42.6832714],[0.0305624,42.6832083],[0.0302674,42.6833266],[0.0296398,42.6835553],[0.0291221,42.6838965],[0.0287546,42.6839576],[0.0283898,42.6838235],[0.0278963,42.6834331],[0.029878,42.6826918],[0.0298919,42.6824393],[0.0301923,42.6823644],[0.0305356,42.6825813],[0.030804,42.6826155],[0.0310402,42.6823446],[0.0312465,42.681956],[0.0314656,42.6816622],[0.0318137,42.6815011],[0.0322134,42.6813494],[0.0323939,42.6812926],[0.0325873,42.6811978],[0.0330772,42.6809798],[0.0335026,42.6807334],[0.0342117,42.6805438],[0.0349465,42.6803638],[0.0356298,42.680051],[0.0361062,42.6799308],[0.0364807,42.6796814],[0.0366741,42.6795487],[0.0372926,42.6794549],[0.0376149,42.6794123],[0.037718,42.6793222],[0.0377438,42.6791374],[0.0376793,42.6789857],[0.0375955,42.678762999999999],[0.037776,42.6785735],[0.0380016,42.6783697],[0.038324,42.6781706],[0.0385431,42.6780237],[0.0388268,42.6779811],[0.0389528,42.6777445],[0.0391204,42.6775692],[0.0393654,42.6775028],[0.0395975,42.6776213],[0.0398433,42.6777698],[0.0401334,42.6778362],[0.0405266,42.6777414],[0.0410681,42.6777319],[0.041558,42.6778267],[0.0419503,42.6779815],[0.0422597,42.6780668],[0.0424789,42.6782943],[0.0424607,42.6788718],[0.0417632,42.6794974],[0.0414409,42.6796395],[0.0412991,42.680085],[0.0408737,42.6806821],[0.0405385,42.6809569],[0.0401001,42.6808716],[0.0394035,42.681015],[0.0387807,42.6812957],[0.0381799,42.6815639],[0.0379439,42.6819582],[0.0370324,42.6826949],[0.0354589,42.6831273]]},"properties":{"glacier:type":"mountain","name":"Glaciar Monte Perdido","name:fr":"Glacier du Mont Perdu","natural":"glacier"}},
{"type":"Feature","geometry":{"type":"LineString","coordinates":[[0.0115224,42.692771],[0.0117431,42.6930147],[0.0125217,42.6935781],[0.0131855,42.6938402],[0.0144159,42.6940293],[0.0150533,42.6952626],[0.0151186,42.6960591],[0.0152727,42.6969629],[0.0151578,42.697838],[0.0152918,42.6998055],[0.0150081,42.7002409],[0.0144777,42.7007528],[0.0134102,42.7008618],[0.0132539,42.7010718],[0.0128334,42.7016365],[0.0135684,42.7019032],[0.0149185,42.701794],[0.0190584,42.7015775],[0.019909,42.7018326],[0.020291,42.701986],[0.0217188,42.7025607],[0.0236839,42.7024821],[0.0242833,42.7025138],[0.0244213,42.7025623]]},"properties":{"admin_level":"2","boundary":"administrative","name":"France - España","name:an":"Francia - Espanya","name:ar":"إسبانيا - فرنسا","name:ca":"França - Espanya","name:de":"Frankreich - Spanien","name:en":"France - Spain","name:es":"Francia - España","name:eu":"Frantzia - Espainia","name:fa":"اسپانیا - فرانسه","name:fr":"France - Espagne","name:gl":"Francia - España","name:lt":"Prancūzija - Ispanija","name:oc":"França - Espanha","name:pt":"França - Espanha","name:ru":"Франция - Испания","name:ur":"ہسپانیہ - فرانس","source":"Yahoo;Sigpac;personal experience"}},
{"type":"Feature","geometry":{"type":"LineString","coordinates":[[-0.0607737,42.6944479],[-0.0597897,42.6939472],[-0.0591569,42.6935192],[-0.058401,42.6930937],[-0.0577261,42.6928118],[-0.0570078,42.692575],[-0.0564252,42.6924967],[-0.0557575,42.6924576],[-0.0549485,42.6924419],[-0.0538102,42.6924816],[-0.0528133,42.6931328],[-0.0521061,42.6932908],[-0.0509161,42.6938739],[-0.0501373,42.6941983],[-0.0488672,42.6944693],[-0.0482541,42.693861],[-0.0465184,42.6932499],[-0.044846,42.6924431],[-0.0439269,42.6920425],[-0.0428469,42.691768],[-0.0422345,42.6915945],[-0.0413585,42.6915949],[-0.0406161,42.6915027],[-0.0398167,42.6915267],[-0.0387982,42.6917752],[-0.036848,42.6915607],[-0.0358177,42.6913602],[-0.0355171,42.6913134],[-0.0343826,42.6911222],[-0.0339409,42.6910477],[-0.0329294,42.6910264],[-0.031778,42.6908806],[-0.0308061,42.6902334],[-0.0297935,42.689869],[-0.0290117,42.6894175],[-0.0277477,42.6887693],[-0.026852,42.6881218],[-0.0248632,42.6880913],[-0.0234568,42.6878156],[-0.0222973,42.6875513],[-0.0213098,42.6874536],[-0.019595,42.6868079],[-0.0184428,42.6863636],[-0.0174755,42.6860418],[-0.0166627,42.6852031],[-0.0159803,42.6851192],[-0.0154216,42.6853381],[-0.0145465,42.6851944],[-0.0137965,42.6852461],[-0.0129671,42.6852093],[-0.0114065,42.684999],[-0.0099426,42.6847595],[-0.0087856,42.6847297],[-0.0077641,42.6850709],[-0.0073149,42.6851335],[-0.00673,42.6851152],[-0.0053888,42.6850539],[-0.0039367,42.6850436],[-0.002828,42.6850625],[-0.0019885,42.685179],[-0.0012556,42.6855905],[0.0002451,42.6853611],[0.0009196,42.6854796],[0.0017359,42.6858061],[0.0022767,42.6861867],[0.0025848,42.6868957],[0.0030952,42.6872213],[0.0038846,42.6871026],[0.0043153,42.6872024],[0.004753,42.6874362],[0.0048126,42.6878267],[0.0043534,42.6882917],[0.0047623,42.68903],[0.0060862,42.6889844],[0.006371,42.6889903],[0.0078017,42.6901226],[0.0084635,42.6902238],[0.0095241,42.6904556],[0.0105274,42.6909675],[0.0111406,42.6913959],[0.0113026,42.6918253],[0.0113762,42.6923868],[0.0115224,42.692771]]},"properties":{"admin_level":"2","boundary":"administrative","name":"France - España","name:an":"Francia - Espanya","name:ar":"إسبانيا - فرنسا","name:ca":"França - Espanya","name:de":"Frankreich - Spanien","name:en":"France - Spain","name:es":"Francia - España","name:eu":"Frantzia - Espainia","name:fa":"اسپانیا - فرانسه","name:fr":"France - Espagne","name:gl":"Francia - España","name:lt":"Prancūzija - Ispanija","name:oc":"França - Espanha","name:pt":"França - Espanha","name:ru":"Франция - Испания","name:ur":"ہسپانیہ - فرانس","source":"Yahoo;Bing;Sigpac;personal experience"}},
{"type":"Feature","geometry":{"type":"LineString","coordinates":[[-0.0081513,42.6999747],[-0.0081995,42.6997607],[-0.0081977,42.6994662],[-0.0084311,42.6989904],[-0.0083407,42.6986696],[-0.0079041,42.6983044],[-0.0074299,42.6980583],[-0.0068729,42.6978259],[-0.0062152,42.6979219],[-0.0047462,42.6973429],[-0.004186,42.6972514],[-0.0041405,42.6964556],[-0.0043042,42.6959607],[-0.0047546,42.6954358],[-0.0052687,42.6946266],[-0.0059329,42.6937138],[-0.005983,42.69356],[-0.0061513,42.6933025],[-0.0063606,42.6932423],[-0.0069475,42.6933861],[-0.0074069,42.6935934],[-0.0077771,42.6936271],[-0.0079574,42.6936435],[-0.0084306,42.693677],[-0.008749,42.6936937],[-0.009295,42.6936502],[-0.0095907,42.6937037],[-0.0097544,42.6937606],[-0.0103868,42.6938375],[-0.010587,42.6938943],[-0.0108509,42.6941518],[-0.0109009,42.6942588],[-0.0111648,42.6943424],[-0.0118472,42.6947604],[-0.012243,42.6949309],[-0.0127571,42.6953188],[-0.0130664,42.6957568],[-0.0118183,42.6957375],[-0.0111258,42.6960141],[-0.010885,42.6962244],[-0.0104935,42.6974802],[-0.0102677,42.6978895],[-0.009658,42.6985147],[-0.0089071,42.6992439],[-0.008807,42.699402],[-0.0086899,42.6995699],[-0.0085361,42.6997844],[-0.008379,42.700019],[-0.0083229,42.7001018],[-0.0083076,42.7002137],[-0.0082125,42.7003452],[-0.0080445,42.700406],[-0.0078349,42.7004295],[-0.0076139,42.7004398],[-0.0073528,42.7005294],[-0.0071709,42.7006576],[-0.0070367,42.7008155],[-0.0069711,42.7010282],[-0.0069041,42.7010986],[-0.0067488,42.7011875],[-0.0065567,42.7012105],[-0.0064873,42.7012691],[-0.0064929,42.7013514],[-0.0064564,42.701408],[-0.0064806,42.701471],[-0.0065531,42.7015373],[-0.0066331,42.701586],[-0.0067283,42.7016442],[-0.006853,42.7017043],[-0.0070636,42.7017487],[-0.007274,42.7018289],[-0.0073868,42.7019409],[-0.0074241,42.7020696],[-0.0073788,42.7021725],[-0.0073439,42.7022483],[-0.0073223,42.7023043],[-0.0073935,42.7023331],[-0.0074086,42.7024863],[-0.0074619,42.7026524],[-0.0074424,42.7027527],[-0.0074928,42.7028377],[-0.0075646,42.7028777],[-0.0076116,42.702932],[-0.0075893,42.7030171],[-0.0076154,42.7030766],[-0.0076783,42.7031507],[-0.0077183,42.7031789],[-0.0078374,42.7032221],[-0.0079985,42.7032578],[-0.0081724,42.7033297],[-0.0082167,42.7034519],[-0.0082837,42.7035573],[-0.0084017,42.703647],[-0.0085238,42.7036806],[-0.0086418,42.7037259],[-0.00874,42.7037533],[-0.0088282,42.7037998],[-0.0088687,42.7038262],[-0.0088969,42.7038577],[-0.0089288,42.70392],[-0.0089854,42.703974],[-0.009028,42.7040373],[-0.0091044,42.7041832],[-0.0091812,42.7042608],[-0.0093003,42.7043625],[-0.0093908,42.7045104],[-0.0094266,42.7045989],[-0.0094473,42.7046775],[-0.0093293,42.7049374],[-0.0093801,42.7049963],[-0.0094709,42.705007],[-0.0096738,42.7050236],[-0.0098267,42.7049884],[-0.009875,42.7051432],[-0.0097651,42.7051677],[-0.0095688,42.7051922],[-0.0094297,42.7051806],[-0.0092997,42.7051727],[-0.0092221,42.705175],[-0.009151,42.7051498],[-0.0091006,42.7050943],[-0.0090652,42.7049962],[-0.0091162,42.7049372],[-0.0092192,42.7048697],[-0.0092737,42.7048344],[-0.0093238,42.7047766],[-0.0093539,42.7046653],[-0.0092912,42.7045417],[-0.0092273,42.7044403],[-0.0091396,42.7043495],[-0.009036,42.7042644],[-0.0089195,42.7040596],[-0.0088048,42.7039595],[-0.0086346,42.7038921],[-0.0083575,42.7038329],[-0.0081472,42.703704],[-0.0079832,42.7035472],[-0.0078038,42.7033932],[-0.007655,42.703298],[-0.0075229,42.7032033],[-0.0073599,42.703028],[-0.0072912,42.7028836],[-0.0072348,42.7025764],[-0.0071537,42.7021433],[-0.0071243,42.7020703],[-0.0070841,42.7020219],[-0.0069335,42.7019202],[-0.006756,42.7018453],[-0.0066496,42.7018249],[-0.0064203,42.7017628],[-0.0062413,42.701592],[-0.006269,42.7014176],[-0.0062967,42.7012345],[-0.0063998,42.7011194],[-0.0066527,42.7010579],[-0.006694,42.700846],[-0.0068264,42.7006891],[-0.0069885,42.7005512],[-0.007187,42.7004407],[-0.0078019,42.7002338],[-0.0080252,42.7001512],[-0.0081513,42.6999747]]},"properties":{"natural":"scree"}},
{"type":"Feature","geometry":{"type":"LineString","coordinates":[[-0.020814,42.7005194],[-0.0204164,42.70039],[-0.0189948,42.6995857],[-0.0187427,42.6993768],[-0.0188231,42.6990496],[-0.0190645,42.6989865],[-0.019601,42.6988761],[-0.0197995,42.6987263],[-0.0197029,42.6985095],[-0.0191987,42.6982926],[-0.018335,42.6979141],[-0.018217,42.6976815],[-0.0182438,42.6975159],[-0.0184208,42.6973937],[-0.0187105,42.6971335],[-0.0185764,42.6968575],[-0.0184208,42.6968063],[-0.0170636,42.6965776],[-0.0167739,42.6965224],[-0.0158137,42.6961558],[-0.0155562,42.6958285],[-0.0155021,42.6955684],[-0.0154865,42.6954934],[-0.0156474,42.6951267],[-0.0158191,42.6950794],[-0.0159264,42.6949296],[-0.0158727,42.6946851],[-0.0157919,42.6945311],[-0.0156551,42.6943951],[-0.0154861,42.6942847],[-0.0152715,42.6942512],[-0.0150355,42.6942709],[-0.0146922,42.6943537],[-0.0143891,42.6943971],[-0.014035,42.6943833],[-0.0139204,42.6944442],[-0.0134874,42.6946422],[-0.0136231,42.6950616],[-0.0138233,42.6958975],[-0.0142601,42.696827],[-0.0143444,42.6977241],[-0.0145622,42.6982429],[-0.0147509,42.6984704],[-0.0149335,42.6986142],[-0.0158804,42.6989966],[-0.0164227,42.6993464],[-0.0166426,42.6994624],[-0.0165168,42.6995945],[-0.0162081,42.6995063],[-0.0158112,42.699305],[-0.0151679,42.6990172],[-0.0145191,42.6990048],[-0.014444,42.6991459],[-0.0144859,42.6994318],[-0.014069,42.6996556],[-0.0138056,42.6998902],[-0.0134776,42.6999164],[-0.0128588,42.6998763],[-0.0126132,42.6995487],[-0.0128084,42.6988648],[-0.0133434,42.698671],[-0.0137534,42.6985386],[-0.0136897,42.6982578],[-0.0136093,42.6980666],[-0.0133416,42.6981437],[-0.0131127,42.6981711],[-0.0128279,42.6981731],[-0.0124021,42.6981594],[-0.0118299,42.6982239],[-0.011625,42.6982278],[-0.0115133,42.6981809],[-0.0114813,42.6980401],[-0.0116224,42.6979149],[-0.0120588,42.697821],[-0.0123063,42.6977447],[-0.0123862,42.6976743],[-0.0122558,42.6976352],[-0.0118033,42.6976352],[-0.011146,42.6976176],[-0.0110582,42.6974807],[-0.0110582,42.6973477],[-0.0110768,42.6972186],[-0.0112312,42.6970406],[-0.0115053,42.6968783],[-0.0118672,42.6968919],[-0.0123462,42.6970445],[-0.0125831,42.6972949],[-0.0128253,42.6975648],[-0.0128945,42.6975413],[-0.013102,42.6974455],[-0.0132939,42.6972246],[-0.0133353,42.6970496],[-0.0134608,42.6969448],[-0.0137057,42.6968726],[-0.0136347,42.6968136],[-0.0134031,42.6965526],[-0.0131574,42.6963921],[-0.013013,42.6961243],[-0.0130664,42.6957568],[-0.0118183,42.6957375],[-0.0111258,42.6960141],[-0.010885,42.6962244],[-0.0104935,42.6974802],[-0.0102677,42.6978895],[-0.009658,42.6985147],[-0.0089071,42.6992439],[-0.008807,42.699402],[-0.0086899,42.6995699],[-0.0085361,42.6997844],[-0.008379,42.700019],[-0.0083229,42.7001018],[-0.0083076,42.7002137],[-0.0082125,42.7003452],[-0.0080445,42.700406],[-0.0078349,42.7004295],[-0.0076139,42.7004398],[-0.0073528,42.7005294],[-0.0071709,42.7006576],[-0.0070367,42.7008155],[-0.0069711,42.7010282],[-0.0069041,42.7010986],[-0.0067488,42.7011875],[-0.0065567,42.7012105],[-0.0064873,42.7012691],[-0.0064929,42.7013514],[-0.0064564,42.701408],[-0.0064806,42.701471],[-0.0065531,42.7015373],[-0.0066331,42.701586],[-0.0067283,42.7016442],[-0.006853,42.7017043],[-0.0070636,42.7017487],[-0.007274,42.7018289],[-0.0073868,42.7019409],[-0.0074241,42.7020696],[-0.0073788,42.7021725],[-0.0073439,42.7022483],[-0.0073223,42.7023043],[-0.0073935,42.7023331],[-0.0074086,42.7024863],[-0.0074619,42.7026524],[-0.0074424,42.7027527],[-0.0074928,42.7028377],[-0.0075646,42.7028777],[-0.0076116,42.702932],[-0.0075893,42.7030171],[-0.0076154,42.7030766],[-0.0076904,42.7030108],[-0.0077993,42.7029933],[-0.0078604,42.7030108],[-0.0080225,42.7031045],[-0.0080437,42.703126],[-0.0080437,42.7031787],[-0.0079985,42.7032578],[-0.0081724,42.7033297],[-0.0082966,42.7033077],[-0.0084041,42.7032237],[-0.0085393,42.7029835],[-0.0085318,42.7028207],[-0.0085243,42.7027075],[-0.0086069,42.7026523],[-0.0087234,42.7026909],[-0.0087327,42.702635],[-0.0086152,42.702561],[-0.0085957,42.7024973],[-0.0086488,42.7024808],[-0.0087663,42.7024541],[-0.0091243,42.7024479],[-0.0094484,42.7024508],[-0.0095123,42.7023679],[-0.0096588,42.7023376],[-0.0098165,42.7023486],[-0.0098766,42.7024535],[-0.0098503,42.7025943],[-0.0096888,42.7028345],[-0.0096062,42.7029532],[-0.0096888,42.7030001],[-0.0098954,42.7030277],[-0.0101696,42.7029587],[-0.0103199,42.7029559],[-0.0104852,42.7030167],[-0.0105641,42.7031299],[-0.010534,42.7032127],[-0.0102786,42.7032679],[-0.0099781,42.7032292],[-0.0098954,42.7032734],[-0.0095987,42.7033093],[-0.0094935,42.7034004],[-0.0095123,42.7035936],[-0.0096325,42.7037206],[-0.010072,42.7039028],[-0.0102222,42.703958],[-0.0106768,42.7040325],[-0.011259,42.7041098],[-0.0116985,42.7042755],[-0.0118939,42.7043334],[-0.0120291,42.704339],[-0.0120854,42.7042755],[-0.0119887,42.7041909],[-0.011857,42.7040581],[-0.0118871,42.7039502],[-0.0118532,42.7038562],[-0.0116651,42.7037954],[-0.0115145,42.7036958],[-0.0115893,42.7034883],[-0.0114697,42.7034924],[-0.0113858,42.7035644],[-0.0112795,42.7035726],[-0.0111425,42.7035438],[-0.011053,42.7034965],[-0.010983,42.7034123],[-0.0110441,42.7032892],[-0.0110328,42.7031565],[-0.0110991,42.7030779],[-0.0109964,42.7031136],[-0.0108639,42.7032069],[-0.0108209,42.7032961],[-0.0107817,42.7033701],[-0.010763,42.7033619],[-0.0107649,42.7032302],[-0.0108377,42.7031657],[-0.0109348,42.7030669],[-0.0111813,42.7029256],[-0.0114355,42.7027886],[-0.0115521,42.7027305],[-0.0118451,42.702686],[-0.011769,42.7026271],[-0.0117886,42.7025161],[-0.0118781,42.7024915],[-0.0119676,42.7025387],[-0.0120934,42.7026436],[-0.0122948,42.7026662],[-0.0124123,42.7026374],[-0.0125269,42.7026477],[-0.0126304,42.7026949],[-0.0126416,42.7027392],[-0.0128367,42.7027161],[-0.0129911,42.7026978],[-0.0133502,42.7026793],[-0.0135641,42.7026667],[-0.0136478,42.7026473],[-0.013632,42.7025485],[-0.0132839,42.7023508],[-0.0126827,42.7021444],[-0.0122832,42.7020253],[-0.0122951,42.7019904],[-0.0125166,42.7020485],[-0.0128568,42.7020979],[-0.0138152,42.7024364],[-0.0138182,42.702312],[-0.0137705,42.7022404],[-0.0139761,42.7022142],[-0.0139801,42.7020805],[-0.0138772,42.7019642],[-0.0138733,42.7019148],[-0.0142214,42.7020398],[-0.014157,42.7019387],[-0.0140172,42.7016551],[-0.0138829,42.7015194],[-0.0136753,42.7014193],[-0.0135249,42.7013468],[-0.0133571,42.7012029],[-0.0131669,42.7011618],[-0.013083,42.7013015],[-0.0128481,42.7013139],[-0.0125348,42.7013673],[-0.0124173,42.701429],[-0.0122271,42.7013509],[-0.0122216,42.7012276],[-0.0122831,42.7011618],[-0.0120873,42.7008658],[-0.0116454,42.7007589],[-0.0110804,42.7005287],[-0.0108511,42.7004917],[-0.0102917,42.7005451],[-0.0094302,42.7009069],[-0.0091617,42.7011289],[-0.0088373,42.7014331],[-0.0086471,42.701466],[-0.0086807,42.701318],[-0.008938,42.7008082],[-0.0093184,42.7004876],[-0.0098778,42.700245],[-0.0103924,42.6999943],[-0.0107672,42.7000559],[-0.0110524,42.7003602],[-0.0113467,42.7004594],[-0.0118132,42.700652],[-0.0120898,42.7006916],[-0.0125008,42.7007505],[-0.0129264,42.7008863],[-0.0134746,42.7009192],[-0.0139216,42.7008355],[-0.0138469,42.7007611],[-0.0137905,42.7006718],[-0.0136603,42.7005729],[-0.0135452,42.7005474],[-0.0134389,42.7005697],[-0.0133044,42.7006224],[-0.0131177,42.7005825],[-0.0130092,42.700474],[-0.0130222,42.7003943],[-0.0130765,42.700356],[-0.0132609,42.7003911],[-0.0134541,42.7004501],[-0.0135561,42.7004501],[-0.0135973,42.7003815],[-0.0135279,42.7002699],[-0.0135452,42.7002492],[-0.0135865,42.7002874],[-0.0136212,42.7003576],[-0.0136906,42.7004421],[-0.0137427,42.7005203],[-0.0138382,42.7006303],[-0.0140504,42.7008114],[-0.0143472,42.7009357],[-0.0153317,42.7010385],[-0.0161036,42.7010919],[-0.0169315,42.7010672],[-0.0184195,42.7011042],[-0.0199354,42.701207],[-0.0212915,42.7014395],[-0.021825,42.701594299999999],[-0.0224856,42.7016934],[-0.0229574,42.7017132],[-0.023072,42.701624],[-0.02289,42.7014556],[-0.0227821,42.7012872],[-0.0228428,42.7011535],[-0.0228158,42.7010098],[-0.0226271,42.7009306],[-0.022216,42.7008315],[-0.0210904,42.7006482],[-0.020814,42.7005194]]},"properties":{"natural":"grassland"}},
{"type":"Feature","geometry":{"type":"LineString","coordinates":[[-0.0246155,42.6908035],[-0.0252405,42.6907221],[-0.0256676,42.6906814],[-0.0258267,42.6905336],[-0.0255885,42.6904139],[-0.0252879,42.690286],[-0.0247579,42.6901697],[-0.0243465,42.6898441],[-0.0241725,42.6895708],[-0.0238629,42.6895224],[-0.0238101,42.6892118],[-0.0238482,42.68903],[-0.0236325,42.6890353],[-0.0233095,42.6889792],[-0.0231283,42.6890242],[-0.0229859,42.6892394],[-0.022789,42.6893026],[-0.0226197,42.6893243],[-0.0222185,42.6892662],[-0.0219643,42.6891898],[-0.021578,42.6890076],[-0.0213476,42.6888813],[-0.0213443,42.6888374],[-0.0211349,42.6891471],[-0.0211462,42.6893213],[-0.0214259,42.689679],[-0.0218007,42.6898846],[-0.0221084,42.6899504],[-0.0222538,42.6897366],[-0.0222874,42.6896543],[-0.0224776,42.689753],[-0.022472,42.6899257],[-0.0226342,42.6901601],[-0.0230985,42.6902834],[-0.0232719,42.6901888],[-0.0235124,42.6902382],[-0.0237026,42.6904396],[-0.023848,42.6906576],[-0.0241781,42.6906493],[-0.024469,42.6907151],[-0.0246155,42.6908035]]},"properties":{"name":"Glacier du Casque","natural":"glacier"}},
{"type":"Feature","geometry":{"type":"LineString","coordinates":[[-0.0042838,42.6935919],[-0.0054342,42.6929913],[-0.0060432,42.6929198],[-0.0068244,42.6926315],[-0.0068021,42.6925319],[-0.0068182,42.6923998],[-0.0070027,42.6922903],[-0.0075129,42.6922717],[-0.0083682,42.6922673],[-0.0088701,42.6922914],[-0.0093848,42.6923614],[-0.0095801,42.692426],[-0.0104888,42.692671],[-0.011265,42.693075],[-0.0118044,42.6937838],[-0.0124404,42.6939438],[-0.0127401,42.6942402],[-0.0130624,42.6943791],[-0.0130087,42.6946275],[-0.0132084,42.6950559],[-0.0132515,42.6952653],[-0.0134033,42.6954075],[-0.0136565,42.69549]]},"properties":{"natural":"cliff"}},
{"type":"Feature","geometry":{"type":"LineString","coordinates":[[-0.0029022,42.6884884],[-0.0040287,42.688098],[-0.0056326,42.6876446],[-0.0068396,42.6875933],[-0.0081754,42.6869545],[-0.0082988,42.6863315],[-0.0084145,42.6862761],[-0.0085969,42.6862407],[-0.009525,42.6861145],[-0.0101043,42.6860869],[-0.0104606,42.6860357],[-0.0107181,42.6861264],[-0.0114638,42.6860436],[-0.0124615,42.6861146],[-0.0135751,42.6858779],[-0.0145268,42.6859233],[-0.0156775,42.6858859],[-0.0156561,42.6858247],[-0.0160959,42.6858129],[-0.0167826,42.6863019],[-0.0175282,42.6864951],[-0.0176301,42.68667],[-0.0185026,42.6868182],[-0.0190016,42.686903],[-0.0210184,42.6880801],[-0.0219007,42.6885317],[-0.0226302,42.6887604],[-0.0237331,42.6888996],[-0.0248587,42.6892179],[-0.0281203,42.6905112],[-0.0314345,42.6911203],[-0.0324533,42.6911805],[-0.0334493,42.6910669],[-0.0334321,42.6909699],[-0.0322455,42.6903811],[-0.0311887,42.6895175],[-0.0307059,42.6890049],[-0.0305862,42.6883435],[-0.0304493,42.6879027],[-0.030213,42.6876642],[-0.0300175,42.6875292],[-0.0298246,42.6874793],[-0.0296524,42.6873172],[-0.0290687,42.6869433],[-0.0287699,42.6867253],[-0.0282834,42.6865427],[-0.0275925,42.6861256],[-0.0273541,42.6860634],[-0.0268892,42.6859613],[-0.0261676,42.6860002],[-0.0256017,42.6862743],[-0.0257814,42.6864202],[-0.0260898,42.6865523],[-0.0252369,42.686572],[-0.0247005,42.6866568],[-0.0245261,42.6868421]]},"properties":{"natural":"cliff"}},
{"type":"Feature","geometry":{"type":"LineString","coordinates":[[-0.0205133,42.6890933],[-0.0231755,42.690987],[-0.0274978,42.6922493],[-0.0295365,42.692806],[-0.0317922,42.69363],[-0.0321624,42.6936773],[-0.0327095,42.6936615],[-0.0328732,42.6935886],[-0.033026,42.693214],[-0.0333586,42.6930228],[-0.0339031,42.6930228]]},"properties":{"natural":"cliff"}},
{"type":"Feature","geometry":{"type":"LineString","coordinates":[[-0.0041051,42.6917948],[-0.0041789,42.6915186],[-0.0043613,42.6913195],[-0.0045034,42.6911105],[-0.0045276,42.6909134],[-0.0045732,42.6906787],[-0.0045678,42.69059],[-0.0047314,42.6905526],[-0.0048307,42.6904481],[-0.0048978,42.6903548],[-0.0050855,42.6902312],[-0.0053322,42.6901721],[-0.005587,42.6897344],[-0.006329,42.6897053],[-0.0068074,42.6895944],[-0.0067753,42.6894564],[-0.0070757,42.6893184],[-0.0073975,42.6891035],[-0.0080359,42.6887802],[-0.0087279,42.6889142],[-0.0090846,42.6888768],[-0.0096323,42.6888939],[-0.0098464,42.6889675],[-0.0102997,42.6890148],[-0.0107959,42.6890266],[-0.0120116,42.6890593],[-0.0123704,42.6890956],[-0.0127593,42.6893381],[-0.012998,42.6894584],[-0.0132655,42.6895647],[-0.0136283,42.68976],[-0.013977,42.6898961],[-0.0145939,42.6899789],[-0.0150552,42.6900045],[-0.0153556,42.6900144],[-0.0157902,42.6900321]]},"properties":{"natural":"cliff"}},
{"type":"Feature","geometry":{"type":"LineString","coordinates":[[0.0333479,42.6781554],[0.0329869,42.6782597],[0.0326646,42.6783829],[0.0324583,42.6784966],[0.0322907,42.6785819],[0.0320587,42.6786104],[0.0319297,42.678781],[0.0317976,42.678826],[0.0316945,42.6789089],[0.0317428,42.6790155],[0.0318459,42.6791719],[0.0319104,42.6793307],[0.0318975,42.6794989],[0.0319652,42.6797122],[0.0320716,42.6798212],[0.0322682,42.6798354],[0.032439,42.6798188],[0.0326775,42.6797406],[0.0328677,42.6796814],[0.0330256,42.6796387],[0.0331255,42.6796008],[0.0332576,42.6795866],[0.033393,42.679551],[0.0335155,42.6795155],[0.033638,42.6794539],[0.0337282,42.6793686],[0.0338604,42.6793615],[0.0339538,42.6792762],[0.0340666,42.679243],[0.0341988,42.6792193],[0.0343374,42.6791861],[0.0344244,42.6791089],[0.0345793,42.6790184],[0.034707,42.6789447],[0.0348574,42.6788777],[0.0350169,42.6787939],[0.0351992,42.6787403],[0.035431699999999999,42.6786666],[0.0355776,42.6785929],[0.0357599,42.6785191],[0.0358556,42.6784253],[0.0359513,42.6783683],[0.0360835,42.678375],[0.0361929,42.6784119],[0.0362978,42.678499],[0.0364755,42.6785258],[0.0366396,42.6785526],[0.0367718,42.6785158],[0.0368174,42.678432],[0.0368903,42.6783348],[0.0369769,42.6782477],[0.0371091,42.6781438],[0.0372094,42.6780701],[0.037378,42.6779964],[0.0374874,42.6779595],[0.0375239,42.6778891],[0.037615,42.6778255],[0.0377199,42.6777115],[0.0377336,42.6776445],[0.0376561,42.6776177],[0.0375695,42.6775742],[0.037492,42.6775239],[0.0374008,42.6774435],[0.0372458,42.6773865],[0.0371045,42.6773496],[0.036945,42.6773429],[0.036749,42.6773731],[0.036594,42.6774234],[0.0364527,42.6774368],[0.0362431,42.6774636],[0.03612,42.6775138],[0.0359513,42.6775406],[0.0358966,42.6774937],[0.0358009,42.6774669],[0.0356961,42.6774669],[0.0354819,42.6775272],[0.0352266,42.6775842],[0.0350716,42.6776412],[0.0349166,42.6777115],[0.0346979,42.6777886],[0.0344335,42.6778322],[0.0341874,42.6778925],[0.0338911,42.6779763],[0.0337088,42.6780299],[0.0335447,42.6780768],[0.0333479,42.6781554]]},"properties":{"description":"El macizo del Monte Perdido está formado por materiales del Cretácico Superior y del Paleógeno intensamente plegados por la Orogenia Alpina. En su cara noreste se encuentra el complejo glaciar sobre un relieve en graderío...","glacier:type":"mountain","name":"Glaciar Monte Perdido","name:fr":"Glacier du Mont Perdu","natural":"glacier","source":"Instituto Geográfico y Minero de España;Instituto Geográfico Nacional","website":"http://info.igme.es/ielig/LIGInfo.aspx?codigo=ARA026"}},
{"type":"Feature","geometry":{"type":"LineString","coordinates":[[-0.0162564,42.6949462],[-0.0166552,42.6951324]]},"properties":{"natural":"cliff"}},
{"type":"Feature","geometry":{"type":"LineString","coordinates":[[-0.0168616,42.6948256],[-0.01757,42.6948221],[-0.0183534,42.6950462]]},"properties":{"natural":"cliff"}},
{"type":"Feature","geometry":{"type":"LineString","coordinates":[[0.0623345,42.6982635],[0.0624982,42.6982181],[0.0626966,42.6981097],[0.0627074,42.6980683],[0.0629917,42.6980072],[0.0630775,42.6980238],[0.0631499,42.6980932],[0.0633967,42.6980131],[0.0635523,42.6978712],[0.0637186,42.6978712],[0.0638393,42.6977391],[0.0638473,42.6974572],[0.06396,42.6972049],[0.0640404,42.6970314],[0.064019,42.6969092],[0.0641343,42.6968383],[0.06416379999999999,42.6967022],[0.0641611,42.6966766],[0.0641826,42.6965938],[0.0642335,42.6965524],[0.0642899,42.6963789],[0.0642818,42.6962922],[0.0641316,42.6962193],[0.0641424,42.6961266],[0.0642201,42.6960517],[0.0641987,42.695965],[0.0643301,42.6958132],[0.0645796,42.695622],[0.0648129,42.6954327],[0.0650945,42.6951745],[0.0653091,42.6949202]]},"properties":{"natural":"cliff"}},
{"type":"Feature","geometry":{"type":"LineString","coordinates":[[0.060802,42.6985258],[0.0612413,42.6986677],[0.0616007,42.6987711],[0.0619881,42.6988995],[0.0622874,42.6989111],[0.0623551,42.6989137],[0.062862,42.6988604],[0.0631179,42.698605],[0.0635717,42.6983921],[0.0639676,42.6980727],[0.0642476,42.6976966],[0.0645808,42.6968663],[0.0644891,42.696625],[0.0643973,42.6963163],[0.0645277,42.6959969],[0.0647015,42.6956918],[0.0654402,42.6949643],[0.0654402,42.6948188],[0.0652905,42.6947763],[0.0650974,42.6949537],[0.0649525,42.6951205],[0.0644794,42.6955072],[0.0641028,42.6958834],[0.0640111,42.6961744],[0.0641076,42.6963731],[0.0640835,42.6965008],[0.0640014,42.6966605],[0.0638518,42.6971111],[0.0636731,42.6976292],[0.0635717,42.6977711],[0.0633062,42.6978634],[0.0630406,42.6979485],[0.0627123,42.6979805],[0.0620316,42.6982253],[0.0616984,42.6982892],[0.0615874,42.6981756],[0.0614715,42.6981543],[0.0612446,42.698353],[0.0608503,42.6983803],[0.060802,42.6985258]]},"properties":{"natural":"bare_rock"}},
{"type":"Feature","geometry":{"type":"LineString","coordinates":[[0.0714549,42.6941302],[0.072266,42.6936405],[0.0727971,42.6930798],[0.0730095,42.6926327],[0.0732702,42.6923772],[0.0736372,42.692363],[0.0740331,42.6923204],[0.0741779,42.6920649],[0.0741296,42.6914829],[0.0741006,42.6908725],[0.0745311,42.6900005],[0.0747882,42.6898989],[0.0750564,42.6898286],[0.0753753,42.6901202],[0.075327,42.6905673],[0.0752883,42.6909222],[0.0754042,42.6909577],[0.0756553,42.6911777],[0.075327,42.6917668],[0.0753173,42.6921856],[0.0753849,42.6926966],[0.0751725,42.6929662],[0.0747573,42.6935198],[0.0744772,42.6940379],[0.0740524,42.694556],[0.0736082,42.6952231],[0.0737241,42.6955922],[0.0739462,42.6957341],[0.0742069,42.6958902],[0.0742938,42.6961457],[0.0739172,42.6965786],[0.0732895,42.6968554],[0.0721018,42.6974302],[0.0715032,42.6980263],[0.0711652,42.6984025],[0.0709045,42.6984876],[0.0707307,42.6978986],[0.0707886,42.697558],[0.0711652,42.6971038],[0.0714935,42.6964367],[0.0711362,42.6959612],[0.0712328,42.6956631],[0.0714066,42.6953651],[0.0713583,42.6949392],[0.0713197,42.6945915],[0.0713197,42.694336],[0.0714549,42.6941302]]},"properties":{"natural":"bare_rock"}},
{"type":"Feature","geometry":{"type":"LineString","coordinates":[[-0.0109431,42.6853449],[-0.009773,42.685602],[-0.009345,42.685718],[-0.0093845,42.6858043],[-0.0095744,42.6859323],[-0.0099304,42.6859904],[-0.0103418,42.6859497],[-0.0106515,42.6858718],[-0.0110102,42.6857118],[-0.0111696,42.6855613],[-0.0112739,42.6854417],[-0.0112987,42.6853564],[-0.0109431,42.6853449]]},"properties":{"natural":"glacier"}},
{"type":"Feature","geometry":{"type":"LineString","coordinates":[[0.0314527,42.6874818],[0.0314613,42.6877774],[0.0310586,42.6881228],[0.0303537,42.6883448],[0.0297271,42.6882626],[0.0293579,42.6879419],[0.0288433,42.6874484],[0.0285635,42.6870866],[0.0292572,42.6867411],[0.0297831,42.6865026],[0.0301101,42.6863962],[0.0302332,42.6865936],[0.030815,42.6869308],[0.0314527,42.6874818]]},"properties":{"natural":"glacier"}},
{"type":"Feature","geometry":{"type":"LineString","coordinates":[[-0.0047485,42.688177],[-0.004701,42.6884213],[-0.0046377,42.6886597],[-0.0046852,42.688933],[-0.0053616,42.68909],[-0.0055238,42.6889853],[-0.0060697,42.6887295],[-0.0066709,42.6883747],[-0.0067738,42.6881479],[-0.0065681,42.6879153],[-0.00622,42.6879735],[-0.0059906,42.6880549],[-0.0052311,42.6880433],[-0.0049067,42.6880665],[-0.0047485,42.688177]]},"properties":{"natural":"glacier"}},
{"type":"Feature","geometry":{"type":"LineString","coordinates":[[0.0295507,42.6947022],[0.0280179,42.6954916],[0.0251648,42.6963221],[0.0237215,42.6969142],[0.0227369,42.6976625],[0.0220768,42.6981887],[0.0210251,42.6983203],[0.018877,42.6985752],[0.0181721,42.6989534],[0.0179259,42.699381],[0.0168631,42.7001457],[0.0158002,42.700746],[0.0153862,42.7009515],[0.0152855,42.7007295],[0.0156883,42.700121],[0.0160575,42.6994221],[0.0164826,42.6985752],[0.0165498,42.6979914],[0.0166505,42.6975145],[0.0173889,42.6973007],[0.0177805,42.6971362],[0.0177693,42.6968649],[0.0172882,42.6964866],[0.0168854,42.6963221],[0.0165945,42.6961248],[0.0168519,42.6955821],[0.0172323,42.6948667],[0.0175344,42.6945788],[0.0180266,42.694674],[0.0181721,42.6947022],[0.0185077,42.6946035],[0.0186532,42.6944308],[0.0195594,42.6941266],[0.0200853,42.6937976],[0.0200965,42.6935674],[0.0199958,42.6932631],[0.0201748,42.6928684],[0.0206559,42.6927368],[0.0209468,42.6928355],[0.021193,42.6929671],[0.0223342,42.6927039],[0.0227034,42.6924737],[0.0234194,42.6923997],[0.0240012,42.6922928],[0.0240796,42.6920707],[0.0236208,42.6918569],[0.0236208,42.6916842],[0.0242252,42.6914843],[0.0251984,42.6912401],[0.0256683,42.6914211],[0.0265969,42.6916842],[0.0274137,42.6917747],[0.0294947,42.691528],[0.0301325,42.691347],[0.0301548,42.6911003],[0.0297744,42.6908783],[0.0297073,42.6904342],[0.0300318,42.6899655],[0.0301996,42.6893487],[0.0305241,42.6889046],[0.0309492,42.6888306],[0.0317436,42.6889457],[0.032661,42.6890197],[0.0331645,42.6889704],[0.0335113,42.6888059],[0.0337127,42.6885345],[0.0335673,42.6882138],[0.0328289,42.6878437],[0.0318778,42.6877285],[0.0314527,42.6874818],[0.030815,42.6869308],[0.0302332,42.6865936],[0.0301101,42.6863962],[0.0313744,42.6858452],[0.0328512,42.6851379],[0.0352791,42.6842661],[0.0368231,42.6835834],[0.0383671,42.6830406],[0.0390048,42.6830982],[0.0394412,42.6832627],[0.0397545,42.6836821],[0.0400677,42.6842003],[0.0406272,42.6846197],[0.0413096,42.6848911],[0.0420928,42.6850803],[0.0429208,42.6851461],[0.0432676,42.6850063],[0.0432564,42.6847267],[0.0428313,42.6843319],[0.0423949,42.683896],[0.0417124,42.6837562],[0.0412649,42.6835752],[0.0412873,42.6832873],[0.041666,42.6830504],[0.0418131,42.6829584],[0.0424173,42.6828103],[0.0439613,42.6824731],[0.0447892,42.6826129],[0.0462213,42.6827939],[0.0476199,42.6827445],[0.0484254,42.6827281],[0.0491079,42.6828185],[0.0492981,42.68309],[0.0490968,42.6838384],[0.0488506,42.6845786],[0.0487275,42.6858123],[0.0486828,42.6865278],[0.0484366,42.6873009],[0.0477318,42.6882549],[0.0474856,42.6887154],[0.046915,42.6890608],[0.0454941,42.6896858],[0.0448986,42.6897717],[0.0443137,42.6897681],[0.0433012,42.6902944],[0.0428175,42.6905077],[0.0426329,42.690409],[0.0422271,42.6901875],[0.0410411,42.6898997],[0.0406719,42.6896283],[0.0403952,42.689673],[0.0402834,42.6896113],[0.0403169,42.6894921],[0.040767,42.6893445],[0.0414271,42.6889786],[0.0417684,42.6887113],[0.041777,42.6885463],[0.0414887,42.688222],[0.0410274,42.6881146],[0.0406048,42.6881315],[0.0402442,42.6882462],[0.039844,42.6884522],[0.0396482,42.6888881],[0.0389937,42.6893939],[0.0384902,42.6898421],[0.0375056,42.6903849],[0.0368455,42.690722],[0.0366777,42.6912566],[0.0364539,42.691602],[0.0360175,42.6918733],[0.0344624,42.6924161],[0.0332205,42.6930493],[0.0313856,42.6936414],[0.0302779,42.6941266],[0.0295507,42.6947022]]},"properties":{"natural":"scree"}},
{"type":"Feature","geometry":{"type":"LineString","coordinates":[[-0.0224863,42.6883696],[-0.0226429,42.6882914],[-0.0229841,42.6882298],[-0.0232583,42.6881722],[-0.0232583,42.6880961],[-0.0229534,42.6880015],[-0.022338,42.6878021],[-0.0220883,42.6877675],[-0.021924,42.6877178],[-0.0216024,42.6877487],[-0.0212919,42.6877857],[-0.0212276,42.687833],[-0.0212499,42.6878967],[-0.0213618,42.6879029],[-0.021566,42.6878782],[-0.0216863,42.6879173],[-0.0217506,42.6880858],[-0.0218569,42.6882914],[-0.0220471,42.6883799],[-0.0222541,42.6883819],[-0.0224863,42.6883696]]},"properties":{"natural":"glacier"}},
{"type":"Feature","geometry":{"type":"LineString","coordinates":[[0.0000755,42.6861693],[0.0000202,42.68646],[-0.0002251,42.6865909],[-0.0004308,42.6867188],[-0.0003991,42.6868468],[-0.0001855,42.6869747],[0.0000993,42.6869631],[0.0001824,42.6869892],[0.0000993,42.6871404],[0.000127,42.6872626],[0.0003327,42.6873178],[0.000839,42.6873149],[0.0010368,42.6872393],[0.0011515,42.6870765],[0.00146,42.6869194],[0.0016064,42.6868206],[0.0015589,42.6866665],[0.0014086,42.6864687],[0.0011673,42.6863088],[0.0007045,42.6862158],[0.0002615,42.686146],[0.0000755,42.6861693]]},"properties":{"name":"Glacier de l'Épaule","natural":"glacier"}},
{"type":"Feature","geometry":{"type":"LineString","coordinates":[[0.0111726,42.699195],[0.0121259,42.6986068],[0.0125846,42.6974967],[0.0130881,42.6965757],[0.0131776,42.696181],[0.0129538,42.6957863],[0.0119804,42.6958521],[0.0113994,42.6961494],[0.0101791,42.6961399],[0.0096085,42.6960166],[0.0092281,42.6956794],[0.0091386,42.6952683],[0.008926,42.6948736],[0.0087246,42.6947256],[0.0084001,42.6947913],[0.0082323,42.695293],[0.0081504,42.6959622],[0.0082183,42.6968748],[0.0096559,42.6966343],[0.0109059,42.6968867],[0.0113189,42.6979196],[0.0114047,42.6986174],[0.0111726,42.699195]]},"properties":{"name":"Glacier Ouest du Marboré","natural":"glacier"}},
{"type":"Feature","geometry":{"type":"LineString","coordinates":[[-0.0079073,42.685255],[-0.0073694,42.6853567],[-0.0067839,42.6854178],[-0.0062103,42.6854323],[-0.0055576,42.685473],[-0.0048338,42.6855399],[-0.0043828,42.6856301],[-0.0042641,42.6857376],[-0.0044065,42.6859441],[-0.004719,42.6859732],[-0.0054667,42.6858423],[-0.0056526,42.6858889],[-0.005886,42.6860313],[-0.0061985,42.6860749],[-0.0067997,42.686043],[-0.0073179,42.685915],[-0.0076067,42.6858074],[-0.0078717,42.6856766],[-0.0081288,42.6854003],[-0.0082752,42.6852346],[-0.0084216,42.685127],[-0.0086391,42.6850776],[-0.0087499,42.685002],[-0.0087499,42.6849351],[-0.0084888,42.6849293],[-0.0081526,42.6850572],[-0.0079073,42.685255]]},"properties":{"natural":"scree"}},
{"type":"Feature","geometry":{"type":"LineString","coordinates":[[-0.0045608,42.6862203],[-0.0035205,42.6861331],[-0.0033504,42.6862843],[-0.0031645,42.6865693],[-0.002757,42.6869502],[-0.0025395,42.6872642],[-0.0024445,42.6874765],[-0.0024801,42.6876131],[-0.0027016,42.6877294],[-0.0028045,42.6876218],[-0.0033464,42.6876771],[-0.0034137,42.687491],[-0.0035679,42.6873195],[-0.0039635,42.6872061],[-0.0041692,42.6870432],[-0.0041415,42.686924],[-0.0040743,42.6868397],[-0.0041534,42.6867146],[-0.0043907,42.6866536],[-0.0046043,42.686671],[-0.0048456,42.6866856],[-0.0051265,42.6866303],[-0.0052452,42.6865693],[-0.0052175,42.6865024],[-0.0049841,42.6864791],[-0.0047546,42.6864384],[-0.0046993,42.6863832],[-0.0045608,42.6862203]]},"properties":{"natural":"scree"}},
{"type":"Feature","geometry":{"type":"LineString","coordinates":[[-0.0155349,42.6872331],[-0.0154891,42.6871534],[-0.0154333,42.6870637],[-0.0154365,42.686915],[-0.015576,42.68684],[-0.015812,42.6868479],[-0.0166951,42.6872221],[-0.0170137,42.6871476],[-0.0164472,42.6868389],[-0.0161258,42.6866407],[-0.0159032,42.6865561],[-0.0156511,42.6865246],[-0.0154419,42.686631],[-0.0150975,42.6865942],[-0.0141689,42.6864626],[-0.01352,42.686405],[-0.0128487,42.6864297],[-0.012588,42.6865837],[-0.0123701,42.6867739],[-0.0119524,42.6869957],[-0.0109708,42.6870702],[-0.0104205,42.6870718],[-0.0098735,42.6871372],[-0.0095089,42.6871305],[-0.0091763,42.6874598],[-0.0089829,42.6876802],[-0.0087496,42.6880345],[-0.0087364,42.6881728],[-0.0088812,42.6882871],[-0.0095242,42.6881837],[-0.0101507,42.6879864],[-0.0106206,42.6878219],[-0.011415,42.6878178],[-0.012215,42.6879206],[-0.012752,42.6880275],[-0.0134401,42.688229],[-0.0140331,42.6884263],[-0.0147156,42.688488],[-0.0150848,42.6884099],[-0.0152806,42.6883441],[-0.015558,42.6882817],[-0.0159989,42.6879806],[-0.0158146,42.6875284],[-0.0155349,42.6872331]]},"properties":{"natural":"scree"}},
{"type":"Feature","geometry":{"type":"LineString","coordinates":[[-0.0228639,42.6887068],[-0.0227632,42.6885937],[-0.0228303,42.6885114],[-0.0230708,42.6884744],[-0.0232051,42.6884148],[-0.0234317,42.6883922],[-0.0235687,42.6884292],[-0.0235771,42.6885361],[-0.0236918,42.6886903],[-0.0239715,42.6887438],[-0.024419,42.6886944],[-0.0248498,42.6886266],[-0.0253281,42.6886245],[-0.0256945,42.6886841],[-0.0262204,42.688824],[-0.02657,42.6888301],[-0.0270455,42.6889391],[-0.0273476,42.6890213],[-0.0279704,42.6892091],[-0.0280258,42.6893022],[-0.0278438,42.6894243],[-0.0275709,42.689529],[-0.0272109,42.6895929],[-0.0267639,42.6896046],[-0.0262853,42.6895639],[-0.0259174,42.6894592],[-0.0258304,42.6893545],[-0.0255851,42.6892208],[-0.0252924,42.6891597],[-0.0248454,42.6890027],[-0.023904,42.6888399],[-0.0234728,42.6887701],[-0.0230575,42.6887439],[-0.0228639,42.6887068]]},"properties":{"natural":"glacier"}},
{"type":"Feature","geometry":{"type":"LineString","coordinates":[[0.0371187,42.6919335],[0.0371384,42.6918535],[0.0371384,42.6918027],[0.0371108,42.6917532],[0.037089,42.691714],[0.0370989,42.6916805],[0.0371088,42.6916558],[0.0371028,42.6916282],[0.0370949,42.6915991],[0.0370989,42.6915075],[0.0371167,42.6914407],[0.037085,42.6914131],[0.0370415,42.6914014],[0.0369921,42.6914072],[0.0369466,42.6914857],[0.0369011,42.6915046],[0.0367884,42.6915366],[0.0367033,42.6915773],[0.0366963,42.6915896],[0.0366875,42.6916049],[0.0367191,42.6916718],[0.0367211,42.6917271],[0.0366914,42.6917561],[0.036638,42.6917823],[0.0366301,42.6918128],[0.0366816,42.6918419],[0.036729,42.6918346],[0.0367725,42.6917896],[0.0368042,42.6917736],[0.0368378,42.6917808],[0.0368457,42.691807],[0.0369466,42.6917779],[0.0370119,42.6917838],[0.0370653,42.6918434],[0.0371187,42.6919335]]},"properties":{"natural":"water"}},
{"type":"Feature","geometry":{"type":"LineString","coordinates":[[-0.0053616,42.68909],[-0.0045914,42.6893979],[-0.0035655,42.6896702],[-0.0031962,42.6901225],[-0.002469,42.6915534],[-0.0021333,42.6920057],[-0.0016858,42.6924416],[-0.0013613,42.6926554],[-0.0011711,42.6930994],[-0.00069,42.6932063],[0.0005407,42.6930994],[0.0018721,42.6930172],[0.0020735,42.6930337],[0.0030357,42.6930419],[0.0035056,42.6929432],[0.0038301,42.6927787],[0.0038748,42.6925978],[0.0035727,42.6923264],[0.0026888,42.6918495],[0.0018833,42.6912738],[0.001749,42.6909778],[0.0009435,42.6911258],[-0.0003432,42.6912574],[-0.0006565,42.6912491],[-0.0008243,42.6909038],[-0.0004551,42.6902541],[-0.0002425,42.6897524],[-0.0005558,42.6890452],[-0.0009026,42.6881734],[-0.0010257,42.6875895],[-0.0011488,42.6870714],[-0.0013278,42.6867918],[-0.0015219,42.6867164],[-0.0018105,42.6867665],[-0.0020103,42.6868905],[-0.0021222,42.6873428],[-0.0020662,42.6879925],[-0.0019655,42.6884448],[-0.0022564,42.6887491],[-0.0026928,42.6887491],[-0.0047485,42.688177],[-0.004701,42.6884213],[-0.0046377,42.6886597],[-0.0046852,42.688933],[-0.0053616,42.68909]]},"properties":{"natural":"scree"}},
{"type":"Feature","geometry":{"type":"LineString","coordinates":[[-0.0214955,42.6938176],[-0.0211348,42.6938648],[-0.0205848,42.6940671],[-0.020137,42.694194],[-0.0195983,42.6944249],[-0.0190887,42.694279],[-0.0189408,42.6941625],[-0.0189025,42.6938665],[-0.0189408,42.6935908],[-0.0186045,42.6934257],[-0.0178325,42.6934421],[-0.0169747,42.6937465],[-0.0168996,42.6936834],[-0.0166743,42.6936637],[-0.0169047,42.6931748],[-0.0168862,42.6930427],[-0.0164772,42.692951],[-0.0158969,42.6926527],[-0.0152993,42.6923269],[-0.0149211,42.6925457],[-0.0148514,42.6923466],[-0.01472,42.6922993],[-0.0146662,42.6921181],[-0.0141515,42.6920852],[-0.0137711,42.6921428],[-0.013407,42.6924786],[-0.0127996,42.6935105],[-0.0122003,42.6933828],[-0.0124509,42.693072],[-0.0128872,42.6926115],[-0.013055,42.6923237],[-0.0130662,42.692077],[-0.0128201,42.6920606],[-0.012104,42.6924553],[-0.0112762,42.6931103],[-0.0108959,42.6929277],[-0.0101285,42.692584600000007],[-0.0092029,42.6922881],[-0.0089181,42.6922474],[-0.0080716,42.6922125],[-0.0069403,42.6922241],[-0.0066871,42.6920729],[-0.0066396,42.6918694],[-0.0067029,42.691538],[-0.0068058,42.6912298],[-0.0073042,42.6906541],[-0.0079371,42.6902703],[-0.0086728,42.6900319],[-0.0095285,42.6897398],[-0.0099409,42.6897233],[-0.0105919,42.6897735],[-0.0109751,42.6893825],[-0.0118721,42.6893894],[-0.0124307,42.6894329],[-0.0126926,42.6896766],[-0.0125848,42.6900986],[-0.0139702,42.6903804],[-0.0142107,42.6901182],[-0.0147488,42.6901365],[-0.0152311,42.690204],[-0.0160646,42.6903088],[-0.0166,42.6903866],[-0.0172804,42.6905668],[-0.0183247,42.6910611],[-0.0187282,42.6912414],[-0.0194244,42.6913344],[-0.0197488,42.6914217],[-0.0200731,42.6916601],[-0.0204321,42.6922679],[-0.0205953,42.6923462],[-0.0210168,42.6925085],[-0.021226,42.6927371],[-0.0212046,42.6930526],[-0.0212577,42.6934764],[-0.0214955,42.6938176]]},"properties":{"natural":"scree"}},
{"type":"Feature","geometry":{"type":"LineString","coordinates":[[0.0180266,42.694674],[0.0175344,42.6945788],[0.0173309,42.6944099],[0.0172973,42.693933],[0.0173197,42.6933409],[0.017577,42.6928722],[0.0185504,42.6925926],[0.0193,42.692609],[0.0201503,42.6925103],[0.0213139,42.692239],[0.0220971,42.6919018],[0.022567,42.6915317],[0.0230258,42.6915071],[0.0227908,42.691211],[0.024111,42.6904544],[0.0240887,42.6901255],[0.024346,42.6897554],[0.0247935,42.6893689],[0.0249278,42.6890564],[0.0247264,42.6888426],[0.0249166,42.6886287],[0.025476,42.6885547],[0.0257557,42.6885876],[0.0261361,42.6887356],[0.0259571,42.6890153],[0.0253641,42.6896403],[0.0252634,42.6899363],[0.0255096,42.6900268],[0.0258117,42.6899857],[0.0259459,42.6897061],[0.0260242,42.6893278],[0.0263823,42.6889906],[0.0268074,42.6889001],[0.0272102,42.6888508],[0.0275794,42.6885794],[0.0282507,42.6883656],[0.0285416,42.6884807],[0.0287318,42.6883573],[0.0290115,42.6884231],[0.0290787,42.6885383],[0.0287878,42.6886698],[0.0282172,42.6887685],[0.0279375,42.6889248],[0.0278703,42.6891962],[0.02815,42.6894676],[0.0265837,42.6901501],[0.0252187,42.6907916],[0.0245698,42.6910712],[0.0243796,42.6912932],[0.0242252,42.6914843],[0.0236208,42.6916842],[0.0236208,42.6918569],[0.0240796,42.6920707],[0.0240012,42.6922928],[0.0234194,42.6923997],[0.0227034,42.6924737],[0.0223342,42.6927039],[0.021193,42.6929671],[0.0209468,42.6928355],[0.0206559,42.6927368],[0.0201748,42.6928684],[0.0199958,42.6932631],[0.0200965,42.6935674],[0.0200853,42.6937976],[0.0195594,42.6941266],[0.0186532,42.6944308],[0.0185077,42.6946035],[0.0181721,42.6947022],[0.0180266,42.694674]]},"properties":{"name:fr":"Glacier du Marboré","natural":"glacier"}},
{"type":"Feature","geometry":{"type":"LineString","coordinates":[[-0.0004664,42.6859773],[-0.0005771,42.6863001],[-0.0006325,42.6864484],[-0.0007195,42.6864717],[-0.0008422,42.6863786],[-0.0009371,42.6861169],[-0.000945,42.6859948],[-0.00068,42.6859541],[-0.0004664,42.6859773]]},"properties":{"natural":"glacier"}},
{"type":"Feature","geometry":{"type":"LineString","coordinates":[[-0.0193385,42.7062351],[-0.0217125,42.7049428],[-0.0224769,42.7046412],[-0.0229624,42.7046097],[-0.0232601,42.7042352],[-0.0250948,42.7026308],[-0.0253791,42.7018679],[-0.0255239,42.701454],[-0.025604,42.7012205],[-0.0256553,42.7009021],[-0.025886,42.7004053],[-0.0261703,42.700153],[-0.0276265,42.6997975],[-0.028072,42.6998041],[-0.0287345,42.6998987],[-0.03003,42.7002279],[-0.0303009,42.7001668],[-0.0304404,42.6999224],[-0.0312504,42.6991457],[-0.0315186,42.699061],[-0.0326653,42.6985741],[-0.0344825,42.6977619],[-0.0348005,42.6970968],[-0.0350455,42.6965843],[-0.0359253,42.6954173],[-0.0373415,42.6946287],[-0.0373844,42.6943133],[-0.0387678,42.6932407],[-0.0389508,42.6930989],[-0.0387982,42.6917752],[-0.036848,42.6915607],[-0.0358177,42.6913602],[-0.0355171,42.6913134],[-0.0343826,42.6911222],[-0.033938,42.69106],[-0.0334315,42.691036],[-0.0329294,42.6910264],[-0.031778,42.6908806],[-0.0308061,42.6902334],[-0.0297935,42.689869],[-0.0290117,42.6894175],[-0.0277477,42.6887693],[-0.026852,42.6881218],[-0.0248632,42.6880913],[-0.0234568,42.6878156],[-0.0222973,42.6875513],[-0.0213098,42.6874536],[-0.019595,42.6868079],[-0.0184428,42.6863636],[-0.0174755,42.6860418],[-0.0166627,42.6852031],[-0.0159803,42.6851192],[-0.0154216,42.6853381],[-0.0145465,42.6851944],[-0.0137965,42.6852461],[-0.0129671,42.6852093],[-0.0114065,42.684999],[-0.0099546,42.6847605],[-0.0087856,42.6847297],[-0.0077293,42.6850712],[-0.0073153,42.6851283],[-0.00673,42.6851152],[-0.0053888,42.6850539],[-0.0039367,42.6850436],[-0.0028905,42.6850522],[-0.0019885,42.685179],[-0.0012556,42.6855905],[0.0002578,42.6853439],[0.0009196,42.6854796],[0.0017359,42.6858061],[0.0022767,42.6861867],[0.0025848,42.6868957],[0.0030952,42.6872213],[0.0038846,42.6871026],[0.0043153,42.6872024],[0.004753,42.6874362],[0.0048126,42.6878267],[0.0043534,42.6882917],[0.0047623,42.68903],[0.0060862,42.6889844],[0.006371,42.6889903],[0.0078017,42.6901226],[0.0084635,42.6902238],[0.0095241,42.6904556],[0.0105274,42.6909675],[0.0111406,42.6913959],[0.0113026,42.6918253],[0.0113762,42.6923868],[0.0115224,42.692771],[0.0117431,42.6930147],[0.0125217,42.6935781],[0.0131855,42.6938402],[0.0144159,42.6940293],[0.0150533,42.6952626],[0.0151186,42.6960591],[0.0152727,42.6969629],[0.0151578,42.697838],[0.0152918,42.6998055],[0.0150081,42.7002409],[0.0144777,42.7007528],[0.0134102,42.7008618],[0.0132539,42.7010718],[0.0128334,42.7016365],[0.0135169,42.7020272],[0.0112328,42.7065703],[0.0024365,42.7064739],[-0.0193385,42.7062351]]},"properties":{"image":"http://upload.wikimedia.org/wikipedia/commons/9/90/Gavarnie-Cirque.JPG","name":"Cirque de Gavarnie","name:es":"Circo de Gavarnie","name:fr":"Cirque de Gavarnie","name:it":"Circo de Gavarnie","natural":"cirque","place":"locality","tourism":"attraction","wheelchair":"limited","wikidata":"Q1093112","wikipedia":"fr:Cirque de Gavarnie"}},
{"type":"Feature","geometry":{"type":"LineString","coordinates":[[-0.001524,42.6846686],[-0.001133,42.6845637],[-0.0010151,42.6844223],[-0.0007421,42.6842626],[-0.0004194,42.6842398],[-0.0001526,42.6842398],[0.0000274,42.6841577],[0.0000584,42.6840345],[-0.0000967,42.6838794],[-0.0003511,42.6837882],[-0.0006862,42.6838064],[-0.0010958,42.6837471],[-0.0012633,42.6837973],[-0.0014061,42.6838703],[-0.0017474,42.6839068],[-0.0022252,42.6839935],[-0.0025231,42.6840938],[-0.0025851,42.6842261],[-0.0025479,42.6844542],[-0.002399,42.684623],[-0.0021135,42.684664],[-0.0017722,42.6846047],[-0.0016233,42.6846002],[-0.001524,42.6846686]]},"properties":{"natural":"glacier"}},
{"type":"Feature","geometry":{"type":"LineString","coordinates":[[-0.0193413,42.6855443],[-0.0195729,42.6856648],[-0.0196024,42.6856412],[-0.0196065,42.6855338],[-0.0195971,42.6853572],[-0.019479,42.6851621],[-0.019361,42.6850694],[-0.0186368,42.6847677],[-0.018382,42.6847283],[-0.0183069,42.6845962],[-0.0176873,42.6843261],[-0.0171992,42.684192],[-0.0166895,42.6841368],[-0.0161263,42.6841249],[-0.015842,42.6840658],[-0.0155094,42.6840461],[-0.0149247,42.6840697],[-0.0138571,42.684054],[-0.0134924,42.6839988],[-0.0129935,42.6839041],[-0.0126394,42.6838331],[-0.0123731,42.6836775],[-0.0114936,42.6834495],[-0.0103702,42.6832173],[-0.0095277,42.6831399],[-0.0088257,42.6831399],[-0.0080885,42.6831528],[-0.007325,42.6831334],[-0.0069388,42.6830883],[-0.0067984,42.6830818],[-0.0056136,42.6829012],[-0.0046922,42.6827141],[-0.0041393,42.6825012],[-0.0034986,42.6822173],[-0.0027439,42.6818109],[-0.0023227,42.6815722],[-0.0019277,42.6812367],[-0.0007342,42.6807141],[-0.0001111,42.6804238],[0.0005646,42.6801206],[0.0015914,42.6798044],[0.0022057,42.6797399],[0.003136,42.6797077],[0.0037328,42.6796754],[0.0044875,42.6796044],[0.0049,42.6796431],[0.0051545,42.6797399],[0.0058609,42.679695100000007],[0.0063802,42.67966],[0.0070501,42.6794238],[0.0075152,42.6792689],[0.0077697,42.6791399],[0.0089281,42.6785463],[0.0097619,42.678185],[0.0107009,42.6778818],[0.0114117,42.6776495],[0.0119822,42.6775076],[0.0120173,42.6774302],[0.0117628,42.6773721],[0.0109729,42.6775398],[0.009797,42.6778108],[0.0093845,42.6780689],[0.0088755,42.6784754],[0.007796,42.6788754],[0.0069623,42.6791076],[0.005839,42.6793206],[0.0050843,42.6793722],[0.004391,42.6793593],[0.0036011,42.6793593],[0.0026972,42.6793593],[0.0017582,42.6793464],[0.0007138,42.6794496],[-0.000427,42.6796109],[-0.0012081,42.6797786],[-0.0015591,42.6800109],[-0.0021296,42.6807593],[-0.002779,42.681056],[-0.0034284,42.6813528],[-0.0044728,42.6816367],[-0.0045167,42.681856],[-0.0045605,42.6822431],[-0.0049379,42.6824496],[-0.0055785,42.6825657],[-0.0061841,42.6826367],[-0.0070514,42.6827384],[-0.0075137,42.6826501],[-0.008145,42.6826366],[-0.008677,42.6826398],[-0.0098905,42.6826452],[-0.0111396,42.6829441],[-0.012082,42.6831406],[-0.0125677,42.6833789],[-0.0131383,42.6835295],[-0.0140181,42.6836478],[-0.0152197,42.6837424],[-0.0162818,42.6838134],[-0.0166895,42.6838844],[-0.0172582,42.6840895],[-0.0176551,42.6841368],[-0.0180092,42.6842709],[-0.0184142,42.6845607],[-0.0189158,42.6847125],[-0.0194139,42.6849247],[-0.0198932,42.6851928],[-0.0200559,42.6853373],[-0.0205773,42.6856299],[-0.0210696,42.6859835],[-0.0215513,42.6863129],[-0.0220779,42.6864035],[-0.0223669,42.6863689],[-0.0227961,42.6864813],[-0.0237134,42.6862467],[-0.0241318,42.6862289],[-0.0243813,42.6864419],[-0.0250331,42.686223],[-0.0253013,42.6861856],[-0.0257868,42.6864714],[-0.0254005,42.6863965],[-0.0251645,42.6864419],[-0.0245127,42.686643],[-0.0243947,42.686848],[-0.0245529,42.6869013],[-0.0249204,42.6868086],[-0.0249928,42.686712],[-0.025988,42.6866835],[-0.0265481,42.6865929],[-0.0269721,42.6866133],[-0.0270537,42.6867515],[-0.0269219,42.6870376],[-0.0267722,42.6872682],[-0.0263801,42.6875399],[-0.0258871,42.6877952],[-0.0253494,42.6879023],[-0.0248564,42.6878858],[-0.024117,42.6877294],[-0.0228734,42.6874494],[-0.0217082,42.6871858],[-0.0208889,42.686871],[-0.0202075,42.6864617],[-0.0197982,42.6861321],[-0.0196599,42.6860755],[-0.0194871,42.6858206],[-0.0194387,42.685698],[-0.0192851,42.6855933],[-0.0190553,42.6855426],[-0.0189185,42.6855406],[-0.0188434,42.685582],[-0.0188487,42.6856293],[-0.0189453,42.6857102],[-0.0190821,42.6857871],[-0.0193396,42.6859704],[-0.0194764,42.6861577],[-0.0195166,42.6862898],[-0.0194844,42.6864397],[-0.0193691,42.6865481],[-0.0190016,42.686903],[-0.0185026,42.6868182],[-0.0177701,42.6864792],[-0.0172014,42.6862347],[-0.0168796,42.6861401],[-0.0168125,42.6861026],[-0.0168554,42.6860248],[-0.0169439,42.6859656],[-0.0170432,42.6859735],[-0.0173999,42.6860928],[-0.0187093,42.6864417],[-0.0188112,42.6863786],[-0.0189211,42.6862327],[-0.0188943,42.6861479],[-0.0187361,42.6860158],[-0.0185161,42.685864],[-0.0184223,42.685795],[-0.0183176,42.6857752],[-0.0183418,42.6856826],[-0.0183793,42.6855761],[-0.0183981,42.6854617],[-0.0183632,42.685302],[-0.0184464,42.6852784],[-0.0186368,42.6852823],[-0.0189292,42.6853316],[-0.0191277,42.6854302],[-0.0193413,42.6855443]]},"properties":{"natural":"scree"}},
{"type":"Feature","geometry":{"type":"LineString","coordinates":[[-0.0207783,42.6849211],[-0.0213161,42.6851599],[-0.0223692,42.6854811],[-0.0234896,42.6856293],[-0.0243074,42.6856787],[-0.0249796,42.685794],[-0.0250975,42.685786],[-0.0255846,42.6857529],[-0.0263158,42.6856492],[-0.0264737,42.6856268],[-0.0271962,42.6857979],[-0.0274336,42.6859186],[-0.0282104,42.6863745],[-0.0286563,42.6866339],[-0.0288558,42.6866867],[-0.0300661,42.6871611],[-0.0303125,42.6871941],[-0.0303462,42.6869635],[-0.0299764,42.6865352],[-0.0293266,42.6858105],[-0.0285536,42.6852587],[-0.0273548,42.6848964],[-0.0264249,42.6846575],[-0.02563,42.6844608],[-0.024887,42.6846085],[-0.0241182,42.6845549],[-0.0237889,42.6841722],[-0.024199,42.6836282],[-0.0237107,42.6832418],[-0.0234214,42.6838562],[-0.0229812,42.6841271],[-0.0225413,42.6842376],[-0.0215864,42.684001],[-0.0211144,42.6836184],[-0.0204646,42.6835869],[-0.0201509,42.6830845],[-0.019882,42.6826644],[-0.0194115,42.6824668],[-0.0186832,42.682162],[-0.0176973,42.6818655],[-0.0167562,42.6815773],[-0.0158599,42.6811737],[-0.0140561,42.6801524],[-0.0130702,42.67993],[-0.011569,42.6797571],[-0.0084834,42.679527],[-0.0065878,42.6792431],[-0.004464,42.6786496],[-0.0020594,42.6780947],[-0.0000936,42.6774624],[0.0013808,42.6772172],[0.0022057,42.6772172],[0.0035748,42.6773334],[0.0046981,42.6772302],[0.0057161,42.6767785],[0.0067517,42.6760817],[0.0076117,42.6754881],[0.0082436,42.6754107],[0.008542,42.6756946],[0.0079803,42.6762624],[0.0061198,42.677114],[0.0045928,42.6780302],[0.0035924,42.6784818],[0.0025919,42.6785076],[0.0009245,42.6785334],[-0.0010238,42.6788689],[-0.0023929,42.679398],[-0.0036742,42.6800948],[-0.0049379,42.680469],[-0.0063596,42.6806625],[-0.0076409,42.6812044],[-0.0082903,42.6814496],[-0.0093434,42.6813464],[-0.0105721,42.6812948],[-0.011397,42.6815012],[-0.0121342,42.6817851],[-0.0129767,42.6821593],[-0.0136612,42.6822625],[-0.0145915,42.682327],[-0.0153462,42.6822625],[-0.0162886,42.6823535],[-0.0167332,42.6826141],[-0.0170101,42.6829301],[-0.0179088,42.683256],[-0.018646,42.6837205],[-0.0191901,42.684185],[-0.0201725,42.6845011],[-0.020524,42.6846366],[-0.0207783,42.6849211]]},"properties":{"natural":"scree"}},
{"type":"Feature","geometry":{"type":"LineString","coordinates":[[0.0133465,42.6834441],[0.0169187,42.679971],[0.0176646,42.678739],[0.017107,42.6790181],[0.017386,42.6779731],[0.0176486,42.6776715],[0.0180158,42.6775748],[0.0200678,42.6776832],[0.0213181,42.6780821],[0.0233716,42.6788697],[0.025009,42.6790945],[0.0253832,42.6789331],[0.0256785,42.6785447],[0.0257972,42.6783714],[0.0258283,42.6782524],[0.0257536,42.6781792],[0.0257909,42.678083],[0.0259194,42.6779597],[0.0260385,42.6778752],[0.0262077,42.6778137],[0.026221,42.6777974],[0.026254,42.6777879],[0.0263696,42.6777168],[0.0263956,42.677689],[0.0264247,42.677661],[0.0264586,42.6776202],[0.0265194,42.6775716],[0.0265552,42.6775295],[0.0266053,42.6774809],[0.0266017,42.6774441],[0.0265302,42.6774611],[0.0265552,42.6774256],[0.0265802,42.6773139],[0.0265856,42.6772876],[0.0266017,42.6772324],[0.0265963,42.677193],[0.0265749,42.6771601],[0.0265659,42.6771338],[0.026557,42.6771036],[0.0265695,42.6770746],[0.0265785,42.6770405],[0.0266088,42.6769761],[0.0265856,42.6769406],[0.0265856,42.6768972],[0.0265999,42.6768696],[0.0267072,42.6767828],[0.0267304,42.6767552],[0.0267895,42.6767158]]},"properties":{"natural":"cliff"}},
{"type":"Feature","geometry":{"type":"LineString","coordinates":[[0.0295486,42.6850262],[0.0292857,42.6849631],[0.0290604,42.6848606],[0.0288512,42.6847699],[0.0287868,42.6846832],[0.0289638,42.6843243],[0.0293125,42.6841745],[0.0295593,42.6841745],[0.0298543,42.6842888],[0.0300153,42.684553],[0.029967,42.6847581],[0.0298597,42.6850302],[0.0297631,42.6850578],[0.0295486,42.6850262]]},"properties":{"natural":"glacier"}},
{"type":"Feature","geometry":{"type":"LineString","coordinates":[[-0.0304008,42.6916463],[-0.0301809,42.6917449],[-0.0297946,42.691737],[-0.0294996,42.6916029],[-0.0292689,42.6915595],[-0.0290061,42.6916463],[-0.02877,42.6918907],[-0.0286037,42.69208],[-0.0283194,42.6921667],[-0.0280083,42.6920879],[-0.0275738,42.6920524],[-0.0271983,42.6919499],[-0.026812,42.6918631],[-0.0262595,42.6917606],[-0.0256318,42.6916108],[-0.0252939,42.6914649],[-0.0247628,42.6912283],[-0.0242586,42.6910943],[-0.0238723,42.690972],[-0.0237275,42.6908656],[-0.0235719,42.6907433],[-0.0233144,42.6905896],[-0.0230355,42.6904595],[-0.0225741,42.6902899],[-0.0223488,42.6901913],[-0.0223756,42.6899823],[-0.022472,42.6899257],[-0.0226342,42.6901601],[-0.0230985,42.6902834],[-0.0232719,42.6901888],[-0.0235124,42.6902382],[-0.0237026,42.6904396],[-0.023848,42.6906576],[-0.0241781,42.6906493],[-0.024469,42.6907151],[-0.0246155,42.6908035],[-0.0252405,42.6907221],[-0.0256676,42.6906814],[-0.0258267,42.6905336],[-0.0258411,42.6905107],[-0.0259805,42.6903964],[-0.0263185,42.6904042],[-0.0267155,42.6904476],[-0.0273055,42.6905304],[-0.0276489,42.6907276],[-0.0278903,42.6908616],[-0.0281478,42.6908459],[-0.0283838,42.6907749],[-0.0288183,42.6908301],[-0.0295693,42.6909918],[-0.0300199,42.691114],[-0.0305027,42.691248],[-0.0305778,42.6914255],[-0.0304813,42.6915595],[-0.0304008,42.6916463]]},"properties":{"natural":"scree"}},
{"type":"Feature","geometry":{"type":"LineString","coordinates":[[-0.0112987,42.6853564],[-0.0118048,42.6853771],[-0.0125505,42.6855269],[-0.0135107,42.6856137],[-0.0144388,42.685661],[-0.0152488,42.6856295],[-0.0153078,42.685728],[-0.0151683,42.6858227],[-0.0145644,42.685805],[-0.0135751,42.6858779],[-0.0129153,42.6859213],[-0.0124539,42.6859291],[-0.0118339,42.6858859],[-0.0114638,42.6860436],[-0.0107181,42.6861264],[-0.0104606,42.6860357],[-0.0101043,42.6860869],[-0.009525,42.6861145],[-0.0085969,42.6862407],[-0.0084145,42.6862761],[-0.0083072,42.6862367],[-0.0082482,42.6861224],[-0.0083072,42.6860159],[-0.0085808,42.6859015],[-0.009345,42.685718],[-0.0093845,42.6858043],[-0.0095744,42.6859323],[-0.0099304,42.6859904],[-0.0103418,42.6859497],[-0.0106515,42.6858718],[-0.0110102,42.6857118],[-0.0111696,42.6855613],[-0.0112739,42.6854417],[-0.0112987,42.6853564]]},"properties":{"natural":"scree"}},
{"type":"Feature","geometry":{"type":"LineString","coordinates":[[-0.015521,42.693301],[-0.0151186,42.6932458],[-0.0148129,42.6932142],[-0.0147431,42.6931314],[-0.0148611,42.6929974],[-0.0150543,42.6929106],[-0.0153815,42.6929343],[-0.0157892,42.6931196],[-0.0162827,42.6932339],[-0.0165026,42.693301],[-0.0164436,42.6934074],[-0.0162237,42.6935296],[-0.0161432,42.6936361],[-0.0162559,42.6937347],[-0.0164544,42.693715],[-0.0166743,42.6936637],[-0.0168996,42.6936834],[-0.0169747,42.6937465],[-0.016964,42.6938175],[-0.0169211,42.6939831],[-0.0164651,42.693987],[-0.0163471,42.6940659],[-0.016213,42.6944207],[-0.0162639,42.6945903],[-0.0161835,42.6947815],[-0.0162934,42.6948998],[-0.0164892,42.6949668],[-0.0167655,42.6949865],[-0.0171115,42.6950299],[-0.0174548,42.6950989],[-0.0175541,42.6951442],[-0.0176801,42.6952861],[-0.0175407,42.6953256],[-0.0172832,42.6953473],[-0.016964,42.6953473],[-0.0167601,42.6953453],[-0.0165536,42.6953551],[-0.016221,42.6953473],[-0.0160198,42.6953216],[-0.0158643,42.6952861],[-0.0158267,42.6951639],[-0.0158191,42.6950794],[-0.0159264,42.6949296],[-0.0158727,42.6946851],[-0.0157919,42.6945311],[-0.0156551,42.6943951],[-0.0154861,42.6942847],[-0.0152715,42.6942512],[-0.0150355,42.6942709],[-0.0146922,42.6943537],[-0.0143891,42.6943971],[-0.014035,42.6943833],[-0.0139204,42.6944442],[-0.0134874,42.6946422],[-0.0133398,42.6942471],[-0.0131491,42.6940109],[-0.0135147,42.6940146],[-0.0137212,42.6940304],[-0.01374,42.6939574],[-0.0136407,42.6937899],[-0.0135737,42.6936676],[-0.013351,42.693642],[-0.0133484,42.6935671],[-0.0133323,42.693435],[-0.013284,42.6933029],[-0.0132786,42.6931847],[-0.0133618,42.6930545],[-0.0135334,42.6929599],[-0.0138821,42.6928535],[-0.0142845,42.6928318],[-0.0146171,42.6928219],[-0.0146063,42.6928791],[-0.0144052,42.6929579],[-0.0141611,42.6930605],[-0.0140592,42.6931492],[-0.013925,42.6933522],[-0.0138821,42.6935158],[-0.0139358,42.693782],[-0.0140726,42.6938668],[-0.0143381,42.6939436],[-0.0143676,42.6940008],[-0.0143971,42.6940994],[-0.0144642,42.694125],[-0.0145956,42.6941053],[-0.0147217,42.6939929],[-0.0148263,42.6938707],[-0.0150006,42.693851],[-0.0151454,42.6938608],[-0.0154137,42.6938865],[-0.0155505,42.693851],[-0.0155478,42.6937918],[-0.0154298,42.6937642],[-0.0150945,42.6937307],[-0.015006,42.6936755],[-0.0150328,42.6936085],[-0.0152581,42.6935178],[-0.0155129,42.6934606],[-0.0156068,42.6934192],[-0.0156122,42.693366],[-0.015521,42.693301]]},"properties":{"natural":"bare_rock"}},
{"type":"Feature","geometry":{"type":"LineString","coordinates":[[-0.0245255,42.6967176],[-0.0241983,42.6967274],[-0.0240561,42.6967747],[-0.0238845,42.6967846],[-0.0234339,42.6966624],[-0.0231415,42.6965816],[-0.022656,42.6964376],[-0.0225326,42.6963785],[-0.0219184,42.6962602],[-0.0218835,42.696205],[-0.0218514,42.6961341],[-0.0216448,42.6960316],[-0.0215456,42.6959113],[-0.0213927,42.6958778],[-0.0211862,42.6958541],[-0.0210413,42.6959034],[-0.0208831,42.6959172],[-0.0206953,42.6958739],[-0.0203922,42.6958561],[-0.0200784,42.6957753],[-0.0198504,42.6957122],[-0.0197539,42.6957181],[-0.0195554,42.6957221],[-0.0194159,42.695659],[-0.019314,42.6955328],[-0.0191799,42.6954066],[-0.0189975,42.6953396],[-0.0187615,42.6953041],[-0.0186113,42.6953239],[-0.0186703,42.6955959],[-0.0186113,42.6956629],[-0.0185254,42.6955841],[-0.0184664,42.6954894],[-0.018445,42.6954224],[-0.0184771,42.6953436],[-0.0185737,42.6951661],[-0.01874,42.6951228],[-0.0188312,42.6950597],[-0.0186971,42.694835],[-0.0185522,42.6946496],[-0.0185254,42.6944722],[-0.0186488,42.6943303],[-0.0190887,42.694279],[-0.0195983,42.6944249],[-0.0197485,42.6946891],[-0.0197914,42.6949651],[-0.0198719,42.6951701],[-0.0200006,42.6952687],[-0.0201079,42.6952805],[-0.020183,42.6951622],[-0.0203761,42.6945314],[-0.020462,42.6945195],[-0.0205049,42.6946378],[-0.0203601,42.6949611],[-0.0203225,42.6952016],[-0.0204191,42.6952194],[-0.0207141,42.6952233],[-0.0209716,42.6952706],[-0.0213471,42.6955269],[-0.0218996,42.6957319],[-0.022597,42.6960592],[-0.0230154,42.6962445],[-0.0233963,42.6964061],[-0.0237718,42.6964889],[-0.0243726,42.6965599],[-0.0245336,42.696619],[-0.0245443,42.6966663],[-0.0245255,42.6967176]]},"properties":{"natural":"bare_rock"}},
{"type":"Feature","geometry":{"type":"LineString","coordinates":[[-0.0112762,42.6931103],[-0.012104,42.6924553],[-0.0128201,42.6920606],[-0.0130662,42.692077],[-0.013055,42.6923237],[-0.0128872,42.6926115],[-0.0124509,42.693072],[-0.0122003,42.6933828],[-0.0119095,42.6933238],[-0.0112762,42.6931103]]},"properties":{"natural":"grassland"}},
{"type":"Feature","geometry":{"type":"LineString","coordinates":[[0.0033313,42.6917098],[0.0030041,42.6916113],[0.0028324,42.6914969],[0.002296,42.6907872],[0.0022852,42.6906334],[0.0024837,42.6902628],[0.0025749,42.6901208],[0.0026554,42.6900696],[0.0027627,42.6900617],[0.0029826,42.690105],[0.0033206,42.6903259],[0.0039536,42.6904441],[0.0044525,42.6906255],[0.0047797,42.6906452],[0.0049835,42.6906886],[0.0052839,42.6907951],[0.0058365,42.6910671],[0.0062442,42.6911736],[0.007022,42.6914693],[0.006963,42.6915363],[0.0068611,42.6915639],[0.0060779,42.6915915],[0.005343,42.6917532],[0.0038999,42.6917414],[0.0035673,42.6917769],[0.0034547,42.6917729],[0.0033313,42.6917098]]},"properties":{"name":"Glacier de la Cascade","natural":"glacier"}},
{"type":"Feature","geometry":{"type":"LineString","coordinates":[[-0.0078777,42.6857755],[-0.0084141,42.6853752],[-0.0086877,42.685182],[-0.008913,42.6849414],[-0.0095084,42.6851012],[-0.0099644,42.6849671],[-0.010002,42.6850716],[-0.0103936,42.6850913],[-0.0104445,42.6850183]]},"properties":{"natural":"cliff"}},
{"type":"Feature","geometry":{"type":"LineString","coordinates":[[-0.0097418,42.685318],[-0.0106457,42.685113],[-0.0106216,42.6850381],[-0.0113967,42.6849759],[-0.0114409,42.6848659]]},"properties":{"natural":"cliff"}},
{"type":"Feature","geometry":{"type":"LineString","coordinates":[[-0.0103681,42.6848005],[-0.0104848,42.684766],[-0.0114409,42.6848659],[-0.0128987,42.6850183],[-0.0140628,42.6851603],[-0.0141379,42.6850874],[-0.0146958,42.6851544],[-0.0157338,42.6851849],[-0.0158344,42.6850499],[-0.0166579,42.685179],[-0.0166002,42.6852825],[-0.0171688,42.6859766],[-0.0188112,42.6863786]]},"properties":{"natural":"cliff"}},
{"type":"Feature","geometry":{"type":"LineString","coordinates":[[0.0212105,42.6838328],[0.0211539,42.6835987],[0.0210194,42.6835102],[0.0208707,42.6834686],[0.0208495,42.6834062],[0.0208707,42.6832241],[0.0209061,42.683094],[0.0208283,42.6828598],[0.0207646,42.6827089],[0.0206442,42.6824435],[0.0205522,42.682303]]},"properties":{"natural":"cliff"}},
{"type":"Feature","geometry":{"type":"LineString","coordinates":[[0.0225342,42.6847018],[0.0223572,42.6845509],[0.0223572,42.6844885],[0.0223572,42.6843688],[0.0223997,42.6842491],[0.0222935,42.6841503],[0.0223501,42.6839265],[0.0223501,42.6837184],[0.0222935,42.6835415],[0.0222015,42.6833802],[0.0221095,42.6832657],[0.0219325,42.6831356],[0.0217909,42.6829899],[0.021614,42.682917]]},"properties":{"natural":"cliff"}},
{"type":"Feature","geometry":{"type":"LineString","coordinates":[[0.0219467,42.6864241],[0.0217768,42.6863564],[0.0217485,42.686242],[0.0216777,42.6859454],[0.0216352,42.6857581],[0.021614,42.6856176],[0.0215503,42.6854719],[0.0213096,42.6852586],[0.0211397,42.6851909],[0.0210194,42.6850816],[0.0209486,42.6849568],[0.0208424,42.6849151],[0.020807,42.6847642],[0.0207433,42.6845821],[0.0207221,42.6844572],[0.0207716,42.6843584],[0.0207504,42.6841971],[0.0207504,42.6840618],[0.0208,42.6839161],[0.0209344,42.683734],[0.0210265,42.6836924],[0.0212105,42.6838328]]},"properties":{"natural":"cliff"}},
{"type":"Feature","geometry":{"type":"LineString","coordinates":[[0.0218833,42.6871096],[0.0219116,42.6869483],[0.022039,42.6868547],[0.0220177,42.6867662],[0.0220036,42.6866674],[0.0221664,42.6866362],[0.0221947,42.6865893],[0.0221664,42.6865217],[0.0221027,42.6864749],[0.0219467,42.6864241]]},"properties":{"natural":"arete"}},
{"type":"Feature","geometry":{"type":"LineString","coordinates":[[0.0386929,42.6876327],[0.0386359,42.6876214],[0.0386667,42.6875598],[0.0387512,42.687507],[0.0387519,42.6874729],[0.0387787,42.6874563],[0.038829,42.6874602],[0.0388567,42.6875182],[0.0389189,42.6875691],[0.0389249,42.6876391],[0.0388766,42.6877027],[0.0387378,42.6877707],[0.0386466,42.6877456],[0.0386533,42.6877209],[0.0386801,42.6877017],[0.0386164,42.6876994],[0.0385732,42.6876812],[0.0386287,42.687645],[0.0386929,42.6876327]]},"properties":{"natural":"water","water":"lake"}},
{"type":"Feature","geometry":{"type":"LineString","coordinates":[[-0.0169341,42.6894282],[-0.0173834,42.6895195],[-0.0175175,42.6895688],[-0.0178126,42.6898251],[-0.0180084,42.6899946],[-0.0181612,42.6902056],[-0.0186145,42.6903889],[-0.0190946,42.6906157],[-0.0197384,42.6907616],[-0.0200576,42.6909902],[-0.0201753,42.6911275],[-0.020484,42.6916191],[-0.0207541,42.6917934],[-0.0208837,42.6918991],[-0.0208676,42.6921179],[-0.0209454,42.6922086],[-0.0210875,42.6922323],[-0.0214443,42.6921849],[-0.0218278,42.6921948]]},"properties":{"natural":"cliff"}},
{"type":"Feature","geometry":{"type":"LineString","coordinates":[[-0.001663,42.695077],[-0.002414,42.6953609],[-0.0028861,42.6953136],[-0.0032938,42.6948956],[-0.0039859,42.694517],[-0.0043368,42.6937732],[-0.0042838,42.6935919],[-0.0046836,42.6929208],[-0.0047314,42.692731],[-0.0046697,42.6925674],[-0.0046027,42.6924728],[-0.0046697,42.6923545],[-0.0047019,42.6922224],[-0.004828,42.6920765],[-0.0051016,42.6918399],[-0.0052115,42.6917],[-0.005292,42.6914595],[-0.0051874,42.6914259],[-0.0052196,42.6912899],[-0.0053832,42.6910119],[-0.0055227,42.6908207],[-0.005874,42.6905821],[-0.0060189,42.6905407],[-0.0062388,42.6902983],[-0.0064775,42.6901031]]},"properties":{"natural":"cliff"}},
{"type":"Feature","geometry":{"type":"LineString","coordinates":[[-0.0026286,42.6962716],[-0.0029665,42.6961888],[-0.0036961,42.695558],[-0.0036746,42.6952741],[-0.0039859,42.694517]]},"properties":{"natural":"cliff"}},
{"type":"Feature","geometry":{"type":"LineString","coordinates":[[-0.0145577,42.6946384],[-0.0144839,42.6949006]]},"properties":{"natural":"cliff"}},
{"type":"Feature","geometry":{"type":"LineString","coordinates":[[-0.0144665,42.6949449],[-0.0146154,42.695148],[-0.0147294,42.6951815],[-0.0147133,42.6953283],[-0.0149252,42.6954308],[-0.0150391,42.6954279]]},"properties":{"natural":"cliff","source":"BD Ortho IGN"}},
{"type":"Feature","geometry":{"type":"LineString","coordinates":[[-0.0248811,42.6858232],[-0.0245297,42.6857384],[-0.0240818,42.6856852],[-0.0237411,42.6856616],[-0.0231698,42.6856083],[-0.0226253,42.6855472],[-0.022105,42.6854269],[-0.0216839,42.6852889],[-0.0213647,42.6851884],[-0.020949,42.6850405],[-0.020847,42.6850839],[-0.0207532,42.6849596],[-0.0206512,42.6848512],[-0.020434,42.6846954],[-0.0198707,42.6844529],[-0.0193933,42.6842952],[-0.0192055,42.6842242],[-0.0190205,42.6841591],[-0.0189105,42.6841355],[-0.0185672,42.6839107],[-0.0183043,42.6836918],[-0.0181165,42.6835873],[-0.0174782,42.6833547],[-0.01721,42.6832009],[-0.0169149,42.6830293],[-0.0168237,42.6829248],[-0.0166655,42.6825246],[-0.0164214,42.6823944],[-0.0160942,42.682357],[-0.0153646,42.682284],[-0.0150669,42.6823392]]},"properties":{"natural":"cliff"}},
{"type":"Feature","geometry":{"type":"LineString","coordinates":[[-0.0192511,42.6854664],[-0.0195381,42.68563],[-0.0195569,42.685488],[-0.019522,42.6853126],[-0.0194335,42.68521],[-0.0193665,42.6851055],[-0.0191438,42.6850109],[-0.0188461,42.6848768],[-0.0186315,42.6848078],[-0.0185135,42.6847901],[-0.0183419,42.6847408],[-0.0181782,42.684589],[-0.017792,42.6844076],[-0.0175452,42.6843464],[-0.0173173,42.6843031],[-0.0170437,42.6842084],[-0.0167406,42.6841611]]},"properties":{"natural":"cliff"}},
{"type":"Feature","geometry":{"type":"LineString","coordinates":[[-0.0209931,42.6870642],[-0.0206073,42.6867884],[-0.0201507,42.6865335],[-0.0194075,42.685805],[-0.0193509,42.685701],[-0.0190324,42.6856073],[-0.0189297,42.6855865],[-0.0189014,42.6856099]]},"properties":{"natural":"cliff"}},
{"type":"Feature","geometry":{"type":"LineString","coordinates":[[-0.0215239,42.6861849],[-0.0211134,42.6859065],[-0.0208621,42.6856177],[-0.0204587,42.6854018],[-0.0200623,42.6851234],[-0.0197862,42.6848945],[-0.0196305,42.6848008],[-0.0192341,42.6847332],[-0.0187351,42.6845328],[-0.018282,42.6843507],[-0.0179989,42.6841478],[-0.017921,42.6841166],[-0.017422,42.6839501],[-0.0170398,42.6837992],[-0.0167177,42.6836379],[-0.0163638,42.6831982],[-0.0159249,42.6831175],[-0.0155816,42.6830187],[-0.0152383,42.6829822],[-0.0141837,42.6829692],[-0.0134794,42.6828339],[-0.0130405,42.6826258],[-0.0128812,42.6825399],[-0.0126335,42.6824645],[-0.0124247,42.6824307],[-0.0121415,42.6824177]]},"properties":{"natural":"cliff"}},
{"type":"Feature","geometry":{"type":"LineString","coordinates":[[0.0401524,42.6817411],[0.0396145,42.6818764],[0.038581,42.6823031],[0.0382413,42.6826465],[0.0378732,42.6829795],[0.0370238,42.6832709],[0.0357638,42.6837392],[0.0344331,42.6844365],[0.0332439,42.6848319],[0.0329042,42.684988],[0.0312761,42.6856124],[0.0280909,42.6868612],[0.0279634,42.6872462],[0.0282041,42.6878186],[0.0280059,42.6880787],[0.0267884,42.6884741],[0.0260947,42.6883389],[0.0252878,42.6881828],[0.0239146,42.6885366]]},"properties":{"natural":"cliff"}},
{"type":"Feature","geometry":{"type":"LineString","coordinates":[[0.0216906,42.6817069],[0.0221763,42.6817962],[0.023213,42.6821463],[0.0238388,42.6822768],[0.0242498,42.6825308],[0.0246887,42.6827986],[0.0249876,42.6830183],[0.0251838,42.6833135],[0.0253799,42.6839795],[0.0252865,42.6842267],[0.0251838,42.6844807],[0.0247728,42.6848927],[0.0241657,42.685284],[0.0236427,42.6857234],[0.0231383,42.6860324],[0.0227834,42.686513]]},"properties":{"natural":"cliff"}},
{"type":"Feature","geometry":{"type":"LineString","coordinates":[[0.0711652,42.6984025],[0.0709045,42.6984876],[0.0707307,42.6978986],[0.0707886,42.697558],[0.0711652,42.6971038],[0.0714935,42.6964367],[0.0711362,42.6959612],[0.0712328,42.6956631],[0.0714066,42.6953651],[0.0713583,42.6949392],[0.0713197,42.6945915],[0.0713197,42.694336],[0.0714549,42.6941302],[0.072266,42.6936405],[0.0727971,42.6930798],[0.0730095,42.6926327],[0.0732702,42.6923772],[0.0736372,42.692363],[0.0740331,42.6923204],[0.0741779,42.6920649],[0.0741296,42.6914829],[0.0741006,42.6908725],[0.0745311,42.6900005],[0.0742873,42.6900968],[0.0741556,42.6901213],[0.0739083,42.6901665],[0.0733999,42.6902434],[0.0731831,42.690144600000007],[0.0731393,42.6901271],[0.0730078,42.6899833],[0.0729128,42.6898823],[0.0728835,42.689824],[0.0728197,42.6896985],[0.0727873,42.689714],[0.0726092,42.6897958],[0.0723274,42.6900904],[0.0722924,42.6901455],[0.0722091,42.6902781],[0.072438,42.6906504],[0.0725388,42.6909308],[0.0725082,42.6911523],[0.0721648,42.6916487],[0.0721098,42.6917306],[0.0721174,42.691894],[0.0721301,42.6921347],[0.0720257,42.6926103],[0.0720165,42.6928953],[0.0720092,42.6931466],[0.0719965,42.6931705],[0.0718916,42.6933707],[0.0717903,42.6934291],[0.0715597,42.6935659],[0.0709306,42.6937719],[0.0704203,42.6937856],[0.0699523,42.6937666],[0.0698279,42.6934718],[0.0697564,42.6933022],[0.0694037,42.6930565],[0.0690494,42.692785],[0.0689854,42.6923454],[0.0690571,42.6920643],[0.0690652,42.6920434],[0.0691738,42.69181],[0.0691605,42.6915547],[0.0691662,42.6914237],[0.0691788,42.691116],[0.0690095,42.690968],[0.0690024,42.6909597],[0.0689859,42.69095],[0.0689716,42.6909411],[0.0686482,42.6907208],[0.068509,42.6906427],[0.0684321,42.6905996],[0.0682501,42.6905281],[0.0681256,42.6904791],[0.0680287,42.6904749],[0.0679115,42.6904698],[0.067741,42.6904609],[0.0674481,42.6905551],[0.0673236,42.6905954],[0.0671612,42.6907604],[0.066748,42.6907449],[0.0666464,42.6907397],[0.0664314,42.6906824],[0.0662093,42.6904674],[0.0660881,42.6903446],[0.0660275,42.6902859],[0.0659896,42.6902634],[0.0658487,42.6903284],[0.0628818,42.6897328],[0.0630236,42.6887464],[0.062671,42.6872183],[0.0648734,42.6862759],[0.0658161,42.6844789],[0.0669936,42.6843894],[0.0686081,42.6837346],[0.069163,42.6833598],[0.0697343,42.682815],[0.0687119,42.6829262],[0.0678251,42.6834384],[0.0672619,42.6832961],[0.0660637,42.683304],[0.0653225,42.6835988],[0.0649045,42.6828535],[0.0627372,42.6821795],[0.0623427,42.6820223],[0.0618829,42.6816528],[0.0612953,42.6814657],[0.0610069,42.6814582],[0.0602988,42.6810516],[0.0593375,42.6814188],[0.0591216,42.6812368],[0.0587364,42.6804918],[0.0569157,42.678879],[0.0557379,42.6799948],[0.0537806,42.6799529],[0.0522414,42.6797682],[0.0513572,42.681271],[0.0506764,42.6828533],[0.049677,42.6846579],[0.0500263,42.6862624],[0.0501634,42.688015],[0.0515367,42.6897942],[0.0513677,42.6914639],[0.0515229,42.6927599],[0.0527011,42.6916442],[0.0537496,42.6912107],[0.0547066,42.6904709],[0.0552099,42.690786],[0.0552192,42.6916889],[0.054925,42.6922476],[0.0548426,42.6928002],[0.0545154,42.6936363],[0.0558189,42.6942157],[0.0570656,42.6935856],[0.0574666,42.6929376],[0.0581305,42.6924806],[0.0586996,42.6914752],[0.0590269,42.6905287],[0.0596703,42.6898505],[0.0602419,42.6893474],[0.0606952,42.6890311],[0.0609044,42.689263],[0.0612316,42.6892906],[0.0617573,42.69015],[0.0619556,42.6911915],[0.0615141,42.6935064],[0.061509,42.6944209],[0.0611499,42.6950625],[0.0608897,42.6961413],[0.0606911,42.6966081],[0.0606182,42.6969379],[0.0604866,42.6974163],[0.0603418,42.6978989],[0.0603418,42.6982005],[0.060802,42.6985258],[0.0608503,42.6983803],[0.0612446,42.698353],[0.0614715,42.6981543],[0.0615874,42.6981756],[0.0616984,42.6982892],[0.0620316,42.6982253],[0.0627123,42.6979805],[0.0630406,42.6979485],[0.0633062,42.6978634],[0.0635717,42.6977711],[0.0636731,42.6976292],[0.0638518,42.6971111],[0.0640014,42.6966605],[0.0640835,42.6965008],[0.0641076,42.6963731],[0.0640111,42.6961744],[0.0641028,42.6958834],[0.0644794,42.6955072],[0.0649525,42.6951205],[0.0650974,42.6949537],[0.0652905,42.6947763],[0.0654402,42.6948188],[0.0654402,42.6949643],[0.0647015,42.6956918],[0.0645277,42.6959969],[0.0643973,42.6963163],[0.0644891,42.696625],[0.0645808,42.6968663],[0.0642476,42.6976966],[0.0639676,42.6980727],[0.0635717,42.6983921],[0.0631179,42.698605],[0.062862,42.6988604],[0.0622874,42.6989111],[0.0619881,42.6988995],[0.0616555,42.6993029],[0.0618808,42.6992728],[0.0626303,42.7000101],[0.0628475,42.7000988],[0.0636103,42.7000775],[0.0638363,42.7001755],[0.0641094,42.700602],[0.0644371,42.700883],[0.0650107,42.7008881],[0.0657276,42.700597],[0.0663216,42.7004013],[0.0671888,42.700311],[0.0681857,42.7002709],[0.0685407,42.7003812],[0.0687729,42.7006472],[0.0686022,42.7009583],[0.0685202,42.7013045],[0.0686977,42.7015554],[0.0691689,42.7016708],[0.0698585,42.701711],[0.0704115,42.7015705],[0.0706164,42.7013798],[0.0708827,42.7006773],[0.0707734,42.7003963],[0.0706437,42.7000902],[0.0705891,42.6997891],[0.070671,42.6995382],[0.0710465,42.6993676],[0.071215,42.6991068],[0.0712622,42.6988849],[0.071215,42.6986733],[0.0711652,42.6984025]]},"properties":{"natural":"bare_rock"}},
{"type":"Feature","geometry":{"type":"MultiPolygon","coordinates":[[[[0.0369944,42.6968127],[0.0375777,42.6966038],[0.0379747,42.6964402],[0.0380431,42.6963633],[0.0381745,42.6962884],[0.0380941,42.6962805],[0.0380927,42.6961987],[0.0382322,42.6960893],[0.0382563,42.6959532],[0.0384937,42.6958281],[0.0385407,42.6957699],[0.0384173,42.6957403],[0.0383234,42.695624],[0.0382188,42.695559],[0.0383154,42.6953441],[0.0389926,42.6950592],[0.0391307,42.6949863],[0.0391267,42.6949548],[0.038951,42.695009],[0.0387231,42.6949764],[0.0383962,42.6949633],[0.0382025,42.6949633],[0.0381356,42.694872],[0.0381745,42.6947419],[0.0383368,42.69466],[0.0383972,42.6944314],[0.0383288,42.6943841],[0.0382724,42.6943111],[0.0382912,42.6942539],[0.0383972,42.6942066],[0.038487,42.6941386],[0.0385393,42.6940262],[0.0385876,42.6939632],[0.038652,42.6939375],[0.038715,42.6939109],[0.0386949,42.6938163],[0.0387941,42.6938557],[0.0389349,42.693838],[0.0389859,42.6938636],[0.0390449,42.6938094],[0.0393024,42.6937759],[0.039399,42.6938419],[0.039525,42.6938587],[0.0394995,42.6939671],[0.0394714,42.6940982],[0.0393748,42.6942244],[0.0392185,42.6943203],[0.0391048,42.6944875],[0.0391026,42.6945989],[0.0391656,42.6946206],[0.0392623,42.6947126],[0.0400682,42.6944422],[0.040146,42.6943584],[0.0402596,42.6943589],[0.0403498,42.6944462],[0.0403136,42.6945142],[0.0403257,42.6945418],[0.0407991,42.6944609],[0.0410995,42.694317],[0.0412336,42.694183],[0.0418934,42.693971],[0.0419752,42.6940637],[0.0418076,42.6942076],[0.0418304,42.6943091],[0.0421898,42.6941623],[0.0422434,42.6941771],[0.0423762,42.6941159],[0.0424446,42.6941297],[0.0427665,42.6939779],[0.0428885,42.6939572],[0.043032,42.6938567],[0.0434598,42.6938252],[0.0435175,42.6938892],[0.0431916,42.6941524],[0.0427289,42.69446],[0.042859,42.694456],[0.0429422,42.6945083],[0.0431889,42.6944422],[0.0433579,42.6945171],[0.0433914,42.6945694],[0.0433713,42.6947379],[0.0432868,42.6948424],[0.0430146,42.6948996],[0.0428577,42.6950553],[0.0426847,42.6951085],[0.0425251,42.6952041],[0.0419632,42.6954624],[0.0417499,42.6955067],[0.0415541,42.6956201],[0.0413382,42.6958498],[0.0410646,42.6959927],[0.0409868,42.6960912],[0.0408433,42.6962204],[0.0406744,42.6962213],[0.0404759,42.6962696],[0.0400668,42.6965486],[0.0397329,42.696725],[0.0394258,42.6968492],[0.0391173,42.6968679],[0.039061,42.6968768],[0.0390328,42.6969083],[0.0386868,42.6970335],[0.0386077,42.6970256],[0.0384709,42.6970798],[0.0383395,42.6971893],[0.0381209,42.6972513],[0.0378527,42.6973617],[0.0377866,42.6973134],[0.0374535,42.6973214],[0.0371164,42.6971962],[0.0370078,42.6969507],[0.0369944,42.6968127]]]]},"properties":{"alt_name":"Ibón de Marboré","ele":"2590","name":"Lago de Marboré","name:es":"Lago de Marboré","name:fr":"Lac Glacé","natural":"water","water":"lake","wikidata":"Q41319183"}},
{"type":"Feature","geometry":{"type":"MultiPolygon","coordinates":[[[[0.0278963,42.6834331],[0.029878,42.6826918],[0.0298919,42.6824393],[0.0301923,42.6823644],[0.0305356,42.6825813],[0.030804,42.6826155],[0.0310402,42.6823446],[0.0312465,42.681956],[0.0314656,42.6816622],[0.0318137,42.6815011],[0.0322134,42.6813494],[0.0323939,42.6812926],[0.0325873,42.6811978],[0.0330772,42.6809798],[0.0335026,42.6807334],[0.0342117,42.6805438],[0.0349465,42.6803638],[0.0356298,42.680051],[0.0361062,42.6799308],[0.0364807,42.6796814],[0.0366741,42.6795487],[0.0372926,42.6794549],[0.0376149,42.6794123],[0.037718,42.6793222],[0.0377438,42.6791374],[0.0376793,42.6789857],[0.0375955,42.678762999999999],[0.037776,42.6785735],[0.0380016,42.6783697],[0.038324,42.6781706],[0.0385431,42.6780237],[0.0388268,42.6779811],[0.0389528,42.6777445],[0.0391204,42.6775692],[0.0393654,42.6775028],[0.0395975,42.6776213],[0.0398433,42.6777698],[0.0401334,42.6778362],[0.0405266,42.6777414],[0.0410681,42.6777319],[0.041558,42.6778267],[0.0419503,42.6779815],[0.0422597,42.6780668],[0.0424789,42.6782943],[0.0424607,42.6788718],[0.0417632,42.6794974],[0.0414409,42.6796395],[0.0412991,42.680085],[0.0408737,42.6806821],[0.0405385,42.6809569],[0.0401001,42.6808716],[0.0394035,42.681015],[0.0387807,42.6812957],[0.0381799,42.6815639],[0.0379439,42.6819582],[0.0370324,42.6826949],[0.0354589,42.6831273],[0.0348981,42.683203],[0.0342148,42.6832125],[0.033712,42.6833168],[0.0335187,42.6834494],[0.0335129,42.6837722],[0.0333305,42.6838156],[0.0329894,42.6837968],[0.0326173,42.6837404],[0.0323309,42.6839355],[0.0315495,42.6841902],[0.0311661,42.6840958],[0.0307824,42.6832714],[0.0305624,42.6832083],[0.0302674,42.6833266],[0.0296398,42.6835553],[0.0291221,42.6838965],[0.0287546,42.6839576],[0.0283898,42.6838235],[0.0278963,42.6834331]]]]},"properties":{"glacier:type":"mountain","name":"Glaciar Monte Perdido","name:fr":"Glacier du Mont Perdu","natural":"glacier"}},
{"type":"Feature","geometry":{"type":"MultiPolygon","coordinates":[[[[-0.0130664,42.6957568],[-0.0127571,42.6953188],[-0.012243,42.6949309],[-0.0118472,42.6947604],[-0.0111648,42.6943424],[-0.0109009,42.6942588],[-0.0108509,42.6941518],[-0.010587,42.6938943],[-0.0103868,42.6938375],[-0.0097544,42.6937606],[-0.0095907,42.6937037],[-0.009295,42.6936502],[-0.008749,42.6936937],[-0.0084306,42.693677],[-0.0079574,42.6936435],[-0.0077771,42.6936271],[-0.0074069,42.6935934],[-0.0069475,42.6933861],[-0.0063606,42.6932423],[-0.0061513,42.6933025],[-0.005983,42.69356],[-0.0059329,42.6937138],[-0.0052687,42.6946266],[-0.0047546,42.6954358],[-0.0043042,42.6959607],[-0.0041405,42.6964556],[-0.004186,42.6972514],[-0.0047462,42.6973429],[-0.0062152,42.6979219],[-0.0068729,42.6978259],[-0.0074299,42.6980583],[-0.0079041,42.6983044],[-0.0083407,42.6986696],[-0.0084311,42.6989904],[-0.0081977,42.6994662],[-0.0081995,42.6997607],[-0.0081513,42.6999747],[-0.0080252,42.7001512],[-0.0078019,42.7002338],[-0.007187,42.7004407],[-0.0069885,42.7005512],[-0.0068264,42.7006891],[-0.006694,42.700846],[-0.0066527,42.7010579],[-0.0063998,42.7011194],[-0.0062967,42.7012345],[-0.006269,42.7014176],[-0.0062413,42.701592],[-0.0064203,42.7017628],[-0.0066496,42.7018249],[-0.006756,42.7018453],[-0.0069335,42.7019202],[-0.0070841,42.7020219],[-0.0071243,42.7020703],[-0.0071537,42.7021433],[-0.0072348,42.7025764],[-0.0072912,42.7028836],[-0.0073599,42.703028],[-0.0075229,42.7032033],[-0.007655,42.703298],[-0.0078038,42.7033932],[-0.0079832,42.7035472],[-0.0081472,42.703704],[-0.0083575,42.7038329],[-0.0086346,42.7038921],[-0.0088048,42.7039595],[-0.0089195,42.7040596],[-0.009036,42.7042644],[-0.0091396,42.7043495],[-0.0092273,42.7044403],[-0.0092912,42.7045417],[-0.0093539,42.7046653],[-0.0093238,42.7047766],[-0.0092737,42.7048344],[-0.0092192,42.7048697],[-0.0091162,42.7049372],[-0.0090652,42.7049962],[-0.0091006,42.7050943],[-0.009151,42.7051498],[-0.0092221,42.705175],[-0.0092997,42.7051727],[-0.0094297,42.7051806],[-0.0095688,42.7051922],[-0.0097651,42.7051677],[-0.009875,42.7051432],[-0.0098267,42.7049884],[-0.0096738,42.7050236],[-0.0094709,42.705007],[-0.0093801,42.7049963],[-0.0093293,42.7049374],[-0.0094473,42.7046775],[-0.0094266,42.7045989],[-0.0093908,42.7045104],[-0.0093003,42.7043625],[-0.0091812,42.7042608],[-0.0091044,42.7041832],[-0.009028,42.7040373],[-0.0089854,42.703974],[-0.0089288,42.70392],[-0.0088969,42.7038577],[-0.0088687,42.7038262],[-0.0088282,42.7037998],[-0.00874,42.7037533],[-0.0086418,42.7037259],[-0.0085238,42.7036806],[-0.0084017,42.703647],[-0.0082837,42.7035573],[-0.0082167,42.7034519],[-0.0081724,42.7033297],[-0.0079985,42.7032578],[-0.0078374,42.7032221],[-0.0077183,42.7031789],[-0.0076783,42.7031507],[-0.0076154,42.7030766],[-0.0075893,42.7030171],[-0.0076116,42.702932],[-0.0075646,42.7028777],[-0.0074928,42.7028377],[-0.0074424,42.7027527],[-0.0074619,42.7026524],[-0.0074086,42.7024863],[-0.0073935,42.7023331],[-0.0073223,42.7023043],[-0.0073439,42.7022483],[-0.0073788,42.7021725],[-0.0074241,42.7020696],[-0.0073868,42.7019409],[-0.007274,42.7018289],[-0.0070636,42.7017487],[-0.006853,42.7017043],[-0.0067283,42.7016442],[-0.0066331,42.701586],[-0.0065531,42.7015373],[-0.0064806,42.701471],[-0.0064564,42.701408],[-0.0064929,42.7013514],[-0.0064873,42.7012691],[-0.0065567,42.7012105],[-0.0067488,42.7011875],[-0.0069041,42.7010986],[-0.0069711,42.7010282],[-0.0070367,42.7008155],[-0.0071709,42.7006576],[-0.0073528,42.7005294],[-0.0076139,42.7004398],[-0.0078349,42.7004295],[-0.0080445,42.700406],[-0.0082125,42.7003452],[-0.0083076,42.7002137],[-0.0083229,42.7001018],[-0.008379,42.700019],[-0.0085361,42.6997844],[-0.0086899,42.6995699],[-0.008807,42.699402],[-0.0089071,42.6992439],[-0.009658,42.6985147],[-0.0102677,42.6978895],[-0.0104935,42.6974802],[-0.010885,42.6962244],[-0.0111258,42.6960141],[-0.0118183,42.6957375],[-0.0130664,42.6957568]]]]},"properties":{"natural":"scree"}},
{"type":"Feature","geometry":{"type":"MultiPolygon","coordinates":[[[[-0.023072,42.701624],[-0.02289,42.7014556],[-0.0227821,42.7012872],[-0.0228428,42.7011535],[-0.0228158,42.7010098],[-0.0226271,42.7009306],[-0.022216,42.7008315],[-0.0210904,42.7006482],[-0.020814,42.7005194],[-0.0204164,42.70039],[-0.0189948,42.6995857],[-0.0187427,42.6993768],[-0.0188231,42.6990496],[-0.0190645,42.6989865],[-0.019601,42.6988761],[-0.0197995,42.6987263],[-0.0197029,42.6985095],[-0.0191987,42.6982926],[-0.018335,42.6979141],[-0.018217,42.6976815],[-0.0182438,42.6975159],[-0.0184208,42.6973937],[-0.0187105,42.6971335],[-0.0185764,42.6968575],[-0.0184208,42.6968063],[-0.0170636,42.6965776],[-0.0167739,42.6965224],[-0.0158137,42.6961558],[-0.0155562,42.6958285],[-0.0155021,42.6955684],[-0.0154865,42.6954934],[-0.0156474,42.6951267],[-0.0158191,42.6950794],[-0.0159264,42.6949296],[-0.0158727,42.6946851],[-0.0157919,42.6945311],[-0.0156551,42.6943951],[-0.0154861,42.6942847],[-0.0152715,42.6942512],[-0.0150355,42.6942709],[-0.0146922,42.6943537],[-0.0143891,42.6943971],[-0.014035,42.6943833],[-0.0139204,42.6944442],[-0.0134874,42.6946422],[-0.0136231,42.6950616],[-0.0138233,42.6958975],[-0.0142601,42.696827],[-0.0143444,42.6977241],[-0.0145622,42.6982429],[-0.0147509,42.6984704],[-0.0149335,42.6986142],[-0.0158804,42.6989966],[-0.0164227,42.6993464],[-0.0166426,42.6994624],[-0.0165168,42.6995945],[-0.0162081,42.6995063],[-0.0158112,42.699305],[-0.0151679,42.6990172],[-0.0145191,42.6990048],[-0.014444,42.6991459],[-0.0144859,42.6994318],[-0.014069,42.6996556],[-0.0138056,42.6998902],[-0.0134776,42.6999164],[-0.0128588,42.6998763],[-0.0126132,42.6995487],[-0.0128084,42.6988648],[-0.0133434,42.698671],[-0.0137534,42.6985386],[-0.0136897,42.6982578],[-0.0136093,42.6980666],[-0.0133416,42.6981437],[-0.0131127,42.6981711],[-0.0128279,42.6981731],[-0.0124021,42.6981594],[-0.0118299,42.6982239],[-0.011625,42.6982278],[-0.0115133,42.6981809],[-0.0114813,42.6980401],[-0.0116224,42.6979149],[-0.0120588,42.697821],[-0.0123063,42.6977447],[-0.0123862,42.6976743],[-0.0122558,42.6976352],[-0.0118033,42.6976352],[-0.011146,42.6976176],[-0.0110582,42.6974807],[-0.0110582,42.6973477],[-0.0110768,42.6972186],[-0.0112312,42.6970406],[-0.0115053,42.6968783],[-0.0118672,42.6968919],[-0.0123462,42.6970445],[-0.0125831,42.6972949],[-0.0128253,42.6975648],[-0.0128945,42.6975413],[-0.013102,42.6974455],[-0.0132939,42.6972246],[-0.0133353,42.6970496],[-0.0134608,42.6969448],[-0.0137057,42.6968726],[-0.0136347,42.6968136],[-0.0134031,42.6965526],[-0.0131574,42.6963921],[-0.013013,42.6961243],[-0.0130664,42.6957568],[-0.0118183,42.6957375],[-0.0111258,42.6960141],[-0.010885,42.6962244],[-0.0104935,42.6974802],[-0.0102677,42.6978895],[-0.009658,42.6985147],[-0.0089071,42.6992439],[-0.008807,42.699402],[-0.0086899,42.6995699],[-0.0085361,42.6997844],[-0.008379,42.700019],[-0.0083229,42.7001018],[-0.0083076,42.7002137],[-0.0082125,42.7003452],[-0.0080445,42.700406],[-0.0078349,42.7004295],[-0.0076139,42.7004398],[-0.0073528,42.7005294],[-0.0071709,42.7006576],[-0.0070367,42.7008155],[-0.0069711,42.7010282],[-0.0069041,42.7010986],[-0.0067488,42.7011875],[-0.0065567,42.7012105],[-0.0064873,42.7012691],[-0.0064929,42.7013514],[-0.0064564,42.701408],[-0.0064806,42.701471],[-0.0065531,42.7015373],[-0.0066331,42.701586],[-0.0067283,42.7016442],[-0.006853,42.7017043],[-0.0070636,42.7017487],[-0.007274,42.7018289],[-0.0073868,42.7019409],[-0.0074241,42.7020696],[-0.0073788,42.7021725],[-0.0073439,42.7022483],[-0.0073223,42.7023043],[-0.0073935,42.7023331],[-0.0074086,42.7024863],[-0.0074619,42.7026524],[-0.0074424,42.7027527],[-0.0074928,42.7028377],[-0.0075646,42.7028777],[-0.0076116,42.702932],[-0.0075893,42.7030171],[-0.0076154,42.7030766],[-0.0076904,42.7030108],[-0.0077993,42.7029933],[-0.0078604,42.7030108],[-0.0080225,42.7031045],[-0.0080437,42.703126],[-0.0080437,42.7031787],[-0.0079985,42.7032578],[-0.0081724,42.7033297],[-0.0082966,42.7033077],[-0.0084041,42.7032237],[-0.0085393,42.7029835],[-0.0085318,42.7028207],[-0.0085243,42.7027075],[-0.0086069,42.7026523],[-0.0087234,42.7026909],[-0.0087327,42.702635],[-0.0086152,42.702561],[-0.0085957,42.7024973],[-0.0086488,42.7024808],[-0.0087663,42.7024541],[-0.0091243,42.7024479],[-0.0094484,42.7024508],[-0.0095123,42.7023679],[-0.0096588,42.7023376],[-0.0098165,42.7023486],[-0.0098766,42.7024535],[-0.0098503,42.7025943],[-0.0096888,42.7028345],[-0.0096062,42.7029532],[-0.0096888,42.7030001],[-0.0098954,42.7030277],[-0.0101696,42.7029587],[-0.0103199,42.7029559],[-0.0104852,42.7030167],[-0.0105641,42.7031299],[-0.010534,42.7032127],[-0.0102786,42.7032679],[-0.0099781,42.7032292],[-0.0098954,42.7032734],[-0.0095987,42.7033093],[-0.0094935,42.7034004],[-0.0095123,42.7035936],[-0.0096325,42.7037206],[-0.010072,42.7039028],[-0.0102222,42.703958],[-0.0106768,42.7040325],[-0.011259,42.7041098],[-0.0116985,42.7042755],[-0.0118939,42.7043334],[-0.0120291,42.704339],[-0.0120854,42.7042755],[-0.0119887,42.7041909],[-0.011857,42.7040581],[-0.0118871,42.7039502],[-0.0118532,42.7038562],[-0.0116651,42.7037954],[-0.0115145,42.7036958],[-0.0115893,42.7034883],[-0.0114697,42.7034924],[-0.0113858,42.7035644],[-0.0112795,42.7035726],[-0.0111425,42.7035438],[-0.011053,42.7034965],[-0.010983,42.7034123],[-0.0110441,42.7032892],[-0.0110328,42.7031565],[-0.0110991,42.7030779],[-0.0109964,42.7031136],[-0.0108639,42.7032069],[-0.0108209,42.7032961],[-0.0107817,42.7033701],[-0.010763,42.7033619],[-0.0107649,42.7032302],[-0.0108377,42.7031657],[-0.0109348,42.7030669],[-0.0111813,42.7029256],[-0.0114355,42.7027886],[-0.0115521,42.7027305],[-0.0118451,42.702686],[-0.011769,42.7026271],[-0.0117886,42.7025161],[-0.0118781,42.7024915],[-0.0119676,42.7025387],[-0.0120934,42.7026436],[-0.0122948,42.7026662],[-0.0124123,42.7026374],[-0.0125269,42.7026477],[-0.0126304,42.7026949],[-0.0126416,42.7027392],[-0.0128367,42.7027161],[-0.0129911,42.7026978],[-0.0133502,42.7026793],[-0.0135641,42.7026667],[-0.0136478,42.7026473],[-0.013632,42.7025485],[-0.0132839,42.7023508],[-0.0126827,42.7021444],[-0.0122832,42.7020253],[-0.0122951,42.7019904],[-0.0125166,42.7020485],[-0.0128568,42.7020979],[-0.0138152,42.7024364],[-0.0138182,42.702312],[-0.0137705,42.7022404],[-0.0139761,42.7022142],[-0.0139801,42.7020805],[-0.0138772,42.7019642],[-0.0138733,42.7019148],[-0.0142214,42.7020398],[-0.014157,42.7019387],[-0.0140172,42.7016551],[-0.0138829,42.7015194],[-0.0136753,42.7014193],[-0.0135249,42.7013468],[-0.0133571,42.7012029],[-0.0131669,42.7011618],[-0.013083,42.7013015],[-0.0128481,42.7013139],[-0.0125348,42.7013673],[-0.0124173,42.701429],[-0.0122271,42.7013509],[-0.0122216,42.7012276],[-0.0122831,42.7011618],[-0.0120873,42.7008658],[-0.0116454,42.7007589],[-0.0110804,42.7005287],[-0.0108511,42.7004917],[-0.0102917,42.7005451],[-0.0094302,42.7009069],[-0.0091617,42.7011289],[-0.0088373,42.7014331],[-0.0086471,42.701466],[-0.0086807,42.701318],[-0.008938,42.7008082],[-0.0093184,42.7004876],[-0.0098778,42.700245],[-0.0103924,42.6999943],[-0.0107672,42.7000559],[-0.0110524,42.7003602],[-0.0113467,42.7004594],[-0.0118132,42.700652],[-0.0120898,42.7006916],[-0.0125008,42.7007505],[-0.0129264,42.7008863],[-0.0134746,42.7009192],[-0.0139216,42.7008355],[-0.0138469,42.7007611],[-0.0137905,42.7006718],[-0.0136603,42.7005729],[-0.0135452,42.7005474],[-0.0134389,42.7005697],[-0.0133044,42.7006224],[-0.0131177,42.7005825],[-0.0130092,42.700474],[-0.0130222,42.7003943],[-0.0130765,42.700356],[-0.0132609,42.7003911],[-0.0134541,42.7004501],[-0.0135561,42.7004501],[-0.0135973,42.7003815],[-0.0135279,42.7002699],[-0.0135452,42.7002492],[-0.0135865,42.7002874],[-0.0136212,42.7003576],[-0.0136906,42.7004421],[-0.0137427,42.7005203],[-0.0138382,42.7006303],[-0.0140504,42.7008114],[-0.0143472,42.7009357],[-0.0153317,42.7010385],[-0.0161036,42.7010919],[-0.0169315,42.7010672],[-0.0184195,42.7011042],[-0.0199354,42.701207],[-0.0212915,42.7014395],[-0.021825,42.701594299999999],[-0.0224856,42.7016934],[-0.0229574,42.7017132],[-0.023072,42.701624]]]]},"properties":{"natural":"grassland"}},
{"type":"Feature","geometry":{"type":"MultiPolygon","coordinates":[[[[-0.0258267,42.6905336],[-0.0255885,42.6904139],[-0.0252879,42.690286],[-0.0247579,42.6901697],[-0.0243465,42.6898441],[-0.0241725,42.6895708],[-0.0238629,42.6895224],[-0.0238101,42.6892118],[-0.0238482,42.68903],[-0.0236325,42.6890353],[-0.0233095,42.6889792],[-0.0231283,42.6890242],[-0.0229859,42.6892394],[-0.022789,42.6893026],[-0.0226197,42.6893243],[-0.0222185,42.6892662],[-0.0219643,42.6891898],[-0.021578,42.6890076],[-0.0213476,42.6888813],[-0.0213443,42.6888374],[-0.0211349,42.6891471],[-0.0211462,42.6893213],[-0.0214259,42.689679],[-0.0218007,42.6898846],[-0.0221084,42.6899504],[-0.0222538,42.6897366],[-0.0222874,42.6896543],[-0.0224776,42.689753],[-0.022472,42.6899257],[-0.0226342,42.6901601],[-0.0230985,42.6902834],[-0.0232719,42.6901888],[-0.0235124,42.6902382],[-0.0237026,42.6904396],[-0.023848,42.6906576],[-0.0241781,42.6906493],[-0.024469,42.6907151],[-0.0246155,42.6908035],[-0.0252405,42.6907221],[-0.0256676,42.6906814],[-0.0258267,42.6905336]]]]},"properties":{"name":"Glacier du Casque","natural":"glacier"}},
{"type":"Feature","geometry":{"type":"MultiPolygon","coordinates":[[[[0.0316945,42.6789089],[0.0317976,42.678826],[0.0319297,42.678781],[0.0320587,42.6786104],[0.0322907,42.6785819],[0.0324583,42.6784966],[0.0326646,42.6783829],[0.0329869,42.6782597],[0.0333479,42.6781554],[0.0335447,42.6780768],[0.0337088,42.6780299],[0.0338911,42.6779763],[0.0341874,42.6778925],[0.0344335,42.6778322],[0.0346979,42.6777886],[0.0349166,42.6777115],[0.0350716,42.6776412],[0.0352266,42.6775842],[0.0354819,42.6775272],[0.0356961,42.6774669],[0.0358009,42.6774669],[0.0358966,42.6774937],[0.0359513,42.6775406],[0.03612,42.6775138],[0.0362431,42.6774636],[0.0364527,42.6774368],[0.036594,42.6774234],[0.036749,42.6773731],[0.036945,42.6773429],[0.0371045,42.6773496],[0.0372458,42.6773865],[0.0374008,42.6774435],[0.037492,42.6775239],[0.0375695,42.6775742],[0.0376561,42.6776177],[0.0377336,42.6776445],[0.0377199,42.6777115],[0.037615,42.6778255],[0.0375239,42.6778891],[0.0374874,42.6779595],[0.037378,42.6779964],[0.0372094,42.6780701],[0.0371091,42.6781438],[0.0369769,42.6782477],[0.0368903,42.6783348],[0.0368174,42.678432],[0.0367718,42.6785158],[0.0366396,42.6785526],[0.0364755,42.6785258],[0.0362978,42.678499],[0.0361929,42.6784119],[0.0360835,42.678375],[0.0359513,42.6783683],[0.0358556,42.6784253],[0.0357599,42.6785191],[0.0355776,42.6785929],[0.035431699999999999,42.6786666],[0.0351992,42.6787403],[0.0350169,42.6787939],[0.0348574,42.6788777],[0.034707,42.6789447],[0.0345793,42.6790184],[0.0344244,42.6791089],[0.0343374,42.6791861],[0.0341988,42.6792193],[0.0340666,42.679243],[0.0339538,42.6792762],[0.0338604,42.6793615],[0.0337282,42.6793686],[0.033638,42.6794539],[0.0335155,42.6795155],[0.033393,42.679551],[0.0332576,42.6795866],[0.0331255,42.6796008],[0.0330256,42.6796387],[0.0328677,42.6796814],[0.0326775,42.6797406],[0.032439,42.6798188],[0.0322682,42.6798354],[0.0320716,42.6798212],[0.0319652,42.6797122],[0.0318975,42.6794989],[0.0319104,42.6793307],[0.0318459,42.6791719],[0.0317428,42.6790155],[0.0316945,42.6789089]]]]},"properties":{"description":"El macizo del Monte Perdido está formado por materiales del Cretácico Superior y del Paleógeno intensamente plegados por la Orogenia Alpina. En su cara noreste se encuentra el complejo glaciar sobre un relieve en graderío...","glacier:type":"mountain","name":"Glaciar Monte Perdido","name:fr":"Glacier du Mont Perdu","natural":"glacier","source":"Instituto Geográfico y Minero de España;Instituto Geográfico Nacional","website":"http://info.igme.es/ielig/LIGInfo.aspx?codigo=ARA026"}},
{"type":"Feature","geometry":{"type":"MultiPolygon","coordinates":[[[[0.060802,42.6985258],[0.0608503,42.6983803],[0.0612446,42.698353],[0.0614715,42.6981543],[0.0615874,42.6981756],[0.0616984,42.6982892],[0.0620316,42.6982253],[0.0627123,42.6979805],[0.0630406,42.6979485],[0.0633062,42.6978634],[0.0635717,42.6977711],[0.0636731,42.6976292],[0.0638518,42.6971111],[0.0640014,42.6966605],[0.0640835,42.6965008],[0.0641076,42.6963731],[0.0640111,42.6961744],[0.0641028,42.6958834],[0.0644794,42.6955072],[0.0649525,42.6951205],[0.0650974,42.6949537],[0.0652905,42.6947763],[0.0654402,42.6948188],[0.0654402,42.6949643],[0.0647015,42.6956918],[0.0645277,42.6959969],[0.0643973,42.6963163],[0.0644891,42.696625],[0.0645808,42.6968663],[0.0642476,42.6976966],[0.0639676,42.6980727],[0.0635717,42.6983921],[0.0631179,42.698605],[0.062862,42.6988604],[0.0623551,42.6989137],[0.0622874,42.6989111],[0.0619881,42.6988995],[0.0616007,42.6987711],[0.0612413,42.6986677],[0.060802,42.6985258]]]]},"properties":{"natural":"bare_rock"}},
{"type":"Feature","geometry":{"type":"MultiPolygon","coordinates":[[[[0.0707307,42.6978986],[0.0707886,42.697558],[0.0711652,42.6971038],[0.0714935,42.6964367],[0.0711362,42.6959612],[0.0712328,42.6956631],[0.0714066,42.6953651],[0.0713583,42.6949392],[0.0713197,42.6945915],[0.0713197,42.694336],[0.0714549,42.6941302],[0.072266,42.6936405],[0.0727971,42.6930798],[0.0730095,42.6926327],[0.0732702,42.6923772],[0.0736372,42.692363],[0.0740331,42.6923204],[0.0741779,42.6920649],[0.0741296,42.6914829],[0.0741006,42.6908725],[0.0745311,42.6900005],[0.0747882,42.6898989],[0.0750564,42.6898286],[0.0753753,42.6901202],[0.075327,42.6905673],[0.0752883,42.6909222],[0.0754042,42.6909577],[0.0756553,42.6911777],[0.075327,42.6917668],[0.0753173,42.6921856],[0.0753849,42.6926966],[0.0751725,42.6929662],[0.0747573,42.6935198],[0.0744772,42.6940379],[0.0740524,42.694556],[0.0736082,42.6952231],[0.0737241,42.6955922],[0.0739462,42.6957341],[0.0742069,42.6958902],[0.0742938,42.6961457],[0.0739172,42.6965786],[0.0732895,42.6968554],[0.0721018,42.6974302],[0.0715032,42.6980263],[0.0711652,42.6984025],[0.0709045,42.6984876],[0.0707307,42.6978986]]]]},"properties":{"natural":"bare_rock"}},
{"type":"Feature","geometry":{"type":"MultiPolygon","coordinates":[[[[-0.0112987,42.6853564],[-0.0109431,42.6853449],[-0.009773,42.685602],[-0.009345,42.685718],[-0.0093845,42.6858043],[-0.0095744,42.6859323],[-0.0099304,42.6859904],[-0.0103418,42.6859497],[-0.0106515,42.6858718],[-0.0110102,42.6857118],[-0.0111696,42.6855613],[-0.0112739,42.6854417],[-0.0112987,42.6853564]]]]},"properties":{"natural":"glacier"}},
{"type":"Feature","geometry":{"type":"MultiPolygon","coordinates":[[[[0.0285635,42.6870866],[0.0292572,42.6867411],[0.0297831,42.6865026],[0.0301101,42.6863962],[0.0302332,42.6865936],[0.030815,42.6869308],[0.0314527,42.6874818],[0.0314613,42.6877774],[0.0310586,42.6881228],[0.0303537,42.6883448],[0.0297271,42.6882626],[0.0293579,42.6879419],[0.0288433,42.6874484],[0.0285635,42.6870866]]]]},"properties":{"natural":"glacier"}},
{"type":"Feature","geometry":{"type":"MultiPolygon","coordinates":[[[[-0.0067738,42.6881479],[-0.0065681,42.6879153],[-0.00622,42.6879735],[-0.0059906,42.6880549],[-0.0052311,42.6880433],[-0.0049067,42.6880665],[-0.0047485,42.688177],[-0.004701,42.6884213],[-0.0046377,42.6886597],[-0.0046852,42.688933],[-0.0053616,42.68909],[-0.0055238,42.6889853],[-0.0060697,42.6887295],[-0.0066709,42.6883747],[-0.0067738,42.6881479]]]]},"properties":{"natural":"glacier"}},
{"type":"Feature","geometry":{"type":"MultiPolygon","coordinates":[[[[0.0152855,42.7007295],[0.0156883,42.700121],[0.0160575,42.6994221],[0.0164826,42.6985752],[0.0165498,42.6979914],[0.0166505,42.6975145],[0.0173889,42.6973007],[0.0177805,42.6971362],[0.0177693,42.6968649],[0.0172882,42.6964866],[0.0168854,42.6963221],[0.0165945,42.6961248],[0.0168519,42.6955821],[0.0172323,42.6948667],[0.0175344,42.6945788],[0.0180266,42.694674],[0.0181721,42.6947022],[0.0185077,42.6946035],[0.0186532,42.6944308],[0.0195594,42.6941266],[0.0200853,42.6937976],[0.0200965,42.6935674],[0.0199958,42.6932631],[0.0201748,42.6928684],[0.0206559,42.6927368],[0.0209468,42.6928355],[0.021193,42.6929671],[0.0223342,42.6927039],[0.0227034,42.6924737],[0.0234194,42.6923997],[0.0240012,42.6922928],[0.0240796,42.6920707],[0.0236208,42.6918569],[0.0236208,42.6916842],[0.0242252,42.6914843],[0.0251984,42.6912401],[0.0256683,42.6914211],[0.0265969,42.6916842],[0.0274137,42.6917747],[0.0294947,42.691528],[0.0301325,42.691347],[0.0301548,42.6911003],[0.0297744,42.6908783],[0.0297073,42.6904342],[0.0300318,42.6899655],[0.0301996,42.6893487],[0.0305241,42.6889046],[0.0309492,42.6888306],[0.0317436,42.6889457],[0.032661,42.6890197],[0.0331645,42.6889704],[0.0335113,42.6888059],[0.0337127,42.6885345],[0.0335673,42.6882138],[0.0328289,42.6878437],[0.0318778,42.6877285],[0.0314527,42.6874818],[0.030815,42.6869308],[0.0302332,42.6865936],[0.0301101,42.6863962],[0.0313744,42.6858452],[0.0328512,42.6851379],[0.0352791,42.6842661],[0.0368231,42.6835834],[0.0383671,42.6830406],[0.0390048,42.6830982],[0.0394412,42.6832627],[0.0397545,42.6836821],[0.0400677,42.6842003],[0.0406272,42.6846197],[0.0413096,42.6848911],[0.0420928,42.6850803],[0.0429208,42.6851461],[0.0432676,42.6850063],[0.0432564,42.6847267],[0.0428313,42.6843319],[0.0423949,42.683896],[0.0417124,42.6837562],[0.0412649,42.6835752],[0.0412873,42.6832873],[0.041666,42.6830504],[0.0418131,42.6829584],[0.0424173,42.6828103],[0.0439613,42.6824731],[0.0447892,42.6826129],[0.0462213,42.6827939],[0.0476199,42.6827445],[0.0484254,42.6827281],[0.0491079,42.6828185],[0.0492981,42.68309],[0.0490968,42.6838384],[0.0488506,42.6845786],[0.0487275,42.6858123],[0.0486828,42.6865278],[0.0484366,42.6873009],[0.0477318,42.6882549],[0.0474856,42.6887154],[0.046915,42.6890608],[0.0454941,42.6896858],[0.0448986,42.6897717],[0.0443137,42.6897681],[0.0433012,42.6902944],[0.0428175,42.6905077],[0.0426329,42.690409],[0.0422271,42.6901875],[0.0410411,42.6898997],[0.0406719,42.6896283],[0.0403952,42.689673],[0.0402834,42.6896113],[0.0403169,42.6894921],[0.040767,42.6893445],[0.0414271,42.6889786],[0.0417684,42.6887113],[0.041777,42.6885463],[0.0414887,42.688222],[0.0410274,42.6881146],[0.0406048,42.6881315],[0.0402442,42.6882462],[0.039844,42.6884522],[0.0396482,42.6888881],[0.0389937,42.6893939],[0.0384902,42.6898421],[0.0375056,42.6903849],[0.0368455,42.690722],[0.0366777,42.6912566],[0.0364539,42.691602],[0.0360175,42.6918733],[0.0344624,42.6924161],[0.0332205,42.6930493],[0.0313856,42.6936414],[0.0302779,42.6941266],[0.0295507,42.6947022],[0.0280179,42.6954916],[0.0251648,42.6963221],[0.0237215,42.6969142],[0.0227369,42.6976625],[0.0220768,42.6981887],[0.0210251,42.6983203],[0.018877,42.6985752],[0.0181721,42.6989534],[0.0179259,42.699381],[0.0168631,42.7001457],[0.0158002,42.700746],[0.0153862,42.7009515],[0.0152855,42.7007295]]]]},"properties":{"natural":"scree"}},
{"type":"Feature","geometry":{"type":"MultiPolygon","coordinates":[[[[-0.0232583,42.6880961],[-0.0229534,42.6880015],[-0.022338,42.6878021],[-0.0220883,42.6877675],[-0.021924,42.6877178],[-0.0216024,42.6877487],[-0.0212919,42.6877857],[-0.0212276,42.687833],[-0.0212499,42.6878967],[-0.0213618,42.6879029],[-0.021566,42.6878782],[-0.0216863,42.6879173],[-0.0217506,42.6880858],[-0.0218569,42.6882914],[-0.0220471,42.6883799],[-0.0222541,42.6883819],[-0.0224863,42.6883696],[-0.0226429,42.6882914],[-0.0229841,42.6882298],[-0.0232583,42.6881722],[-0.0232583,42.6880961]]]]},"properties":{"natural":"glacier"}},
{"type":"Feature","geometry":{"type":"MultiPolygon","coordinates":[[[[-0.0004308,42.6867188],[-0.0002251,42.6865909],[0.0000202,42.68646],[0.0000755,42.6861693],[0.0002615,42.686146],[0.0007045,42.6862158],[0.0011673,42.6863088],[0.0014086,42.6864687],[0.0015589,42.6866665],[0.0016064,42.6868206],[0.00146,42.6869194],[0.0011515,42.6870765],[0.0010368,42.6872393],[0.000839,42.6873149],[0.0003327,42.6873178],[0.000127,42.6872626],[0.0000993,42.6871404],[0.0001824,42.6869892],[0.0000993,42.6869631],[-0.0001855,42.6869747],[-0.0003991,42.6868468],[-0.0004308,42.6867188]]]]},"properties":{"name":"Glacier de l'Épaule","natural":"glacier"}},
{"type":"Feature","geometry":{"type":"MultiPolygon","coordinates":[[[[0.0081504,42.6959622],[0.0082323,42.695293],[0.0084001,42.6947913],[0.0087246,42.6947256],[0.008926,42.6948736],[0.0091386,42.6952683],[0.0092281,42.6956794],[0.0096085,42.6960166],[0.0101791,42.6961399],[0.0113994,42.6961494],[0.0119804,42.6958521],[0.0129538,42.6957863],[0.0131776,42.696181],[0.0130881,42.6965757],[0.0125846,42.6974967],[0.0121259,42.6986068],[0.0111726,42.699195],[0.0114047,42.6986174],[0.0113189,42.6979196],[0.0109059,42.6968867],[0.0096559,42.6966343],[0.0082183,42.6968748],[0.0081504,42.6959622]]]]},"properties":{"name":"Glacier Ouest du Marboré","natural":"glacier"}},
{"type":"Feature","geometry":{"type":"MultiPolygon","coordinates":[[[[-0.0087499,42.6849351],[-0.0084888,42.6849293],[-0.0081526,42.6850572],[-0.0079073,42.685255],[-0.0073694,42.6853567],[-0.0067839,42.6854178],[-0.0062103,42.6854323],[-0.0055576,42.685473],[-0.0048338,42.6855399],[-0.0043828,42.6856301],[-0.0042641,42.6857376],[-0.0044065,42.6859441],[-0.004719,42.6859732],[-0.0054667,42.6858423],[-0.0056526,42.6858889],[-0.005886,42.6860313],[-0.0061985,42.6860749],[-0.0067997,42.686043],[-0.0073179,42.685915],[-0.0076067,42.6858074],[-0.0078717,42.6856766],[-0.0081288,42.6854003],[-0.0082752,42.6852346],[-0.0084216,42.685127],[-0.0086391,42.6850776],[-0.0087499,42.685002],[-0.0087499,42.6849351]]]]},"properties":{"natural":"scree"}},
{"type":"Feature","geometry":{"type":"MultiPolygon","coordinates":[[[[-0.0052452,42.6865693],[-0.0052175,42.6865024],[-0.0049841,42.6864791],[-0.0047546,42.6864384],[-0.0046993,42.6863832],[-0.0045608,42.6862203],[-0.0035205,42.6861331],[-0.0033504,42.6862843],[-0.0031645,42.6865693],[-0.002757,42.6869502],[-0.0025395,42.6872642],[-0.0024445,42.6874765],[-0.0024801,42.6876131],[-0.0027016,42.6877294],[-0.0028045,42.6876218],[-0.0033464,42.6876771],[-0.0034137,42.687491],[-0.0035679,42.6873195],[-0.0039635,42.6872061],[-0.0041692,42.6870432],[-0.0041415,42.686924],[-0.0040743,42.6868397],[-0.0041534,42.6867146],[-0.0043907,42.6866536],[-0.0046043,42.686671],[-0.0048456,42.6866856],[-0.0051265,42.6866303],[-0.0052452,42.6865693]]]]},"properties":{"natural":"scree"}},
{"type":"Feature","geometry":{"type":"MultiPolygon","coordinates":[[[[-0.0170137,42.6871476],[-0.0164472,42.6868389],[-0.0161258,42.6866407],[-0.0159032,42.6865561],[-0.0156511,42.6865246],[-0.0154419,42.686631],[-0.0150975,42.6865942],[-0.0141689,42.6864626],[-0.01352,42.686405],[-0.0128487,42.6864297],[-0.012588,42.6865837],[-0.0123701,42.6867739],[-0.0119524,42.6869957],[-0.0109708,42.6870702],[-0.0104205,42.6870718],[-0.0098735,42.6871372],[-0.0095089,42.6871305],[-0.0091763,42.6874598],[-0.0089829,42.6876802],[-0.0087496,42.6880345],[-0.0087364,42.6881728],[-0.0088812,42.6882871],[-0.0095242,42.6881837],[-0.0101507,42.6879864],[-0.0106206,42.6878219],[-0.011415,42.6878178],[-0.012215,42.6879206],[-0.012752,42.6880275],[-0.0134401,42.688229],[-0.0140331,42.6884263],[-0.0147156,42.688488],[-0.0150848,42.6884099],[-0.0152806,42.6883441],[-0.015558,42.6882817],[-0.0159989,42.6879806],[-0.0158146,42.6875284],[-0.0155349,42.6872331],[-0.0154891,42.6871534],[-0.0154333,42.6870637],[-0.0154365,42.686915],[-0.015576,42.68684],[-0.015812,42.6868479],[-0.0166951,42.6872221],[-0.0170137,42.6871476]]]]},"properties":{"natural":"scree"}},
{"type":"Feature","geometry":{"type":"MultiPolygon","coordinates":[[[[-0.0280258,42.6893022],[-0.0279704,42.6892091],[-0.0273476,42.6890213],[-0.0270455,42.6889391],[-0.02657,42.6888301],[-0.0262204,42.688824],[-0.0256945,42.6886841],[-0.0253281,42.6886245],[-0.0248498,42.6886266],[-0.024419,42.6886944],[-0.0239715,42.6887438],[-0.0236918,42.6886903],[-0.0235771,42.6885361],[-0.0235687,42.6884292],[-0.0234317,42.6883922],[-0.0232051,42.6884148],[-0.0230708,42.6884744],[-0.0228303,42.6885114],[-0.0227632,42.6885937],[-0.0228639,42.6887068],[-0.0230575,42.6887439],[-0.0234728,42.6887701],[-0.023904,42.6888399],[-0.0248454,42.6890027],[-0.0252924,42.6891597],[-0.0255851,42.6892208],[-0.0258304,42.6893545],[-0.0259174,42.6894592],[-0.0262853,42.6895639],[-0.0267639,42.6896046],[-0.0272109,42.6895929],[-0.0275709,42.689529],[-0.0278438,42.6894243],[-0.0280258,42.6893022]]]]},"properties":{"natural":"glacier"}},
{"type":"Feature","geometry":{"type":"MultiPolygon","coordinates":[[[[0.0366301,42.6918128],[0.036638,42.6917823],[0.0366914,42.6917561],[0.0367211,42.6917271],[0.0367191,42.6916718],[0.0366875,42.6916049],[0.0366963,42.6915896],[0.0367033,42.6915773],[0.0367884,42.6915366],[0.0369011,42.6915046],[0.0369466,42.6914857],[0.0369921,42.6914072],[0.0370415,42.6914014],[0.037085,42.6914131],[0.0371167,42.6914407],[0.0370989,42.6915075],[0.0370949,42.6915991],[0.0371028,42.6916282],[0.0371088,42.6916558],[0.0370989,42.6916805],[0.037089,42.691714],[0.0371108,42.6917532],[0.0371384,42.6918027],[0.0371384,42.6918535],[0.0371187,42.6919335],[0.0370653,42.6918434],[0.0370119,42.6917838],[0.0369466,42.6917779],[0.0368457,42.691807],[0.0368378,42.6917808],[0.0368042,42.6917736],[0.0367725,42.6917896],[0.036729,42.6918346],[0.0366816,42.6918419],[0.0366301,42.6918128]]]]},"properties":{"natural":"water"}},
{"type":"Feature","geometry":{"type":"MultiPolygon","coordinates":[[[[-0.0053616,42.68909],[-0.0046852,42.688933],[-0.0046377,42.6886597],[-0.004701,42.6884213],[-0.0047485,42.688177],[-0.0026928,42.6887491],[-0.0022564,42.6887491],[-0.0019655,42.6884448],[-0.0020662,42.6879925],[-0.0021222,42.6873428],[-0.0020103,42.6868905],[-0.0018105,42.6867665],[-0.0015219,42.6867164],[-0.0013278,42.6867918],[-0.0011488,42.6870714],[-0.0010257,42.6875895],[-0.0009026,42.6881734],[-0.0005558,42.6890452],[-0.0002425,42.6897524],[-0.0004551,42.6902541],[-0.0008243,42.6909038],[-0.0006565,42.6912491],[-0.0003432,42.6912574],[0.0009435,42.6911258],[0.001749,42.6909778],[0.0018833,42.6912738],[0.0026888,42.6918495],[0.0035727,42.6923264],[0.0038748,42.6925978],[0.0038301,42.6927787],[0.0035056,42.6929432],[0.0030357,42.6930419],[0.0020735,42.6930337],[0.0018721,42.6930172],[0.0005407,42.6930994],[-0.00069,42.6932063],[-0.0011711,42.6930994],[-0.0013613,42.6926554],[-0.0016858,42.6924416],[-0.0021333,42.6920057],[-0.002469,42.6915534],[-0.0031962,42.6901225],[-0.0035655,42.6896702],[-0.0045914,42.6893979],[-0.0053616,42.68909]]]]},"properties":{"natural":"scree"}},
{"type":"Feature","geometry":{"type":"MultiPolygon","coordinates":[[[[-0.0214955,42.6938176],[-0.0212577,42.6934764],[-0.0212046,42.6930526],[-0.021226,42.6927371],[-0.0210168,42.6925085],[-0.0205953,42.6923462],[-0.0204321,42.6922679],[-0.0200731,42.6916601],[-0.0197488,42.6914217],[-0.0194244,42.6913344],[-0.0187282,42.6912414],[-0.0183247,42.6910611],[-0.0172804,42.6905668],[-0.0166,42.6903866],[-0.0160646,42.6903088],[-0.0152311,42.690204],[-0.0147488,42.6901365],[-0.0142107,42.6901182],[-0.0139702,42.6903804],[-0.0125848,42.6900986],[-0.0126926,42.6896766],[-0.0124307,42.6894329],[-0.0118721,42.6893894],[-0.0109751,42.6893825],[-0.0105919,42.6897735],[-0.0099409,42.6897233],[-0.0095285,42.6897398],[-0.0086728,42.6900319],[-0.0079371,42.6902703],[-0.0073042,42.6906541],[-0.0068058,42.6912298],[-0.0067029,42.691538],[-0.0066396,42.6918694],[-0.0066871,42.6920729],[-0.0069403,42.6922241],[-0.0080716,42.6922125],[-0.0089181,42.6922474],[-0.0092029,42.6922881],[-0.0101285,42.692584600000007],[-0.0108959,42.6929277],[-0.0112762,42.6931103],[-0.012104,42.6924553],[-0.0128201,42.6920606],[-0.0130662,42.692077],[-0.013055,42.6923237],[-0.0128872,42.6926115],[-0.0124509,42.693072],[-0.0122003,42.6933828],[-0.0127996,42.6935105],[-0.013407,42.6924786],[-0.0137711,42.6921428],[-0.0141515,42.6920852],[-0.0146662,42.6921181],[-0.01472,42.6922993],[-0.0148514,42.6923466],[-0.0149211,42.6925457],[-0.0152993,42.6923269],[-0.0158969,42.6926527],[-0.0164772,42.692951],[-0.0168862,42.6930427],[-0.0169047,42.6931748],[-0.0166743,42.6936637],[-0.0168996,42.6936834],[-0.0169747,42.6937465],[-0.0178325,42.6934421],[-0.0186045,42.6934257],[-0.0189408,42.6935908],[-0.0189025,42.6938665],[-0.0189408,42.6941625],[-0.0190887,42.694279],[-0.0195983,42.6944249],[-0.020137,42.694194],[-0.0205848,42.6940671],[-0.0211348,42.6938648],[-0.0214955,42.6938176]]]]},"properties":{"natural":"scree"}},
{"type":"Feature","geometry":{"type":"MultiPolygon","coordinates":[[[[0.0172973,42.693933],[0.0173197,42.6933409],[0.017577,42.6928722],[0.0185504,42.6925926],[0.0193,42.692609],[0.0201503,42.6925103],[0.0213139,42.692239],[0.0220971,42.6919018],[0.022567,42.6915317],[0.0230258,42.6915071],[0.0227908,42.691211],[0.024111,42.6904544],[0.0240887,42.6901255],[0.024346,42.6897554],[0.0247935,42.6893689],[0.0249278,42.6890564],[0.0247264,42.6888426],[0.0249166,42.6886287],[0.025476,42.6885547],[0.0257557,42.6885876],[0.0261361,42.6887356],[0.0259571,42.6890153],[0.0253641,42.6896403],[0.0252634,42.6899363],[0.0255096,42.6900268],[0.0258117,42.6899857],[0.0259459,42.6897061],[0.0260242,42.6893278],[0.0263823,42.6889906],[0.0268074,42.6889001],[0.0272102,42.6888508],[0.0275794,42.6885794],[0.0282507,42.6883656],[0.0285416,42.6884807],[0.0287318,42.6883573],[0.0290115,42.6884231],[0.0290787,42.6885383],[0.0287878,42.6886698],[0.0282172,42.6887685],[0.0279375,42.6889248],[0.0278703,42.6891962],[0.02815,42.6894676],[0.0265837,42.6901501],[0.0252187,42.6907916],[0.0245698,42.6910712],[0.0243796,42.6912932],[0.0242252,42.6914843],[0.0236208,42.6916842],[0.0236208,42.6918569],[0.0240796,42.6920707],[0.0240012,42.6922928],[0.0234194,42.6923997],[0.0227034,42.6924737],[0.0223342,42.6927039],[0.021193,42.6929671],[0.0209468,42.6928355],[0.0206559,42.6927368],[0.0201748,42.6928684],[0.0199958,42.6932631],[0.0200965,42.6935674],[0.0200853,42.6937976],[0.0195594,42.6941266],[0.0186532,42.6944308],[0.0185077,42.6946035],[0.0181721,42.6947022],[0.0180266,42.694674],[0.0175344,42.6945788],[0.0173309,42.6944099],[0.0172973,42.693933]]]]},"properties":{"name:fr":"Glacier du Marboré","natural":"glacier"}},
{"type":"Feature","geometry":{"type":"MultiPolygon","coordinates":[[[[-0.000945,42.6859948],[-0.00068,42.6859541],[-0.0004664,42.6859773],[-0.0005771,42.6863001],[-0.0006325,42.6864484],[-0.0007195,42.6864717],[-0.0008422,42.6863786],[-0.0009371,42.6861169],[-0.000945,42.6859948]]]]},"properties":{"natural":"glacier"}},
{"type":"Feature","geometry":{"type":"MultiPolygon","coordinates":[[[[-0.0389508,42.6930989],[-0.0387982,42.6917752],[-0.036848,42.6915607],[-0.0358177,42.6913602],[-0.0355171,42.6913134],[-0.0343826,42.6911222],[-0.033938,42.69106],[-0.0334315,42.691036],[-0.0329294,42.6910264],[-0.031778,42.6908806],[-0.0308061,42.6902334],[-0.0297935,42.689869],[-0.0290117,42.6894175],[-0.0277477,42.6887693],[-0.026852,42.6881218],[-0.0248632,42.6880913],[-0.0234568,42.6878156],[-0.0222973,42.6875513],[-0.0213098,42.6874536],[-0.019595,42.6868079],[-0.0184428,42.6863636],[-0.0174755,42.6860418],[-0.0166627,42.6852031],[-0.0159803,42.6851192],[-0.0154216,42.6853381],[-0.0145465,42.6851944],[-0.0137965,42.6852461],[-0.0129671,42.6852093],[-0.0114065,42.684999],[-0.0099546,42.6847605],[-0.0087856,42.6847297],[-0.0077293,42.6850712],[-0.0073153,42.6851283],[-0.00673,42.6851152],[-0.0053888,42.6850539],[-0.0039367,42.6850436],[-0.0028905,42.6850522],[-0.0019885,42.685179],[-0.0012556,42.6855905],[0.0002578,42.6853439],[0.0009196,42.6854796],[0.0017359,42.6858061],[0.0022767,42.6861867],[0.0025848,42.6868957],[0.0030952,42.6872213],[0.0038846,42.6871026],[0.0043153,42.6872024],[0.004753,42.6874362],[0.0048126,42.6878267],[0.0043534,42.6882917],[0.0047623,42.68903],[0.0060862,42.6889844],[0.006371,42.6889903],[0.0078017,42.6901226],[0.0084635,42.6902238],[0.0095241,42.6904556],[0.0105274,42.6909675],[0.0111406,42.6913959],[0.0113026,42.6918253],[0.0113762,42.6923868],[0.0115224,42.692771],[0.0117431,42.6930147],[0.0125217,42.6935781],[0.0131855,42.6938402],[0.0144159,42.6940293],[0.0150533,42.6952626],[0.0151186,42.6960591],[0.0152727,42.6969629],[0.0151578,42.697838],[0.0152918,42.6998055],[0.0150081,42.7002409],[0.0144777,42.7007528],[0.0134102,42.7008618],[0.0132539,42.7010718],[0.0128334,42.7016365],[0.0135169,42.7020272],[0.0112328,42.7065703],[0.0024365,42.7064739],[-0.0193385,42.7062351],[-0.0217125,42.7049428],[-0.0224769,42.7046412],[-0.0229624,42.7046097],[-0.0232601,42.7042352],[-0.0250948,42.7026308],[-0.0253791,42.7018679],[-0.0255239,42.701454],[-0.025604,42.7012205],[-0.0256553,42.7009021],[-0.025886,42.7004053],[-0.0261703,42.700153],[-0.0276265,42.6997975],[-0.028072,42.6998041],[-0.0287345,42.6998987],[-0.03003,42.7002279],[-0.0303009,42.7001668],[-0.0304404,42.6999224],[-0.0312504,42.6991457],[-0.0315186,42.699061],[-0.0326653,42.6985741],[-0.0344825,42.6977619],[-0.0348005,42.6970968],[-0.0350455,42.6965843],[-0.0359253,42.6954173],[-0.0373415,42.6946287],[-0.0373844,42.6943133],[-0.0387678,42.6932407],[-0.0389508,42.6930989]]]]},"properties":{"image":"http://upload.wikimedia.org/wikipedia/commons/9/90/Gavarnie-Cirque.JPG","name":"Cirque de Gavarnie","name:es":"Circo de Gavarnie","name:fr":"Cirque de Gavarnie","name:it":"Circo de Gavarnie","natural":"cirque","place":"locality","tourism":"attraction","wheelchair":"limited","wikidata":"Q1093112","wikipedia":"fr:Cirque de Gavarnie"}},
{"type":"Feature","geometry":{"type":"MultiPolygon","coordinates":[[[[-0.0025851,42.6842261],[-0.0025231,42.6840938],[-0.0022252,42.6839935],[-0.0017474,42.6839068],[-0.0014061,42.6838703],[-0.0012633,42.6837973],[-0.0010958,42.6837471],[-0.0006862,42.6838064],[-0.0003511,42.6837882],[-0.0000967,42.6838794],[0.0000584,42.6840345],[0.0000274,42.6841577],[-0.0001526,42.6842398],[-0.0004194,42.6842398],[-0.0007421,42.6842626],[-0.0010151,42.6844223],[-0.001133,42.6845637],[-0.001524,42.6846686],[-0.0016233,42.6846002],[-0.0017722,42.6846047],[-0.0021135,42.684664],[-0.002399,42.684623],[-0.0025479,42.6844542],[-0.0025851,42.6842261]]]]},"properties":{"natural":"glacier"}},
{"type":"Feature","geometry":{"type":"MultiPolygon","coordinates":[[[[-0.0270537,42.6867515],[-0.0269721,42.6866133],[-0.0265481,42.6865929],[-0.025988,42.6866835],[-0.0249928,42.686712],[-0.0249204,42.6868086],[-0.0245529,42.6869013],[-0.0243947,42.686848],[-0.0245127,42.686643],[-0.0251645,42.6864419],[-0.0254005,42.6863965],[-0.0257868,42.6864714],[-0.0253013,42.6861856],[-0.0250331,42.686223],[-0.0243813,42.6864419],[-0.0241318,42.6862289],[-0.0237134,42.6862467],[-0.0227961,42.6864813],[-0.0223669,42.6863689],[-0.0220779,42.6864035],[-0.0215513,42.6863129],[-0.0210696,42.6859835],[-0.0205773,42.6856299],[-0.0200559,42.6853373],[-0.0198932,42.6851928],[-0.0194139,42.6849247],[-0.0189158,42.6847125],[-0.0184142,42.6845607],[-0.0180092,42.6842709],[-0.0176551,42.6841368],[-0.0172582,42.6840895],[-0.0166895,42.6838844],[-0.0162818,42.6838134],[-0.0152197,42.6837424],[-0.0140181,42.6836478],[-0.0131383,42.6835295],[-0.0125677,42.6833789],[-0.012082,42.6831406],[-0.0111396,42.6829441],[-0.0098905,42.6826452],[-0.008677,42.6826398],[-0.008145,42.6826366],[-0.0075137,42.6826501],[-0.0070514,42.6827384],[-0.0061841,42.6826367],[-0.0055785,42.6825657],[-0.0049379,42.6824496],[-0.0045605,42.6822431],[-0.0045167,42.681856],[-0.0044728,42.6816367],[-0.0034284,42.6813528],[-0.002779,42.681056],[-0.0021296,42.6807593],[-0.0015591,42.6800109],[-0.0012081,42.6797786],[-0.000427,42.6796109],[0.0007138,42.6794496],[0.0017582,42.6793464],[0.0026972,42.6793593],[0.0036011,42.6793593],[0.004391,42.6793593],[0.0050843,42.6793722],[0.005839,42.6793206],[0.0069623,42.6791076],[0.007796,42.6788754],[0.0088755,42.6784754],[0.0093845,42.6780689],[0.009797,42.6778108],[0.0109729,42.6775398],[0.0117628,42.6773721],[0.0120173,42.6774302],[0.0119822,42.6775076],[0.0114117,42.6776495],[0.0107009,42.6778818],[0.0097619,42.678185],[0.0089281,42.6785463],[0.0077697,42.6791399],[0.0075152,42.6792689],[0.0070501,42.6794238],[0.0063802,42.67966],[0.0058609,42.679695100000007],[0.0051545,42.6797399],[0.0049,42.6796431],[0.0044875,42.6796044],[0.0037328,42.6796754],[0.003136,42.6797077],[0.0022057,42.6797399],[0.0015914,42.6798044],[0.0005646,42.6801206],[-0.0001111,42.6804238],[-0.0007342,42.6807141],[-0.0019277,42.6812367],[-0.0023227,42.6815722],[-0.0027439,42.6818109],[-0.0034986,42.6822173],[-0.0041393,42.6825012],[-0.0046922,42.6827141],[-0.0056136,42.6829012],[-0.0067984,42.6830818],[-0.0069388,42.6830883],[-0.007325,42.6831334],[-0.0080885,42.6831528],[-0.0088257,42.6831399],[-0.0095277,42.6831399],[-0.0103702,42.6832173],[-0.0114936,42.6834495],[-0.0123731,42.6836775],[-0.0126394,42.6838331],[-0.0129935,42.6839041],[-0.0134924,42.6839988],[-0.0138571,42.684054],[-0.0149247,42.6840697],[-0.0155094,42.6840461],[-0.015842,42.6840658],[-0.0161263,42.6841249],[-0.0166895,42.6841368],[-0.0171992,42.684192],[-0.0176873,42.6843261],[-0.0183069,42.6845962],[-0.018382,42.6847283],[-0.0186368,42.6847677],[-0.019361,42.6850694],[-0.019479,42.6851621],[-0.0195971,42.6853572],[-0.0196065,42.6855338],[-0.0196024,42.6856412],[-0.0195729,42.6856648],[-0.0193413,42.6855443],[-0.0191277,42.6854302],[-0.0189292,42.6853316],[-0.0186368,42.6852823],[-0.0184464,42.6852784],[-0.0183632,42.685302],[-0.0183981,42.6854617],[-0.0183793,42.6855761],[-0.0183418,42.6856826],[-0.0183176,42.6857752],[-0.0184223,42.685795],[-0.0185161,42.685864],[-0.0187361,42.6860158],[-0.0188943,42.6861479],[-0.0189211,42.6862327],[-0.0188112,42.6863786],[-0.0187093,42.6864417],[-0.0173999,42.6860928],[-0.0170432,42.6859735],[-0.0169439,42.6859656],[-0.0168554,42.6860248],[-0.0168125,42.6861026],[-0.0168796,42.6861401],[-0.0172014,42.6862347],[-0.0177701,42.6864792],[-0.0185026,42.6868182],[-0.0190016,42.686903],[-0.0193691,42.6865481],[-0.0194844,42.6864397],[-0.0195166,42.6862898],[-0.0194764,42.6861577],[-0.0193396,42.6859704],[-0.0190821,42.6857871],[-0.0189453,42.6857102],[-0.0188487,42.6856293],[-0.0188434,42.685582],[-0.0189185,42.6855406],[-0.0190553,42.6855426],[-0.0192851,42.6855933],[-0.0194387,42.685698],[-0.0194871,42.6858206],[-0.0196599,42.6860755],[-0.0197982,42.6861321],[-0.0202075,42.6864617],[-0.0208889,42.686871],[-0.0217082,42.6871858],[-0.0228734,42.6874494],[-0.024117,42.6877294],[-0.0248564,42.6878858],[-0.0253494,42.6879023],[-0.0258871,42.6877952],[-0.0263801,42.6875399],[-0.0267722,42.6872682],[-0.0269219,42.6870376],[-0.0270537,42.6867515]]]]},"properties":{"natural":"scree"}},
{"type":"Feature","geometry":{"type":"MultiPolygon","coordinates":[[[[-0.0303462,42.6869635],[-0.0299764,42.6865352],[-0.0293266,42.6858105],[-0.0285536,42.6852587],[-0.0273548,42.6848964],[-0.0264249,42.6846575],[-0.02563,42.6844608],[-0.024887,42.6846085],[-0.0241182,42.6845549],[-0.0237889,42.6841722],[-0.024199,42.6836282],[-0.0237107,42.6832418],[-0.0234214,42.6838562],[-0.0229812,42.6841271],[-0.0225413,42.6842376],[-0.0215864,42.684001],[-0.0211144,42.6836184],[-0.0204646,42.6835869],[-0.0201509,42.6830845],[-0.019882,42.6826644],[-0.0194115,42.6824668],[-0.0186832,42.682162],[-0.0176973,42.6818655],[-0.0167562,42.6815773],[-0.0158599,42.6811737],[-0.0140561,42.6801524],[-0.0130702,42.67993],[-0.011569,42.6797571],[-0.0084834,42.679527],[-0.0065878,42.6792431],[-0.004464,42.6786496],[-0.0020594,42.6780947],[-0.0000936,42.6774624],[0.0013808,42.6772172],[0.0022057,42.6772172],[0.0035748,42.6773334],[0.0046981,42.6772302],[0.0057161,42.6767785],[0.0067517,42.6760817],[0.0076117,42.6754881],[0.0082436,42.6754107],[0.008542,42.6756946],[0.0079803,42.6762624],[0.0061198,42.677114],[0.0045928,42.6780302],[0.0035924,42.6784818],[0.0025919,42.6785076],[0.0009245,42.6785334],[-0.0010238,42.6788689],[-0.0023929,42.679398],[-0.0036742,42.6800948],[-0.0049379,42.680469],[-0.0063596,42.6806625],[-0.0076409,42.6812044],[-0.0082903,42.6814496],[-0.0093434,42.6813464],[-0.0105721,42.6812948],[-0.011397,42.6815012],[-0.0121342,42.6817851],[-0.0129767,42.6821593],[-0.0136612,42.6822625],[-0.0145915,42.682327],[-0.0153462,42.6822625],[-0.0162886,42.6823535],[-0.0167332,42.6826141],[-0.0170101,42.6829301],[-0.0179088,42.683256],[-0.018646,42.6837205],[-0.0191901,42.684185],[-0.0201725,42.6845011],[-0.020524,42.6846366],[-0.0207783,42.6849211],[-0.0213161,42.6851599],[-0.0223692,42.6854811],[-0.0234896,42.6856293],[-0.0243074,42.6856787],[-0.0249796,42.685794],[-0.0250975,42.685786],[-0.0255846,42.6857529],[-0.0263158,42.6856492],[-0.0264737,42.6856268],[-0.0271962,42.6857979],[-0.0274336,42.6859186],[-0.0282104,42.6863745],[-0.0286563,42.6866339],[-0.0288558,42.6866867],[-0.0300661,42.6871611],[-0.0303125,42.6871941],[-0.0303462,42.6869635]]]]},"properties":{"natural":"scree"}},
{"type":"Feature","geometry":{"type":"MultiPolygon","coordinates":[[[[0.0287868,42.6846832],[0.0289638,42.6843243],[0.0293125,42.6841745],[0.0295593,42.6841745],[0.0298543,42.6842888],[0.0300153,42.684553],[0.029967,42.6847581],[0.0298597,42.6850302],[0.0297631,42.6850578],[0.0295486,42.6850262],[0.0292857,42.6849631],[0.0290604,42.6848606],[0.0288512,42.6847699],[0.0287868,42.6846832]]]]},"properties":{"natural":"glacier"}},
{"type":"Feature","geometry":{"type":"MultiPolygon","coordinates":[[[[-0.0305778,42.6914255],[-0.0305027,42.691248],[-0.0300199,42.691114],[-0.0295693,42.6909918],[-0.0288183,42.6908301],[-0.0283838,42.6907749],[-0.0281478,42.6908459],[-0.0278903,42.6908616],[-0.0276489,42.6907276],[-0.0273055,42.6905304],[-0.0267155,42.6904476],[-0.0263185,42.6904042],[-0.0259805,42.6903964],[-0.0258411,42.6905107],[-0.0258267,42.6905336],[-0.0256676,42.6906814],[-0.0252405,42.6907221],[-0.0246155,42.6908035],[-0.024469,42.6907151],[-0.0241781,42.6906493],[-0.023848,42.6906576],[-0.0237026,42.6904396],[-0.0235124,42.6902382],[-0.0232719,42.6901888],[-0.0230985,42.6902834],[-0.0226342,42.6901601],[-0.022472,42.6899257],[-0.0223756,42.6899823],[-0.0223488,42.6901913],[-0.0225741,42.6902899],[-0.0230355,42.6904595],[-0.0233144,42.6905896],[-0.0235719,42.6907433],[-0.0237275,42.6908656],[-0.0238723,42.690972],[-0.0242586,42.6910943],[-0.0247628,42.6912283],[-0.0252939,42.6914649],[-0.0256318,42.6916108],[-0.0262595,42.6917606],[-0.026812,42.6918631],[-0.0271983,42.6919499],[-0.0275738,42.6920524],[-0.0280083,42.6920879],[-0.0283194,42.6921667],[-0.0286037,42.69208],[-0.02877,42.6918907],[-0.0290061,42.6916463],[-0.0292689,42.6915595],[-0.0294996,42.6916029],[-0.0297946,42.691737],[-0.0301809,42.6917449],[-0.0304008,42.6916463],[-0.0304813,42.6915595],[-0.0305778,42.6914255]]]]},"properties":{"natural":"scree"}},
{"type":"Feature","geometry":{"type":"MultiPolygon","coordinates":[[[[-0.0153078,42.685728],[-0.0152488,42.6856295],[-0.0144388,42.685661],[-0.0135107,42.6856137],[-0.0125505,42.6855269],[-0.0118048,42.6853771],[-0.0112987,42.6853564],[-0.0112739,42.6854417],[-0.0111696,42.6855613],[-0.0110102,42.6857118],[-0.0106515,42.6858718],[-0.0103418,42.6859497],[-0.0099304,42.6859904],[-0.0095744,42.6859323],[-0.0093845,42.6858043],[-0.009345,42.685718],[-0.0085808,42.6859015],[-0.0083072,42.6860159],[-0.0082482,42.6861224],[-0.0083072,42.6862367],[-0.0084145,42.6862761],[-0.0085969,42.6862407],[-0.009525,42.6861145],[-0.0101043,42.6860869],[-0.0104606,42.6860357],[-0.0107181,42.6861264],[-0.0114638,42.6860436],[-0.0118339,42.6858859],[-0.0124539,42.6859291],[-0.0129153,42.6859213],[-0.0135751,42.6858779],[-0.0145644,42.685805],[-0.0151683,42.6858227],[-0.0153078,42.685728]]]]},"properties":{"natural":"scree"}},
{"type":"Feature","geometry":{"type":"MultiPolygon","coordinates":[[[[-0.0176801,42.6952861],[-0.0175541,42.6951442],[-0.0174548,42.6950989],[-0.0171115,42.6950299],[-0.0167655,42.6949865],[-0.0164892,42.6949668],[-0.0162934,42.6948998],[-0.0161835,42.6947815],[-0.0162639,42.6945903],[-0.016213,42.6944207],[-0.0163471,42.6940659],[-0.0164651,42.693987],[-0.0169211,42.6939831],[-0.016964,42.6938175],[-0.0169747,42.6937465],[-0.0168996,42.6936834],[-0.0166743,42.6936637],[-0.0164544,42.693715],[-0.0162559,42.6937347],[-0.0161432,42.6936361],[-0.0162237,42.6935296],[-0.0164436,42.6934074],[-0.0165026,42.693301],[-0.0162827,42.6932339],[-0.0157892,42.6931196],[-0.0153815,42.6929343],[-0.0150543,42.6929106],[-0.0148611,42.6929974],[-0.0147431,42.6931314],[-0.0148129,42.6932142],[-0.0151186,42.6932458],[-0.015521,42.693301],[-0.0156122,42.693366],[-0.0156068,42.6934192],[-0.0155129,42.6934606],[-0.0152581,42.6935178],[-0.0150328,42.6936085],[-0.015006,42.6936755],[-0.0150945,42.6937307],[-0.0154298,42.6937642],[-0.0155478,42.6937918],[-0.0155505,42.693851],[-0.0154137,42.6938865],[-0.0151454,42.6938608],[-0.0150006,42.693851],[-0.0148263,42.6938707],[-0.0147217,42.6939929],[-0.0145956,42.6941053],[-0.0144642,42.694125],[-0.0143971,42.6940994],[-0.0143676,42.6940008],[-0.0143381,42.6939436],[-0.0140726,42.6938668],[-0.0139358,42.693782],[-0.0138821,42.6935158],[-0.013925,42.6933522],[-0.0140592,42.6931492],[-0.0141611,42.6930605],[-0.0144052,42.6929579],[-0.0146063,42.6928791],[-0.0146171,42.6928219],[-0.0142845,42.6928318],[-0.0138821,42.6928535],[-0.0135334,42.6929599],[-0.0133618,42.6930545],[-0.0132786,42.6931847],[-0.013284,42.6933029],[-0.0133323,42.693435],[-0.0133484,42.6935671],[-0.013351,42.693642],[-0.0135737,42.6936676],[-0.0136407,42.6937899],[-0.01374,42.6939574],[-0.0137212,42.6940304],[-0.0135147,42.6940146],[-0.0131491,42.6940109],[-0.0133398,42.6942471],[-0.0134874,42.6946422],[-0.0139204,42.6944442],[-0.014035,42.6943833],[-0.0143891,42.6943971],[-0.0146922,42.6943537],[-0.0150355,42.6942709],[-0.0152715,42.6942512],[-0.0154861,42.6942847],[-0.0156551,42.6943951],[-0.0157919,42.6945311],[-0.0158727,42.6946851],[-0.0159264,42.6949296],[-0.0158191,42.6950794],[-0.0158267,42.6951639],[-0.0158643,42.6952861],[-0.0160198,42.6953216],[-0.016221,42.6953473],[-0.0165536,42.6953551],[-0.0167601,42.6953453],[-0.016964,42.6953473],[-0.0172832,42.6953473],[-0.0175407,42.6953256],[-0.0176801,42.6952861]]]]},"properties":{"natural":"bare_rock"}},
{"type":"Feature","geometry":{"type":"MultiPolygon","coordinates":[[[[-0.0245443,42.6966663],[-0.0245336,42.696619],[-0.0243726,42.6965599],[-0.0237718,42.6964889],[-0.0233963,42.6964061],[-0.0230154,42.6962445],[-0.022597,42.6960592],[-0.0218996,42.6957319],[-0.0213471,42.6955269],[-0.0209716,42.6952706],[-0.0207141,42.6952233],[-0.0204191,42.6952194],[-0.0203225,42.6952016],[-0.0203601,42.6949611],[-0.0205049,42.6946378],[-0.020462,42.6945195],[-0.0203761,42.6945314],[-0.020183,42.6951622],[-0.0201079,42.6952805],[-0.0200006,42.6952687],[-0.0198719,42.6951701],[-0.0197914,42.6949651],[-0.0197485,42.6946891],[-0.0195983,42.6944249],[-0.0190887,42.694279],[-0.0186488,42.6943303],[-0.0185254,42.6944722],[-0.0185522,42.6946496],[-0.0186971,42.694835],[-0.0188312,42.6950597],[-0.01874,42.6951228],[-0.0185737,42.6951661],[-0.0184771,42.6953436],[-0.018445,42.6954224],[-0.0184664,42.6954894],[-0.0185254,42.6955841],[-0.0186113,42.6956629],[-0.0186703,42.6955959],[-0.0186113,42.6953239],[-0.0187615,42.6953041],[-0.0189975,42.6953396],[-0.0191799,42.6954066],[-0.019314,42.6955328],[-0.0194159,42.695659],[-0.0195554,42.6957221],[-0.0197539,42.6957181],[-0.0198504,42.6957122],[-0.0200784,42.6957753],[-0.0203922,42.6958561],[-0.0206953,42.6958739],[-0.0208831,42.6959172],[-0.0210413,42.6959034],[-0.0211862,42.6958541],[-0.0213927,42.6958778],[-0.0215456,42.6959113],[-0.0216448,42.6960316],[-0.0218514,42.6961341],[-0.0218835,42.696205],[-0.0219184,42.6962602],[-0.0225326,42.6963785],[-0.022656,42.6964376],[-0.0231415,42.6965816],[-0.0234339,42.6966624],[-0.0238845,42.6967846],[-0.0240561,42.6967747],[-0.0241983,42.6967274],[-0.0245255,42.6967176],[-0.0245443,42.6966663]]]]},"properties":{"natural":"bare_rock"}},
{"type":"Feature","geometry":{"type":"MultiPolygon","coordinates":[[[[-0.0130662,42.692077],[-0.0128201,42.6920606],[-0.012104,42.6924553],[-0.0112762,42.6931103],[-0.0119095,42.6933238],[-0.0122003,42.6933828],[-0.0124509,42.693072],[-0.0128872,42.6926115],[-0.013055,42.6923237],[-0.0130662,42.692077]]]]},"properties":{"natural":"grassland"}},
{"type":"Feature","geometry":{"type":"MultiPolygon","coordinates":[[[[0.0022852,42.6906334],[0.0024837,42.6902628],[0.0025749,42.6901208],[0.0026554,42.6900696],[0.0027627,42.6900617],[0.0029826,42.690105],[0.0033206,42.6903259],[0.0039536,42.6904441],[0.0044525,42.6906255],[0.0047797,42.6906452],[0.0049835,42.6906886],[0.0052839,42.6907951],[0.0058365,42.6910671],[0.0062442,42.6911736],[0.007022,42.6914693],[0.006963,42.6915363],[0.0068611,42.6915639],[0.0060779,42.6915915],[0.005343,42.6917532],[0.0038999,42.6917414],[0.0035673,42.6917769],[0.0034547,42.6917729],[0.0033313,42.6917098],[0.0030041,42.6916113],[0.0028324,42.6914969],[0.002296,42.6907872],[0.0022852,42.6906334]]]]},"properties":{"name":"Glacier de la Cascade","natural":"glacier"}},
{"type":"Feature","geometry":{"type":"MultiPolygon","coordinates":[[[[0.0385732,42.6876812],[0.0386287,42.687645],[0.0386929,42.6876327],[0.0386359,42.6876214],[0.0386667,42.6875598],[0.0387512,42.687507],[0.0387519,42.6874729],[0.0387787,42.6874563],[0.038829,42.6874602],[0.0388567,42.6875182],[0.0389189,42.6875691],[0.0389249,42.6876391],[0.0388766,42.6877027],[0.0387378,42.6877707],[0.0386466,42.6877456],[0.0386533,42.6877209],[0.0386801,42.6877017],[0.0386164,42.6876994],[0.0385732,42.6876812]]]]},"properties":{"natural":"water","water":"lake"}},
{"type":"Feature","geometry":{"type":"MultiPolygon","coordinates":[[[[0.049677,42.6846579],[0.0506764,42.6828533],[0.0513572,42.681271],[0.0522414,42.6797682],[0.0537806,42.6799529],[0.0557379,42.6799948],[0.0569157,42.678879],[0.0587364,42.6804918],[0.0591216,42.6812368],[0.0593375,42.6814188],[0.0602988,42.6810516],[0.0610069,42.6814582],[0.0612953,42.6814657],[0.0618829,42.6816528],[0.0623427,42.6820223],[0.0627372,42.6821795],[0.0649045,42.6828535],[0.0653225,42.6835988],[0.0660637,42.683304],[0.0672619,42.6832961],[0.0678251,42.6834384],[0.0687119,42.6829262],[0.0697343,42.682815],[0.069163,42.6833598],[0.0686081,42.6837346],[0.0669936,42.6843894],[0.0658161,42.6844789],[0.0648734,42.6862759],[0.062671,42.6872183],[0.0630236,42.6887464],[0.0628818,42.6897328],[0.0658487,42.6903284],[0.0659896,42.6902634],[0.0660275,42.6902859],[0.0660881,42.6903446],[0.0662093,42.6904674],[0.0664314,42.6906824],[0.0666464,42.6907397],[0.066748,42.6907449],[0.0671612,42.6907604],[0.0673236,42.6905954],[0.0674481,42.6905551],[0.067741,42.6904609],[0.0679115,42.6904698],[0.0680287,42.6904749],[0.0681256,42.6904791],[0.0682501,42.6905281],[0.0684321,42.6905996],[0.068509,42.6906427],[0.0686482,42.6907208],[0.0689716,42.6909411],[0.0689859,42.69095],[0.0690024,42.6909597],[0.0690095,42.690968],[0.0691788,42.691116],[0.0691662,42.6914237],[0.0691605,42.6915547],[0.0691738,42.69181],[0.0690652,42.6920434],[0.0690571,42.6920643],[0.0689854,42.6923454],[0.0690494,42.692785],[0.0694037,42.6930565],[0.0697564,42.6933022],[0.0698279,42.6934718],[0.0699523,42.6937666],[0.0704203,42.6937856],[0.0709306,42.6937719],[0.0715597,42.6935659],[0.0717903,42.6934291],[0.0718916,42.6933707],[0.0719965,42.6931705],[0.0720092,42.6931466],[0.0720165,42.6928953],[0.0720257,42.6926103],[0.0721301,42.6921347],[0.0721174,42.691894],[0.0721098,42.6917306],[0.0721648,42.6916487],[0.0725082,42.6911523],[0.0725388,42.6909308],[0.072438,42.6906504],[0.0722091,42.6902781],[0.0722924,42.6901455],[0.0723274,42.6900904],[0.0726092,42.6897958],[0.0727873,42.689714],[0.0728197,42.6896985],[0.0728835,42.689824],[0.0729128,42.6898823],[0.0730078,42.6899833],[0.0731393,42.6901271],[0.0731831,42.690144600000007],[0.0733999,42.6902434],[0.0739083,42.6901665],[0.0741556,42.6901213],[0.0742873,42.6900968],[0.0745311,42.6900005],[0.0741006,42.6908725],[0.0741296,42.6914829],[0.0741779,42.6920649],[0.0740331,42.6923204],[0.0736372,42.692363],[0.0732702,42.6923772],[0.0730095,42.6926327],[0.0727971,42.6930798],[0.072266,42.6936405],[0.0714549,42.6941302],[0.0713197,42.694336],[0.0713197,42.6945915],[0.0713583,42.6949392],[0.0714066,42.6953651],[0.0712328,42.6956631],[0.0711362,42.6959612],[0.0714935,42.6964367],[0.0711652,42.6971038],[0.0707886,42.697558],[0.0707307,42.6978986],[0.0709045,42.6984876],[0.0711652,42.6984025],[0.071215,42.6986733],[0.0712622,42.6988849],[0.071215,42.6991068],[0.0710465,42.6993676],[0.070671,42.6995382],[0.0705891,42.6997891],[0.0706437,42.7000902],[0.0707734,42.7003963],[0.0708827,42.7006773],[0.0706164,42.7013798],[0.0704115,42.7015705],[0.0698585,42.701711],[0.0691689,42.7016708],[0.0686977,42.7015554],[0.0685202,42.7013045],[0.0686022,42.7009583],[0.0687729,42.7006472],[0.0685407,42.7003812],[0.0681857,42.7002709],[0.0671888,42.700311],[0.0663216,42.7004013],[0.0657276,42.700597],[0.0650107,42.7008881],[0.0644371,42.700883],[0.0641094,42.700602],[0.0638363,42.7001755],[0.0636103,42.7000775],[0.0628475,42.7000988],[0.0626303,42.7000101],[0.0618808,42.6992728],[0.0616555,42.6993029],[0.0619881,42.6988995],[0.0622874,42.6989111],[0.062862,42.6988604],[0.0631179,42.698605],[0.0635717,42.6983921],[0.0639676,42.6980727],[0.0642476,42.6976966],[0.0645808,42.6968663],[0.0644891,42.696625],[0.0643973,42.6963163],[0.0645277,42.6959969],[0.0647015,42.6956918],[0.0654402,42.6949643],[0.0654402,42.6948188],[0.0652905,42.6947763],[0.0650974,42.6949537],[0.0649525,42.6951205],[0.0644794,42.6955072],[0.0641028,42.6958834],[0.0640111,42.6961744],[0.0641076,42.6963731],[0.0640835,42.6965008],[0.0640014,42.6966605],[0.0638518,42.6971111],[0.0636731,42.6976292],[0.0635717,42.6977711],[0.0633062,42.6978634],[0.0630406,42.6979485],[0.0627123,42.6979805],[0.0620316,42.6982253],[0.0616984,42.6982892],[0.0615874,42.6981756],[0.0614715,42.6981543],[0.0612446,42.698353],[0.0608503,42.6983803],[0.060802,42.6985258],[0.0603418,42.6982005],[0.0603418,42.6978989],[0.0604866,42.6974163],[0.0606182,42.6969379],[0.0606911,42.6966081],[0.0608897,42.6961413],[0.0611499,42.6950625],[0.061509,42.6944209],[0.0615141,42.6935064],[0.0619556,42.6911915],[0.0617573,42.69015],[0.0612316,42.6892906],[0.0609044,42.689263],[0.0606952,42.6890311],[0.0602419,42.6893474],[0.0596703,42.6898505],[0.0590269,42.6905287],[0.0586996,42.6914752],[0.0581305,42.6924806],[0.0574666,42.6929376],[0.0570656,42.6935856],[0.0558189,42.6942157],[0.0545154,42.6936363],[0.0548426,42.6928002],[0.054925,42.6922476],[0.0552192,42.6916889],[0.0552099,42.690786],[0.0547066,42.6904709],[0.0537496,42.6912107],[0.0527011,42.6916442],[0.0515229,42.6927599],[0.0513677,42.6914639],[0.0515367,42.6897942],[0.0501634,42.688015],[0.0500263,42.6862624],[0.049677,42.6846579]]]]},"properties":{"natural":"bare_rock"}}
]}
