{"type":"FeatureCollection","features":[
{"type":"Feature","geometry":{"type":"Point","coordinates":[7.2954197,43.6855686]},"properties":{"name":"Cap de Nice","name:ru":"мыс Кап-де-Нис","natural":"cape","source":"IGN - 2021-06"}},
{"type":"Feature","geometry":{"type":"Point","coordinates":[7.246842,43.691308]},"properties":{"source:modif":"Apidae (2017-11-21), in Opendata PACA"}},
{"type":"Feature","geometry":{"type":"Point","coordinates":[7.246778,43.691403]},"properties":{"source:modif":"Apidae (2017-11-21), in Opendata PACA"}},
{"type":"Feature","geometry":{"type":"Point","coordinates":[7.246877,43.691437]},"properties":{"source:modif":"Apidae (2017-11-21), in Opendata PACA"}},
{"type":"Feature","geometry":{"type":"Point","coordinates":[7.2948061,43.690727]},"properties":{"addr:city":"Nice","addr:housenumber":"33bis","addr:postcode":"06300","addr:street":"Boulevard Franck Pilatte","heritage":"2","heritage:operator":"mhs","historic":"archaeological_site","mhs:inscription_date":"1963-03-21","name":"Grotte préhistorique du Lazaret","natural":"cave_entrance","ref:mhs":"PA00080796","source:heritage":"data.gouv.fr, Ministère de la Culture - 2016","wikidata":"Q1547643","wikipedia":"fr:Grotte du Lazaret"}},
{"type":"Feature","geometry":{"type":"Point","coordinates":[7.2450421,43.6904499]},"properties":{"leaf_type":"palm","natural":"tree"}},
{"type":"Feature","geometry":{"type":"Point","coordinates":[7.2450886,43.690443]},"properties":{"leaf_type":"palm","natural":"tree"}},
{"type":"Feature","geometry":{"type":"Point","coordinates":[7.2451318,43.6904605]},"properties":{"leaf_type":"palm","natural":"tree"}},
{"type":"Feature","geometry":{"type":"Point","coordinates":[7.2452416,43.6905067]},"properties":{"leaf_type":"palm","natural":"tree"}},
{"type":"Feature","geometry":{"type":"Point","coordinates":[7.2452625,43.6905258]},"properties":{"leaf_type":"palm","natural":"tree"}},
{"type":"Feature","geometry":{"type":"Point","coordinates":[7.2457875,43.6907077]},"properties":{"leaf_type":"palm","natural":"tree"}},
{"type":"Feature","geometry":{"type":"Point","coordinates":[7.2458352,43.6907308]},"properties":{"leaf_type":"palm","natural":"tree"}},
{"type":"Feature","geometry":{"type":"Point","coordinates":[7.2458831,43.6907433]},"properties":{"leaf_type":"palm","natural":"tree"}},
{"type":"Feature","geometry":{"type":"Point","coordinates":[7.2460221,43.6907943]},"properties":{"leaf_type":"palm","natural":"tree"}},
{"type":"Feature","geometry":{"type":"Point","coordinates":[7.2455878,43.6908111]},"properties":{"leaf_type":"palm","natural":"tree"}},
{"type":"Feature","geometry":{"type":"Point","coordinates":[7.2461024,43.6908211]},"properties":{"leaf_type":"palm","natural":"tree"}},
{"type":"Feature","geometry":{"type":"Point","coordinates":[7.2461758,43.6908499]},"properties":{"leaf_type":"palm","natural":"tree"}},
{"type":"Feature","geometry":{"type":"Point","coordinates":[7.2463588,43.6909101]},"properties":{"leaf_type":"palm","natural":"tree"}},
{"type":"Feature","geometry":{"type":"Point","coordinates":[7.2464402,43.6909351]},"properties":{"leaf_type":"palm","natural":"tree"}},
{"type":"Feature","geometry":{"type":"Point","coordinates":[7.2465073,43.6909746]},"properties":{"leaf_type":"palm","natural":"tree"}},
{"type":"Feature","geometry":{"type":"Point","coordinates":[7.2465354,43.6909664]},"properties":{"leaf_type":"palm","natural":"tree"}},
{"type":"Feature","geometry":{"type":"Point","coordinates":[7.2466081,43.6910013]},"properties":{"leaf_type":"palm","natural":"tree"}},
{"type":"Feature","geometry":{"type":"Point","coordinates":[7.246664,43.6910162]},"properties":{"leaf_type":"palm","natural":"tree"}},
{"type":"Feature","geometry":{"type":"Point","coordinates":[7.2470085,43.691133]},"properties":{"leaf_type":"palm","natural":"tree"}},
{"type":"Feature","geometry":{"type":"Point","coordinates":[7.2470563,43.6911521]},"properties":{"leaf_type":"palm","natural":"tree"}},
{"type":"Feature","geometry":{"type":"Point","coordinates":[7.2470839,43.6911659]},"properties":{"leaf_type":"palm","natural":"tree"}},
{"type":"Feature","geometry":{"type":"Point","coordinates":[7.2471184,43.6911734]},"properties":{"leaf_type":"palm","natural":"tree"}},
{"type":"Feature","geometry":{"type":"Point","coordinates":[7.2471477,43.6911869]},"properties":{"leaf_type":"palm","natural":"tree"}},
{"type":"Feature","geometry":{"type":"Point","coordinates":[7.2472079,43.6912008]},"properties":{"leaf_type":"palm","natural":"tree"}},
{"type":"Feature","geometry":{"type":"Point","coordinates":[7.247332,43.691243299999999]},"properties":{"leaf_type":"palm","natural":"tree"}},
{"type":"Feature","geometry":{"type":"Point","coordinates":[7.2474907,43.691301]},"properties":{"leaf_type":"palm","natural":"tree"}},
{"type":"Feature","geometry":{"type":"Point","coordinates":[7.2475622,43.6913274]},"properties":{"leaf_type":"palm","natural":"tree"}},
{"type":"Feature","geometry":{"type":"Point","coordinates":[7.247625,43.6913421]},"properties":{"leaf_type":"palm","natural":"tree"}},
{"type":"Feature","geometry":{"type":"Point","coordinates":[7.2476048,43.6913607]},"properties":{"leaf_type":"palm","natural":"tree"}},
{"type":"Feature","geometry":{"type":"Point","coordinates":[7.2476784,43.6913675]},"properties":{"leaf_type":"palm","natural":"tree"}},
{"type":"Feature","geometry":{"type":"Point","coordinates":[7.2477699,43.6914022]},"properties":{"leaf_type":"palm","natural":"tree"}},
{"type":"Feature","geometry":{"type":"Point","coordinates":[7.2468966,43.6913264]},"properties":{"addr:housenumber":"101","addr:street":"Promenade des Anglais","source":"O+O","source:modif":"Apidae (2017-11-21), in Opendata PACA"}},
{"type":"Feature","geometry":{"type":"Point","coordinates":[7.2454711,43.6908936]},"properties":{"addr:housenumber":"113","addr:street":"Promenade des Anglais","source":"O+O"}},
{"type":"Feature","geometry":{"type":"Point","coordinates":[7.243827,43.6910991]},"properties":{"addr:housenumber":"12","addr:street":"Avenue de la Californie","brand":"Adagio Access","brand:wikidata":"Q2823880","brand:wikipedia":"fr:Adagio Aparthotel","internet_access":"wlan","name":"Aparthotel Adagio Access Nice Magnan","phone":"+33497072800","tourism":"hotel","website":"https://www.adagio-city.com/fr/hotel-8383-aparthotel-adagio-access-nice-magnan/index.shtml"}},
{"type":"Feature","geometry":{"type":"Point","coordinates":[7.2959067,43.6882558]},"properties":{"natural":"tree"}},
{"type":"Feature","geometry":{"type":"Point","coordinates":[7.2958425,43.6883141]},"properties":{"natural":"tree"}},
{"type":"Feature","geometry":{"type":"Point","coordinates":[7.2957382,43.689877]},"properties":{"natural":"tree"}},
{"type":"Feature","geometry":{"type":"Point","coordinates":[7.2958284,43.6899074]},"properties":{"natural":"tree"}},
{"type":"Feature","geometry":{"type":"Point","coordinates":[7.2946093,43.6899193]},"properties":{"natural":"tree"}},
{"type":"Feature","geometry":{"type":"Point","coordinates":[7.295725,43.6899367]},"properties":{"natural":"tree"}},
{"type":"Feature","geometry":{"type":"Point","coordinates":[7.2945733,43.6899649]},"properties":{"natural":"tree"}},
{"type":"Feature","geometry":{"type":"Point","coordinates":[7.2956925,43.6899663]},"properties":{"natural":"tree"}},
{"type":"Feature","geometry":{"type":"Point","coordinates":[7.2958183,43.6899718]},"properties":{"natural":"tree"}},
{"type":"Feature","geometry":{"type":"Point","coordinates":[7.2955556,43.6899799]},"properties":{"natural":"tree"}},
{"type":"Feature","geometry":{"type":"Point","coordinates":[7.2945215,43.6899832]},"properties":{"natural":"tree"}},
{"type":"Feature","geometry":{"type":"Point","coordinates":[7.2945531,43.6899984]},"properties":{"natural":"tree"}},
{"type":"Feature","geometry":{"type":"Point","coordinates":[7.2944436,43.6900027]},"properties":{"natural":"tree"}},
{"type":"Feature","geometry":{"type":"Point","coordinates":[7.2945982,43.690005]},"properties":{"natural":"tree"}},
{"type":"Feature","geometry":{"type":"Point","coordinates":[7.2937849,43.6900302]},"properties":{"natural":"tree"}},
{"type":"Feature","geometry":{"type":"Point","coordinates":[7.2945623,43.6900351]},"properties":{"natural":"tree"}},
{"type":"Feature","geometry":{"type":"Point","coordinates":[7.2958111,43.6900351]},"properties":{"natural":"tree"}},
{"type":"Feature","geometry":{"type":"Point","coordinates":[7.2945167,43.6900391]},"properties":{"natural":"tree"}},
{"type":"Feature","geometry":{"type":"Point","coordinates":[7.2944137,43.6900438]},"properties":{"natural":"tree"}},
{"type":"Feature","geometry":{"type":"Point","coordinates":[7.2945343,43.6900517]},"properties":{"natural":"tree"}},
{"type":"Feature","geometry":{"type":"Point","coordinates":[7.2945743,43.6900533]},"properties":{"natural":"tree"}},
{"type":"Feature","geometry":{"type":"Point","coordinates":[7.2943653,43.6900566]},"properties":{"natural":"tree"}},
{"type":"Feature","geometry":{"type":"Point","coordinates":[7.2945061,43.6900588]},"properties":{"natural":"tree"}},
{"type":"Feature","geometry":{"type":"Point","coordinates":[7.2422104,43.6900646]},"properties":{"leaf_type":"broadleaved","natural":"tree"}},
{"type":"Feature","geometry":{"type":"Point","coordinates":[7.2943224,43.6900735]},"properties":{"natural":"tree"}},
{"type":"Feature","geometry":{"type":"Point","coordinates":[7.2945553,43.6900855]},"properties":{"natural":"tree"}},
{"type":"Feature","geometry":{"type":"Point","coordinates":[7.2943035,43.6900892]},"properties":{"natural":"tree"}},
{"type":"Feature","geometry":{"type":"Point","coordinates":[7.2945827,43.6900906]},"properties":{"natural":"tree"}},
{"type":"Feature","geometry":{"type":"Point","coordinates":[7.2944504,43.6900936]},"properties":{"natural":"tree"}},
{"type":"Feature","geometry":{"type":"Point","coordinates":[7.2938427,43.690094]},"properties":{"natural":"tree"}},
{"type":"Feature","geometry":{"type":"Point","coordinates":[7.2958052,43.6900972]},"properties":{"natural":"tree"}},
{"type":"Feature","geometry":{"type":"Point","coordinates":[7.2942729,43.6901044]},"properties":{"natural":"tree"}},
{"type":"Feature","geometry":{"type":"Point","coordinates":[7.2956962,43.6901235]},"properties":{"natural":"tree"}},
{"type":"Feature","geometry":{"type":"Point","coordinates":[7.2945936,43.6901272]},"properties":{"natural":"tree"}},
{"type":"Feature","geometry":{"type":"Point","coordinates":[7.2942982,43.6901277]},"properties":{"natural":"tree"}},
{"type":"Feature","geometry":{"type":"Point","coordinates":[7.2942295,43.6901319]},"properties":{"natural":"tree"}},
{"type":"Feature","geometry":{"type":"Point","coordinates":[7.2943968,43.6901337]},"properties":{"natural":"tree"}},
{"type":"Feature","geometry":{"type":"Point","coordinates":[7.2939559,43.6901352]},"properties":{"natural":"tree"}},
{"type":"Feature","geometry":{"type":"Point","coordinates":[7.2944699,43.6901411]},"properties":{"natural":"tree"}},
{"type":"Feature","geometry":{"type":"Point","coordinates":[7.2946036,43.690152]},"properties":{"natural":"tree"}},
{"type":"Feature","geometry":{"type":"Point","coordinates":[7.2936885,43.6901534]},"properties":{"natural":"tree"}},
{"type":"Feature","geometry":{"type":"Point","coordinates":[7.2943392,43.6901534]},"properties":{"natural":"tree"}},
{"type":"Feature","geometry":{"type":"Point","coordinates":[7.295645,43.6901574]},"properties":{"natural":"tree"}},
{"type":"Feature","geometry":{"type":"Point","coordinates":[7.2957964,43.6901594]},"properties":{"natural":"tree"}},
{"type":"Feature","geometry":{"type":"Point","coordinates":[7.2941197,43.6901661]},"properties":{"natural":"tree"}},
{"type":"Feature","geometry":{"type":"Point","coordinates":[7.294418,43.6901755]},"properties":{"natural":"tree"}},
{"type":"Feature","geometry":{"type":"Point","coordinates":[7.2941246,43.6901799]},"properties":{"natural":"tree"}},
{"type":"Feature","geometry":{"type":"Point","coordinates":[7.2945446,43.690182]},"properties":{"natural":"tree"}},
{"type":"Feature","geometry":{"type":"Point","coordinates":[7.2944376,43.6901856]},"properties":{"natural":"tree"}},
{"type":"Feature","geometry":{"type":"Point","coordinates":[7.2938964,43.6901873]},"properties":{"natural":"tree"}},
{"type":"Feature","geometry":{"type":"Point","coordinates":[7.2945867,43.6901894]},"properties":{"natural":"tree"}},
{"type":"Feature","geometry":{"type":"Point","coordinates":[7.2955474,43.6901905]},"properties":{"natural":"tree"}},
{"type":"Feature","geometry":{"type":"Point","coordinates":[7.2956349,43.6902022]},"properties":{"natural":"tree"}},
{"type":"Feature","geometry":{"type":"Point","coordinates":[7.2956984,43.6902057]},"properties":{"natural":"tree"}},
{"type":"Feature","geometry":{"type":"Point","coordinates":[7.2945382,43.6902062]},"properties":{"natural":"tree"}},
{"type":"Feature","geometry":{"type":"Point","coordinates":[7.2940765,43.6902136]},"properties":{"natural":"tree"}},
{"type":"Feature","geometry":{"type":"Point","coordinates":[7.2943707,43.6902197]},"properties":{"natural":"tree"}},
{"type":"Feature","geometry":{"type":"Point","coordinates":[7.2424563,43.6902208]},"properties":{"natural":"tree"}},
{"type":"Feature","geometry":{"type":"Point","coordinates":[7.2943574,43.6902308]},"properties":{"natural":"tree"}},
{"type":"Feature","geometry":{"type":"Point","coordinates":[7.2946015,43.6902324]},"properties":{"natural":"tree"}},
{"type":"Feature","geometry":{"type":"Point","coordinates":[7.2945389,43.6902379]},"properties":{"natural":"tree"}},
{"type":"Feature","geometry":{"type":"Point","coordinates":[7.2942646,43.6902398]},"properties":{"natural":"tree"}},
{"type":"Feature","geometry":{"type":"Point","coordinates":[7.2940404,43.6902464]},"properties":{"natural":"tree"}},
{"type":"Feature","geometry":{"type":"Point","coordinates":[7.2945914,43.6902517]},"properties":{"natural":"tree"}},
{"type":"Feature","geometry":{"type":"Point","coordinates":[7.2941453,43.6902619]},"properties":{"natural":"tree"}},
{"type":"Feature","geometry":{"type":"Point","coordinates":[7.2955257,43.6902654]},"properties":{"natural":"tree"}},
{"type":"Feature","geometry":{"type":"Point","coordinates":[7.2946055,43.690268]},"properties":{"natural":"tree"}},
{"type":"Feature","geometry":{"type":"Point","coordinates":[7.2943619,43.6902683]},"properties":{"natural":"tree"}},
{"type":"Feature","geometry":{"type":"Point","coordinates":[7.2425335,43.6902707]},"properties":{"leaf_type":"broadleaved","natural":"tree"}},
{"type":"Feature","geometry":{"type":"Point","coordinates":[7.2956799,43.6902754]},"properties":{"natural":"tree"}},
{"type":"Feature","geometry":{"type":"Point","coordinates":[7.2943985,43.6902762]},"properties":{"natural":"tree"}},
{"type":"Feature","geometry":{"type":"Point","coordinates":[7.2944789,43.6902842]},"properties":{"natural":"tree"}},
{"type":"Feature","geometry":{"type":"Point","coordinates":[7.2945762,43.6902844]},"properties":{"natural":"tree"}},
{"type":"Feature","geometry":{"type":"Point","coordinates":[7.2957775,43.690285]},"properties":{"natural":"tree"}},
{"type":"Feature","geometry":{"type":"Point","coordinates":[7.294048,43.6902962]},"properties":{"natural":"tree"}},
{"type":"Feature","geometry":{"type":"Point","coordinates":[7.2945901,43.6902972]},"properties":{"natural":"tree"}},
{"type":"Feature","geometry":{"type":"Point","coordinates":[7.2943782,43.6903084]},"properties":{"natural":"tree"}},
{"type":"Feature","geometry":{"type":"Point","coordinates":[7.2956233,43.6903087]},"properties":{"natural":"tree"}},
{"type":"Feature","geometry":{"type":"Point","coordinates":[7.2943423,43.6903148]},"properties":{"natural":"tree"}},
{"type":"Feature","geometry":{"type":"Point","coordinates":[7.2943379,43.690319]},"properties":{"natural":"tree"}},
{"type":"Feature","geometry":{"type":"Point","coordinates":[7.2422037,43.6903283]},"properties":{"natural":"tree"}},
{"type":"Feature","geometry":{"type":"Point","coordinates":[7.2955286,43.6903333]},"properties":{"natural":"tree"}},
{"type":"Feature","geometry":{"type":"Point","coordinates":[7.2945195,43.6903401]},"properties":{"natural":"tree"}},
{"type":"Feature","geometry":{"type":"Point","coordinates":[7.2957702,43.6903483]},"properties":{"natural":"tree"}},
{"type":"Feature","geometry":{"type":"Point","coordinates":[7.2944572,43.6903495]},"properties":{"natural":"tree"}},
{"type":"Feature","geometry":{"type":"Point","coordinates":[7.2944843,43.6903509]},"properties":{"natural":"tree"}},
{"type":"Feature","geometry":{"type":"Point","coordinates":[7.2942248,43.6903549]},"properties":{"natural":"tree"}},
{"type":"Feature","geometry":{"type":"Point","coordinates":[7.295606,43.690356]},"properties":{"natural":"tree"}},
{"type":"Feature","geometry":{"type":"Point","coordinates":[7.2954838,43.6903574]},"properties":{"natural":"tree"}},
{"type":"Feature","geometry":{"type":"Point","coordinates":[7.2426771,43.6903599]},"properties":{"leaf_type":"broadleaved","natural":"tree"}},
{"type":"Feature","geometry":{"type":"Point","coordinates":[7.2945061,43.6903615]},"properties":{"natural":"tree"}},
{"type":"Feature","geometry":{"type":"Point","coordinates":[7.2942999,43.6903622]},"properties":{"natural":"tree"}},
{"type":"Feature","geometry":{"type":"Point","coordinates":[7.2939867,43.6903652]},"properties":{"natural":"tree"}},
{"type":"Feature","geometry":{"type":"Point","coordinates":[7.2944764,43.6903655]},"properties":{"natural":"tree"}},
{"type":"Feature","geometry":{"type":"Point","coordinates":[7.2940184,43.6903699]},"properties":{"natural":"tree"}},
{"type":"Feature","geometry":{"type":"Point","coordinates":[7.2945452,43.6903734]},"properties":{"natural":"tree"}},
{"type":"Feature","geometry":{"type":"Point","coordinates":[7.2940423,43.6903752]},"properties":{"natural":"tree"}},
{"type":"Feature","geometry":{"type":"Point","coordinates":[7.2940285,43.6903801]},"properties":{"natural":"tree"}},
{"type":"Feature","geometry":{"type":"Point","coordinates":[7.2944902,43.6903836]},"properties":{"natural":"tree"}},
{"type":"Feature","geometry":{"type":"Point","coordinates":[7.2944047,43.6903876]},"properties":{"natural":"tree"}},
{"type":"Feature","geometry":{"type":"Point","coordinates":[7.2944506,43.690393]},"properties":{"natural":"tree"}},
{"type":"Feature","geometry":{"type":"Point","coordinates":[7.2942608,43.6904002]},"properties":{"natural":"tree"}},
{"type":"Feature","geometry":{"type":"Point","coordinates":[7.294368,43.6904003]},"properties":{"natural":"tree"}},
{"type":"Feature","geometry":{"type":"Point","coordinates":[7.2944358,43.6904013]},"properties":{"natural":"tree"}},
{"type":"Feature","geometry":{"type":"Point","coordinates":[7.2954688,43.6904097]},"properties":{"natural":"tree"}},
{"type":"Feature","geometry":{"type":"Point","coordinates":[7.2957614,43.6904105]},"properties":{"natural":"tree"}},
{"type":"Feature","geometry":{"type":"Point","coordinates":[7.295571,43.6904198]},"properties":{"natural":"tree"}},
{"type":"Feature","geometry":{"type":"Point","coordinates":[7.2939807,43.6904218]},"properties":{"natural":"tree"}},
{"type":"Feature","geometry":{"type":"Point","coordinates":[7.2450282,43.6904287]},"properties":{"natural":"tree"}},
{"type":"Feature","geometry":{"type":"Point","coordinates":[7.2941712,43.6904407]},"properties":{"natural":"tree"}},
{"type":"Feature","geometry":{"type":"Point","coordinates":[7.2955284,43.6904442]},"properties":{"natural":"tree"}},
{"type":"Feature","geometry":{"type":"Point","coordinates":[7.2944509,43.6904483]},"properties":{"natural":"tree"}},
{"type":"Feature","geometry":{"type":"Point","coordinates":[7.2940291,43.6904557]},"properties":{"natural":"tree"}},
{"type":"Feature","geometry":{"type":"Point","coordinates":[7.2941715,43.690458]},"properties":{"natural":"tree"}},
{"type":"Feature","geometry":{"type":"Point","coordinates":[7.2428503,43.6904589]},"properties":{"leaf_type":"broadleaved","natural":"tree"}},
{"type":"Feature","geometry":{"type":"Point","coordinates":[7.2954881,43.6909866]},"properties":{"natural":"tree"}},
{"type":"Feature","geometry":{"type":"Point","coordinates":[7.2424218,43.6904654]},"properties":{"natural":"tree"}},
{"type":"Feature","geometry":{"type":"Point","coordinates":[7.2450947,43.6904679]},"properties":{"natural":"tree"}},
{"type":"Feature","geometry":{"type":"Point","coordinates":[7.2956596,43.6904694]},"properties":{"natural":"tree"}},
{"type":"Feature","geometry":{"type":"Point","coordinates":[7.2957121,43.6904782]},"properties":{"natural":"tree"}},
{"type":"Feature","geometry":{"type":"Point","coordinates":[7.2939762,43.6904823]},"properties":{"natural":"tree"}},
{"type":"Feature","geometry":{"type":"Point","coordinates":[7.245177,43.6904828]},"properties":{"natural":"tree"}},
{"type":"Feature","geometry":{"type":"Point","coordinates":[7.2451465,43.6904903]},"properties":{"natural":"tree"}},
{"type":"Feature","geometry":{"type":"Point","coordinates":[7.2941574,43.6904914]},"properties":{"natural":"tree"}},
{"type":"Feature","geometry":{"type":"Point","coordinates":[7.294355,43.6904957]},"properties":{"natural":"tree"}},
{"type":"Feature","geometry":{"type":"Point","coordinates":[7.2942982,43.6904989]},"properties":{"natural":"tree"}},
{"type":"Feature","geometry":{"type":"Point","coordinates":[7.2452012,43.6905112]},"properties":{"natural":"tree"}},
{"type":"Feature","geometry":{"type":"Point","coordinates":[7.2940329,43.6905243]},"properties":{"natural":"tree"}},
{"type":"Feature","geometry":{"type":"Point","coordinates":[7.2942769,43.6905243]},"properties":{"natural":"tree"}},
{"type":"Feature","geometry":{"type":"Point","coordinates":[7.243027,43.6905253]},"properties":{"natural":"tree"}},
{"type":"Feature","geometry":{"type":"Point","coordinates":[7.2942012,43.6905326]},"properties":{"natural":"tree"}},
{"type":"Feature","geometry":{"type":"Point","coordinates":[7.2942413,43.6905472]},"properties":{"natural":"tree"}},
{"type":"Feature","geometry":{"type":"Point","coordinates":[7.2940032,43.6905559]},"properties":{"natural":"tree"}},
{"type":"Feature","geometry":{"type":"Point","coordinates":[7.2942339,43.6905565]},"properties":{"natural":"tree"}},
{"type":"Feature","geometry":{"type":"Point","coordinates":[7.2425687,43.6905585]},"properties":{"natural":"tree"}},
{"type":"Feature","geometry":{"type":"Point","coordinates":[7.2941744,43.6905585]},"properties":{"natural":"tree"}},
{"type":"Feature","geometry":{"type":"Point","coordinates":[7.2431605,43.6905753]},"properties":{"leaf_type":"broadleaved","natural":"tree"}},
{"type":"Feature","geometry":{"type":"Point","coordinates":[7.2942316,43.6905774]},"properties":{"natural":"tree"}},
{"type":"Feature","geometry":{"type":"Point","coordinates":[7.2940649,43.6905896]},"properties":{"natural":"tree"}},
{"type":"Feature","geometry":{"type":"Point","coordinates":[7.2942209,43.6905946]},"properties":{"natural":"tree"}},
{"type":"Feature","geometry":{"type":"Point","coordinates":[7.2942057,43.690598]},"properties":{"natural":"tree"}},
{"type":"Feature","geometry":{"type":"Point","coordinates":[7.2939724,43.6906032]},"properties":{"natural":"tree"}},
{"type":"Feature","geometry":{"type":"Point","coordinates":[7.2426773,43.6906208]},"properties":{"natural":"tree"}},
{"type":"Feature","geometry":{"type":"Point","coordinates":[7.2940462,43.690632]},"properties":{"natural":"tree"}},
{"type":"Feature","geometry":{"type":"Point","coordinates":[7.2941659,43.690645]},"properties":{"natural":"tree"}},
{"type":"Feature","geometry":{"type":"Point","coordinates":[7.2941103,43.6906472]},"properties":{"natural":"tree"}},
{"type":"Feature","geometry":{"type":"Point","coordinates":[7.2941585,43.6906603]},"properties":{"natural":"tree"}},
{"type":"Feature","geometry":{"type":"Point","coordinates":[7.2939742,43.6906619]},"properties":{"natural":"tree"}},
{"type":"Feature","geometry":{"type":"Point","coordinates":[7.2456917,43.6906826]},"properties":{"natural":"tree"}},
{"type":"Feature","geometry":{"type":"Point","coordinates":[7.2941353,43.6906886]},"properties":{"natural":"tree"}},
{"type":"Feature","geometry":{"type":"Point","coordinates":[7.2457417,43.6906942]},"properties":{"natural":"tree"}},
{"type":"Feature","geometry":{"type":"Point","coordinates":[7.2939684,43.6907272]},"properties":{"natural":"tree"}},
{"type":"Feature","geometry":{"type":"Point","coordinates":[7.2459221,43.6907474]},"properties":{"natural":"tree"}},
{"type":"Feature","geometry":{"type":"Point","coordinates":[7.2940642,43.6907408]},"properties":{"natural":"tree"}},
{"type":"Feature","geometry":{"type":"Point","coordinates":[7.294013,43.690745]},"properties":{"natural":"tree"}},
{"type":"Feature","geometry":{"type":"Point","coordinates":[7.2460693,43.6908057]},"properties":{"natural":"tree"}},
{"type":"Feature","geometry":{"type":"Point","coordinates":[7.2940824,43.6907498]},"properties":{"natural":"tree"}},
{"type":"Feature","geometry":{"type":"Point","coordinates":[7.2459423,43.6907697]},"properties":{"natural":"tree"}},
{"type":"Feature","geometry":{"type":"Point","coordinates":[7.2940121,43.6907787]},"properties":{"natural":"tree"}},
{"type":"Feature","geometry":{"type":"Point","coordinates":[7.243125,43.690784]},"properties":{"natural":"tree"}},
{"type":"Feature","geometry":{"type":"Point","coordinates":[7.243869,43.6908329]},"properties":{"natural":"tree"}},
{"type":"Feature","geometry":{"type":"Point","coordinates":[7.2461347,43.6908346]},"properties":{"natural":"tree"}},
{"type":"Feature","geometry":{"type":"Point","coordinates":[7.2432962,43.6908466]},"properties":{"natural":"tree"}},
{"type":"Feature","geometry":{"type":"Point","coordinates":[7.2462389,43.6908695]},"properties":{"natural":"tree"}},
{"type":"Feature","geometry":{"type":"Point","coordinates":[7.2455165,43.6908878]},"properties":{"natural":"tree"}},
{"type":"Feature","geometry":{"type":"Point","coordinates":[7.2462982,43.6908894]},"properties":{"natural":"tree"}},
{"type":"Feature","geometry":{"type":"Point","coordinates":[7.2440295,43.6908907]},"properties":{"leaf_type":"broadleaved","natural":"tree"}},
{"type":"Feature","geometry":{"type":"Point","coordinates":[7.2455526,43.6908969]},"properties":{"natural":"tree"}},
{"type":"Feature","geometry":{"type":"Point","coordinates":[7.2434687,43.6909129]},"properties":{"natural":"tree"}},
{"type":"Feature","geometry":{"type":"Point","coordinates":[7.2463877,43.6909202]},"properties":{"natural":"tree"}},
{"type":"Feature","geometry":{"type":"Point","coordinates":[7.2985486999999999,43.6909658]},"properties":{"natural":"tree"}},
{"type":"Feature","geometry":{"type":"Point","coordinates":[7.2984197,43.6910188]},"properties":{"natural":"tree"}},
{"type":"Feature","geometry":{"type":"Point","coordinates":[7.2451863,43.6910209]},"properties":{"natural":"tree"}},
{"type":"Feature","geometry":{"type":"Point","coordinates":[7.2438226,43.6910413]},"properties":{"natural":"tree"}},
{"type":"Feature","geometry":{"type":"Point","coordinates":[7.2452724,43.6910594]},"properties":{"natural":"tree"}},
{"type":"Feature","geometry":{"type":"Point","coordinates":[7.2451611,43.6910604]},"properties":{"natural":"tree"}},
{"type":"Feature","geometry":{"type":"Point","coordinates":[7.2467949,43.6910631]},"properties":{"natural":"tree"}},
{"type":"Feature","geometry":{"type":"Point","coordinates":[7.2453185,43.6910792]},"properties":{"natural":"tree"}},
{"type":"Feature","geometry":{"type":"Point","coordinates":[7.2468438,43.6910803]},"properties":{"natural":"tree"}},
{"type":"Feature","geometry":{"type":"Point","coordinates":[7.2468854,43.6910933]},"properties":{"natural":"tree"}},
{"type":"Feature","geometry":{"type":"Point","coordinates":[7.2439694,43.6910938]},"properties":{"natural":"tree"}},
{"type":"Feature","geometry":{"type":"Point","coordinates":[7.2453744,43.6910963]},"properties":{"natural":"tree"}},
{"type":"Feature","geometry":{"type":"Point","coordinates":[7.246948,43.6911137]},"properties":{"natural":"tree"}},
{"type":"Feature","geometry":{"type":"Point","coordinates":[7.2451087,43.6911332]},"properties":{"natural":"tree"}},
{"type":"Feature","geometry":{"type":"Point","coordinates":[7.2454137,43.6911406]},"properties":{"natural":"tree"}},
{"type":"Feature","geometry":{"type":"Point","coordinates":[7.2451738,43.6911521]},"properties":{"natural":"tree"}},
{"type":"Feature","geometry":{"type":"Point","coordinates":[7.2441242,43.6911545]},"properties":{"natural":"tree"}},
{"type":"Feature","geometry":{"type":"Point","coordinates":[7.2453887,43.6911643]},"properties":{"natural":"tree"}},
{"type":"Feature","geometry":{"type":"Point","coordinates":[7.2984026,43.691174]},"properties":{"natural":"tree"}},
{"type":"Feature","geometry":{"type":"Point","coordinates":[7.2983854,43.691179]},"properties":{"natural":"tree"}},
{"type":"Feature","geometry":{"type":"Point","coordinates":[7.2983558,43.6911816]},"properties":{"natural":"tree"}},
{"type":"Feature","geometry":{"type":"Point","coordinates":[7.298468,43.6911881]},"properties":{"natural":"tree"}},
{"type":"Feature","geometry":{"type":"Point","coordinates":[7.2453683,43.6911943]},"properties":{"natural":"tree"}},
{"type":"Feature","geometry":{"type":"Point","coordinates":[7.2452023,43.691196]},"properties":{"natural":"tree"}},
{"type":"Feature","geometry":{"type":"Point","coordinates":[7.2442738,43.6912081]},"properties":{"natural":"tree"}},
{"type":"Feature","geometry":{"type":"Point","coordinates":[7.2984542,43.6912113]},"properties":{"natural":"tree"}},
{"type":"Feature","geometry":{"type":"Point","coordinates":[7.2451264,43.6912119]},"properties":{"natural":"tree"}},
{"type":"Feature","geometry":{"type":"Point","coordinates":[7.2453602,43.6912207]},"properties":{"natural":"tree"}},
{"type":"Feature","geometry":{"type":"Point","coordinates":[7.2984316,43.6912257]},"properties":{"natural":"tree"}},
{"type":"Feature","geometry":{"type":"Point","coordinates":[7.2452899,43.6912273]},"properties":{"natural":"tree"}},
{"type":"Feature","geometry":{"type":"Point","coordinates":[7.2983599,43.6912296]},"properties":{"natural":"tree"}},
{"type":"Feature","geometry":{"type":"Point","coordinates":[7.298295,43.6912319]},"properties":{"natural":"tree"}},
{"type":"Feature","geometry":{"type":"Point","coordinates":[7.2983754,43.6912322]},"properties":{"natural":"tree"}},
{"type":"Feature","geometry":{"type":"Point","coordinates":[7.2984194,43.6912508]},"properties":{"natural":"tree"}},
{"type":"Feature","geometry":{"type":"Point","coordinates":[7.2984012,43.6912509]},"properties":{"natural":"tree"}},
{"type":"Feature","geometry":{"type":"Point","coordinates":[7.244414,43.6912555]},"properties":{"natural":"tree"}},
{"type":"Feature","geometry":{"type":"Point","coordinates":[7.2453129,43.6912771]},"properties":{"natural":"tree"}},
{"type":"Feature","geometry":{"type":"Point","coordinates":[7.2474313,43.6912805]},"properties":{"natural":"tree"}},
{"type":"Feature","geometry":{"type":"Point","coordinates":[7.2445758,43.6913164]},"properties":{"natural":"tree"}},
{"type":"Feature","geometry":{"type":"Point","coordinates":[7.2954289,43.6871667]},"properties":{"contact:phone":"+33 6 29 97 89 54","leisure":"sports_centre","name":"Coach Sportif A Distance","website":"www.coach-sportif-a-distance.fr/"}},
{"type":"Feature","geometry":{"type":"Point","coordinates":[7.2956877,43.6900104]},"properties":{"direction":"260","name":"Belvédère du Mont Boron","tourism":"viewpoint"}},
{"type":"Feature","geometry":{"type":"Point","coordinates":[7.295417,43.6897451]},"properties":{"direction":"260","tourism":"viewpoint"}},
{"type":"Feature","geometry":{"type":"Point","coordinates":[7.2939308,43.6907721]},"properties":{"natural":"tree"}},
{"type":"Feature","geometry":{"type":"Point","coordinates":[7.326585,43.6742993]},"properties":{"description":"Pointe Malalongue (cap Ferrat)","ref":"MD28","source":"Décret n°2015-958 du 31 juillet 2015 définissant les lignes de base de la France métropolitaine","source:website":"http://www.legifrance.gouv.fr/affichTexte.do?cidTexte=JORFTEXT000030967027"}},
{"type":"Feature","geometry":{"type":"Point","coordinates":[7.1449136,43.551887]},"properties":{"description":"Cap Gros","ref":"MD27","source":"Décret n°2015-958 du 31 juillet 2015 définissant les lignes de base de la France métropolitaine","source:website":"http://www.legifrance.gouv.fr/affichTexte.do?cidTexte=JORFTEXT000030967027"}},
{"type":"Feature","geometry":{"type":"Point","coordinates":[7.29983,43.6871267]},"properties":{"historic":"memorial","memorial":"plaque","name":"Monument Maurice Maeterlinck"}},
{"type":"Feature","geometry":{"type":"Point","coordinates":[7.2998194,43.6870968]},"properties":{"tourism":"viewpoint"}},
{"type":"Feature","geometry":{"type":"Point","coordinates":[7.2938016,43.6865637]},"properties":{"tourism":"viewpoint"}},
{"type":"Feature","geometry":{"type":"Point","coordinates":[7.2424685,43.6888657]},"properties":{"artist_name":"Stéphane Bolongaro","artwork_type":"statue","name":"Totor","tourism":"artwork"}},
{"type":"Feature","geometry":{"type":"Point","coordinates":[7.2437401,43.6895305]},"properties":{"artist_name":"Stéphane Bolongaro","artwork_type":"statue","name":"Totor","tourism":"artwork"}},
{"type":"Feature","geometry":{"type":"Point","coordinates":[7.2941626,43.6880754]},"properties":{"name":"Coco Beach","tourism":"attraction"}},
{"type":"Feature","geometry":{"type":"Point","coordinates":[7.2952345,43.6898721]},"properties":{"leisure":"outdoor_seating"}},
{"type":"Feature","geometry":{"type":"LineString","coordinates":[[7.2884442,43.6904847],[7.2884127,43.6905413],[7.2883639,43.6905784],[7.2883204,43.6905862],[7.2881547,43.6907202],[7.2881144,43.6906943],[7.2869423,43.6916328],[7.2863796,43.6920834],[7.2864032,43.69211],[7.2861682,43.692229]]},"properties":{"natural":"coastline","source":"cadastre-dgi-fr source : Direction Générale des Impôts - Cadastre. Mise à jour : 2009"}},
{"type":"Feature","geometry":{"type":"LineString","coordinates":[[7.2453259,43.6913237],[7.2450686,43.6912303],[7.245204,43.691034],[7.245459,43.691126],[7.2453259,43.6913237]]},"properties":{"leisure":"park","name":"Jardin Général Ferrie"}},
{"type":"Feature","geometry":{"type":"LineString","coordinates":[[7.2901185,43.692053],[7.2901384,43.6920742],[7.2902233,43.692096],[7.2903092,43.6921271],[7.2903154,43.6921437],[7.2902939,43.6922379],[7.290289,43.6922593],[7.2903407,43.6922694],[7.2903698,43.692271],[7.2903989,43.6922707],[7.2904426,43.692267],[7.2904862,43.6922605],[7.2905121,43.6922519],[7.2905302,43.692243],[7.2905421,43.6922335],[7.2905375,43.6922291],[7.290564,43.6922109],[7.2905759,43.6921891],[7.2906388,43.6921223],[7.290687,43.6921524],[7.2907065,43.6921365],[7.2906817,43.6921153],[7.2907646,43.6920497],[7.2907899,43.6920488],[7.2908207,43.6920304],[7.2908161,43.6920105],[7.29087,43.6919503],[7.2908145,43.691914],[7.2908,43.6919198],[7.2907749,43.6919382],[7.2907408,43.6919385],[7.290707,43.6919219],[7.2906836,43.6918975],[7.2906605,43.6918754],[7.2906699,43.6918635],[7.2906337,43.6918335],[7.2906392,43.6918298],[7.2906479,43.691824],[7.2906592,43.6918165],[7.2906883,43.6918427],[7.2907152,43.6918551],[7.290741,43.6918601],[7.2907803,43.6918865],[7.2908052,43.6918946],[7.2908557,43.6918531],[7.2908672,43.6918593],[7.2909426,43.6919064],[7.2909309,43.6919263],[7.2909803,43.691953],[7.2910508,43.6919129],[7.2910284,43.6918743],[7.2910171,43.6918218],[7.2909897,43.6917927],[7.2909271,43.6917286],[7.290895,43.6917186],[7.2908851,43.6916986],[7.2908702,43.691679],[7.2908643,43.691664],[7.2908723,43.6916512],[7.2908832,43.6916499],[7.2909259,43.6916841],[7.2909287,43.6916974],[7.2909369,43.691713],[7.2909727,43.6917211],[7.2910819,43.6916092],[7.2911359,43.6915925],[7.2911956,43.6916046],[7.2912191,43.6915915],[7.291216,43.6915718],[7.2912546,43.6915569],[7.2913054,43.6915251],[7.2913398,43.6914875],[7.2913703,43.6914662],[7.2913984,43.6914505],[7.2913951,43.691421],[7.2914334,43.691422],[7.2914477,43.6914391],[7.2914663,43.6914544],[7.2916726,43.6914754],[7.2916877,43.6914769],[7.2916888,43.6915057],[7.2917077,43.6915127],[7.2917164,43.6914849],[7.291728,43.6914875],[7.2917433,43.6915037],[7.2919575,43.6914253],[7.2919614,43.6914037],[7.2919882,43.6913912],[7.2919679,43.6913692],[7.2919412,43.6913481],[7.2919793,43.6913031],[7.2920365,43.6913242],[7.2920657,43.6913214],[7.2920961,43.6913582],[7.29227,43.6913132],[7.2923056,43.69127],[7.2923576,43.6912498],[7.2924694,43.6912333],[7.2926077,43.6911828],[7.2926776,43.6911645],[7.292708,43.6911654],[7.2927309,43.6911158],[7.292798,43.6910782],[7.2928675,43.6910898],[7.2928914,43.6911066],[7.2929937,43.6910558],[7.293,43.6910258],[7.2930377,43.6909991],[7.2930711,43.6909423],[7.2931397,43.6908983],[7.2931739,43.6908964],[7.2933427,43.6908234],[7.2935306,43.6908294],[7.2935941,43.6907853],[7.2936413,43.6907479],[7.2936496,43.6907094],[7.2936193,43.6906769],[7.2936256,43.6906512],[7.2936402,43.6906338],[7.2936737,43.6906399],[7.2936872,43.6906361],[7.2936757,43.6905931],[7.2936783,43.6904786],[7.2936872,43.6904624],[7.2936965,43.6904512],[7.2937135,43.690452],[7.2937194,43.6904602],[7.2937242,43.6904654],[7.2937334,43.6904621],[7.2937345,43.6904474],[7.2937275,43.6904399],[7.2936899,43.6904062],[7.293682,43.6903688],[7.2936517,43.6903718],[7.2936256,43.6903317],[7.2936143,43.690298],[7.293629,43.6902863],[7.2936086,43.6902293],[7.2936169,43.6902157],[7.293584,43.6901833],[7.2935585,43.6901783],[7.2935486,43.6901634],[7.2935496,43.6900303],[7.2935715,43.6899982],[7.2936401,43.6898846],[7.2937118,43.6898835],[7.293734,43.6899508],[7.2937624,43.6899637],[7.2939094,43.6899562],[7.2939375,43.6899487],[7.2939203,43.6898398],[7.2939312,43.689755],[7.294,43.689756],[7.2940748,43.6897917],[7.2941024,43.6898181],[7.2941363,43.6898095],[7.2941354,43.6897767],[7.2941613,43.6897751],[7.2941916,43.689783],[7.2942768,43.6897577],[7.2943086,43.6897445],[7.2942799,43.6897147],[7.2942517,43.689706],[7.2942434,43.6896538],[7.2942817,43.689652],[7.294298,43.6896355],[7.2943475,43.6896336],[7.2943787,43.6896074],[7.2943499,43.6895492],[7.2943514,43.6895257],[7.2943322,43.6894851],[7.2943573,43.689468],[7.2943662,43.6894339],[7.2943049,43.6893714],[7.2943213,43.6892136],[7.2942408,43.6890064],[7.2942673,43.688953],[7.294306,43.6889205],[7.2943101,43.688882],[7.294261,43.6888216],[7.2942531,43.6887263],[7.2942431,43.6885774],[7.294255,43.6885605],[7.2942781,43.6885475],[7.2943881,43.6885335],[7.2943757,43.6884802],[7.2942902,43.6884864],[7.2942413,43.6884748],[7.2941927,43.6883838],[7.2942198,43.6883755],[7.2942196,43.6883504],[7.2941812,43.68832],[7.2941273,43.6882928],[7.2941384,43.68826],[7.2941672,43.6882613],[7.2942322,43.6882939],[7.2942418,43.6882697],[7.2942462,43.6882525],[7.2942664,43.6882302],[7.2942544,43.6882086],[7.2942423,43.6882047],[7.2942281,43.6882042],[7.2942067,43.6881659],[7.294189,43.6881371],[7.2941466,43.6880615],[7.2941328,43.688032],[7.2940906,43.6880101],[7.2940583,43.6879561],[7.2939727,43.6877317],[7.2938336,43.6875975],[7.2936974,43.6875195],[7.2936043,43.6875135],[7.2935022,43.6874519],[7.2935026,43.6874366],[7.2935176,43.6874235],[7.2934715,43.6873805],[7.2934804,43.6873626],[7.2934921,43.6873472],[7.2935241,43.6873439],[7.2935562,43.6873441],[7.29365,43.6873731],[7.2937089,43.687374],[7.2937312,43.687397],[7.293782,43.6873867],[7.293856,43.6874632],[7.2938919,43.6874781],[7.2939088,43.6874508],[7.2939161,43.6874289],[7.2939279,43.6874201],[7.2938867,43.6873729],[7.2938253,43.6872588],[7.2938017,43.687157],[7.2938184,43.6871426],[7.2938263,43.6871155],[7.2938051,43.6870983],[7.2937771,43.6870879],[7.2937594,43.6870264],[7.2938402,43.6870071],[7.2938335,43.6869036],[7.293697,43.6868638],[7.2936977,43.6866287],[7.2937991,43.6865285],[7.29404,43.6864429],[7.2942621,43.6863288],[7.2945549,43.6862432],[7.2949079,43.6862377],[7.2951012,43.6861113],[7.2952037,43.6859358],[7.2953097,43.685869],[7.2954197,43.6855686],[7.2956481,43.6857479],[7.2956788,43.6858938],[7.2957047,43.6859369]]},"properties":{"natural":"coastline","source":"Bing"}},
{"type":"Feature","geometry":{"type":"LineString","coordinates":[[7.246877,43.691437],[7.246778,43.691403],[7.246842,43.691308],[7.2468966,43.6913264],[7.24694,43.691341],[7.246877,43.691437]]},"properties":{"building":"hotel","building:levels":"3","height":"11","internet_access":"wlan","internet_access:fee":"no","name":"Flots d'Azur","phone":"+33 4 93 86 51 25","rooms":"17","smoking":"no","source":"cadastre-dgi-fr source : Direction Générale des Impôts - Cadastre. Mise à jour : 2011","source:modif":"Apidae (2017-11-21), in Opendata PACA","stars":"3","tourism":"hotel","wikidata":"Q111876891"}},
{"type":"Feature","geometry":{"type":"LineString","coordinates":[[7.2461008,43.6902627],[7.2471146,43.6906912],[7.2486293,43.691188],[7.2488067,43.6912318],[7.249995,43.6915251],[7.2500862,43.6916429],[7.250185,43.6916506],[7.2502843,43.6916758],[7.2505176,43.6917475],[7.2507215,43.691796],[7.2510004,43.6918969],[7.2511372,43.6919143],[7.2515395,43.6919783],[7.2518614,43.6920753],[7.2521591,43.6921955],[7.2524998,43.6922969],[7.2526795,43.6923551],[7.2533768,43.6925218],[7.2540796,43.6926789],[7.2550479,43.6929194],[7.2557968,43.693093],[7.2561154,43.6931667],[7.2562907,43.6932238]]},"properties":{"natural":"coastline","source":"cadastre-dgi-fr source : Direction Générale des Impôts - Cadastre. Mise à jour : 2009"}},
{"type":"Feature","geometry":{"type":"LineString","coordinates":[[7.3000556,43.6895076],[7.3000315,43.6899129],[7.3000717,43.6899905],[7.3003791,43.690227899999999],[7.3004901,43.6902427],[7.3011661,43.6902427],[7.3011674,43.6902882],[7.3012546,43.6902863],[7.301264,43.6902039],[7.3016059,43.6897975],[7.3012827,43.6894193],[7.3012237,43.6892312],[7.3011526,43.6891527],[7.3010816,43.689143],[7.3009595,43.6891769],[7.3009475,43.6891982],[7.3009354,43.689237],[7.3008031,43.6893046],[7.3001106,43.6894213],[7.3000556,43.6895076]]},"properties":{"building":"yes","height":"3","historic":"ruins","name":"Fort du Mont Boron","ruins":"yes"}},
{"type":"Feature","geometry":{"type":"LineString","coordinates":[[7.2827809,43.6930117],[7.2827811,43.693008],[7.2827838,43.6929212],[7.2836727,43.6927358],[7.2843646,43.692667899999999],[7.2850465,43.6924426],[7.2854952,43.6923105],[7.28615,43.6919718],[7.2880845,43.6904332],[7.2881625,43.6903889],[7.2882592,43.6903979],[7.2883505,43.6904085],[7.2884442,43.6904847]]},"properties":{"natural":"coastline","source":"cadastre-dgi-fr source : Direction Générale des Impôts - Cadastre. Mise à jour : 2009"}},
{"type":"Feature","geometry":{"type":"LineString","coordinates":[[7.2893863,43.6913039],[7.2884442,43.6904847]]},"properties":{"maritime":"yes"}},
{"type":"Feature","geometry":{"type":"LineString","coordinates":[[7.293605,43.690034],[7.2935883,43.6900552],[7.2935872,43.6900831],[7.2935945,43.6901126],[7.2936227,43.6901473],[7.2936395,43.6901383],[7.2936489,43.6901458],[7.2936509,43.6901753],[7.2936697,43.6901919],[7.2936885,43.6901994],[7.2938201,43.6902176],[7.2938619,43.6901413],[7.2939131,43.6900544],[7.2937857,43.6900084],[7.2937627,43.6900174],[7.2937167,43.6899985],[7.2936875,43.6899827],[7.2936645,43.689963],[7.2936562,43.6899532],[7.2936415,43.6899532],[7.2936311,43.6899608],[7.293629,43.6899797],[7.2936217,43.6899978],[7.2936123,43.6900197],[7.293605,43.690034]]},"properties":{"leisure":"garden","name":"Jardin Félix Rainaux"}},
{"type":"Feature","geometry":{"type":"LineString","coordinates":[[7.2939486,43.690798],[7.2939308,43.6907721],[7.2939371,43.6906901],[7.2939559,43.6905796],[7.2939589,43.6904492],[7.293967,43.690327],[7.2939827,43.6902653],[7.294031,43.6902188],[7.2941248,43.6901606],[7.2942402,43.6900966],[7.294621,43.6898872],[7.2946429,43.6900264],[7.2946375,43.6901855],[7.2945768,43.6902972],[7.2944686,43.6904046],[7.294321,43.6905152],[7.2942433,43.6905811],[7.2941977,43.6906858],[7.2941034,43.6907735],[7.2940242,43.690815],[7.2939796,43.6908235],[7.2939486,43.690798]]},"properties":{"leisure":"park","name":"Square Théodore de Banville"}},
{"type":"Feature","geometry":{"type":"LineString","coordinates":[[7.298881,43.688518],[7.298859,43.688493],[7.298861,43.688491],[7.298866,43.688485],[7.2988695,43.6884815],[7.298877,43.688475],[7.298883,43.688471],[7.298893,43.688466],[7.298899,43.688463],[7.298907,43.68846],[7.298914,43.688458],[7.298921,43.688456],[7.29893,43.688455],[7.298941,43.688454],[7.298964,43.688479],[7.298881,43.688518]]},"properties":{"access":"private","leisure":"swimming_pool","source":"cadastre-dgi-fr source : Direction Générale des Impôts - Cadastre. Mise à jour : 2013"}},
{"type":"Feature","geometry":{"type":"LineString","coordinates":[[7.296537,43.688787],[7.296424,43.688755],[7.296428,43.6887465],[7.2964268,43.6887438],[7.2964263,43.6887402],[7.296426,43.688737],[7.2964271,43.6887344],[7.2964296,43.6887312],[7.2964328,43.6887295],[7.296437,43.6887278],[7.2964418,43.6887201],[7.296556,43.688752],[7.296537,43.688787]]},"properties":{"access":"private","leisure":"swimming_pool","source":"cadastre-dgi-fr source : Direction Générale des Impôts - Cadastre. Mise à jour : 2013"}},
{"type":"Feature","geometry":{"type":"LineString","coordinates":[[7.297379,43.690509],[7.297377,43.690514],[7.297299,43.690504],[7.297306,43.690473],[7.2973865,43.6904843],[7.2973851,43.6904889],[7.2973906,43.6904922],[7.2973925,43.6904945],[7.297394,43.6904978],[7.2973941,43.6905008],[7.2973933,43.6905037],[7.2973909,43.6905064],[7.2973874,43.690508],[7.2973825,43.690509],[7.297379,43.690509]]},"properties":{"access":"private","leisure":"swimming_pool","source":"cadastre-dgi-fr source : Direction Générale des Impôts - Cadastre. Mise à jour : 2013"}},
{"type":"Feature","geometry":{"type":"LineString","coordinates":[[7.297485,43.688327],[7.297555,43.688311],[7.297569,43.68834],[7.2975545,43.6883443],[7.2975515,43.6883479],[7.2975488,43.6883505],[7.2975427,43.6883538],[7.2975364,43.6883553],[7.2975308,43.6883564],[7.2975247,43.6883568],[7.297519,43.688356],[7.2975155,43.688355],[7.2975125,43.688354],[7.297498,43.688357],[7.297485,43.688327]]},"properties":{"access":"private","leisure":"swimming_pool","source":"cadastre-dgi-fr source : Direction Générale des Impôts - Cadastre. Mise à jour : 2013"}},
{"type":"Feature","geometry":{"type":"LineString","coordinates":[[7.297312,43.688606],[7.297307,43.688557],[7.297336,43.688555],[7.29734,43.688605],[7.297312,43.688606]]},"properties":{"access":"private","leisure":"swimming_pool","source":"cadastre-dgi-fr source : Direction Générale des Impôts - Cadastre. Mise à jour : 2013"}},
{"type":"Feature","geometry":{"type":"LineString","coordinates":[[7.297119,43.689341],[7.297132,43.689308],[7.297236,43.68933],[7.297224,43.689362],[7.297119,43.689341]]},"properties":{"access":"private","leisure":"swimming_pool","source":"cadastre-dgi-fr source : Direction Générale des Impôts - Cadastre. Mise à jour : 2013"}},
{"type":"Feature","geometry":{"type":"LineString","coordinates":[[7.296773,43.689408],[7.29672,43.689393],[7.296771,43.689296],[7.296824,43.689308],[7.296773,43.689408]]},"properties":{"access":"private","leisure":"swimming_pool","source":"cadastre-dgi-fr source : Direction Générale des Impôts - Cadastre. Mise à jour : 2013"}},
{"type":"Feature","geometry":{"type":"LineString","coordinates":[[7.299779,43.687358],[7.299696,43.687378],[7.299677,43.687335],[7.29976,43.687316],[7.299779,43.687358]]},"properties":{"access":"private","leisure":"swimming_pool","source":"cadastre-dgi-fr source : Direction Générale des Impôts - Cadastre. Mise à jour : 2013"}},
{"type":"Feature","geometry":{"type":"LineString","coordinates":[[7.297618,43.689116],[7.29768,43.689058],[7.297718,43.689079],[7.297657,43.689138],[7.297618,43.689116]]},"properties":{"access":"private","leisure":"swimming_pool","source":"cadastre-dgi-fr source : Direction Générale des Impôts - Cadastre. Mise à jour : 2013"}},
{"type":"Feature","geometry":{"type":"LineString","coordinates":[[7.298233,43.687918],[7.298079,43.687972],[7.298048,43.687925],[7.298204,43.687872],[7.298233,43.687918]]},"properties":{"access":"private","leisure":"swimming_pool","source":"cadastre-dgi-fr source : Direction Générale des Impôts - Cadastre. Mise à jour : 2013"}},
{"type":"Feature","geometry":{"type":"LineString","coordinates":[[7.300658,43.687639],[7.300529,43.68767],[7.30051,43.68763],[7.300643,43.687602],[7.300658,43.687639]]},"properties":{"access":"private","leisure":"swimming_pool","source":"cadastre-dgi-fr source : Direction Générale des Impôts - Cadastre. Mise à jour : 2013"}},
{"type":"Feature","geometry":{"type":"LineString","coordinates":[[7.300255,43.687319],[7.300257,43.687322],[7.300257,43.687325],[7.300257,43.687327],[7.300256,43.68733],[7.300255,43.687334],[7.300252,43.687337],[7.300249,43.687339],[7.300245,43.687341],[7.30024,43.687342],[7.300236,43.687343],[7.300232,43.687342],[7.300227,43.687341],[7.300221,43.687338],[7.300219,43.687336],[7.300216,43.687333],[7.300214,43.687328],[7.300213,43.687325],[7.30021,43.687322],[7.300205,43.6873175],[7.3002,43.687316],[7.300197,43.687315],[7.300195,43.687312],[7.300193,43.68731],[7.300194,43.687306],[7.300195,43.687304],[7.300198,43.6873],[7.300196,43.687296],[7.300196,43.687293],[7.300195,43.68729],[7.300199,43.687283],[7.300204,43.687278],[7.300208,43.687277],[7.300216,43.687274],[7.300222,43.687275],[7.300227,43.687275],[7.300231,43.687277],[7.300235,43.687279],[7.300239,43.687281],[7.300242,43.687286],[7.300243,43.68729],[7.300243,43.687293],[7.300243,43.687297],[7.300243,43.687299],[7.300243,43.687301],[7.300243,43.687304],[7.300243,43.687307],[7.300244,43.687309],[7.300255,43.687319]]},"properties":{"access":"private","leisure":"swimming_pool","source":"cadastre-dgi-fr source : Direction Générale des Impôts - Cadastre. Mise à jour : 2013"}},
{"type":"Feature","geometry":{"type":"LineString","coordinates":[[7.2948757,43.6873121],[7.2948087,43.6873161],[7.2947507,43.6873121],[7.2947567,43.6872581],[7.2948817,43.6872711],[7.2948757,43.6873121]]},"properties":{"access":"private","leisure":"swimming_pool","source":"cadastre-dgi-fr source : Direction Générale des Impôts - Cadastre. Mise à jour : 2013"}},
{"type":"Feature","geometry":{"type":"LineString","coordinates":[[7.296457,43.686492],[7.296406,43.686473],[7.296433,43.686435],[7.296428,43.6864],[7.296488,43.686391],[7.296495,43.686442],[7.296457,43.686492]]},"properties":{"access":"private","leisure":"swimming_pool","source":"cadastre-dgi-fr source : Direction Générale des Impôts - Cadastre. Mise à jour : 2013"}},
{"type":"Feature","geometry":{"type":"LineString","coordinates":[[7.296285,43.690651],[7.296283,43.690649],[7.296281,43.690647],[7.296278,43.690643],[7.296275,43.69064],[7.296272,43.690637],[7.296268,43.690634],[7.296267,43.69063],[7.296265,43.690627],[7.296263,43.690623],[7.296263,43.69062],[7.296262,43.690616],[7.29626,43.690611],[7.29626,43.690606],[7.29626,43.690601],[7.296261,43.690597],[7.296262,43.690592],[7.296263,43.690588],[7.296263,43.690586],[7.296265,43.690583],[7.296267,43.690581],[7.296268,43.690577],[7.29627,43.690574],[7.296273,43.69057],[7.296276,43.6905685],[7.296279,43.690569],[7.296282,43.69057],[7.296285,43.69057],[7.296289,43.6905695],[7.296294,43.6905665],[7.296296,43.690564],[7.296298,43.690562],[7.296297,43.6905585],[7.296298,43.690554],[7.296331,43.690552],[7.296332,43.690555],[7.296334,43.690559],[7.296335,43.690562],[7.296336,43.690566],[7.296337,43.69057],[7.296337,43.690573],[7.296338,43.690578],[7.296337,43.690581],[7.296336,43.690584],[7.296336,43.69059],[7.296335,43.690593],[7.296333,43.690598],[7.296332,43.6906],[7.296331,43.690602],[7.296329,43.690606],[7.296328,43.690609],[7.296327,43.690612],[7.296325,43.690616],[7.296325,43.690618],[7.296325,43.690621],[7.296324,43.690626],[7.296324,43.690629],[7.296325,43.690634],[7.296326,43.690638],[7.296326,43.690641],[7.296327,43.690645],[7.296285,43.690651]]},"properties":{"access":"private","leisure":"swimming_pool","source":"cadastre-dgi-fr source : Direction Générale des Impôts - Cadastre. Mise à jour : 2013"}},
{"type":"Feature","geometry":{"type":"LineString","coordinates":[[7.2988392,43.6880511],[7.2988327,43.688051],[7.2988273,43.68805],[7.2988233,43.688048],[7.2988195,43.6880448],[7.2988173,43.6880409],[7.2988173,43.6880361],[7.2988207,43.6880308],[7.298826,43.6880275],[7.2989115,43.688009],[7.2989156,43.6880089],[7.2989208,43.68801],[7.2989266,43.6880123],[7.2989307,43.6880158],[7.2989321,43.6880204],[7.298931,43.6880265],[7.2989279,43.6880297],[7.2989228,43.6880325],[7.2988392,43.6880511]]},"properties":{"access":"private","leisure":"swimming_pool","source":"cadastre-dgi-fr source : Direction Générale des Impôts - Cadastre. Mise à jour : 2013"}},
{"type":"Feature","geometry":{"type":"LineString","coordinates":[[7.295857,43.687743],[7.295791,43.687777],[7.295774,43.687774],[7.29576,43.687761],[7.29577,43.687745],[7.295829,43.687715],[7.29585,43.687715],[7.295863,43.687726],[7.295857,43.687743]]},"properties":{"access":"private","leisure":"swimming_pool","source":"cadastre-dgi-fr source : Direction Générale des Impôts - Cadastre. Mise à jour : 2013"}},
{"type":"Feature","geometry":{"type":"LineString","coordinates":[[7.297061,43.687435],[7.297052,43.687451],[7.297022,43.687457],[7.297002,43.687447],[7.296979,43.687388],[7.296988,43.687371],[7.297018,43.687366],[7.297038,43.687376],[7.297061,43.687435]]},"properties":{"access":"private","leisure":"swimming_pool","source":"cadastre-dgi-fr source : Direction Générale des Impôts - Cadastre. Mise à jour : 2013"}},
{"type":"Feature","geometry":{"type":"LineString","coordinates":[[7.244138,43.6913847],[7.2441721,43.691332],[7.2442985,43.6913748],[7.2442644,43.6914275],[7.244138,43.6913847]]},"properties":{"access":"private","layer":"1","leisure":"swimming_pool","source":"cadastre-dgi-fr source : Direction Générale des Impôts - Cadastre. Mise à jour : 2013"}},
{"type":"Feature","geometry":{"type":"LineString","coordinates":[[7.2414619,43.6880965],[7.242568,43.6886416],[7.2426331,43.688599],[7.24281,43.6886864],[7.2427833,43.6887771],[7.2430691,43.6889279],[7.2437851,43.6892848],[7.2438735,43.6891999],[7.2440767,43.689306],[7.2440079,43.6894105],[7.2441799,43.6895056],[7.244349,43.689572],[7.2448727,43.6897875],[7.2449655,43.6897304],[7.2451444,43.6898149],[7.2451194,43.6899078],[7.2451832,43.689948],[7.2457943,43.6901676],[7.2458914,43.6902025],[7.2461008,43.6902627]]},"properties":{"natural":"coastline","source":"cadastre-dgi-fr source : Direction Générale des Impôts - Cadastre. Mise à jour : 2009"}},
{"type":"Feature","geometry":{"type":"LineString","coordinates":[[7.2889926,43.6918684],[7.2889745,43.6919071],[7.2889268,43.6919367],[7.2888699,43.6919327],[7.2888181,43.6919036],[7.2887885,43.6918601],[7.2887945,43.6918066],[7.2888219,43.6917843],[7.2891162,43.6916904],[7.2894828,43.6915954],[7.289304,43.6914896],[7.2892549,43.6914072],[7.289317,43.6913575],[7.2893863,43.6913039]]},"properties":{"natural":"coastline","source":"cadastre-dgi-fr source : Direction Générale des Impôts - Cadastre. Mise à jour : 2009"}},
{"type":"Feature","geometry":{"type":"LineString","coordinates":[[7.2404354,43.687912],[7.2405928,43.6877549],[7.2407296,43.6878228],[7.240888,43.6878169],[7.2414619,43.6880965],[7.242568,43.6886416],[7.2424943,43.6887302],[7.2425349,43.6887764],[7.2427068,43.6888326],[7.2427833,43.6887771],[7.2430691,43.6889279],[7.2427729,43.6891783],[7.242352,43.688954],[7.2412622,43.6883583],[7.2412322,43.6883426],[7.2404354,43.687912]]},"properties":{"name":"Cocoon Beach","natural":"beach","surface":"pebblestone"}},
{"type":"Feature","geometry":{"type":"LineString","coordinates":[[7.2427729,43.6891783],[7.2430691,43.6889279],[7.2437851,43.6892848],[7.243718,43.6893807],[7.243827,43.689439],[7.2439167,43.689487],[7.2440079,43.6894105],[7.2441799,43.6895056],[7.244349,43.689572],[7.2448727,43.6897875],[7.2448736,43.6898602],[7.2448977,43.6899029],[7.2449916,43.6899281],[7.2451194,43.6899078],[7.2451832,43.689948],[7.2457943,43.6901676],[7.2455927,43.6904328],[7.245369,43.6903503],[7.2443113,43.6899407],[7.2438607,43.6897468],[7.2436297,43.6896447],[7.2433416,43.6894938],[7.2427729,43.6891783]]},"properties":{"name":"Bambou Plage","natural":"beach","surface":"pebblestone","wikidata":"Q107261115"}},
{"type":"Feature","geometry":{"type":"LineString","coordinates":[[7.2458067,43.6905043],[7.2461008,43.6902627],[7.2471146,43.6906912],[7.2486293,43.691188],[7.2488067,43.6912318],[7.2486481,43.6914833],[7.2486286,43.6914827],[7.246972,43.6909147],[7.2458067,43.6905043]]},"properties":{"name":"Li Rateta","natural":"beach","surface":"pebblestone"}},
{"type":"Feature","geometry":{"type":"LineString","coordinates":[[7.2486481,43.6914833],[7.2488067,43.6912318],[7.249995,43.6915251],[7.2500862,43.6916429],[7.2499411,43.6918778],[7.2488074,43.691483],[7.2486481,43.6914833]]},"properties":{"name":"Li Rateta","natural":"beach","surface":"pebblestone"}},
{"type":"Feature","geometry":{"type":"LineString","coordinates":[[7.245142,43.6912107],[7.2451857,43.691137],[7.2453232,43.6911796],[7.2452795,43.6912533],[7.245142,43.6912107]]},"properties":{"access":"yes","leisure":"playground"}},
{"type":"Feature","geometry":{"type":"LineString","coordinates":[[7.326585,43.6742993],[7.3243141,43.6727707],[7.3220432,43.6712421],[7.3197723,43.6697134],[7.3175014,43.6681847],[7.3152306,43.6666559],[7.3129597,43.6651271],[7.3106888,43.6635982],[7.3084179,43.6620693],[7.306147,43.6605404],[7.3038761,43.6590114],[7.3016052,43.6574824],[7.2993343,43.6559534],[7.2970634,43.6544243],[7.2947925,43.6528952],[7.2925216,43.651366],[7.2902507,43.6498368],[7.2879798,43.6483076],[7.285709,43.6467783],[7.2834381,43.645249],[7.2811672,43.6437196],[7.2788963,43.6421902],[7.2766254,43.6406608],[7.2743545,43.6391313],[7.2720836,43.6376018],[7.2698127,43.6360723],[7.2675418,43.6345427],[7.2652709,43.633013],[7.263,43.6314834],[7.2607291,43.6299537],[7.2584583,43.6284239],[7.2561874,43.6268941],[7.2539165,43.6253643],[7.2516456,43.6238345],[7.2493747,43.6223046],[7.2471038,43.6207746],[7.2448329,43.6192446],[7.242562,43.6177146],[7.2402911,43.6161846],[7.2380202,43.6146545],[7.2357493,43.6131243],[7.2334784,43.6115942],[7.2312075,43.6100639],[7.2289367,43.6085337],[7.2266658,43.6070034],[7.2243949,43.6054731],[7.222124,43.6039427],[7.2198531,43.6024123],[7.2175822,43.6008819],[7.2153113,43.5993514],[7.2130404,43.5978208],[7.2107695,43.5962903],[7.2084986,43.5947597],[7.2062277,43.593229],[7.2039568,43.5916984],[7.2016859,43.5901676],[7.1994151,43.5886369],[7.1971442,43.5871061],[7.1948733,43.5855753],[7.1926024,43.5840444],[7.1903315,43.5825135],[7.1880606,43.5809825],[7.1857897,43.5794515],[7.1835188,43.5779205],[7.1812479,43.5763894],[7.178977,43.5748583],[7.1767061,43.5733272],[7.1744352,43.571796],[7.1721643,43.5702648],[7.1698935,43.5687335],[7.1676226,43.5672022],[7.1653517,43.5656709],[7.1630808,43.5641395],[7.1608099,43.5626081],[7.158539,43.5610766],[7.1562681,43.5595451],[7.1539972,43.5580136],[7.1517263,43.556482],[7.1494554,43.5549504],[7.1471845,43.5534187],[7.1449136,43.551887]]},"properties":{"border_type":"baseline","boundary":"maritime","description":"Ligne de base droite à partir de laquelle est mesurée la largeur de la mer territoriale adjacente à la façade continentale de la Méditerranée","note":"loxodromy axis","source":"Décret n°2015-958 du 31 juillet 2015 définissant les lignes de base de la France métropolitaine;SHOM 2019","source:website":"http://www.legifrance.gouv.fr/affichTexte.do?cidTexte=JORFTEXT000030967027"}},
{"type":"Feature","geometry":{"type":"LineString","coordinates":[[7.2893863,43.6913039],[7.2894488,43.69129],[7.2895414,43.6913375],[7.2896124,43.6914257],[7.289709,43.6915149],[7.2896983,43.6915683],[7.2897814,43.6916415],[7.2898243,43.6916841],[7.2898652,43.6917331],[7.2898666,43.6917511],[7.2898988,43.6917666],[7.2899189,43.6918073],[7.2899549,43.6918355],[7.2899714,43.6918732],[7.2899904,43.6918667],[7.2900164,43.6918497],[7.2900386,43.6918574],[7.2900701,43.6918689],[7.2900719,43.69191],[7.2900444,43.6919273],[7.2900654,43.6919498],[7.2900637,43.6919668],[7.2901146,43.6920011],[7.2901046,43.6920221],[7.2901185,43.692053]]},"properties":{"natural":"coastline","source":"Bing"}},
{"type":"Feature","geometry":{"type":"LineString","coordinates":[[7.2954017,43.6904638],[7.295745,43.69051],[7.2957438,43.6904586],[7.2957249,43.6903028],[7.2957249,43.6901765],[7.2957533,43.690044],[7.295829,43.689754],[7.295744,43.689742],[7.295715,43.689737],[7.295571,43.689716],[7.2955136,43.690132],[7.2954017,43.6904638]]},"properties":{"garden:type":"public","leisure":"garden","name":"Montée Gurnée","operator":"Ville de Nice"}},
{"type":"Feature","geometry":{"type":"LineString","coordinates":[[7.2993426,43.6881301],[7.2994169,43.6881459],[7.2995758,43.6881322],[7.2997518,43.6880685],[7.299777,43.6880594],[7.2998732,43.688031],[7.2999767,43.6880099],[7.3000788,43.6879751],[7.3001283,43.6879466],[7.3004039,43.6879034],[7.3005001,43.6878771],[7.300589,43.6878328],[7.3006619,43.6877506],[7.3007144,43.6876989],[7.3007902,43.6877653],[7.3008325,43.6878402],[7.3010322,43.6878634],[7.3012147,43.6878534],[7.3014914,43.6878075]]},"properties":{"natural":"cliff"}},
{"type":"Feature","geometry":{"type":"LineString","coordinates":[[7.2954046,43.6900173],[7.2955125,43.6892424],[7.295102,43.6891787],[7.2951082,43.6892899],[7.2950771,43.6893608],[7.2950759,43.689446],[7.2950052,43.6896146],[7.2949965,43.6896594],[7.2948114,43.6896722],[7.2947777,43.6896859],[7.2947747,43.689718],[7.2950365,43.6896988],[7.2951578,43.6897326],[7.2951709,43.6897981],[7.2952194,43.6898816],[7.2953639,43.6900032],[7.2954046,43.6900173]]},"properties":{"leisure":"garden","name":"Jardin Nelson Mandela","old_name":"Jardin de la Paix","operator":"Ville de Nice"}},
{"type":"Feature","geometry":{"type":"LineString","coordinates":[[7.243827,43.689439],[7.243718,43.6893807],[7.2437851,43.6892848],[7.2430691,43.6889279],[7.2427833,43.6887771],[7.2427068,43.6888326],[7.2425349,43.6887764],[7.2424685,43.6888657],[7.242352,43.688954],[7.2427729,43.6891783],[7.2433416,43.6894938],[7.2436297,43.6896447],[7.2437401,43.6895305],[7.243827,43.689439]]},"properties":{"dog":"yes","name":"Plage des chiens","natural":"beach"}},
{"type":"Feature","geometry":{"type":"LineString","coordinates":[[7.245347,43.690848],[7.2453861,43.6907952],[7.245414,43.6907925],[7.2456017,43.6908591],[7.2456138,43.6908757],[7.245574,43.690931],[7.2454711,43.6908936],[7.245347,43.690848]]},"properties":{"leisure":"garden"}},
{"type":"Feature","geometry":{"type":"LineString","coordinates":[[7.2988874,43.6862889],[7.2991289,43.6863733],[7.2991963,43.6863507],[7.2992384,43.6863323],[7.2992927,43.686297],[7.2993334,43.6862524],[7.2994645,43.6862139],[7.2994736,43.6862027],[7.2994725,43.6861903],[7.2994592,43.6861814],[7.2994372,43.6861781],[7.2992463,43.6861993],[7.2991329,43.6861451],[7.2991089,43.6861689],[7.2992151,43.6862173],[7.2991412,43.6863019],[7.2991103,43.6862999],[7.2990998,43.6863125],[7.299088,43.6863148],[7.2990792,43.686309],[7.299072,43.6862873],[7.2990538,43.6862796],[7.2990413,43.6862852],[7.2990261,43.6862957],[7.2990027,43.6862979],[7.2989814,43.6862931],[7.2989726,43.6862795],[7.2989428,43.6862934],[7.2989251,43.6862894],[7.298918,43.6862769],[7.2988874,43.6862889]]},"properties":{"natural":"beach"}},
{"type":"Feature","geometry":{"type":"LineString","coordinates":[[7.2988874,43.6862889],[7.2987495,43.6863289],[7.2987679,43.6862805],[7.2986527,43.6862839],[7.2985403,43.6862296],[7.2984303,43.6862865],[7.2983405,43.6862718],[7.2982574,43.6862946],[7.2982382,43.6862377],[7.298006,43.6861338],[7.2977575,43.6861322],[7.29764,43.6862507],[7.2975547,43.6864212],[7.2976242,43.6864257],[7.2977985,43.6863452],[7.2979662,43.6863471],[7.2980603,43.6863283],[7.2981258,43.6864247],[7.298217,43.6864897],[7.2983712,43.686478],[7.2985764,43.6864654],[7.2987373,43.6864625],[7.2989747,43.6864266],[7.2991289,43.6863733],[7.2988874,43.6862889]]},"properties":{"natural":"bare_rock"}},
{"type":"Feature","geometry":{"type":"LineString","coordinates":[[7.295699,43.6889119],[7.2957034,43.6889149],[7.2957088,43.6889166],[7.2957162,43.6889149],[7.2957287,43.6889104],[7.2957496,43.6889063],[7.2957705,43.6889059],[7.2958,43.6889056],[7.2958118,43.6888694],[7.2957691,43.6888616],[7.2957595,43.688858],[7.295743,43.6888477],[7.2957356,43.6888434],[7.2957291,43.6888398],[7.2957225,43.6888398],[7.2957172,43.6888435],[7.2957132,43.6888475],[7.2957069,43.6888575],[7.2957009,43.6888698],[7.2956967,43.6888868],[7.295695,43.688903],[7.295699,43.6889119]]},"properties":{"access":"private","leisure":"swimming_pool","source":"cadastre-dgi-fr source : Direction Générale des Impôts - Cadastre. Mise à jour : 2013"}},
{"type":"Feature","geometry":{"type":"LineString","coordinates":[[7.2957303,43.6890977],[7.2957322,43.6891187],[7.2957262,43.6891247],[7.2957173,43.6891271],[7.2957066,43.6891267],[7.2956968,43.6891241],[7.2956877,43.6891192],[7.2956804,43.6891106],[7.2956784,43.6891002],[7.295683,43.6890459],[7.2956871,43.689039],[7.2956948,43.689032],[7.295703,43.6890257],[7.2957148,43.6890213],[7.2957251,43.6890206],[7.2957329,43.6890217],[7.2957386,43.6890258],[7.2957443,43.6890306],[7.2957468,43.6890408],[7.2957467,43.6890476],[7.2957404,43.6890546],[7.2957153,43.6890467],[7.2956912,43.6890851],[7.2957303,43.6890977]]},"properties":{"access":"private","leisure":"swimming_pool","source":"cadastre-dgi-fr source : Direction Générale des Impôts - Cadastre. Mise à jour : 2013"}},
{"type":"Feature","geometry":{"type":"LineString","coordinates":[[7.296885,43.6871396],[7.2968826,43.6871072],[7.2968937,43.6871043],[7.2969067,43.6871011],[7.2969244,43.6870999],[7.2969383,43.6871018],[7.2969523,43.6871049],[7.2969527,43.6871173],[7.2969636,43.6871172],[7.2969634,43.6871388],[7.296885,43.6871396]]},"properties":{"access":"private","leisure":"swimming_pool","source":"cadastre-dgi-fr source : Direction Générale des Impôts - Cadastre. Mise à jour : 2013"}},
{"type":"Feature","geometry":{"type":"LineString","coordinates":[[7.2974592,43.6871843],[7.2974592,43.687173],[7.2975441,43.6871567],[7.297551,43.6871566],[7.2975572,43.6871586],[7.2975599,43.6871627],[7.2975718,43.6871895],[7.2974592,43.6871843]]},"properties":{"access":"private","leisure":"swimming_pool","source":"cadastre-dgi-fr source : Direction Générale des Impôts - Cadastre. Mise à jour : 2013"}},
{"type":"Feature","geometry":{"type":"LineString","coordinates":[[7.3003446,43.6876976],[7.3003364,43.6876969],[7.3003279,43.6876778],[7.3003336,43.687673],[7.3003394,43.68767],[7.3003601,43.6876634],[7.3003884,43.6876578],[7.3003954,43.6876574],[7.3004015,43.6876581],[7.3004111,43.6876765],[7.3004077,43.6876811],[7.3004013,43.6876847],[7.3003772,43.6876924],[7.3003535,43.6876976],[7.3003446,43.6876976]]},"properties":{"access":"private","leisure":"swimming_pool","source":"cadastre-dgi-fr source : Direction Générale des Impôts - Cadastre. Mise à jour : 2013"}},
{"type":"Feature","geometry":{"type":"LineString","coordinates":[[7.2957047,43.6859369],[7.295814,43.6858514],[7.2960447,43.6857191],[7.2961422,43.6858135],[7.2961597,43.6859495],[7.2962231,43.6859495],[7.2964985,43.6863255],[7.2965315,43.6862422],[7.2966431,43.6863307],[7.2968597,43.6863545],[7.2969165,43.6864525],[7.2970018,43.6862959],[7.2971222,43.6863038],[7.2972111,43.6863985],[7.2972067,43.6864667],[7.2973391,43.6864602],[7.2975529,43.6866481],[7.2975773,43.6866282],[7.2975547,43.6864212],[7.29764,43.6862507],[7.2977575,43.6861322],[7.298006,43.6861338],[7.2982382,43.6862377],[7.2982574,43.6862946],[7.2983405,43.6862718],[7.2984303,43.6862865],[7.2985403,43.6862296],[7.2986527,43.6862839],[7.2987679,43.6862805],[7.2987495,43.6863289],[7.2988874,43.6862889],[7.298918,43.6862769],[7.2989251,43.6862894],[7.2989428,43.6862934],[7.2989726,43.6862795],[7.2989814,43.6862931],[7.2990027,43.6862979],[7.2990261,43.6862957],[7.2990413,43.6862852],[7.2990538,43.6862796],[7.299072,43.6862873],[7.2990792,43.686309],[7.299088,43.6863148],[7.2990998,43.6863125],[7.2991103,43.6862999],[7.2991412,43.6863019],[7.2992151,43.6862173],[7.2991089,43.6861689],[7.2991003,43.6861488],[7.299087,43.6860966],[7.2991357,43.6860815],[7.299238,43.6860789],[7.2993511,43.6861355],[7.2994878,43.6861343],[7.2995471,43.6861931],[7.2996235,43.6861845],[7.2996923,43.6861982],[7.2997994,43.6862172],[7.299855,43.6862748],[7.2999143,43.686285],[7.299981,43.6863351],[7.2999638,43.6863753],[7.3000004,43.6864415],[7.3000381,43.6864368],[7.3000432,43.6864093],[7.3000941,43.6863943],[7.3001253,43.6864119],[7.3001437,43.6863714],[7.3001717,43.6863543],[7.3001673,43.6863208],[7.3001372,43.6862655],[7.3001523,43.6862328],[7.3001868,43.6861983],[7.3006219,43.6860922],[7.3009105,43.6862205],[7.3009814,43.6860803],[7.3011635,43.6860546],[7.3013109,43.6859336],[7.3015206,43.6859917],[7.3015993,43.6860595],[7.3018667,43.6860466],[7.3019805,43.686002],[7.3019189,43.685834],[7.301923,43.685784],[7.302009,43.6857791],[7.3021048,43.6858047],[7.3021207,43.6859166],[7.3021654,43.685954],[7.3023105,43.6860088],[7.3023727,43.6859857],[7.3025115,43.6859848],[7.3027581,43.6858066],[7.3028941,43.6858508],[7.3030331,43.6859163],[7.3034653,43.6858281],[7.3039892,43.6855757],[7.3040198,43.6853919],[7.304005,43.6852614],[7.3040776,43.6850806],[7.3042501,43.6850262]]},"properties":{"natural":"coastline","source":"Bing"}},
{"type":"Feature","geometry":{"type":"LineString","coordinates":[[7.2948855,43.6885774],[7.2948592,43.6885855],[7.2948321,43.6885866],[7.294813,43.6885803],[7.2948042,43.6885699],[7.2948011,43.688559],[7.2947987,43.6885475],[7.2948003,43.6885359],[7.294805,43.6885262],[7.2948122,43.6885169],[7.2948226,43.6885083],[7.2948353,43.6885014],[7.2948592,43.6884945],[7.2948767,43.6884945],[7.2948926,43.6885037],[7.2949054,43.6885221],[7.2949117,43.6885359],[7.2949125,43.6885486],[7.2949086,43.6885613],[7.294899,43.6885705],[7.2948855,43.6885774]]},"properties":{"leisure":"swimming_pool"}},
{"type":"Feature","geometry":{"type":"LineString","coordinates":[[7.2956316,43.6869689],[7.2956377,43.6869508],[7.2956434,43.6869363],[7.2956508,43.6869252],[7.2956688,43.6869173],[7.2956893,43.6869195],[7.2957064,43.6869249],[7.295716,43.6869344],[7.2957222,43.6869467],[7.2957235,43.6869546],[7.2957178,43.6869616],[7.2956937,43.6869588],[7.2956701,43.6869591],[7.29565,43.6869644],[7.2956408,43.6869695],[7.2956316,43.6869689]]},"properties":{"leisure":"swimming_pool"}},
{"type":"Feature","geometry":{"type":"LineString","coordinates":[[7.2964739,43.6871098],[7.296448,43.6870988],[7.2964251,43.6870922],[7.2963967,43.6870929],[7.2963855,43.6870977],[7.2963814,43.6871069],[7.2963845,43.687115],[7.296446,43.6871297],[7.2964627,43.6871315],[7.2964749,43.6871264],[7.2964775,43.6871179],[7.2964739,43.6871098]]},"properties":{"leisure":"swimming_pool"}},
{"type":"Feature","geometry":{"type":"LineString","coordinates":[[7.2989935,43.6869126],[7.2989767,43.6868691],[7.2991413,43.6868352],[7.2991604,43.6868757],[7.2989935,43.6869126]]},"properties":{"access":"private","leisure":"swimming_pool"}},
{"type":"Feature","geometry":{"type":"LineString","coordinates":[[7.3005319,43.6872582],[7.3005272,43.6872536],[7.3005115,43.6872532],[7.3005009,43.6872308],[7.3005074,43.6872266],[7.3005039,43.6872207],[7.3005908,43.687197],[7.3005955,43.6872051],[7.3006031,43.6872072],[7.3006183,43.6872076],[7.3006265,43.6872359],[7.3005319,43.6872582]]},"properties":{"access":"private","leisure":"swimming_pool"}},
{"type":"Feature","geometry":{"type":"LineString","coordinates":[[7.3001787,43.6875111],[7.3001681,43.6874845],[7.3000854,43.6875024],[7.3000872,43.6875066],[7.3000779,43.6875127],[7.3000752,43.6875197],[7.3000783,43.6875239],[7.3000911,43.6875261],[7.3000925,43.6875303],[7.3001787,43.6875111]]},"properties":{"access":"private","leisure":"swimming_pool"}},
{"type":"Feature","geometry":{"type":"LineString","coordinates":[[7.2940913,43.6874906],[7.29414,43.6874958],[7.2941616,43.6872599],[7.2941003,43.6872573],[7.2940913,43.6874906]]},"properties":{"leisure":"swimming_pool"}},
{"type":"Feature","geometry":{"type":"LineString","coordinates":[[7.2987251,43.6869706],[7.2987654,43.6869651],[7.2987923,43.6870673],[7.298752,43.6870736],[7.2987251,43.6869706]]},"properties":{"access":"private","leisure":"swimming_pool"}},
{"type":"Feature","geometry":{"type":"LineString","coordinates":[[7.2957002,43.6866314],[7.2956846,43.6865875],[7.2957222,43.6865783],[7.2957376,43.6866242],[7.2957002,43.6866314]]},"properties":{"leisure":"swimming_pool","survey:date":"2022-09-13"}},
{"type":"Feature","geometry":{"type":"LineString","coordinates":[[7.2924592,43.6912469],[7.2924637,43.6912831],[7.2925161,43.6913074],[7.2926272,43.6912612],[7.2926069,43.6912194],[7.2925901,43.6912003],[7.2924592,43.6912469]]},"properties":{"natural":"beach","supervised":"no","surface":"pebblestone"}},
{"type":"Feature","geometry":{"type":"LineString","coordinates":[[7.2921614,43.6914253],[7.292268,43.6913977],[7.2923012,43.6913541],[7.2923026,43.6913152],[7.2922742,43.691314],[7.292098,43.6913606],[7.2921052,43.6914104],[7.2921614,43.6914253]]},"properties":{"natural":"beach","supervised":"no","surface":"pebblestone"}},
{"type":"Feature","geometry":{"type":"MultiPolygon","coordinates":[[[[7.2450686,43.6912303],[7.245204,43.691034],[7.245459,43.691126],[7.2453259,43.6913237],[7.2450686,43.6912303]]]]},"properties":{"leisure":"park","name":"Jardin Général Ferrie"}},
{"type":"Feature","geometry":{"type":"MultiPolygon","coordinates":[[[[7.246778,43.691403],[7.246842,43.691308],[7.2468966,43.6913264],[7.24694,43.691341],[7.246877,43.691437],[7.246778,43.691403]]]]},"properties":{"building":"hotel","building:levels":"3","height":"11","internet_access":"wlan","internet_access:fee":"no","name":"Flots d'Azur","phone":"+33 4 93 86 51 25","rooms":"17","smoking":"no","source":"cadastre-dgi-fr source : Direction Générale des Impôts - Cadastre. Mise à jour : 2011","source:modif":"Apidae (2017-11-21), in Opendata PACA","stars":"3","tourism":"hotel","wikidata":"Q111876891"}},
{"type":"Feature","geometry":{"type":"MultiPolygon","coordinates":[[[[7.3000315,43.6899129],[7.3000556,43.6895076],[7.3001106,43.6894213],[7.3008031,43.6893046],[7.3009354,43.689237],[7.3009475,43.6891982],[7.3009595,43.6891769],[7.3010816,43.689143],[7.3011526,43.6891527],[7.3012237,43.6892312],[7.3012827,43.6894193],[7.3016059,43.6897975],[7.301264,43.6902039],[7.3012546,43.6902863],[7.3011674,43.6902882],[7.3011661,43.6902427],[7.3004901,43.6902427],[7.3003791,43.690227899999999],[7.3000717,43.6899905],[7.3000315,43.6899129]]]]},"properties":{"building":"yes","height":"3","historic":"ruins","name":"Fort du Mont Boron","ruins":"yes"}},
{"type":"Feature","geometry":{"type":"MultiPolygon","coordinates":[[[[7.2935872,43.6900831],[7.2935883,43.6900552],[7.293605,43.690034],[7.2936123,43.6900197],[7.2936217,43.6899978],[7.293629,43.6899797],[7.2936311,43.6899608],[7.2936415,43.6899532],[7.2936562,43.6899532],[7.2936645,43.689963],[7.2936875,43.6899827],[7.2937167,43.6899985],[7.2937627,43.6900174],[7.2937857,43.6900084],[7.2939131,43.6900544],[7.2938619,43.6901413],[7.2938201,43.6902176],[7.2936885,43.6901994],[7.2936697,43.6901919],[7.2936509,43.6901753],[7.2936489,43.6901458],[7.2936395,43.6901383],[7.2936227,43.6901473],[7.2935945,43.6901126],[7.2935872,43.6900831]]]]},"properties":{"leisure":"garden","name":"Jardin Félix Rainaux"}},
{"type":"Feature","geometry":{"type":"MultiPolygon","coordinates":[[[[7.2939308,43.6907721],[7.2939371,43.6906901],[7.2939559,43.6905796],[7.2939589,43.6904492],[7.293967,43.690327],[7.2939827,43.6902653],[7.294031,43.6902188],[7.2941248,43.6901606],[7.2942402,43.6900966],[7.294621,43.6898872],[7.2946429,43.6900264],[7.2946375,43.6901855],[7.2945768,43.6902972],[7.2944686,43.6904046],[7.294321,43.6905152],[7.2942433,43.6905811],[7.2941977,43.6906858],[7.2941034,43.6907735],[7.2940242,43.690815],[7.2939796,43.6908235],[7.2939486,43.690798],[7.2939308,43.6907721]]]]},"properties":{"leisure":"park","name":"Square Théodore de Banville"}},
{"type":"Feature","geometry":{"type":"MultiPolygon","coordinates":[[[[7.298859,43.688493],[7.298861,43.688491],[7.298866,43.688485],[7.2988695,43.6884815],[7.298877,43.688475],[7.298883,43.688471],[7.298893,43.688466],[7.298899,43.688463],[7.298907,43.68846],[7.298914,43.688458],[7.298921,43.688456],[7.29893,43.688455],[7.298941,43.688454],[7.298964,43.688479],[7.298881,43.688518],[7.298859,43.688493]]]]},"properties":{"access":"private","leisure":"swimming_pool","source":"cadastre-dgi-fr source : Direction Générale des Impôts - Cadastre. Mise à jour : 2013"}},
{"type":"Feature","geometry":{"type":"MultiPolygon","coordinates":[[[[7.296424,43.688755],[7.296428,43.6887465],[7.2964268,43.6887438],[7.2964263,43.6887402],[7.296426,43.688737],[7.2964271,43.6887344],[7.2964296,43.6887312],[7.2964328,43.6887295],[7.296437,43.6887278],[7.2964418,43.6887201],[7.296556,43.688752],[7.296537,43.688787],[7.296424,43.688755]]]]},"properties":{"access":"private","leisure":"swimming_pool","source":"cadastre-dgi-fr source : Direction Générale des Impôts - Cadastre. Mise à jour : 2013"}},
{"type":"Feature","geometry":{"type":"MultiPolygon","coordinates":[[[[7.297299,43.690504],[7.297306,43.690473],[7.2973865,43.6904843],[7.2973851,43.6904889],[7.2973906,43.6904922],[7.2973925,43.6904945],[7.297394,43.6904978],[7.2973941,43.6905008],[7.2973933,43.6905037],[7.2973909,43.6905064],[7.2973874,43.690508],[7.2973825,43.690509],[7.297379,43.690509],[7.297377,43.690514],[7.297299,43.690504]]]]},"properties":{"access":"private","leisure":"swimming_pool","source":"cadastre-dgi-fr source : Direction Générale des Impôts - Cadastre. Mise à jour : 2013"}},
{"type":"Feature","geometry":{"type":"MultiPolygon","coordinates":[[[[7.297485,43.688327],[7.297555,43.688311],[7.297569,43.68834],[7.2975545,43.6883443],[7.2975515,43.6883479],[7.2975488,43.6883505],[7.2975427,43.6883538],[7.2975364,43.6883553],[7.2975308,43.6883564],[7.2975247,43.6883568],[7.297519,43.688356],[7.2975155,43.688355],[7.2975125,43.688354],[7.297498,43.688357],[7.297485,43.688327]]]]},"properties":{"access":"private","leisure":"swimming_pool","source":"cadastre-dgi-fr source : Direction Générale des Impôts - Cadastre. Mise à jour : 2013"}},
{"type":"Feature","geometry":{"type":"MultiPolygon","coordinates":[[[[7.297307,43.688557],[7.297336,43.688555],[7.29734,43.688605],[7.297312,43.688606],[7.297307,43.688557]]]]},"properties":{"access":"private","leisure":"swimming_pool","source":"cadastre-dgi-fr source : Direction Générale des Impôts - Cadastre. Mise à jour : 2013"}},
{"type":"Feature","geometry":{"type":"MultiPolygon","coordinates":[[[[7.297119,43.689341],[7.297132,43.689308],[7.297236,43.68933],[7.297224,43.689362],[7.297119,43.689341]]]]},"properties":{"access":"private","leisure":"swimming_pool","source":"cadastre-dgi-fr source : Direction Générale des Impôts - Cadastre. Mise à jour : 2013"}},
{"type":"Feature","geometry":{"type":"MultiPolygon","coordinates":[[[[7.29672,43.689393],[7.296771,43.689296],[7.296824,43.689308],[7.296773,43.689408],[7.29672,43.689393]]]]},"properties":{"access":"private","leisure":"swimming_pool","source":"cadastre-dgi-fr source : Direction Générale des Impôts - Cadastre. Mise à jour : 2013"}},
{"type":"Feature","geometry":{"type":"MultiPolygon","coordinates":[[[[7.299677,43.687335],[7.29976,43.687316],[7.299779,43.687358],[7.299696,43.687378],[7.299677,43.687335]]]]},"properties":{"access":"private","leisure":"swimming_pool","source":"cadastre-dgi-fr source : Direction Générale des Impôts - Cadastre. Mise à jour : 2013"}},
{"type":"Feature","geometry":{"type":"MultiPolygon","coordinates":[[[[7.297618,43.689116],[7.29768,43.689058],[7.297718,43.689079],[7.297657,43.689138],[7.297618,43.689116]]]]},"properties":{"access":"private","leisure":"swimming_pool","source":"cadastre-dgi-fr source : Direction Générale des Impôts - Cadastre. Mise à jour : 2013"}},
{"type":"Feature","geometry":{"type":"MultiPolygon","coordinates":[[[[7.298048,43.687925],[7.298204,43.687872],[7.298233,43.687918],[7.298079,43.687972],[7.298048,43.687925]]]]},"properties":{"access":"private","leisure":"swimming_pool","source":"cadastre-dgi-fr source : Direction Générale des Impôts - Cadastre. Mise à jour : 2013"}},
{"type":"Feature","geometry":{"type":"MultiPolygon","coordinates":[[[[7.30051,43.68763],[7.300643,43.687602],[7.300658,43.687639],[7.300529,43.68767],[7.30051,43.68763]]]]},"properties":{"access":"private","leisure":"swimming_pool","source":"cadastre-dgi-fr source : Direction Générale des Impôts - Cadastre. Mise à jour : 2013"}},
{"type":"Feature","geometry":{"type":"MultiPolygon","coordinates":[[[[7.300193,43.68731],[7.300194,43.687306],[7.300195,43.687304],[7.300198,43.6873],[7.300196,43.687296],[7.300196,43.687293],[7.300195,43.68729],[7.300199,43.687283],[7.300204,43.687278],[7.300208,43.687277],[7.300216,43.687274],[7.300222,43.687275],[7.300227,43.687275],[7.300231,43.687277],[7.300235,43.687279],[7.300239,43.687281],[7.300242,43.687286],[7.300243,43.68729],[7.300243,43.687293],[7.300243,43.687297],[7.300243,43.687299],[7.300243,43.687301],[7.300243,43.687304],[7.300243,43.687307],[7.300244,43.687309],[7.300255,43.687319],[7.300257,43.687322],[7.300257,43.687325],[7.300257,43.687327],[7.300256,43.68733],[7.300255,43.687334],[7.300252,43.687337],[7.300249,43.687339],[7.300245,43.687341],[7.30024,43.687342],[7.300236,43.687343],[7.300232,43.687342],[7.300227,43.687341],[7.300221,43.687338],[7.300219,43.687336],[7.300216,43.687333],[7.300214,43.687328],[7.300213,43.687325],[7.30021,43.687322],[7.300205,43.6873175],[7.3002,43.687316],[7.300197,43.687315],[7.300195,43.687312],[7.300193,43.68731]]]]},"properties":{"access":"private","leisure":"swimming_pool","source":"cadastre-dgi-fr source : Direction Générale des Impôts - Cadastre. Mise à jour : 2013"}},
{"type":"Feature","geometry":{"type":"MultiPolygon","coordinates":[[[[7.2947507,43.6873121],[7.2947567,43.6872581],[7.2948817,43.6872711],[7.2948757,43.6873121],[7.2948087,43.6873161],[7.2947507,43.6873121]]]]},"properties":{"access":"private","leisure":"swimming_pool","source":"cadastre-dgi-fr source : Direction Générale des Impôts - Cadastre. Mise à jour : 2013"}},
{"type":"Feature","geometry":{"type":"MultiPolygon","coordinates":[[[[7.296406,43.686473],[7.296433,43.686435],[7.296428,43.6864],[7.296488,43.686391],[7.296495,43.686442],[7.296457,43.686492],[7.296406,43.686473]]]]},"properties":{"access":"private","leisure":"swimming_pool","source":"cadastre-dgi-fr source : Direction Générale des Impôts - Cadastre. Mise à jour : 2013"}},
{"type":"Feature","geometry":{"type":"MultiPolygon","coordinates":[[[[7.29626,43.690601],[7.296261,43.690597],[7.296262,43.690592],[7.296263,43.690588],[7.296263,43.690586],[7.296265,43.690583],[7.296267,43.690581],[7.296268,43.690577],[7.29627,43.690574],[7.296273,43.69057],[7.296276,43.6905685],[7.296279,43.690569],[7.296282,43.69057],[7.296285,43.69057],[7.296289,43.6905695],[7.296294,43.6905665],[7.296296,43.690564],[7.296298,43.690562],[7.296297,43.6905585],[7.296298,43.690554],[7.296331,43.690552],[7.296332,43.690555],[7.296334,43.690559],[7.296335,43.690562],[7.296336,43.690566],[7.296337,43.69057],[7.296337,43.690573],[7.296338,43.690578],[7.296337,43.690581],[7.296336,43.690584],[7.296336,43.69059],[7.296335,43.690593],[7.296333,43.690598],[7.296332,43.6906],[7.296331,43.690602],[7.296329,43.690606],[7.296328,43.690609],[7.296327,43.690612],[7.296325,43.690616],[7.296325,43.690618],[7.296325,43.690621],[7.296324,43.690626],[7.296324,43.690629],[7.296325,43.690634],[7.296326,43.690638],[7.296326,43.690641],[7.296327,43.690645],[7.296285,43.690651],[7.296283,43.690649],[7.296281,43.690647],[7.296278,43.690643],[7.296275,43.69064],[7.296272,43.690637],[7.296268,43.690634],[7.296267,43.69063],[7.296265,43.690627],[7.296263,43.690623],[7.296263,43.69062],[7.296262,43.690616],[7.29626,43.690611],[7.29626,43.690606],[7.29626,43.690601]]]]},"properties":{"access":"private","leisure":"swimming_pool","source":"cadastre-dgi-fr source : Direction Générale des Impôts - Cadastre. Mise à jour : 2013"}},
{"type":"Feature","geometry":{"type":"MultiPolygon","coordinates":[[[[7.2988173,43.6880361],[7.2988207,43.6880308],[7.298826,43.6880275],[7.2989115,43.688009],[7.2989156,43.6880089],[7.2989208,43.68801],[7.2989266,43.6880123],[7.2989307,43.6880158],[7.2989321,43.6880204],[7.298931,43.6880265],[7.2989279,43.6880297],[7.2989228,43.6880325],[7.2988392,43.6880511],[7.2988327,43.688051],[7.2988273,43.68805],[7.2988233,43.688048],[7.2988195,43.6880448],[7.2988173,43.6880409],[7.2988173,43.6880361]]]]},"properties":{"access":"private","leisure":"swimming_pool","source":"cadastre-dgi-fr source : Direction Générale des Impôts - Cadastre. Mise à jour : 2013"}},
{"type":"Feature","geometry":{"type":"MultiPolygon","coordinates":[[[[7.29576,43.687761],[7.29577,43.687745],[7.295829,43.687715],[7.29585,43.687715],[7.295863,43.687726],[7.295857,43.687743],[7.295791,43.687777],[7.295774,43.687774],[7.29576,43.687761]]]]},"properties":{"access":"private","leisure":"swimming_pool","source":"cadastre-dgi-fr source : Direction Générale des Impôts - Cadastre. Mise à jour : 2013"}},
{"type":"Feature","geometry":{"type":"MultiPolygon","coordinates":[[[[7.296979,43.687388],[7.296988,43.687371],[7.297018,43.687366],[7.297038,43.687376],[7.297061,43.687435],[7.297052,43.687451],[7.297022,43.687457],[7.297002,43.687447],[7.296979,43.687388]]]]},"properties":{"access":"private","leisure":"swimming_pool","source":"cadastre-dgi-fr source : Direction Générale des Impôts - Cadastre. Mise à jour : 2013"}},
{"type":"Feature","geometry":{"type":"MultiPolygon","coordinates":[[[[7.244138,43.6913847],[7.2441721,43.691332],[7.2442985,43.6913748],[7.2442644,43.6914275],[7.244138,43.6913847]]]]},"properties":{"access":"private","layer":"1","leisure":"swimming_pool","source":"cadastre-dgi-fr source : Direction Générale des Impôts - Cadastre. Mise à jour : 2013"}},
{"type":"Feature","geometry":{"type":"MultiPolygon","coordinates":[[[[7.2404354,43.687912],[7.2405928,43.6877549],[7.2407296,43.6878228],[7.240888,43.6878169],[7.2414619,43.6880965],[7.242568,43.6886416],[7.2424943,43.6887302],[7.2425349,43.6887764],[7.2427068,43.6888326],[7.2427833,43.6887771],[7.2430691,43.6889279],[7.2427729,43.6891783],[7.242352,43.688954],[7.2412622,43.6883583],[7.2412322,43.6883426],[7.2404354,43.687912]]]]},"properties":{"name":"Cocoon Beach","natural":"beach","surface":"pebblestone"}},
{"type":"Feature","geometry":{"type":"MultiPolygon","coordinates":[[[[7.2427729,43.6891783],[7.2430691,43.6889279],[7.2437851,43.6892848],[7.243718,43.6893807],[7.243827,43.689439],[7.2439167,43.689487],[7.2440079,43.6894105],[7.2441799,43.6895056],[7.244349,43.689572],[7.2448727,43.6897875],[7.2448736,43.6898602],[7.2448977,43.6899029],[7.2449916,43.6899281],[7.2451194,43.6899078],[7.2451832,43.689948],[7.2457943,43.6901676],[7.2455927,43.6904328],[7.245369,43.6903503],[7.2443113,43.6899407],[7.2438607,43.6897468],[7.2436297,43.6896447],[7.2433416,43.6894938],[7.2427729,43.6891783]]]]},"properties":{"name":"Bambou Plage","natural":"beach","surface":"pebblestone","wikidata":"Q107261115"}},
{"type":"Feature","geometry":{"type":"MultiPolygon","coordinates":[[[[7.2458067,43.6905043],[7.2461008,43.6902627],[7.2471146,43.6906912],[7.2486293,43.691188],[7.2488067,43.6912318],[7.2486481,43.6914833],[7.2486286,43.6914827],[7.246972,43.6909147],[7.2458067,43.6905043]]]]},"properties":{"name":"Li Rateta","natural":"beach","surface":"pebblestone"}},
{"type":"Feature","geometry":{"type":"MultiPolygon","coordinates":[[[[7.2486481,43.6914833],[7.2488067,43.6912318],[7.249995,43.6915251],[7.2500862,43.6916429],[7.2499411,43.6918778],[7.2488074,43.691483],[7.2486481,43.6914833]]]]},"properties":{"name":"Li Rateta","natural":"beach","surface":"pebblestone"}},
{"type":"Feature","geometry":{"type":"MultiPolygon","coordinates":[[[[7.245142,43.6912107],[7.2451857,43.691137],[7.2453232,43.6911796],[7.2452795,43.6912533],[7.245142,43.6912107]]]]},"properties":{"access":"yes","leisure":"playground"}},
{"type":"Feature","geometry":{"type":"MultiPolygon","coordinates":[[[[7.2954017,43.6904638],[7.2955136,43.690132],[7.295571,43.689716],[7.295715,43.689737],[7.295744,43.689742],[7.295829,43.689754],[7.2957533,43.690044],[7.2957249,43.6901765],[7.2957249,43.6903028],[7.2957438,43.6904586],[7.295745,43.69051],[7.2954017,43.6904638]]]]},"properties":{"garden:type":"public","leisure":"garden","name":"Montée Gurnée","operator":"Ville de Nice"}},
{"type":"Feature","geometry":{"type":"MultiPolygon","coordinates":[[[[7.2947747,43.689718],[7.2947777,43.6896859],[7.2948114,43.6896722],[7.2949965,43.6896594],[7.2950052,43.6896146],[7.2950759,43.689446],[7.2950771,43.6893608],[7.2951082,43.6892899],[7.295102,43.6891787],[7.2955125,43.6892424],[7.2954046,43.6900173],[7.2953639,43.6900032],[7.2952194,43.6898816],[7.2951709,43.6897981],[7.2951578,43.6897326],[7.2950365,43.6896988],[7.2947747,43.689718]]]]},"properties":{"leisure":"garden","name":"Jardin Nelson Mandela","old_name":"Jardin de la Paix","operator":"Ville de Nice"}},
{"type":"Feature","geometry":{"type":"MultiPolygon","coordinates":[[[[7.242352,43.688954],[7.2424685,43.6888657],[7.2425349,43.6887764],[7.2427068,43.6888326],[7.2427833,43.6887771],[7.2430691,43.6889279],[7.2437851,43.6892848],[7.243718,43.6893807],[7.243827,43.689439],[7.2437401,43.6895305],[7.2436297,43.6896447],[7.2433416,43.6894938],[7.2427729,43.6891783],[7.242352,43.688954]]]]},"properties":{"dog":"yes","name":"Plage des chiens","natural":"beach"}},
{"type":"Feature","geometry":{"type":"MultiPolygon","coordinates":[[[[7.245347,43.690848],[7.2453861,43.6907952],[7.245414,43.6907925],[7.2456017,43.6908591],[7.2456138,43.6908757],[7.245574,43.690931],[7.2454711,43.6908936],[7.245347,43.690848]]]]},"properties":{"leisure":"garden"}},
{"type":"Feature","geometry":{"type":"MultiPolygon","coordinates":[[[[7.2988874,43.6862889],[7.298918,43.6862769],[7.2989251,43.6862894],[7.2989428,43.6862934],[7.2989726,43.6862795],[7.2989814,43.6862931],[7.2990027,43.6862979],[7.2990261,43.6862957],[7.2990413,43.6862852],[7.2990538,43.6862796],[7.299072,43.6862873],[7.2990792,43.686309],[7.299088,43.6863148],[7.2990998,43.6863125],[7.2991103,43.6862999],[7.2991412,43.6863019],[7.2992151,43.6862173],[7.2991089,43.6861689],[7.2991329,43.6861451],[7.2992463,43.6861993],[7.2994372,43.6861781],[7.2994592,43.6861814],[7.2994725,43.6861903],[7.2994736,43.6862027],[7.2994645,43.6862139],[7.2993334,43.6862524],[7.2992927,43.686297],[7.2992384,43.6863323],[7.2991963,43.6863507],[7.2991289,43.6863733],[7.2988874,43.6862889]]]]},"properties":{"natural":"beach"}},
{"type":"Feature","geometry":{"type":"MultiPolygon","coordinates":[[[[7.2975547,43.6864212],[7.29764,43.6862507],[7.2977575,43.6861322],[7.298006,43.6861338],[7.2982382,43.6862377],[7.2982574,43.6862946],[7.2983405,43.6862718],[7.2984303,43.6862865],[7.2985403,43.6862296],[7.2986527,43.6862839],[7.2987679,43.6862805],[7.2987495,43.6863289],[7.2988874,43.6862889],[7.2991289,43.6863733],[7.2989747,43.6864266],[7.2987373,43.6864625],[7.2985764,43.6864654],[7.2983712,43.686478],[7.298217,43.6864897],[7.2981258,43.6864247],[7.2980603,43.6863283],[7.2979662,43.6863471],[7.2977985,43.6863452],[7.2976242,43.6864257],[7.2975547,43.6864212]]]]},"properties":{"natural":"bare_rock"}},
{"type":"Feature","geometry":{"type":"MultiPolygon","coordinates":[[[[7.295695,43.688903],[7.2956967,43.6888868],[7.2957009,43.6888698],[7.2957069,43.6888575],[7.2957132,43.6888475],[7.2957172,43.6888435],[7.2957225,43.6888398],[7.2957291,43.6888398],[7.2957356,43.6888434],[7.295743,43.6888477],[7.2957595,43.688858],[7.2957691,43.6888616],[7.2958118,43.6888694],[7.2958,43.6889056],[7.2957705,43.6889059],[7.2957496,43.6889063],[7.2957287,43.6889104],[7.2957162,43.6889149],[7.2957088,43.6889166],[7.2957034,43.6889149],[7.295699,43.6889119],[7.295695,43.688903]]]]},"properties":{"access":"private","leisure":"swimming_pool","source":"cadastre-dgi-fr source : Direction Générale des Impôts - Cadastre. Mise à jour : 2013"}},
{"type":"Feature","geometry":{"type":"MultiPolygon","coordinates":[[[[7.2956784,43.6891002],[7.295683,43.6890459],[7.2956871,43.689039],[7.2956948,43.689032],[7.295703,43.6890257],[7.2957148,43.6890213],[7.2957251,43.6890206],[7.2957329,43.6890217],[7.2957386,43.6890258],[7.2957443,43.6890306],[7.2957468,43.6890408],[7.2957467,43.6890476],[7.2957404,43.6890546],[7.2957153,43.6890467],[7.2956912,43.6890851],[7.2957303,43.6890977],[7.2957322,43.6891187],[7.2957262,43.6891247],[7.2957173,43.6891271],[7.2957066,43.6891267],[7.2956968,43.6891241],[7.2956877,43.6891192],[7.2956804,43.6891106],[7.2956784,43.6891002]]]]},"properties":{"access":"private","leisure":"swimming_pool","source":"cadastre-dgi-fr source : Direction Générale des Impôts - Cadastre. Mise à jour : 2013"}},
{"type":"Feature","geometry":{"type":"MultiPolygon","coordinates":[[[[7.2968826,43.6871072],[7.2968937,43.6871043],[7.2969067,43.6871011],[7.2969244,43.6870999],[7.2969383,43.6871018],[7.2969523,43.6871049],[7.2969527,43.6871173],[7.2969636,43.6871172],[7.2969634,43.6871388],[7.296885,43.6871396],[7.2968826,43.6871072]]]]},"properties":{"access":"private","leisure":"swimming_pool","source":"cadastre-dgi-fr source : Direction Générale des Impôts - Cadastre. Mise à jour : 2013"}},
{"type":"Feature","geometry":{"type":"MultiPolygon","coordinates":[[[[7.2974592,43.687173],[7.2975441,43.6871567],[7.297551,43.6871566],[7.2975572,43.6871586],[7.2975599,43.6871627],[7.2975718,43.6871895],[7.2974592,43.6871843],[7.2974592,43.687173]]]]},"properties":{"access":"private","leisure":"swimming_pool","source":"cadastre-dgi-fr source : Direction Générale des Impôts - Cadastre. Mise à jour : 2013"}},
{"type":"Feature","geometry":{"type":"MultiPolygon","coordinates":[[[[7.3003279,43.6876778],[7.3003336,43.687673],[7.3003394,43.68767],[7.3003601,43.6876634],[7.3003884,43.6876578],[7.3003954,43.6876574],[7.3004015,43.6876581],[7.3004111,43.6876765],[7.3004077,43.6876811],[7.3004013,43.6876847],[7.3003772,43.6876924],[7.3003535,43.6876976],[7.3003446,43.6876976],[7.3003364,43.6876969],[7.3003279,43.6876778]]]]},"properties":{"access":"private","leisure":"swimming_pool","source":"cadastre-dgi-fr source : Direction Générale des Impôts - Cadastre. Mise à jour : 2013"}},
{"type":"Feature","geometry":{"type":"MultiPolygon","coordinates":[[[[7.2947987,43.6885475],[7.2948003,43.6885359],[7.294805,43.6885262],[7.2948122,43.6885169],[7.2948226,43.6885083],[7.2948353,43.6885014],[7.2948592,43.6884945],[7.2948767,43.6884945],[7.2948926,43.6885037],[7.2949054,43.6885221],[7.2949117,43.6885359],[7.2949125,43.6885486],[7.2949086,43.6885613],[7.294899,43.6885705],[7.2948855,43.6885774],[7.2948592,43.6885855],[7.2948321,43.6885866],[7.294813,43.6885803],[7.2948042,43.6885699],[7.2948011,43.688559],[7.2947987,43.6885475]]]]},"properties":{"leisure":"swimming_pool"}},
{"type":"Feature","geometry":{"type":"MultiPolygon","coordinates":[[[[7.2956316,43.6869689],[7.2956377,43.6869508],[7.2956434,43.6869363],[7.2956508,43.6869252],[7.2956688,43.6869173],[7.2956893,43.6869195],[7.2957064,43.6869249],[7.295716,43.6869344],[7.2957222,43.6869467],[7.2957235,43.6869546],[7.2957178,43.6869616],[7.2956937,43.6869588],[7.2956701,43.6869591],[7.29565,43.6869644],[7.2956408,43.6869695],[7.2956316,43.6869689]]]]},"properties":{"leisure":"swimming_pool"}},
{"type":"Feature","geometry":{"type":"MultiPolygon","coordinates":[[[[7.2963814,43.6871069],[7.2963855,43.6870977],[7.2963967,43.6870929],[7.2964251,43.6870922],[7.296448,43.6870988],[7.2964739,43.6871098],[7.2964775,43.6871179],[7.2964749,43.6871264],[7.2964627,43.6871315],[7.296446,43.6871297],[7.2963845,43.687115],[7.2963814,43.6871069]]]]},"properties":{"leisure":"swimming_pool"}},
{"type":"Feature","geometry":{"type":"MultiPolygon","coordinates":[[[[7.2989767,43.6868691],[7.2991413,43.6868352],[7.2991604,43.6868757],[7.2989935,43.6869126],[7.2989767,43.6868691]]]]},"properties":{"access":"private","leisure":"swimming_pool"}},
{"type":"Feature","geometry":{"type":"MultiPolygon","coordinates":[[[[7.3005009,43.6872308],[7.3005074,43.6872266],[7.3005039,43.6872207],[7.3005908,43.687197],[7.3005955,43.6872051],[7.3006031,43.6872072],[7.3006183,43.6872076],[7.3006265,43.6872359],[7.3005319,43.6872582],[7.3005272,43.6872536],[7.3005115,43.6872532],[7.3005009,43.6872308]]]]},"properties":{"access":"private","leisure":"swimming_pool"}},
{"type":"Feature","geometry":{"type":"MultiPolygon","coordinates":[[[[7.3000752,43.6875197],[7.3000779,43.6875127],[7.3000872,43.6875066],[7.3000854,43.6875024],[7.3001681,43.6874845],[7.3001787,43.6875111],[7.3000925,43.6875303],[7.3000911,43.6875261],[7.3000783,43.6875239],[7.3000752,43.6875197]]]]},"properties":{"access":"private","leisure":"swimming_pool"}},
{"type":"Feature","geometry":{"type":"MultiPolygon","coordinates":[[[[7.2940913,43.6874906],[7.2941003,43.6872573],[7.2941616,43.6872599],[7.29414,43.6874958],[7.2940913,43.6874906]]]]},"properties":{"leisure":"swimming_pool"}},
{"type":"Feature","geometry":{"type":"MultiPolygon","coordinates":[[[[7.2987251,43.6869706],[7.2987654,43.6869651],[7.2987923,43.6870673],[7.298752,43.6870736],[7.2987251,43.6869706]]]]},"properties":{"access":"private","leisure":"swimming_pool"}},
{"type":"Feature","geometry":{"type":"MultiPolygon","coordinates":[[[[7.2956846,43.6865875],[7.2957222,43.6865783],[7.2957376,43.6866242],[7.2957002,43.6866314],[7.2956846,43.6865875]]]]},"properties":{"leisure":"swimming_pool","survey:date":"2022-09-13"}},
{"type":"Feature","geometry":{"type":"MultiPolygon","coordinates":[[[[7.2924592,43.6912469],[7.2925901,43.6912003],[7.2926069,43.6912194],[7.2926272,43.6912612],[7.2925161,43.6913074],[7.2924637,43.6912831],[7.2924592,43.6912469]]]]},"properties":{"natural":"beach","supervised":"no","surface":"pebblestone"}},
{"type":"Feature","geometry":{"type":"MultiPolygon","coordinates":[[[[7.292098,43.6913606],[7.2922742,43.691314],[7.2923026,43.6913152],[7.2923012,43.6913541],[7.292268,43.6913977],[7.2921614,43.6914253],[7.2921052,43.6914104],[7.292098,43.6913606]]]]},"properties":{"natural":"beach","supervised":"no","surface":"pebblestone"}}
]}
